{"type":"FeatureCollection","features":[{"type":"Feature","properties":{"name":"Bagerhat Sadar","district_id":"bagerhat","pcode":"400108","sql_upazila_id":"bagerhat-bagerhat-sadar","sql_name_bn":"বাগেরহাট সদর"},"geometry":{"type":"Polygon","coordinates":[[[89.84528,22.74504],[89.8455,22.73503],[89.84854,22.72478],[89.84892,22.71948],[89.84791,22.71497],[89.85099,22.71264],[89.84867,22.70075],[89.84944,22.69803],[89.85426,22.6987],[89.85566,22.69809],[89.85503,22.69213],[89.85648,22.68962],[89.86134,22.6854],[89.86536,22.68409],[89.86466,22.67618],[89.86546,22.6742],[89.86449,22.67095],[89.86038,22.66618],[89.85808,22.66545],[89.85641,22.66312],[89.85757,22.66108],[89.85782,22.6559],[89.85881,22.65421],[89.85787,22.65188],[89.85172,22.6498],[89.84722,22.64998],[89.8453,22.65124],[89.84182,22.65019],[89.83819,22.63557],[89.83404,22.62918],[89.82851,22.61072],[89.83079,22.60537],[89.83246,22.60389],[89.83372,22.60122],[89.82933,22.59478],[89.82534,22.59518],[89.82146,22.59292],[89.81976,22.58648],[89.81617,22.58375],[89.81417,22.581],[89.81042,22.58098],[89.80551,22.57957],[89.79938,22.58013],[89.79178,22.58619],[89.79139,22.58495],[89.7911,22.58694],[89.79111,22.58974],[89.7925,22.59444],[89.7925,22.59972],[89.79056,22.605],[89.79056,22.60944],[89.7925,22.61111],[89.79778,22.61333],[89.8025,22.6175],[89.80556,22.62166],[89.80441,22.62456],[89.79972,22.62972],[89.79889,22.63167],[89.80099,22.63694],[89.80167,22.64278],[89.80639,22.65],[89.80611,22.6525],[89.80527,22.65417],[89.80045,22.65817],[89.79333,22.66639],[89.78457,22.68047],[89.78028,22.68278],[89.77538,22.68399],[89.77556,22.68556],[89.77944,22.69056],[89.77885,22.69338],[89.77069,22.69743],[89.76806,22.69695],[89.76389,22.69203],[89.76167,22.69389],[89.76361,22.69639],[89.7711,22.70265],[89.77722,22.70611],[89.77889,22.70944],[89.77722,22.71139],[89.76533,22.71154],[89.76298,22.71202],[89.76255,22.71316],[89.77084,22.71445],[89.77722,22.71667],[89.77917,22.71778],[89.77917,22.71917],[89.77604,22.71731],[89.76667,22.715],[89.76361,22.715],[89.76195,22.71361],[89.76196,22.71187],[89.76389,22.71056],[89.77417,22.71081],[89.77695,22.71028],[89.77778,22.70889],[89.77444,22.70555],[89.77084,22.70397],[89.76305,22.69778],[89.76083,22.69555],[89.76028,22.69361],[89.76417,22.69083],[89.76945,22.69639],[89.77028,22.69639],[89.7776,22.69227],[89.77805,22.69111],[89.77389,22.68528],[89.77417,22.68361],[89.77556,22.68222],[89.78369,22.68013],[89.78833,22.67111],[89.79166,22.66639],[89.805,22.65139],[89.80473,22.64944],[89.80014,22.6425],[89.79916,22.63583],[89.79723,22.63167],[89.79806,22.62722],[89.80139,22.62417],[89.79366,22.62339],[89.79031,22.62434],[89.78867,22.62111],[89.78564,22.62113],[89.78429,22.62312],[89.78206,22.62439],[89.7779,22.62151],[89.77455,22.62034],[89.77191,22.62288],[89.76756,22.62324],[89.76305,22.62473],[89.76115,22.62684],[89.76052,22.63063],[89.75778,22.63291],[89.74442,22.6347],[89.71776,22.6419],[89.71343,22.6415],[89.71005,22.63969],[89.69965,22.6437],[89.69171,22.64925],[89.68686,22.65547],[89.67814,22.65461],[89.67051,22.65239],[89.6684,22.6498],[89.66595,22.65045],[89.66535,22.6527],[89.66682,22.65835],[89.66691,22.66294],[89.66305,22.66747],[89.66225,22.6714],[89.66357,22.68182],[89.65746,22.68124],[89.64826,22.67871],[89.6463,22.67911],[89.649,22.68657],[89.64876,22.69244],[89.64722,22.69828],[89.64692,22.70651],[89.65151,22.71535],[89.65739,22.71802],[89.6606,22.71822],[89.66757,22.72057],[89.67522,22.72083],[89.68022,22.71955],[89.68251,22.71978],[89.68301,22.72178],[89.68579,22.72228],[89.69091,22.72065],[89.69758,22.71726],[89.70279,22.71638],[89.70514,22.71861],[89.71162,22.7189],[89.71281,22.7218],[89.71653,22.72613],[89.72956,22.72728],[89.73114,22.72839],[89.73784,22.73005],[89.73992,22.73161],[89.74106,22.73617],[89.74033,22.73838],[89.74094,22.74187],[89.7463,22.74943],[89.74472,22.75401],[89.74204,22.75695],[89.74474,22.76401],[89.7472,22.77745],[89.75216,22.78577],[89.7589,22.79203],[89.762,22.79654],[89.76593,22.79437],[89.77123,22.78876],[89.77246,22.78672],[89.77223,22.78339],[89.77306,22.78263],[89.77198,22.78133],[89.77292,22.78003],[89.77466,22.78045],[89.78081,22.77966],[89.7831,22.78046],[89.78494,22.78587],[89.79406,22.78356],[89.79518,22.7787],[89.79979,22.7726],[89.81845,22.761],[89.8231,22.75644],[89.82474,22.7537],[89.82874,22.75181],[89.83078,22.75187],[89.83566,22.75599],[89.83802,22.75489],[89.84095,22.75027],[89.84128,22.74699],[89.84528,22.74504]]]}},{"type":"Feature","properties":{"name":"Chitalmari","district_id":"bagerhat","pcode":"400114","sql_upazila_id":"bagerhat-chitalmari","sql_name_bn":"চিতলমারী"},"geometry":{"type":"Polygon","coordinates":[[[89.76965,22.81922],[89.77049,22.82269],[89.77846,22.82306],[89.78429,22.82624],[89.79137,22.82381],[89.79562,22.82546],[89.79796,22.82553],[89.82142,22.82156],[89.82642,22.82326],[89.82896,22.82531],[89.83143,22.82916],[89.8392,22.8328],[89.84289,22.83633],[89.84447,22.83921],[89.85052,22.83985],[89.85503,22.84387],[89.86614,22.8477],[89.87318,22.84786],[89.88112,22.84385],[89.89016,22.83756],[89.89857,22.8367],[89.91299,22.83641],[89.91872,22.83838],[89.92598,22.84491],[89.93281,22.82994],[89.93349,22.82653],[89.93729,22.82023],[89.93735,22.81794],[89.93248,22.81135],[89.93135,22.8115],[89.92467,22.80368],[89.92026,22.80029],[89.9206,22.7996],[89.91697,22.79595],[89.9208,22.79505],[89.93418,22.79514],[89.9365,22.79378],[89.93781,22.79147],[89.93808,22.78735],[89.93943,22.78721],[89.94168,22.78059],[89.94163,22.77825],[89.9402,22.77818],[89.94028,22.77634],[89.938,22.77462],[89.93457,22.77349],[89.9228,22.77272],[89.92245,22.77175],[89.91427,22.77129],[89.91069,22.77171],[89.90982,22.77308],[89.90545,22.77234],[89.90618,22.77018],[89.91223,22.76642],[89.91494,22.76345],[89.91354,22.76232],[89.91421,22.76124],[89.91384,22.75657],[89.91245,22.75283],[89.9137,22.74957],[89.9188,22.74932],[89.92664,22.75064],[89.92751,22.74925],[89.93208,22.75104],[89.93382,22.75089],[89.93381,22.73984],[89.93484,22.73928],[89.93391,22.7345],[89.93417,22.72993],[89.93236,22.72954],[89.93086,22.72143],[89.92608,22.72067],[89.92121,22.72216],[89.91972,22.72098],[89.91727,22.72157],[89.91477,22.72668],[89.9164,22.73349],[89.91174,22.73574],[89.90197,22.7382],[89.90087,22.74125],[89.90247,22.74773],[89.9021,22.7494],[89.8993,22.75034],[89.89016,22.75146],[89.8807,22.75057],[89.87308,22.74744],[89.86868,22.74308],[89.86583,22.74281],[89.85299,22.74368],[89.84528,22.74504],[89.84128,22.74699],[89.84095,22.75027],[89.83802,22.75489],[89.83566,22.75599],[89.83078,22.75187],[89.82874,22.75181],[89.82474,22.7537],[89.8231,22.75644],[89.81845,22.761],[89.79979,22.7726],[89.79518,22.7787],[89.79406,22.78356],[89.78494,22.78587],[89.78304,22.78971],[89.78249,22.79347],[89.78048,22.79635],[89.78081,22.80041],[89.78235,22.80249],[89.78273,22.80478],[89.78214,22.81129],[89.78029,22.81301],[89.77486,22.81097],[89.77222,22.81133],[89.77115,22.8163],[89.76965,22.81922]]]}},{"type":"Feature","properties":{"name":"Fakirhat","district_id":"bagerhat","pcode":"400134","sql_upazila_id":"bagerhat-fakirhat","sql_name_bn":"ফকিরহাট"},"geometry":{"type":"Polygon","coordinates":[[[89.68191,22.81871],[89.68717,22.81742],[89.70021,22.82042],[89.70177,22.82101],[89.70425,22.82364],[89.7086,22.82473],[89.71148,22.82392],[89.71515,22.82117],[89.71452,22.81504],[89.71569,22.81306],[89.72082,22.81143],[89.72798,22.80618],[89.73272,22.80404],[89.74166,22.80237],[89.74538,22.80101],[89.75256,22.7961],[89.7563,22.79577],[89.75772,22.79964],[89.75768,22.80229],[89.75661,22.80347],[89.75582,22.80757],[89.75613,22.80923],[89.76175,22.80965],[89.76263,22.81394],[89.76411,22.81597],[89.76965,22.81922],[89.77115,22.8163],[89.77222,22.81133],[89.77486,22.81097],[89.78029,22.81301],[89.78214,22.81129],[89.78273,22.80478],[89.7803,22.79835],[89.78048,22.79635],[89.78249,22.79347],[89.78304,22.78971],[89.78494,22.78587],[89.78461,22.78341],[89.7831,22.78046],[89.78081,22.77966],[89.77466,22.78045],[89.77292,22.78003],[89.77198,22.78133],[89.77306,22.78263],[89.77223,22.78339],[89.77246,22.78672],[89.77123,22.78876],[89.76593,22.79437],[89.762,22.79654],[89.7589,22.79203],[89.75216,22.78577],[89.7472,22.77745],[89.74474,22.76401],[89.74204,22.75695],[89.74472,22.75401],[89.7463,22.74943],[89.74094,22.74187],[89.74033,22.73838],[89.74106,22.73617],[89.73992,22.73161],[89.73784,22.73005],[89.73114,22.72839],[89.72956,22.72728],[89.71653,22.72613],[89.71281,22.7218],[89.71162,22.7189],[89.70514,22.71861],[89.70279,22.71638],[89.69758,22.71726],[89.69091,22.72065],[89.68579,22.72228],[89.68301,22.72178],[89.68251,22.71978],[89.68022,22.71955],[89.67522,22.72083],[89.66757,22.72057],[89.6606,22.71822],[89.65739,22.71802],[89.65151,22.71535],[89.64692,22.70651],[89.64722,22.69828],[89.64876,22.69244],[89.649,22.68657],[89.6463,22.67911],[89.64341,22.67712],[89.63821,22.67621],[89.63402,22.67621],[89.62952,22.67805],[89.62672,22.67513],[89.62531,22.66942],[89.62557,22.66414],[89.62493,22.66133],[89.62051,22.6538],[89.60197,22.64749],[89.59624,22.64752],[89.59296,22.64669],[89.58565,22.64911],[89.5827,22.65351],[89.57996,22.66018],[89.57991,22.66455],[89.58231,22.66839],[89.57893,22.67854],[89.58258,22.68316],[89.57615,22.69021],[89.57455,22.69439],[89.58486,22.69511],[89.58886,22.69288],[89.5972,22.69767],[89.60309,22.70292],[89.60278,22.70672],[89.59813,22.70983],[89.59593,22.7104],[89.59301,22.71363],[89.59274,22.71847],[89.58826,22.72117],[89.58944,22.7235],[89.59359,22.72408],[89.59718,22.72266],[89.59867,22.7174],[89.60038,22.71673],[89.60381,22.71836],[89.60576,22.72142],[89.60113,22.72291],[89.60103,22.7278],[89.59944,22.73405],[89.60662,22.7391],[89.61532,22.76899],[89.61594,22.77507],[89.62093,22.77514],[89.63571,22.76697],[89.63929,22.76723],[89.64445,22.7748],[89.64732,22.77575],[89.64868,22.77181],[89.64899,22.76031],[89.64824,22.75791],[89.65253,22.75487],[89.66054,22.75719],[89.65892,22.76068],[89.65858,22.76747],[89.65683,22.7743],[89.66605,22.78716],[89.66852,22.79492],[89.67107,22.7975],[89.67861,22.79638],[89.68,22.79951],[89.68032,22.81488],[89.68191,22.81871]]]}},{"type":"Feature","properties":{"name":"Kachua","district_id":"bagerhat","pcode":"400138","sql_upazila_id":"bagerhat-kachua","sql_name_bn":"কচুয়া"},"geometry":{"type":"Polygon","coordinates":[[[89.91477,22.72668],[89.90841,22.72653],[89.90635,22.72578],[89.89817,22.7206],[89.8765,22.70982],[89.86767,22.70357],[89.86407,22.69723],[89.8656,22.69401],[89.86499,22.69341],[89.87376,22.68873],[89.87602,22.69084],[89.88976,22.69275],[89.89126,22.6909],[89.90214,22.69204],[89.90348,22.69405],[89.91105,22.69329],[89.92915,22.68618],[89.93742,22.67729],[89.9301,22.6723],[89.92366,22.66581],[89.91423,22.66178],[89.91341,22.66472],[89.9087,22.67307],[89.90546,22.67241],[89.9036,22.67522],[89.89971,22.67682],[89.89593,22.67583],[89.89335,22.67102],[89.89287,22.66065],[89.89082,22.65977],[89.89558,22.65482],[89.90198,22.65072],[89.92529,22.64236],[89.92309,22.63555],[89.92268,22.62482],[89.92133,22.61728],[89.91924,22.61345],[89.91569,22.61563],[89.91146,22.61638],[89.90759,22.61654],[89.90017,22.61537],[89.89414,22.60818],[89.89014,22.59341],[89.89056,22.58949],[89.89341,22.58636],[89.89581,22.57917],[89.88815,22.57266],[89.88115,22.57319],[89.87707,22.57233],[89.87135,22.56697],[89.86206,22.56332],[89.85641,22.56347],[89.8482,22.56634],[89.84469,22.57178],[89.83843,22.57425],[89.83562,22.57657],[89.83742,22.58629],[89.83932,22.58819],[89.8391,22.59233],[89.83795,22.59489],[89.83662,22.59585],[89.82933,22.59478],[89.83372,22.60122],[89.83246,22.60389],[89.83079,22.60537],[89.82851,22.61072],[89.83404,22.62918],[89.83819,22.63557],[89.84182,22.65019],[89.8453,22.65124],[89.84722,22.64998],[89.85172,22.6498],[89.85787,22.65188],[89.85881,22.65421],[89.85782,22.6559],[89.85757,22.66108],[89.85641,22.66312],[89.85808,22.66545],[89.86038,22.66618],[89.86449,22.67095],[89.86546,22.6742],[89.86466,22.67618],[89.86536,22.68409],[89.86134,22.6854],[89.85648,22.68962],[89.85503,22.69213],[89.85566,22.69809],[89.85426,22.6987],[89.84944,22.69803],[89.84867,22.70075],[89.85099,22.71264],[89.84791,22.71497],[89.84892,22.71948],[89.84854,22.72478],[89.8455,22.73503],[89.84528,22.74504],[89.85299,22.74368],[89.86868,22.74308],[89.87308,22.74744],[89.8807,22.75057],[89.89016,22.75146],[89.8993,22.75034],[89.9021,22.7494],[89.90247,22.74773],[89.90087,22.74125],[89.90197,22.7382],[89.91174,22.73574],[89.9164,22.73349],[89.91579,22.73172],[89.91477,22.72668]]]}},{"type":"Feature","properties":{"name":"Mollahat","district_id":"bagerhat","pcode":"400156","sql_upazila_id":"bagerhat-mollahat","sql_name_bn":"মোল্লাহাট"},"geometry":{"type":"Polygon","coordinates":[[[89.79166,22.982],[89.79173,22.9794],[89.78871,22.97218],[89.789,22.96965],[89.79102,22.9689],[89.80183,22.97126],[89.80865,22.97027],[89.81352,22.96657],[89.81554,22.96387],[89.81592,22.96243],[89.81517,22.96045],[89.81287,22.95987],[89.80833,22.95102],[89.80416,22.93722],[89.80596,22.93562],[89.80903,22.93508],[89.81632,22.93534],[89.82559,22.934],[89.83405,22.93061],[89.84015,22.92452],[89.84718,22.91134],[89.85064,22.90802],[89.85758,22.90347],[89.86429,22.89915],[89.86824,22.8976],[89.86851,22.8926],[89.86724,22.89153],[89.85643,22.89476],[89.8521,22.89449],[89.85118,22.891],[89.85382,22.88881],[89.85671,22.88291],[89.85218,22.8801],[89.8489,22.87979],[89.84648,22.8829],[89.84162,22.88355],[89.83907,22.88108],[89.83081,22.87936],[89.82806,22.8799],[89.82944,22.87325],[89.82816,22.87006],[89.825,22.8732],[89.82067,22.87481],[89.81859,22.87325],[89.81821,22.87114],[89.81934,22.86835],[89.82462,22.86384],[89.82996,22.85564],[89.83929,22.85258],[89.84571,22.84337],[89.84863,22.84209],[89.85503,22.84387],[89.85052,22.83985],[89.84447,22.83921],[89.84289,22.83633],[89.8392,22.8328],[89.83143,22.82916],[89.82896,22.82531],[89.82642,22.82326],[89.82142,22.82156],[89.79796,22.82553],[89.79562,22.82546],[89.79137,22.82381],[89.78429,22.82624],[89.77846,22.82306],[89.77049,22.82269],[89.76965,22.81922],[89.76411,22.81597],[89.76263,22.81394],[89.76175,22.80965],[89.75613,22.80923],[89.75582,22.80757],[89.75661,22.80347],[89.75768,22.80229],[89.75772,22.79964],[89.7563,22.79577],[89.75256,22.7961],[89.74538,22.80101],[89.74166,22.80237],[89.73272,22.80404],[89.72798,22.80618],[89.72082,22.81143],[89.71569,22.81306],[89.71452,22.81504],[89.71515,22.82117],[89.71148,22.82392],[89.7086,22.82473],[89.70425,22.82364],[89.70177,22.82101],[89.70021,22.82042],[89.68717,22.81742],[89.68191,22.81871],[89.68068,22.8361],[89.68275,22.84881],[89.68024,22.85525],[89.66615,22.86602],[89.6659,22.86959],[89.66842,22.87528],[89.67231,22.87719],[89.6727,22.87994],[89.67555,22.88044],[89.6834,22.88064],[89.68608,22.87982],[89.68909,22.8775],[89.69167,22.87904],[89.69314,22.88693],[89.69425,22.88857],[89.69656,22.88753],[89.69805,22.88382],[89.70171,22.8805],[89.70229,22.87572],[89.7055,22.87557],[89.71063,22.88004],[89.71126,22.88416],[89.71475,22.88349],[89.71613,22.88236],[89.71884,22.88413],[89.72659,22.88659],[89.7225,22.8903],[89.71636,22.89121],[89.71677,22.89459],[89.72814,22.89694],[89.73278,22.89544],[89.73629,22.89915],[89.73735,22.90135],[89.73282,22.90411],[89.72735,22.9011],[89.72539,22.90138],[89.72272,22.90317],[89.72402,22.90705],[89.7271,22.90697],[89.7306,22.90802],[89.73671,22.912],[89.7369,22.91596],[89.74216,22.92232],[89.74165,22.9236],[89.73813,22.92403],[89.73617,22.92196],[89.73225,22.92091],[89.7342,22.92471],[89.73416,22.92862],[89.73669,22.93241],[89.74138,22.93608],[89.74566,22.93683],[89.74722,22.93943],[89.75301,22.9429],[89.75157,22.9461],[89.75891,22.95734],[89.7572,22.96181],[89.75819,22.96809],[89.75958,22.96783],[89.7621,22.96427],[89.76601,22.96313],[89.7685,22.96381],[89.76773,22.9657],[89.76845,22.96584],[89.77026,22.9705],[89.77149,22.97558],[89.77526,22.97812],[89.79013,22.98331],[89.79166,22.982]]]}},{"type":"Feature","properties":{"name":"Mongla","district_id":"bagerhat","pcode":"400158","sql_upazila_id":"bagerhat-mongla","sql_name_bn":"মোংলা"},"geometry":{"type":"MultiPolygon","coordinates":[[[[89.71635,21.74797],[89.71485,21.74789],[89.71572,21.74972],[89.72043,21.75388],[89.71957,21.75105],[89.71678,21.74843],[89.71635,21.74797]]],[[[89.64034,21.75302],[89.64038,21.75188],[89.63594,21.75215],[89.6363,21.75316],[89.63873,21.75316],[89.63866,21.75416],[89.64031,21.75356],[89.64034,21.75302]]],[[[89.64535,21.75843],[89.6465,21.75536],[89.64896,21.75315],[89.64481,21.75173],[89.64452,21.75762],[89.64522,21.75844],[89.64535,21.75843]]],[[[89.54671,21.77777],[89.54435,21.7771],[89.54034,21.7775],[89.53583,21.77501],[89.5354,21.77622],[89.53661,21.78402],[89.53819,21.78759],[89.53977,21.78812],[89.54242,21.78718],[89.54457,21.7814],[89.54643,21.77992],[89.54686,21.77804],[89.54671,21.77777]]],[[[89.60395,21.80134],[89.60551,21.79513],[89.60496,21.78701],[89.60249,21.77759],[89.6005,21.77448],[89.59269,21.77114],[89.59047,21.76946],[89.58861,21.76718],[89.58798,21.76037],[89.58582,21.76083],[89.58546,21.76029],[89.58765,21.75874],[89.5892,21.74979],[89.59335,21.74121],[89.60195,21.73181],[89.6075,21.72698],[89.6075,21.72516],[89.60836,21.72436],[89.60779,21.72032],[89.60699,21.71877],[89.60471,21.71736],[89.60084,21.71723],[89.59734,21.71555],[89.59525,21.71608],[89.59366,21.71356],[89.58965,21.71289],[89.58005,21.71307],[89.57788,21.71551],[89.57638,21.71511],[89.57566,21.71336],[89.56891,21.7142],[89.56349,21.71681],[89.55461,21.72439],[89.55389,21.72888],[89.55194,21.73361],[89.54806,21.73972],[89.54236,21.74585],[89.54288,21.74737],[89.53941,21.75388],[89.53819,21.7582],[89.53848,21.76035],[89.53683,21.76383],[89.53612,21.76841],[89.53339,21.76914],[89.53605,21.77266],[89.53827,21.77414],[89.53999,21.77407],[89.54156,21.77232],[89.54556,21.77083],[89.54855,21.76691],[89.5502,21.75331],[89.55369,21.74994],[89.55372,21.75091],[89.55158,21.75276],[89.55056,21.75498],[89.55028,21.76472],[89.54916,21.77111],[89.54764,21.77416],[89.5489,21.77471],[89.55264,21.77367],[89.54816,21.77675],[89.54766,21.77964],[89.54479,21.78287],[89.54386,21.78657],[89.54522,21.78858],[89.54886,21.78693],[89.54802,21.79067],[89.54952,21.79242],[89.54785,21.79763],[89.5466,21.7978],[89.54718,21.7992],[89.55385,21.79998],[89.55607,21.80099],[89.54784,21.80032],[89.54262,21.80143],[89.53584,21.81098],[89.53563,21.81426],[89.53019,21.82286],[89.53366,21.83705],[89.54061,21.851],[89.54243,21.85135],[89.54798,21.84953],[89.55269,21.84177],[89.55743,21.83621],[89.57967,21.82079],[89.59652,21.80722],[89.60278,21.80333],[89.6038,21.80176],[89.60395,21.80134]]],[[[89.6468,21.89436],[89.64899,21.89253],[89.64866,21.892],[89.65038,21.88976],[89.65176,21.88395],[89.65147,21.88201],[89.65895,21.87561],[89.66094,21.87258],[89.66153,21.86786],[89.66091,21.86387],[89.65761,21.86005],[89.65675,21.85786],[89.65067,21.85557],[89.64732,21.85777],[89.63625,21.86788],[89.634,21.87082],[89.63435,21.87138],[89.6334,21.87197],[89.63371,21.87279],[89.63258,21.87448],[89.63223,21.88166],[89.63288,21.88168],[89.63424,21.88589],[89.63481,21.88556],[89.63508,21.88697],[89.63954,21.89118],[89.64008,21.89085],[89.64341,21.89283],[89.64401,21.89425],[89.6448,21.89392],[89.64565,21.89504],[89.6468,21.8945],[89.6468,21.89436]]],[[[89.60671,21.94754],[89.61879,21.94635],[89.62215,21.94467],[89.62713,21.93317],[89.64635,21.91088],[89.64606,21.90917],[89.64362,21.90562],[89.63196,21.89321],[89.62588,21.88326],[89.62389,21.8703],[89.62645,21.86273],[89.65746,21.82852],[89.65945,21.82569],[89.65948,21.82403],[89.66084,21.82174],[89.67811,21.80739],[89.69453,21.7985],[89.69796,21.79568],[89.70033,21.79238],[89.70018,21.78956],[89.69875,21.78855],[89.69997,21.7864],[89.69954,21.7831],[89.70068,21.77745],[89.69861,21.77154],[89.68797,21.76344],[89.6864,21.76377],[89.68533,21.76613],[89.68447,21.76646],[89.68454,21.76431],[89.68268,21.76061],[89.67831,21.75773],[89.66891,21.75415],[89.65905,21.7525],[89.65141,21.75373],[89.64832,21.75642],[89.64796,21.75835],[89.64568,21.75952],[89.65065,21.76603],[89.64264,21.76087],[89.63892,21.75751],[89.63591,21.75671],[89.63344,21.75699],[89.62742,21.76062],[89.62026,21.76143],[89.61797,21.76344],[89.61195,21.76331],[89.60935,21.76446],[89.60899,21.76589],[89.61496,21.77499],[89.61819,21.78621],[89.61662,21.79613],[89.61404,21.80194],[89.60778,21.80944],[89.60778,21.81056],[89.59769,21.81697],[89.58591,21.8264],[89.5852,21.8282],[89.58639,21.82972],[89.58619,21.83063],[89.58444,21.82889],[89.58305,21.82917],[89.56234,21.84409],[89.55474,21.85433],[89.55392,21.8571],[89.55525,21.85827],[89.56448,21.85899],[89.57945,21.8623],[89.58724,21.86613],[89.59348,21.87064],[89.59461,21.87381],[89.59215,21.87903],[89.589,21.88279],[89.58144,21.88767],[89.57974,21.88961],[89.58141,21.89168],[89.59019,21.89666],[89.59144,21.89683],[89.59279,21.89569],[89.59251,21.89746],[89.591,21.8979],[89.58868,21.89719],[89.5798,21.89179],[89.57889,21.89],[89.58018,21.88755],[89.58968,21.87998],[89.59333,21.87413],[89.59192,21.87071],[89.58332,21.86531],[89.57286,21.86171],[89.55707,21.85991],[89.55322,21.86169],[89.55213,21.86982],[89.55056,21.86975],[89.54712,21.87593],[89.54865,21.88296],[89.55419,21.89816],[89.56667,21.91945],[89.57111,21.92889],[89.57417,21.93194],[89.57333,21.93417],[89.5741,21.93534],[89.58096,21.93981],[89.58755,21.94615],[89.60621,21.94772],[89.60671,21.94754]]],[[[89.5451,21.96072],[89.54679,21.96004],[89.54846,21.95668],[89.54983,21.95584],[89.55038,21.95336],[89.55289,21.95032],[89.55402,21.95004],[89.55404,21.9492],[89.55956,21.94365],[89.56097,21.94334],[89.56316,21.94032],[89.56736,21.93754],[89.5682,21.93469],[89.56621,21.9247],[89.56017,21.91472],[89.55934,21.9117],[89.55673,21.90891],[89.55457,21.90331],[89.55265,21.90143],[89.55044,21.89609],[89.55046,21.89447],[89.54985,21.89446],[89.5504,21.89393],[89.54957,21.89315],[89.54984,21.89222],[89.54785,21.88892],[89.54819,21.88728],[89.54569,21.88167],[89.54572,21.8789],[89.54289,21.87779],[89.54343,21.88032],[89.54289,21.88167],[89.54405,21.88617],[89.54349,21.88896],[89.54425,21.89063],[89.54315,21.89808],[89.54375,21.89809],[89.54399,21.89946],[89.54399,21.90675],[89.54462,21.90706],[89.54397,21.90777],[89.54401,21.91368],[89.5434,21.91422],[89.54483,21.91559],[89.54401,21.9164],[89.54427,21.9203],[89.54348,21.92087],[89.5438,21.92498],[89.54292,21.927],[89.54349,21.92886],[89.5426,21.93029],[89.5432,21.93058],[89.54292,21.93281],[89.54206,21.9339],[89.54185,21.93885],[89.54012,21.94358],[89.54066,21.9453],[89.53957,21.94834],[89.54015,21.94893],[89.53954,21.94946],[89.53933,21.95475],[89.54258,21.96055],[89.54348,21.96143],[89.54509,21.96086],[89.5451,21.96072]]],[[[89.71139,21.97833],[89.71463,21.97672],[89.72001,21.97778],[89.72163,21.9766],[89.72172,21.97002],[89.71394,21.96599],[89.71169,21.96244],[89.71113,21.95852],[89.71365,21.94908],[89.71612,21.94357],[89.72195,21.93586],[89.72527,21.93278],[89.72721,21.92928],[89.72386,21.92254],[89.71725,21.91733],[89.71232,21.91132],[89.71115,21.90769],[89.71143,21.90274],[89.71308,21.89821],[89.71532,21.8953],[89.72897,21.88934],[89.73307,21.87638],[89.73543,21.87226],[89.74077,21.8667],[89.73982,21.85769],[89.74416,21.84833],[89.74306,21.83945],[89.74111,21.8375],[89.72392,21.83196],[89.70812,21.83368],[89.70021,21.83746],[89.70042,21.83995],[89.699,21.84286],[89.70778,21.84444],[89.70861,21.84555],[89.70772,21.84728],[89.70536,21.84919],[89.70135,21.85077],[89.69221,21.85204],[89.68959,21.85344],[89.69605,21.855],[89.69812,21.85647],[89.69822,21.85869],[89.69554,21.86203],[89.69549,21.86346],[89.69714,21.86331],[89.70018,21.86149],[89.70219,21.86275],[89.7045,21.87176],[89.70491,21.8768],[89.70416,21.87992],[89.70505,21.88121],[89.70667,21.88131],[89.70583,21.8825],[89.70321,21.88032],[89.703,21.87208],[89.70126,21.86347],[89.70005,21.86281],[89.69659,21.86473],[89.6945,21.86437],[89.69406,21.86218],[89.69687,21.85858],[89.69694,21.85691],[89.69502,21.85589],[89.68954,21.85522],[89.68825,21.85337],[89.68915,21.85206],[89.69104,21.85127],[89.7017,21.84946],[89.70579,21.84771],[89.70702,21.84619],[89.69163,21.84306],[89.68522,21.84477],[89.682,21.84275],[89.67718,21.83749],[89.67281,21.83649],[89.66929,21.84006],[89.66588,21.84843],[89.66586,21.85143],[89.66972,21.8625],[89.66859,21.87148],[89.6669,21.8758],[89.66361,21.88059],[89.66029,21.88388],[89.65818,21.88474],[89.65783,21.88578],[89.65879,21.88803],[89.67281,21.89836],[89.6786,21.90548],[89.68223,21.91361],[89.6834,21.92294],[89.69302,21.94326],[89.69461,21.94941],[89.69444,21.96114],[89.6911,21.97222],[89.68699,21.97911],[89.68723,21.98619],[89.68643,21.99194],[89.68826,21.99571],[89.69054,21.9975],[89.69621,22.00546],[89.70366,22.0074],[89.70473,22.00646],[89.70474,21.99933],[89.70722,21.99219],[89.70446,21.98879],[89.70399,21.98643],[89.70558,21.98451],[89.70943,21.98286],[89.71139,21.97944],[89.71139,21.97833]]],[[[89.6354,22.09683],[89.64778,22.0985],[89.64881,22.09771],[89.6497,22.08197],[89.64591,22.07402],[89.64589,22.07073],[89.64742,22.06895],[89.64932,22.06861],[89.65696,22.07166],[89.65901,22.07134],[89.66383,22.0621],[89.66627,22.0554],[89.66521,22.05339],[89.66168,22.05416],[89.65932,22.05381],[89.65615,22.05163],[89.65193,22.03721],[89.65271,22.03088],[89.65887,22.02237],[89.65994,22.01836],[89.6597,22.01595],[89.65643,22.01116],[89.65611,22.00665],[89.65444,22.00414],[89.65246,22.00203],[89.6462,21.99828],[89.6404,21.99236],[89.63754,21.99346],[89.63225,22.00139],[89.62733,22.00399],[89.62346,22.00402],[89.62028,22],[89.61955,21.99592],[89.62027,21.98912],[89.62212,21.98322],[89.62463,21.97929],[89.63118,21.97852],[89.63528,21.97944],[89.64345,21.98312],[89.6443,21.98286],[89.64493,21.9685],[89.64335,21.9623],[89.63534,21.95521],[89.6288,21.95139],[89.62558,21.94856],[89.62408,21.94829],[89.61761,21.95068],[89.60806,21.95242],[89.58775,21.95002],[89.58577,21.9514],[89.5836,21.9555],[89.58018,21.95953],[89.56284,21.97389],[89.56332,21.97517],[89.58884,21.98649],[89.59799,21.99423],[89.60472,22.00222],[89.60778,22.00861],[89.60833,22.01194],[89.60778,22.01833],[89.60667,22.02056],[89.60222,22.025],[89.60028,22.02583],[89.59805,22.02861],[89.59639,22.02695],[89.60555,22.02028],[89.60694,22.01556],[89.60611,22.00805],[89.60112,21.9996],[89.59602,21.99405],[89.58713,21.98722],[89.56908,21.97996],[89.56399,21.97707],[89.56172,21.9748],[89.56232,21.97188],[89.56519,21.96791],[89.57722,21.95919],[89.58107,21.95515],[89.5825,21.95218],[89.5822,21.94887],[89.57528,21.94194],[89.5675,21.94194],[89.55917,21.94917],[89.54764,21.96149],[89.54945,21.96778],[89.55085,21.98638],[89.56294,22.01764],[89.56803,22.03613],[89.56805,22.03888],[89.56997,22.04419],[89.57111,22.04528],[89.57308,22.05304],[89.58949,22.07965],[89.59511,22.08736],[89.59872,22.08532],[89.6018,22.0873],[89.61081,22.09055],[89.62263,22.09439],[89.62714,22.0948],[89.62902,22.09615],[89.62822,22.09952],[89.62878,22.10017],[89.63482,22.09692],[89.6354,22.09683]]],[[[89.74702,22.13348],[89.75249,22.13387],[89.75468,22.13291],[89.76386,22.11822],[89.76717,22.11038],[89.76922,22.09805],[89.7733,22.09139],[89.77357,22.08727],[89.76958,22.07934],[89.76104,22.07527],[89.75745,22.07031],[89.75242,22.06773],[89.75032,22.0653],[89.7497,22.06325],[89.75023,22.05781],[89.74956,22.05653],[89.74277,22.05579],[89.74094,22.05466],[89.73921,22.05219],[89.73924,22.04857],[89.74172,22.03852],[89.74347,22.03531],[89.74767,22.03314],[89.75582,22.03441],[89.75747,22.03338],[89.75772,22.03094],[89.75509,22.02392],[89.74503,22.02111],[89.74291,22.01958],[89.74203,22.01771],[89.74199,22.01525],[89.74319,22.01209],[89.74913,22.00417],[89.74892,21.99931],[89.74679,21.99728],[89.73672,21.995],[89.73365,21.99104],[89.73496,21.98672],[89.73703,21.98425],[89.7454,21.97818],[89.74565,21.97556],[89.73463,21.9703],[89.72868,21.96865],[89.727,21.96907],[89.7256,21.97063],[89.72444,21.975],[89.72472,21.97916],[89.72361,21.98083],[89.72105,21.98134],[89.71474,21.979],[89.71326,21.9801],[89.7108,21.98414],[89.70736,21.98638],[89.70912,21.99277],[89.70736,21.99775],[89.70658,22.00672],[89.7025,22.01],[89.69886,22.00838],[89.6976,22.00909],[89.69877,22.0134],[89.7033,22.0217],[89.70497,22.0264],[89.7054,22.02961],[89.70414,22.03429],[89.69926,22.0408],[89.6821,22.04724],[89.6786,22.05004],[89.67779,22.0516],[89.68026,22.05606],[89.68531,22.05944],[89.69039,22.06161],[89.70011,22.0631],[89.70312,22.0645],[89.70545,22.06639],[89.70983,22.07286],[89.71082,22.07557],[89.71079,22.07907],[89.70811,22.09142],[89.71236,22.10162],[89.71362,22.11007],[89.71085,22.11644],[89.71077,22.12015],[89.71234,22.12842],[89.72355,22.13224],[89.73332,22.13202],[89.74239,22.13445],[89.74662,22.13359],[89.74702,22.13348]]],[[[89.61594,22.16584],[89.62482,22.16581],[89.63334,22.16412],[89.63691,22.16242],[89.64542,22.15524],[89.64757,22.14748],[89.65003,22.14645],[89.65521,22.14774],[89.65867,22.14741],[89.65885,22.14591],[89.65619,22.14331],[89.65506,22.14075],[89.65583,22.13806],[89.65767,22.13625],[89.66004,22.13557],[89.6646,22.13672],[89.67109,22.14269],[89.67305,22.14251],[89.67492,22.14061],[89.67939,22.13266],[89.67964,22.13045],[89.67763,22.128],[89.67657,22.12019],[89.67006,22.11541],[89.66892,22.11282],[89.6683,22.10697],[89.66445,22.10225],[89.66338,22.09966],[89.66449,22.097],[89.66809,22.09531],[89.67957,22.09694],[89.68233,22.09564],[89.67992,22.0928],[89.66846,22.08993],[89.66644,22.08753],[89.66755,22.08261],[89.67013,22.07808],[89.67503,22.07202],[89.68106,22.06683],[89.68083,22.06528],[89.67389,22.05889],[89.67223,22.055],[89.67194,22.05167],[89.67416,22.04583],[89.67889,22.04111],[89.68629,22.03753],[89.69662,22.03482],[89.69886,22.0326],[89.69833,22.03028],[89.69083,22.01806],[89.68584,22.00639],[89.6785,21.99432],[89.6761,21.98722],[89.67611,21.9825],[89.67778,21.9775],[89.68305,21.97056],[89.68472,21.96667],[89.68604,21.95558],[89.68506,21.94839],[89.67805,21.93056],[89.67667,21.92194],[89.6686,21.90759],[89.66415,21.9045],[89.66144,21.90457],[89.65707,21.90268],[89.65591,21.90305],[89.65225,21.90738],[89.6491,21.91623],[89.63917,21.93278],[89.62843,21.94522],[89.6293,21.94664],[89.64069,21.95481],[89.64528,21.96046],[89.64861,21.96917],[89.64787,21.98196],[89.64602,21.98519],[89.6409,21.9857],[89.63311,21.98362],[89.62821,21.9811],[89.62637,21.98164],[89.62391,21.98806],[89.62334,22],[89.62428,22.00149],[89.6258,22.00128],[89.63318,21.99295],[89.63544,21.99134],[89.63826,21.99084],[89.64197,21.99115],[89.64558,21.99366],[89.64967,21.99804],[89.65334,22.00028],[89.65664,22.00502],[89.6576,22.01015],[89.66084,22.01568],[89.66144,22.01884],[89.66045,22.02221],[89.6542,22.03245],[89.65361,22.03563],[89.65404,22.0386],[89.65742,22.05125],[89.65922,22.05222],[89.66572,22.05202],[89.66711,22.05314],[89.66769,22.05529],[89.66527,22.06268],[89.65991,22.07241],[89.65752,22.07328],[89.6483,22.07018],[89.64699,22.07136],[89.64709,22.07292],[89.65072,22.07944],[89.65137,22.08249],[89.65051,22.09694],[89.64885,22.09943],[89.64615,22.09991],[89.6384,22.0981],[89.63553,22.09813],[89.62843,22.10142],[89.62677,22.09956],[89.6274,22.0975],[89.62679,22.09613],[89.6218,22.09548],[89.61014,22.09162],[89.59924,22.08691],[89.59719,22.08748],[89.60331,22.11508],[89.60333,22.12443],[89.60839,22.12867],[89.60973,22.13111],[89.60944,22.13556],[89.60764,22.1415],[89.61301,22.14749],[89.61266,22.15124],[89.61053,22.15599],[89.61045,22.15914],[89.61321,22.16622],[89.61524,22.16589],[89.61594,22.16584]]],[[[89.70805,22.18611],[89.70667,22.18611],[89.69611,22.19111],[89.69722,22.19278],[89.70361,22.19639],[89.70667,22.19944],[89.70944,22.19944],[89.71,22.19834],[89.70917,22.19611],[89.70944,22.1875],[89.70805,22.1864],[89.70805,22.18611]]],[[[89.57619,22.22656],[89.57655,22.22871],[89.57842,22.22871],[89.57842,22.22797],[89.57648,22.2267],[89.57619,22.22656]]],[[[89.7646,22.33043],[89.76444,22.32921],[89.76444,22.33028],[89.7646,22.33043]]],[[[89.66563,22.36397],[89.66969,22.35781],[89.67142,22.34786],[89.67806,22.33297],[89.68098,22.33055],[89.6876,22.32766],[89.68873,22.31921],[89.69336,22.31297],[89.69646,22.31057],[89.70376,22.30787],[89.70514,22.30607],[89.70502,22.2989],[89.70226,22.2872],[89.70032,22.28241],[89.69923,22.27753],[89.69964,22.27496],[89.70212,22.27262],[89.70587,22.27171],[89.71731,22.27431],[89.72999,22.27857],[89.73376,22.2788],[89.73444,22.27756],[89.73158,22.27019],[89.72339,22.25825],[89.71776,22.24489],[89.70431,22.22903],[89.69442,22.2146],[89.69334,22.21389],[89.68777,22.21738],[89.68555,22.2175],[89.67911,22.21077],[89.68015,22.21095],[89.68639,22.21667],[89.69167,22.21361],[89.69278,22.21194],[89.68695,22.19842],[89.68726,22.19555],[89.68887,22.19251],[89.69083,22.19111],[89.69527,22.19056],[89.69527,22.18944],[89.69196,22.18695],[89.69004,22.18418],[89.68952,22.17648],[89.69113,22.17057],[89.6983,22.15775],[89.70012,22.14517],[89.7083,22.12896],[89.70667,22.12205],[89.70787,22.11407],[89.71021,22.10571],[89.7094,22.10274],[89.70578,22.09768],[89.70438,22.09255],[89.70399,22.08972],[89.7057,22.08134],[89.70438,22.0713],[89.70329,22.07031],[89.69727,22.06876],[89.68657,22.067],[89.68483,22.06729],[89.67475,22.07556],[89.67225,22.0786],[89.66833,22.08677],[89.6694,22.08826],[89.67755,22.08975],[89.68163,22.09167],[89.68324,22.09356],[89.68386,22.0967],[89.67992,22.09862],[89.67287,22.09726],[89.66685,22.09728],[89.66521,22.09924],[89.6655,22.10075],[89.66768,22.10285],[89.66989,22.10675],[89.67017,22.11091],[89.67197,22.11493],[89.67686,22.11865],[89.67846,22.12098],[89.679,22.1271],[89.68105,22.13222],[89.67991,22.13577],[89.67638,22.14177],[89.6731,22.14391],[89.67097,22.14408],[89.66828,22.14276],[89.66328,22.13761],[89.6579,22.1381],[89.65671,22.14011],[89.65741,22.14212],[89.6608,22.14629],[89.6599,22.14854],[89.65675,22.14944],[89.65083,22.14778],[89.64919,22.14807],[89.64812,22.14937],[89.64673,22.15548],[89.63853,22.16295],[89.63573,22.1647],[89.62961,22.1666],[89.61454,22.16765],[89.61228,22.1694],[89.60968,22.17391],[89.60651,22.17748],[89.60696,22.17996],[89.61443,22.1874],[89.6172,22.19172],[89.61883,22.19607],[89.61888,22.19852],[89.61694,22.20194],[89.61215,22.20339],[89.6081,22.20576],[89.60389,22.21015],[89.60197,22.21679],[89.60146,22.22385],[89.602,22.22828],[89.60366,22.2285],[89.60768,22.22254],[89.61674,22.21396],[89.61928,22.21313],[89.62134,22.21557],[89.61839,22.22359],[89.61496,22.23895],[89.61236,22.24347],[89.60639,22.24583],[89.60445,22.245],[89.60639,22.24361],[89.61139,22.2425],[89.6125,22.24139],[89.61417,22.23667],[89.615,22.22889],[89.62,22.21611],[89.61972,22.215],[89.61861,22.21445],[89.61667,22.21556],[89.60361,22.23028],[89.60222,22.23028],[89.60056,22.22861],[89.59972,22.22556],[89.59972,22.21972],[89.6025,22.20972],[89.60778,22.20389],[89.61584,22.20111],[89.6175,22.19861],[89.61694,22.19528],[89.61417,22.19],[89.60667,22.18222],[89.60472,22.17861],[89.60722,22.17333],[89.6125,22.16694],[89.60944,22.15833],[89.61237,22.1481],[89.60722,22.14278],[89.60666,22.1411],[89.60861,22.13333],[89.60861,22.13111],[89.60667,22.12861],[89.60416,22.1275],[89.60306,22.12834],[89.59333,22.14722],[89.57389,22.17139],[89.57195,22.175],[89.55917,22.18778],[89.55666,22.19222],[89.55305,22.20306],[89.55305,22.20778],[89.55527,22.21057],[89.56028,22.21167],[89.56167,22.21305],[89.56306,22.21222],[89.56667,22.2125],[89.56834,22.21361],[89.57611,22.215],[89.5825,22.21833],[89.58667,22.22222],[89.58916,22.22583],[89.59583,22.24],[89.59778,22.24722],[89.59722,22.24861],[89.59805,22.24945],[89.59834,22.25278],[89.5975,22.26194],[89.59278,22.27528],[89.61028,22.29528],[89.61385,22.2981],[89.61742,22.30779],[89.62839,22.32286],[89.63271,22.33178],[89.63607,22.34194],[89.63565,22.34861],[89.63885,22.352],[89.64008,22.36373],[89.642,22.36444],[89.65099,22.36393],[89.65936,22.36722],[89.66103,22.36716],[89.66518,22.36459],[89.66563,22.36397]]],[[[89.65644,22.51719],[89.66409,22.51779],[89.6671,22.51973],[89.66811,22.52419],[89.67253,22.5243],[89.67464,22.5231],[89.6832,22.52345],[89.68728,22.52201],[89.69919,22.5139],[89.69775,22.50934],[89.6983,22.5072],[89.70221,22.50451],[89.70734,22.50357],[89.7113,22.50025],[89.7159,22.49995],[89.71556,22.49519],[89.72103,22.47988],[89.7187,22.4781],[89.71327,22.47738],[89.7107,22.47779],[89.70286,22.48248],[89.69985,22.48273],[89.69834,22.48157],[89.69881,22.47891],[89.70585,22.47591],[89.70592,22.47441],[89.70264,22.47375],[89.70117,22.4719],[89.70084,22.4657],[89.70257,22.46393],[89.71247,22.47177],[89.71545,22.47244],[89.71684,22.46982],[89.71815,22.46685],[89.71945,22.45556],[89.72057,22.45392],[89.71784,22.45139],[89.71177,22.44984],[89.70969,22.44835],[89.70774,22.44495],[89.70866,22.43929],[89.72034,22.42801],[89.72345,22.42707],[89.72834,22.42256],[89.72833,22.42039],[89.72571,22.41891],[89.71869,22.41857],[89.71317,22.41315],[89.7142,22.40513],[89.7245,22.40256],[89.73171,22.40513],[89.7374,22.39877],[89.73898,22.39597],[89.73588,22.39152],[89.7367,22.38856],[89.74126,22.38327],[89.74364,22.3885],[89.75173,22.39736],[89.75877,22.39464],[89.75764,22.39197],[89.75845,22.38873],[89.76009,22.38616],[89.76581,22.38601],[89.76798,22.38141],[89.77595,22.3732],[89.77729,22.36737],[89.77695,22.36433],[89.77566,22.36247],[89.77156,22.36464],[89.7661,22.36101],[89.76075,22.35909],[89.76138,22.35205],[89.76523,22.34207],[89.76513,22.34029],[89.76458,22.34068],[89.76431,22.34],[89.76389,22.33222],[89.76053,22.32097],[89.76049,22.31361],[89.76315,22.30979],[89.78323,22.2876],[89.79089,22.28226],[89.79929,22.28],[89.79942,22.27679],[89.79749,22.26901],[89.79585,22.25245],[89.80051,22.235],[89.80187,22.2262],[89.80111,22.21938],[89.80199,22.21507],[89.8075,22.20594],[89.81499,22.19642],[89.82364,22.1783],[89.82944,22.17031],[89.83401,22.16566],[89.83403,22.16315],[89.82908,22.15867],[89.8175,22.15194],[89.81234,22.14739],[89.81,22.14028],[89.81029,22.13906],[89.81132,22.13895],[89.81481,22.13504],[89.82313,22.12952],[89.83553,22.12553],[89.83637,22.12259],[89.83443,22.11832],[89.82964,22.1113],[89.80772,22.08615],[89.80282,22.07689],[89.80183,22.07278],[89.798,22.07326],[89.78972,22.08333],[89.77704,22.0904],[89.77445,22.09335],[89.77183,22.10134],[89.76964,22.11409],[89.75786,22.13345],[89.75293,22.13604],[89.74501,22.13726],[89.74285,22.13862],[89.74389,22.151],[89.74184,22.15829],[89.74198,22.16108],[89.74355,22.16676],[89.74406,22.17398],[89.74683,22.182],[89.7466,22.186],[89.74348,22.1904],[89.73167,22.19611],[89.73045,22.19855],[89.73524,22.20826],[89.73625,22.20889],[89.73874,22.20764],[89.74451,22.1983],[89.74651,22.19629],[89.74889,22.19564],[89.75082,22.19749],[89.75375,22.20425],[89.75606,22.21345],[89.75631,22.21624],[89.755,22.22472],[89.75611,22.23305],[89.75394,22.22566],[89.75427,22.21322],[89.74976,22.19795],[89.74842,22.197],[89.74715,22.19742],[89.74176,22.20627],[89.7375,22.21111],[89.735,22.21028],[89.73222,22.20806],[89.72889,22.2],[89.72945,22.19611],[89.7307,22.19389],[89.73444,22.19111],[89.7425,22.18778],[89.74472,22.18583],[89.74487,22.18443],[89.74084,22.17389],[89.74084,22.16472],[89.73972,22.16083],[89.7407,22.15129],[89.73972,22.14361],[89.74024,22.13495],[89.73402,22.13285],[89.72278,22.13305],[89.71222,22.12972],[89.70583,22.14195],[89.70389,22.15361],[89.7025,22.15778],[89.69583,22.17],[89.69334,22.18306],[89.69611,22.18583],[89.69889,22.18583],[89.70556,22.18334],[89.70972,22.18417],[89.71333,22.18861],[89.71416,22.19333],[89.71361,22.1975],[89.71167,22.20083],[89.70691,22.20306],[89.70167,22.20139],[89.69473,22.19555],[89.69222,22.19583],[89.69139,22.19722],[89.69444,22.20667],[89.70592,22.22466],[89.71688,22.23684],[89.72158,22.24334],[89.72663,22.2555],[89.73222,22.26283],[89.73776,22.27537],[89.73766,22.27843],[89.73613,22.28105],[89.73083,22.28222],[89.72833,22.28222],[89.72063,22.27919],[89.70773,22.2757],[89.70373,22.27547],[89.70255,22.27666],[89.70309,22.27991],[89.70747,22.2914],[89.70917,22.30069],[89.7084,22.30555],[89.70423,22.31167],[89.70611,22.3275],[89.70639,22.33972],[89.70829,22.34385],[89.71259,22.3474],[89.71333,22.34917],[89.71222,22.35028],[89.71249,22.34854],[89.70785,22.34477],[89.70576,22.34096],[89.70489,22.33708],[89.70486,22.3281],[89.70306,22.31192],[89.70059,22.31111],[89.69337,22.31544],[89.69059,22.32163],[89.68993,22.32686],[89.68804,22.32999],[89.68583,22.33165],[89.68132,22.33279],[89.67976,22.33402],[89.67715,22.34143],[89.67369,22.34762],[89.67274,22.35499],[89.67109,22.35955],[89.66749,22.36521],[89.6638,22.36793],[89.6582,22.36916],[89.65018,22.36589],[89.64489,22.36684],[89.64055,22.36636],[89.6375,22.36333],[89.63647,22.35856],[89.63659,22.35354],[89.6358,22.35216],[89.63457,22.35221],[89.63311,22.3551],[89.63216,22.36198],[89.6292,22.36857],[89.62719,22.38682],[89.6225,22.40861],[89.61657,22.41952],[89.60416,22.43547],[89.59953,22.44625],[89.59938,22.44961],[89.59576,22.45552],[89.59551,22.4582],[89.59306,22.46445],[89.59333,22.46583],[89.60344,22.47252],[89.60588,22.47507],[89.60768,22.47942],[89.60957,22.48873],[89.61219,22.49389],[89.61389,22.49972],[89.61723,22.50583],[89.6225,22.51028],[89.63322,22.51198],[89.63636,22.51358],[89.63889,22.51611],[89.64056,22.52194],[89.63686,22.53042],[89.64054,22.5308],[89.64249,22.53318],[89.65332,22.5275],[89.65424,22.51961],[89.65644,22.51719]]],[[[89.58302,22.56057],[89.5882,22.55894],[89.59203,22.56155],[89.59421,22.56034],[89.60113,22.55321],[89.60443,22.54508],[89.6085,22.53934],[89.61633,22.53415],[89.62023,22.53307],[89.62545,22.53293],[89.62892,22.53371],[89.63279,22.53218],[89.63688,22.51982],[89.63682,22.51795],[89.63567,22.51696],[89.63055,22.51478],[89.62256,22.51354],[89.61472,22.50859],[89.61305,22.50639],[89.61092,22.4987],[89.60724,22.49159],[89.6038,22.47852],[89.60011,22.4737],[89.59723,22.47175],[89.5941,22.47211],[89.59229,22.47417],[89.59111,22.4833],[89.58984,22.48686],[89.59061,22.49223],[89.58928,22.49324],[89.58944,22.50023],[89.58773,22.50871],[89.58528,22.51167],[89.58334,22.51639],[89.58369,22.51881],[89.58046,22.53325],[89.57578,22.54849],[89.56974,22.56024],[89.56451,22.56788],[89.57306,22.57271],[89.57544,22.57208],[89.58105,22.56274],[89.58302,22.56057]]]]}},{"type":"Feature","properties":{"name":"Morelganj","district_id":"bagerhat","pcode":"400160","sql_upazila_id":null,"sql_name_bn":null},"geometry":{"type":"MultiPolygon","coordinates":[[[[89.76167,22.52889],[89.76597,22.52583],[89.76772,22.52058],[89.77144,22.5171],[89.77391,22.51613],[89.77927,22.51606],[89.78083,22.515],[89.78365,22.50617],[89.79827,22.48723],[89.80526,22.48529],[89.80826,22.48614],[89.81224,22.48885],[89.81705,22.48995],[89.822,22.48648],[89.82545,22.48541],[89.83027,22.4853],[89.83537,22.48692],[89.83684,22.48662],[89.83667,22.48583],[89.84245,22.47727],[89.84926,22.47215],[89.85237,22.47083],[89.8558,22.46771],[89.85717,22.46469],[89.85783,22.45766],[89.86169,22.45041],[89.86788,22.44462],[89.87517,22.44024],[89.87605,22.43836],[89.87607,22.43522],[89.87305,22.42717],[89.86777,22.42139],[89.86584,22.41694],[89.86704,22.40938],[89.87144,22.39996],[89.87837,22.39176],[89.88291,22.38765],[89.88889,22.37917],[89.88944,22.37389],[89.88834,22.36944],[89.88861,22.3625],[89.88667,22.35528],[89.8822,22.34665],[89.88226,22.34959],[89.88019,22.35727],[89.87564,22.36188],[89.87151,22.3588],[89.86781,22.35842],[89.85583,22.36187],[89.85252,22.36224],[89.84632,22.36147],[89.84592,22.36377],[89.84798,22.36493],[89.85004,22.36801],[89.85045,22.37108],[89.8459,22.37185],[89.83971,22.37069],[89.83021,22.37259],[89.82607,22.37567],[89.81987,22.38488],[89.8174,22.3868],[89.81368,22.38525],[89.81079,22.38294],[89.80418,22.38294],[89.79923,22.38178],[89.79593,22.3787],[89.79469,22.37639],[89.79057,22.37486],[89.77595,22.3732],[89.76798,22.38141],[89.76581,22.38601],[89.76009,22.38616],[89.75845,22.38873],[89.75764,22.39197],[89.75877,22.39464],[89.75173,22.39736],[89.74364,22.3885],[89.74126,22.38327],[89.7367,22.38856],[89.73588,22.39152],[89.73898,22.39597],[89.7374,22.39877],[89.73171,22.40513],[89.7245,22.40256],[89.7142,22.40513],[89.71317,22.41315],[89.71869,22.41857],[89.72571,22.41891],[89.72833,22.42039],[89.72834,22.42256],[89.72345,22.42707],[89.72034,22.42801],[89.70866,22.43929],[89.70774,22.44495],[89.70969,22.44835],[89.71177,22.44984],[89.71784,22.45139],[89.72057,22.45392],[89.71945,22.45556],[89.71815,22.46685],[89.71684,22.46982],[89.71545,22.47244],[89.71247,22.47177],[89.70257,22.46393],[89.70084,22.4657],[89.70117,22.4719],[89.70264,22.47375],[89.70592,22.47441],[89.70585,22.47591],[89.69881,22.47891],[89.69834,22.48157],[89.69985,22.48273],[89.70286,22.48248],[89.7107,22.47779],[89.71584,22.47737],[89.7187,22.4781],[89.72103,22.47988],[89.71556,22.49519],[89.7159,22.49995],[89.72145,22.50435],[89.72657,22.503],[89.73551,22.50765],[89.76084,22.52889],[89.76167,22.52889]]],[[[89.91583,22.60389],[89.91888,22.60282],[89.92383,22.60274],[89.95184,22.59853],[89.95259,22.59719],[89.95965,22.59475],[89.96129,22.59324],[89.96193,22.58694],[89.95948,22.57192],[89.95083,22.54624],[89.9424,22.53487],[89.93599,22.52965],[89.92751,22.52098],[89.9215,22.513],[89.91998,22.50981],[89.92145,22.50787],[89.92791,22.50611],[89.9403,22.50777],[89.96253,22.50742],[89.9642,22.50662],[89.965,22.50464],[89.96445,22.49806],[89.96361,22.49399],[89.95909,22.49386],[89.93542,22.49894],[89.9284,22.50252],[89.9153,22.50582],[89.90647,22.50529],[89.90123,22.50632],[89.89497,22.50502],[89.89037,22.50507],[89.88476,22.50126],[89.88324,22.48923],[89.88566,22.481],[89.88969,22.47652],[89.89855,22.47241],[89.91144,22.47054],[89.91801,22.47189],[89.92518,22.47465],[89.93468,22.47439],[89.94205,22.46983],[89.94612,22.46278],[89.93747,22.45095],[89.92709,22.4474],[89.91404,22.44649],[89.9025,22.44165],[89.88784,22.43159],[89.88165,22.42837],[89.88362,22.434],[89.88266,22.44018],[89.88068,22.44055],[89.87659,22.44527],[89.8716,22.44808],[89.86681,22.45238],[89.8625,22.45917],[89.85914,22.47068],[89.85407,22.47544],[89.84805,22.47781],[89.84516,22.48001],[89.84338,22.48285],[89.84361,22.48639],[89.84111,22.48889],[89.83892,22.4902],[89.83505,22.49084],[89.82604,22.48837],[89.81692,22.49333],[89.81208,22.49246],[89.80607,22.48898],[89.80285,22.4897],[89.79739,22.49434],[89.78765,22.50503],[89.78667,22.5077],[89.78751,22.51264],[89.78631,22.51733],[89.78168,22.5194],[89.77351,22.51921],[89.77167,22.52083],[89.77,22.52361],[89.76924,22.52889],[89.77472,22.53687],[89.77221,22.55056],[89.77363,22.5539],[89.78416,22.56528],[89.7861,22.57139],[89.785,22.57444],[89.78972,22.57889],[89.79139,22.5825],[89.79178,22.58619],[89.79938,22.58013],[89.80551,22.57957],[89.81042,22.58098],[89.81417,22.581],[89.81617,22.58375],[89.81976,22.58648],[89.82146,22.59292],[89.82534,22.59518],[89.82933,22.59478],[89.83662,22.59585],[89.83795,22.59489],[89.8391,22.59233],[89.83932,22.58819],[89.83742,22.58629],[89.83562,22.57657],[89.83843,22.57425],[89.84469,22.57178],[89.8482,22.56634],[89.85641,22.56347],[89.86206,22.56332],[89.87135,22.56697],[89.87707,22.57233],[89.88115,22.57319],[89.88815,22.57266],[89.89581,22.57917],[89.89341,22.58636],[89.89056,22.58949],[89.89014,22.59341],[89.89414,22.60818],[89.90017,22.61537],[89.90759,22.61654],[89.91146,22.61638],[89.91569,22.61563],[89.91924,22.61345],[89.91556,22.605],[89.91583,22.60417],[89.91583,22.60389]]]]}},{"type":"Feature","properties":{"name":"Rampal","district_id":"bagerhat","pcode":"400173","sql_upazila_id":"bagerhat-rampal","sql_name_bn":"রামপাল"},"geometry":{"type":"MultiPolygon","coordinates":[[[[89.68694,22.57028],[89.69111,22.56944],[89.69222,22.56722],[89.68229,22.55828],[89.68,22.555],[89.67973,22.55083],[89.68361,22.54694],[89.68111,22.54],[89.68105,22.53559],[89.68263,22.54137],[89.68555,22.54694],[89.69112,22.54667],[89.6966,22.54781],[89.70244,22.55107],[89.70805,22.55611],[89.71056,22.55667],[89.7199,22.55115],[89.74213,22.54082],[89.75168,22.53446],[89.75676,22.53249],[89.76084,22.52889],[89.73551,22.50765],[89.72657,22.503],[89.72145,22.50435],[89.7159,22.49995],[89.7113,22.50025],[89.70734,22.50357],[89.70221,22.50451],[89.6983,22.5072],[89.69775,22.50934],[89.69919,22.5139],[89.68728,22.52201],[89.6832,22.52345],[89.67464,22.5231],[89.67253,22.5243],[89.66811,22.52419],[89.6671,22.51973],[89.66409,22.51779],[89.65644,22.51719],[89.65373,22.52112],[89.65332,22.5275],[89.64249,22.53318],[89.64054,22.5308],[89.63686,22.53042],[89.63556,22.53555],[89.63611,22.54055],[89.64061,22.55414],[89.6418,22.55464],[89.64472,22.55389],[89.65011,22.54961],[89.65472,22.54754],[89.65913,22.54741],[89.66315,22.54612],[89.66601,22.54641],[89.673,22.55168],[89.68111,22.56722],[89.6825,22.56861],[89.68667,22.57028],[89.68694,22.57028]]],[[[89.80441,22.62456],[89.80442,22.62391],[89.80389,22.62444],[89.80441,22.62456]]],[[[89.66329,22.68009],[89.66225,22.6714],[89.66305,22.66747],[89.66706,22.66191],[89.66535,22.6527],[89.66595,22.65045],[89.6684,22.6498],[89.67051,22.65239],[89.67814,22.65461],[89.68686,22.65547],[89.69171,22.64925],[89.69965,22.6437],[89.71005,22.63969],[89.71343,22.6415],[89.71776,22.6419],[89.74442,22.6347],[89.75778,22.63291],[89.76052,22.63063],[89.76115,22.62684],[89.76305,22.62473],[89.76756,22.62324],[89.77191,22.62288],[89.77455,22.62034],[89.7779,22.62151],[89.78206,22.62439],[89.78429,22.62312],[89.78564,22.62113],[89.78867,22.62111],[89.79031,22.62434],[89.79366,22.62339],[89.80167,22.6242],[89.80334,22.6225],[89.80334,22.62111],[89.79694,22.61472],[89.79056,22.61167],[89.78833,22.60806],[89.79083,22.5975],[89.79083,22.59444],[89.78902,22.58879],[89.78958,22.5825],[89.78389,22.57583],[89.78306,22.57334],[89.78361,22.56833],[89.77139,22.55583],[89.76945,22.55222],[89.76917,22.54611],[89.77167,22.53778],[89.77028,22.53555],[89.76511,22.53417],[89.75405,22.53559],[89.74571,22.54101],[89.73518,22.54553],[89.71395,22.55734],[89.71333,22.55806],[89.71361,22.55972],[89.71722,22.56194],[89.71874,22.56472],[89.71402,22.57021],[89.71097,22.57197],[89.70861,22.57472],[89.71304,22.58069],[89.71722,22.58444],[89.71754,22.58755],[89.7075,22.57556],[89.70805,22.57306],[89.71726,22.56537],[89.71778,22.56444],[89.71639,22.56278],[89.70761,22.55891],[89.70429,22.55637],[89.70267,22.55402],[89.69531,22.54949],[89.68455,22.54893],[89.68205,22.55049],[89.68111,22.55333],[89.68295,22.55614],[89.6908,22.56258],[89.69361,22.56778],[89.69167,22.57055],[89.69,22.57139],[89.68472,22.57139],[89.67985,22.568],[89.67661,22.56382],[89.67193,22.55385],[89.66908,22.5501],[89.66621,22.54812],[89.6616,22.54846],[89.66131,22.54961],[89.66276,22.55406],[89.66611,22.56111],[89.66861,22.56361],[89.67389,22.56584],[89.67536,22.56896],[89.67416,22.57083],[89.67083,22.57139],[89.66778,22.57],[89.66194,22.56889],[89.66117,22.56993],[89.66093,22.57678],[89.65945,22.58032],[89.6543,22.58619],[89.65083,22.58892],[89.6498,22.59213],[89.64915,22.59113],[89.64992,22.58823],[89.65806,22.58028],[89.65981,22.57121],[89.66109,22.56837],[89.6646,22.56741],[89.66861,22.56944],[89.67278,22.57],[89.67389,22.56805],[89.67167,22.56611],[89.66778,22.56444],[89.66423,22.56101],[89.66195,22.55688],[89.66077,22.55211],[89.65818,22.54902],[89.65427,22.5505],[89.6463,22.55552],[89.64217,22.55662],[89.63889,22.55611],[89.63532,22.54932],[89.63537,22.54483],[89.63282,22.53738],[89.63279,22.53218],[89.62892,22.53371],[89.62545,22.53293],[89.62023,22.53307],[89.61633,22.53415],[89.6085,22.53934],[89.60443,22.54508],[89.60113,22.55321],[89.59421,22.56034],[89.59203,22.56155],[89.5882,22.55894],[89.58302,22.56057],[89.57544,22.57208],[89.57306,22.57271],[89.56451,22.56788],[89.56067,22.57256],[89.56,22.575],[89.55401,22.58347],[89.54309,22.5932],[89.53583,22.60306],[89.53339,22.60832],[89.53222,22.61472],[89.5375,22.62472],[89.54064,22.6287],[89.54436,22.6278],[89.55749,22.63828],[89.55806,22.64079],[89.55762,22.64442],[89.55358,22.66125],[89.55917,22.67271],[89.56033,22.67662],[89.56238,22.67706],[89.56837,22.67277],[89.56822,22.67076],[89.57369,22.66654],[89.57991,22.66455],[89.57996,22.66018],[89.58411,22.65099],[89.58565,22.64911],[89.59296,22.64669],[89.59624,22.64752],[89.60197,22.64749],[89.62051,22.6538],[89.62493,22.66133],[89.62557,22.66414],[89.62531,22.66942],[89.62672,22.67513],[89.62952,22.67805],[89.63402,22.67621],[89.63821,22.67621],[89.64341,22.67712],[89.6463,22.67911],[89.64826,22.67871],[89.65746,22.68124],[89.66357,22.68182],[89.66329,22.68009]]]]}}]}