{"type":"FeatureCollection","features":[{"type":"Feature","properties":{"name":"Alikadam","district_id":"bandarban","pcode":"200304","sql_upazila_id":"bandarban-alikadam","sql_name_bn":"আলীকদম"},"geometry":{"type":"Polygon","coordinates":[[[92.30877,21.58083],[92.31271,21.61152],[92.32215,21.64651],[92.3402,21.69065],[92.35773,21.7178],[92.40098,21.76372],[92.41988,21.79211],[92.42972,21.77336],[92.43879,21.75244],[92.44178,21.7479],[92.44952,21.72923],[92.4524,21.72378],[92.45328,21.72358],[92.47209,21.68543],[92.49563,21.64869],[92.50725,21.62681],[92.51151,21.61678],[92.51357,21.60449],[92.51151,21.58558],[92.5081,21.57642],[92.50701,21.5687],[92.51128,21.56108],[92.51483,21.54998],[92.52284,21.53077],[92.528,21.51268],[92.52975,21.50018],[92.53961,21.4635],[92.54181,21.45079],[92.54239,21.44074],[92.5455,21.42793],[92.54807,21.42104],[92.54924,21.4132],[92.55955,21.37697],[92.56039,21.37283],[92.55991,21.36292],[92.55432,21.36594],[92.55017,21.37049],[92.54747,21.37045],[92.53879,21.36927],[92.5357,21.36724],[92.52803,21.35903],[92.51475,21.36294],[92.51169,21.36212],[92.50993,21.35697],[92.51076,21.35357],[92.5103,21.34816],[92.50861,21.34575],[92.49998,21.34439],[92.49568,21.34506],[92.49097,21.34465],[92.48529,21.34564],[92.47068,21.35078],[92.4546,21.35975],[92.44962,21.3611],[92.44253,21.36058],[92.43853,21.36115],[92.43096,21.36485],[92.42721,21.37],[92.42469,21.37851],[92.42627,21.38664],[92.42788,21.39078],[92.42924,21.40019],[92.42863,21.40521],[92.42584,21.41232],[92.42616,21.4169],[92.42223,21.42762],[92.41467,21.43642],[92.40694,21.44155],[92.40178,21.45247],[92.38885,21.47035],[92.37992,21.47343],[92.37954,21.47723],[92.37711,21.48355],[92.37517,21.49443],[92.36439,21.52059],[92.33393,21.5504],[92.32673,21.56107],[92.31572,21.57257],[92.31177,21.57813],[92.30877,21.58083]]]}},{"type":"Feature","properties":{"name":"Bandarban Sadar","district_id":"bandarban","pcode":"200314","sql_upazila_id":"bandarban-bandarban-sadar","sql_name_bn":"বান্দরবান সদর"},"geometry":{"type":"Polygon","coordinates":[[[92.29186,22.35933],[92.28727,22.3443],[92.28204,22.33307],[92.27943,22.32552],[92.27775,22.31672],[92.27688,22.3053],[92.27479,22.29996],[92.27268,22.29773],[92.272,22.29206],[92.27321,22.28714],[92.27505,22.28462],[92.28258,22.28315],[92.28451,22.28124],[92.28825,22.27999],[92.29139,22.27582],[92.29137,22.27052],[92.29,22.26719],[92.28472,22.26097],[92.28178,22.25914],[92.28266,22.24854],[92.29698,22.23953],[92.30575,22.23154],[92.31093,22.22414],[92.31423,22.2154],[92.31477,22.20611],[92.31301,22.20268],[92.30716,22.19676],[92.29852,22.19217],[92.28795,22.19006],[92.28388,22.19115],[92.2778,22.19864],[92.27068,22.21051],[92.26705,22.21889],[92.25758,22.22151],[92.25468,22.2215],[92.23665,22.21775],[92.23152,22.2149],[92.22916,22.21269],[92.2277,22.20821],[92.22807,22.19499],[92.22559,22.19301],[92.21602,22.18984],[92.21573,22.18837],[92.21623,22.18515],[92.22257,22.1725],[92.2322,22.15599],[92.2445,22.12932],[92.25934,22.10177],[92.26618,22.09256],[92.27623,22.07144],[92.28786,22.0413],[92.29289,22.03296],[92.29791,22.0269],[92.29913,22.02177],[92.29798,22.01796],[92.29899,22.01197],[92.30637,21.99223],[92.31087,21.9839],[92.3109,21.97702],[92.30679,21.96335],[92.29975,21.95903],[92.29743,21.95394],[92.28658,21.94735],[92.26218,21.94205],[92.25792,21.94403],[92.25534,21.94724],[92.24933,21.95823],[92.24843,21.9695],[92.25243,21.98186],[92.25226,21.9878],[92.24946,21.99368],[92.24613,21.99595],[92.23271,21.99937],[92.22645,21.99926],[92.21701,21.99701],[92.21381,22.0088],[92.21055,22.00968],[92.20844,22.01126],[92.20732,22.01489],[92.20753,22.01817],[92.20981,22.0235],[92.21902,22.02922],[92.21977,22.03185],[92.21105,22.03309],[92.20583,22.03495],[92.20659,22.03794],[92.20832,22.03902],[92.20983,22.04142],[92.20704,22.04425],[92.20038,22.04414],[92.19645,22.0504],[92.1869,22.0523],[92.18194,22.05122],[92.18042,22.05252],[92.17605,22.05919],[92.17372,22.06058],[92.17336,22.0668],[92.17188,22.06945],[92.16731,22.06916],[92.16731,22.07084],[92.17124,22.07477],[92.17206,22.07843],[92.17404,22.08164],[92.17788,22.08609],[92.17818,22.08815],[92.17632,22.09261],[92.17449,22.09413],[92.16751,22.09556],[92.16656,22.09832],[92.15908,22.09807],[92.15608,22.09967],[92.15663,22.102],[92.16395,22.109],[92.16615,22.11247],[92.1644,22.1142],[92.1574,22.11517],[92.1451,22.11889],[92.14794,22.12685],[92.1545,22.12383],[92.15783,22.12371],[92.1619,22.1293],[92.17152,22.13342],[92.17381,22.13646],[92.17469,22.14388],[92.16825,22.14768],[92.16335,22.15473],[92.16998,22.1626],[92.17138,22.16771],[92.17171,22.1736],[92.16598,22.17523],[92.16369,22.18114],[92.16392,22.18853],[92.16043,22.19033],[92.15724,22.19093],[92.15874,22.19486],[92.16565,22.20274],[92.1667,22.20854],[92.16159,22.2129],[92.15268,22.22676],[92.14636,22.23358],[92.14403,22.24157],[92.14368,22.24867],[92.13662,22.26016],[92.13613,22.26347],[92.14269,22.27606],[92.14317,22.2841],[92.14199,22.28694],[92.1374,22.29119],[92.13742,22.29417],[92.13892,22.29685],[92.13946,22.30027],[92.13894,22.31254],[92.1397,22.31411],[92.147,22.3151],[92.14892,22.31677],[92.15217,22.32623],[92.15319,22.32733],[92.15355,22.33435],[92.15222,22.35467],[92.15102,22.35668],[92.14709,22.35664],[92.14546,22.35772],[92.14538,22.35933],[92.14788,22.36246],[92.14764,22.36963],[92.14652,22.3722],[92.15111,22.37363],[92.1657,22.37457],[92.17432,22.37488],[92.18321,22.37404],[92.18357,22.36825],[92.18149,22.355],[92.18303,22.35129],[92.19162,22.34934],[92.20564,22.34869],[92.22822,22.35047],[92.24244,22.35579],[92.2681,22.36064],[92.28393,22.35895],[92.29186,22.35933]]]}},{"type":"Feature","properties":{"name":"Lama","district_id":"bandarban","pcode":"200351","sql_upazila_id":"bandarban-lama","sql_name_bn":"লামা"},"geometry":{"type":"Polygon","coordinates":[[[92.30679,21.96335],[92.31119,21.95825],[92.31908,21.93174],[92.3233,21.92054],[92.32679,21.90713],[92.3274,21.89152],[92.32859,21.88259],[92.33012,21.88123],[92.33205,21.88337],[92.33648,21.88541],[92.34456,21.89163],[92.35072,21.89723],[92.3572,21.90086],[92.37514,21.8687],[92.38412,21.84778],[92.39815,21.82199],[92.40975,21.8078],[92.41988,21.79211],[92.40098,21.76372],[92.35773,21.7178],[92.3402,21.69065],[92.32215,21.64651],[92.31271,21.61152],[92.30877,21.58083],[92.30167,21.5858],[92.29423,21.59222],[92.28593,21.60136],[92.28364,21.60247],[92.27584,21.61475],[92.27366,21.6158],[92.26496,21.61455],[92.23265,21.61349],[92.21633,21.60587],[92.21432,21.60566],[92.21105,21.60686],[92.20786,21.61206],[92.21584,21.62741],[92.22404,21.64073],[92.2283,21.65037],[92.22969,21.65606],[92.22761,21.65695],[92.20265,21.65301],[92.19465,21.65273],[92.17268,21.64869],[92.15909,21.64772],[92.12008,21.64756],[92.11174,21.65022],[92.11008,21.6532],[92.11203,21.65591],[92.11514,21.65772],[92.11706,21.66117],[92.1178,21.66394],[92.11686,21.66669],[92.11194,21.66564],[92.10867,21.66606],[92.11043,21.66872],[92.11129,21.67203],[92.11077,21.67532],[92.10794,21.67746],[92.09979,21.68083],[92.09975,21.6829],[92.1021,21.68505],[92.11383,21.69162],[92.12225,21.70005],[92.12411,21.70352],[92.12332,21.70525],[92.11731,21.70883],[92.11618,21.71089],[92.11663,21.71393],[92.12319,21.71247],[92.12494,21.7133],[92.12452,21.71721],[92.11708,21.72414],[92.11782,21.72742],[92.12185,21.72789],[92.12782,21.72728],[92.12901,21.73067],[92.12203,21.73191],[92.12141,21.73532],[92.12319,21.73607],[92.12638,21.73469],[92.14121,21.7329],[92.14951,21.72958],[92.15919,21.73118],[92.165,21.73378],[92.16536,21.73776],[92.16265,21.74019],[92.16191,21.74276],[92.16941,21.76188],[92.1726,21.7671],[92.1822,21.77831],[92.18533,21.77695],[92.18713,21.77454],[92.19456,21.77474],[92.2002,21.77241],[92.20193,21.77513],[92.20022,21.7803],[92.2004,21.78287],[92.20269,21.78668],[92.20543,21.78656],[92.21139,21.78385],[92.21327,21.78449],[92.21556,21.78887],[92.21024,21.80045],[92.21137,21.81217],[92.20603,21.81735],[92.20397,21.82085],[92.20102,21.82238],[92.19743,21.8219],[92.19387,21.81954],[92.19188,21.82673],[92.18735,21.83246],[92.19172,21.83786],[92.19179,21.84302],[92.18968,21.84447],[92.18008,21.84358],[92.17695,21.8423],[92.17614,21.83772],[92.18537,21.81923],[92.18875,21.80061],[92.19419,21.79153],[92.19422,21.78704],[92.19254,21.78077],[92.18961,21.78053],[92.18867,21.78531],[92.18904,21.78771],[92.18732,21.78905],[92.18476,21.78933],[92.17918,21.78457],[92.17512,21.7792],[92.17272,21.77768],[92.16968,21.77418],[92.16457,21.77648],[92.15401,21.77754],[92.15136,21.77989],[92.14724,21.78958],[92.14337,21.79463],[92.14001,21.79655],[92.1368,21.79603],[92.12983,21.79257],[92.11922,21.79298],[92.11682,21.79153],[92.11442,21.79249],[92.11404,21.79671],[92.1106,21.80651],[92.10905,21.8075],[92.09831,21.80748],[92.09205,21.80905],[92.0898,21.8126],[92.08943,21.81716],[92.09267,21.82966],[92.0948,21.83245],[92.09716,21.83261],[92.10161,21.83612],[92.10302,21.8435],[92.1,21.84737],[92.09619,21.85533],[92.0963,21.86302],[92.09457,21.8713],[92.09531,21.87342],[92.09137,21.89101],[92.09307,21.90154],[92.09216,21.90791],[92.09058,21.9121],[92.08864,21.91304],[92.08547,21.91721],[92.0826,21.91874],[92.0781,21.92416],[92.07591,21.92564],[92.07222,21.92585],[92.06999,21.92818],[92.0669,21.93561],[92.07574,21.94011],[92.07953,21.94362],[92.0815,21.94827],[92.08378,21.94959],[92.09303,21.95095],[92.09876,21.95482],[92.10142,21.95301],[92.10433,21.95276],[92.11066,21.94973],[92.11218,21.9498],[92.11491,21.95187],[92.11845,21.95684],[92.1206,21.95869],[92.12272,21.95928],[92.12585,21.95887],[92.12726,21.95603],[92.12526,21.95319],[92.12296,21.94749],[92.12541,21.93864],[92.12948,21.93326],[92.1345,21.92859],[92.13912,21.92862],[92.16236,21.93407],[92.16847,21.93374],[92.17241,21.93234],[92.17731,21.93321],[92.17993,21.93645],[92.17964,21.9377],[92.17129,21.94566],[92.17217,21.95321],[92.16848,21.95863],[92.17001,21.96154],[92.16731,21.96391],[92.16772,21.96857],[92.17831,21.96381],[92.18422,21.96353],[92.18899,21.96188],[92.19381,21.96275],[92.19519,21.96386],[92.1946,21.96467],[92.19515,21.96525],[92.19077,21.96683],[92.18881,21.96934],[92.19064,21.97121],[92.19383,21.97269],[92.20041,21.97279],[92.20094,21.97423],[92.19913,21.97826],[92.20017,21.98138],[92.20284,21.9841],[92.21376,21.99143],[92.21567,21.99341],[92.21701,21.99701],[92.22645,21.99926],[92.23271,21.99937],[92.24613,21.99595],[92.24946,21.99368],[92.25107,21.99093],[92.25226,21.9878],[92.25243,21.98186],[92.24843,21.9695],[92.24933,21.95823],[92.25232,21.95206],[92.25792,21.94403],[92.26218,21.94205],[92.28658,21.94735],[92.29743,21.95394],[92.29975,21.95903],[92.30338,21.96182],[92.30679,21.96335]]]}},{"type":"Feature","properties":{"name":"Naikkhongchhari","district_id":"bandarban","pcode":"200373","sql_upazila_id":null,"sql_name_bn":null},"geometry":{"type":"Polygon","coordinates":[[[92.15059,21.59955],[92.15193,21.60671],[92.15142,21.61028],[92.14939,21.6134],[92.14124,21.61856],[92.13312,21.62183],[92.12697,21.62712],[92.12227,21.62835],[92.11925,21.63009],[92.11247,21.63621],[92.10858,21.63722],[92.10897,21.6401],[92.1153,21.64272],[92.12008,21.64756],[92.15909,21.64772],[92.17268,21.64869],[92.19465,21.65273],[92.20265,21.65301],[92.22406,21.65671],[92.22761,21.65695],[92.22969,21.65606],[92.2283,21.65037],[92.22404,21.64073],[92.21584,21.62741],[92.20786,21.61206],[92.21105,21.60686],[92.21432,21.60566],[92.21633,21.60587],[92.23265,21.61349],[92.26496,21.61455],[92.27366,21.6158],[92.27584,21.61475],[92.28364,21.60247],[92.28593,21.60136],[92.29423,21.59222],[92.31177,21.57813],[92.31572,21.57257],[92.32673,21.56107],[92.33393,21.5504],[92.36439,21.52059],[92.37517,21.49443],[92.37711,21.48355],[92.37954,21.47723],[92.38006,21.4721],[92.37763,21.47352],[92.36672,21.47219],[92.35702,21.4674],[92.34914,21.45782],[92.34162,21.45445],[92.33021,21.42871],[92.32017,21.41747],[92.31431,21.4162],[92.31046,21.4129],[92.30433,21.41301],[92.30081,21.41638],[92.29442,21.41716],[92.29239,21.41866],[92.29096,21.422],[92.28945,21.42341],[92.28542,21.42386],[92.26999,21.42308],[92.26568,21.41885],[92.26369,21.39928],[92.26581,21.39633],[92.26731,21.3957],[92.25997,21.38999],[92.2549,21.38761],[92.25358,21.37127],[92.25378,21.363],[92.25586,21.358],[92.24902,21.35333],[92.24316,21.3525],[92.23531,21.35268],[92.23209,21.35138],[92.22904,21.34687],[92.22589,21.34491],[92.22437,21.34554],[92.22114,21.34393],[92.21365,21.33917],[92.1986,21.323],[92.19764,21.31855],[92.19789,21.3125],[92.20407,21.2898],[92.21515,21.26776],[92.21829,21.25955],[92.21834,21.25752],[92.22098,21.25646],[92.22084,21.25108],[92.22465,21.2438],[92.22412,21.23932],[92.22492,21.23657],[92.22745,21.23394],[92.2285,21.23051],[92.22014,21.22566],[92.21293,21.21199],[92.20856,21.21678],[92.2074,21.2155],[92.20493,21.21101],[92.20259,21.19994],[92.20101,21.19725],[92.2002,21.19706],[92.19675,21.19685],[92.19474,21.20366],[92.19607,21.20924],[92.19071,21.2111],[92.18689,21.21675],[92.18631,21.2191],[92.18766,21.22786],[92.18891,21.23035],[92.19383,21.23482],[92.19352,21.23698],[92.19432,21.23919],[92.19378,21.24521],[92.19562,21.25266],[92.19612,21.25711],[92.19556,21.25978],[92.19227,21.26232],[92.18853,21.26282],[92.18273,21.26538],[92.18288,21.26904],[92.18191,21.27371],[92.17714,21.28162],[92.16909,21.2907],[92.16246,21.30268],[92.15656,21.30999],[92.15581,21.3145],[92.15022,21.32702],[92.14796,21.33635],[92.14214,21.34318],[92.14137,21.35266],[92.13714,21.36415],[92.13521,21.3752],[92.13374,21.3784],[92.13158,21.38012],[92.13127,21.38377],[92.13261,21.38845],[92.1304,21.39291],[92.13495,21.39729],[92.13778,21.39779],[92.14387,21.3939],[92.14659,21.39406],[92.15089,21.40193],[92.15306,21.4035],[92.15578,21.40735],[92.1569,21.42222],[92.15843,21.42506],[92.16308,21.42642],[92.16918,21.42348],[92.17209,21.42392],[92.17377,21.42478],[92.17632,21.42838],[92.1802,21.41863],[92.1839,21.41948],[92.18534,21.41757],[92.18967,21.40498],[92.19514,21.39393],[92.19531,21.39114],[92.19896,21.38402],[92.20476,21.38632],[92.20704,21.38575],[92.20996,21.38619],[92.21617,21.39174],[92.22464,21.39323],[92.23623,21.39249],[92.24199,21.394],[92.24305,21.39701],[92.24303,21.39985],[92.23877,21.40284],[92.2383,21.40497],[92.23963,21.41439],[92.23845,21.41699],[92.23261,21.41733],[92.22872,21.41902],[92.2273,21.42225],[92.22713,21.42476],[92.2282,21.42778],[92.2274,21.42997],[92.22541,21.43145],[92.22466,21.43579],[92.22604,21.43754],[92.2306,21.4379],[92.23216,21.43871],[92.23206,21.44509],[92.23553,21.44665],[92.23748,21.44864],[92.2355,21.45021],[92.23499,21.45585],[92.23603,21.4586],[92.23232,21.46921],[92.22171,21.47101],[92.22033,21.47409],[92.21871,21.4836],[92.21715,21.48649],[92.21452,21.48769],[92.21157,21.49307],[92.20898,21.49445],[92.20573,21.49395],[92.19997,21.49489],[92.19729,21.49836],[92.19471,21.49957],[92.19192,21.49435],[92.18917,21.49534],[92.18762,21.49721],[92.18589,21.49718],[92.18317,21.49477],[92.18011,21.4962],[92.17404,21.51006],[92.17184,21.51338],[92.16676,21.51699],[92.16335,21.52974],[92.16443,21.53228],[92.17217,21.54086],[92.1735,21.54356],[92.17677,21.54594],[92.18157,21.54683],[92.18463,21.5493],[92.1907,21.55828],[92.19077,21.56089],[92.1868,21.56931],[92.18493,21.5717],[92.18411,21.57616],[92.18241,21.57954],[92.17752,21.58518],[92.18219,21.59591],[92.17893,21.59996],[92.17252,21.60281],[92.16533,21.59625],[92.16012,21.59361],[92.15449,21.59451],[92.15474,21.59631],[92.15393,21.59688],[92.15059,21.59955]]]}},{"type":"Feature","properties":{"name":"Rowangchhari","district_id":"bandarban","pcode":"200389","sql_upazila_id":"bandarban-rowangchhari","sql_name_bn":"রোয়াংছড়ি"},"geometry":{"type":"Polygon","coordinates":[[[92.29186,22.35933],[92.3127,22.35472],[92.34223,22.34484],[92.37495,22.33733],[92.38957,22.33112],[92.40083,22.32285],[92.41051,22.31149],[92.41524,22.30907],[92.4392,22.28024],[92.44706,22.27421],[92.45784,22.26081],[92.45907,22.25819],[92.47655,22.24277],[92.47835,22.23949],[92.47942,22.23524],[92.48224,22.21931],[92.48381,22.21758],[92.49132,22.20149],[92.49247,22.19507],[92.48629,22.18858],[92.47913,22.18553],[92.46948,22.1792],[92.45336,22.16607],[92.4326,22.15846],[92.40726,22.15321],[92.37057,22.13918],[92.3632,22.13072],[92.35862,22.12753],[92.34969,22.12252],[92.34498,22.12185],[92.34062,22.11974],[92.33702,22.11681],[92.33145,22.10415],[92.33145,22.09997],[92.33236,22.09592],[92.33775,22.09037],[92.34024,22.08595],[92.34041,22.08144],[92.33869,22.06567],[92.33855,22.05155],[92.33088,22.03999],[92.32163,22.03054],[92.3188,22.02601],[92.31476,22.0232],[92.30887,22.01514],[92.30514,22.00635],[92.30426,21.99831],[92.29831,22.01466],[92.29798,22.01796],[92.29913,22.02177],[92.29791,22.0269],[92.29289,22.03296],[92.28786,22.0413],[92.27623,22.07144],[92.26618,22.09256],[92.25934,22.10177],[92.2445,22.12932],[92.2322,22.15599],[92.22257,22.1725],[92.21623,22.18515],[92.21573,22.18837],[92.21602,22.18984],[92.22559,22.19301],[92.22807,22.19499],[92.2277,22.20821],[92.22916,22.21269],[92.23152,22.2149],[92.23665,22.21775],[92.25468,22.2215],[92.25758,22.22151],[92.26705,22.21889],[92.27068,22.21051],[92.2778,22.19864],[92.28388,22.19115],[92.28795,22.19006],[92.29852,22.19217],[92.30716,22.19676],[92.31301,22.20268],[92.31477,22.20611],[92.31423,22.2154],[92.31093,22.22414],[92.30575,22.23154],[92.29698,22.23953],[92.28266,22.24854],[92.28178,22.25914],[92.28472,22.26097],[92.29,22.26719],[92.29137,22.27052],[92.29139,22.27582],[92.28825,22.27999],[92.28451,22.28124],[92.28258,22.28315],[92.27505,22.28462],[92.27321,22.28714],[92.272,22.29206],[92.27268,22.29773],[92.27479,22.29996],[92.27688,22.3053],[92.27775,22.31672],[92.27943,22.32552],[92.28939,22.35019],[92.29186,22.35933]]]}},{"type":"Feature","properties":{"name":"Ruma","district_id":"bandarban","pcode":"200391","sql_upazila_id":"bandarban-ruma","sql_name_bn":"রুমা"},"geometry":{"type":"Polygon","coordinates":[[[92.49247,22.19507],[92.49468,22.18289],[92.49548,22.17048],[92.49733,22.16681],[92.50147,22.15362],[92.50211,22.14807],[92.50572,22.13517],[92.50675,22.12871],[92.51157,22.12165],[92.51289,22.11649],[92.51481,22.11276],[92.51446,22.10673],[92.51533,22.09989],[92.53096,22.07028],[92.53287,22.06471],[92.5351,22.06234],[92.5402,22.04605],[92.54437,22.03887],[92.55396,22.01307],[92.57072,21.98457],[92.5801,21.96671],[92.58362,21.95398],[92.59659,21.92592],[92.58946,21.92163],[92.58662,21.91712],[92.57071,21.91],[92.55005,21.89914],[92.53951,21.89581],[92.51502,21.88514],[92.5043,21.88132],[92.48378,21.87626],[92.47473,21.87262],[92.47277,21.8705],[92.46747,21.86925],[92.4661,21.87049],[92.46251,21.87762],[92.46128,21.88167],[92.45332,21.89135],[92.44754,21.90147],[92.44406,21.90467],[92.44031,21.91603],[92.43396,21.92264],[92.43286,21.92589],[92.42209,21.94167],[92.41113,21.93675],[92.39384,21.92744],[92.38433,21.92091],[92.36869,21.90837],[92.35072,21.89723],[92.34456,21.89163],[92.33648,21.88541],[92.33205,21.88337],[92.33012,21.88123],[92.32859,21.88259],[92.3274,21.89152],[92.32679,21.90713],[92.3233,21.92054],[92.31908,21.93174],[92.31119,21.95825],[92.30679,21.96335],[92.30996,21.97266],[92.31112,21.9808],[92.31087,21.9839],[92.30637,21.99223],[92.30426,21.99831],[92.30514,22.00635],[92.30887,22.01514],[92.31476,22.0232],[92.3188,22.02601],[92.32163,22.03054],[92.33088,22.03999],[92.33855,22.05155],[92.33869,22.06567],[92.34041,22.08144],[92.34024,22.08595],[92.33775,22.09037],[92.33236,22.09592],[92.33145,22.09997],[92.33145,22.10415],[92.33464,22.11255],[92.33702,22.11681],[92.34062,22.11974],[92.34498,22.12185],[92.34969,22.12252],[92.3632,22.13072],[92.37057,22.13918],[92.40726,22.15321],[92.4326,22.15846],[92.45336,22.16607],[92.46948,22.1792],[92.47913,22.18553],[92.48629,22.18858],[92.49247,22.19507]]]}},{"type":"Feature","properties":{"name":"Thanchi","district_id":"bandarban","pcode":"200395","sql_upazila_id":"bandarban-thanchi","sql_name_bn":"থানচি"},"geometry":{"type":"Polygon","coordinates":[[[92.62543,21.89075],[92.62668,21.88458],[92.62627,21.86988],[92.61442,21.84921],[92.61405,21.84699],[92.61528,21.84601],[92.61309,21.84113],[92.61246,21.83723],[92.61839,21.82517],[92.61654,21.81963],[92.61291,21.81657],[92.60921,21.80594],[92.60731,21.74711],[92.60445,21.74315],[92.60124,21.69922],[92.60362,21.6802],[92.60261,21.65928],[92.60574,21.63959],[92.60904,21.59004],[92.61517,21.54583],[92.61821,21.52981],[92.61944,21.49607],[92.62808,21.44868],[92.6397,21.41078],[92.64243,21.39773],[92.6482,21.3581],[92.65754,21.32625],[92.6656,21.30931],[92.66812,21.30753],[92.66836,21.30609],[92.67222,21.30159],[92.67366,21.29128],[92.66867,21.28405],[92.66167,21.27934],[92.64221,21.2723],[92.63013,21.26403],[92.61869,21.24957],[92.6142,21.24213],[92.60122,21.24165],[92.59601,21.24404],[92.59709,21.25449],[92.59515,21.26127],[92.5948,21.26693],[92.59348,21.27225],[92.58371,21.28655],[92.58191,21.29612],[92.57666,21.30807],[92.57333,21.31259],[92.57079,21.31967],[92.56649,21.33374],[92.56546,21.34265],[92.56125,21.34907],[92.55804,21.35729],[92.55916,21.35889],[92.55991,21.36292],[92.56039,21.37283],[92.54239,21.44074],[92.54181,21.45079],[92.53961,21.4635],[92.52975,21.50018],[92.528,21.51268],[92.52284,21.53077],[92.51483,21.54998],[92.51128,21.56108],[92.50701,21.5687],[92.5081,21.57642],[92.51151,21.58558],[92.51357,21.60449],[92.51151,21.61678],[92.50725,21.62681],[92.49563,21.64869],[92.47209,21.68543],[92.45328,21.72358],[92.4524,21.72378],[92.44952,21.72923],[92.44178,21.7479],[92.43879,21.75244],[92.42294,21.78706],[92.40975,21.8078],[92.39815,21.82199],[92.38412,21.84778],[92.37514,21.8687],[92.3572,21.90086],[92.36869,21.90837],[92.38433,21.92091],[92.39384,21.92744],[92.41113,21.93675],[92.42209,21.94167],[92.43286,21.92589],[92.43396,21.92264],[92.44031,21.91603],[92.44406,21.90467],[92.44754,21.90147],[92.45332,21.89135],[92.46128,21.88167],[92.46251,21.87762],[92.4661,21.87049],[92.46747,21.86925],[92.47277,21.8705],[92.47473,21.87262],[92.48378,21.87626],[92.5043,21.88132],[92.51502,21.88514],[92.53951,21.89581],[92.55005,21.89914],[92.57071,21.91],[92.58662,21.91712],[92.58946,21.92163],[92.59659,21.92592],[92.60131,21.91979],[92.60932,21.90631],[92.61475,21.90121],[92.61649,21.89655],[92.62068,21.89215],[92.62543,21.89075]]]}}]}