{"type":"FeatureCollection","features":[{"type":"Feature","properties":{"name":"Amtali","district_id":"barguna","pcode":"100409","sql_upazila_id":"barguna-amtali","sql_name_bn":"আমতলী"},"geometry":{"type":"MultiPolygon","coordinates":[[[[90.10386,21.87963],[90.1036,21.87836],[90.10193,21.87809],[90.10275,21.87864],[90.10249,21.87948],[90.10386,21.87977],[90.10386,21.87963]]],[[[90.02618,21.91988],[90.02531,21.91887],[90.02274,21.91948],[90.0236,21.92143],[90.02518,21.9213],[90.02603,21.92021],[90.02618,21.91988]]],[[[90.02846,21.94504],[90.02795,21.94416],[90.02666,21.94523],[90.03025,21.94853],[90.0286,21.9455],[90.02846,21.94504]]],[[[90.34328,22.17063],[90.34131,22.16795],[90.34184,22.17034],[90.34447,22.17192],[90.34328,22.17063]]],[[[90.22583,22.215],[90.22334,22.21972],[90.22556,22.21861],[90.22583,22.21528],[90.22583,22.215]]],[[[90.27177,22.27001],[90.27677,22.26744],[90.27695,22.26265],[90.2824,22.25632],[90.28581,22.25536],[90.29298,22.256],[90.29473,22.25457],[90.29382,22.25054],[90.29032,22.24908],[90.28665,22.24128],[90.28806,22.23869],[90.29165,22.23906],[90.29511,22.24178],[90.30371,22.245],[90.3133,22.2507],[90.31461,22.25341],[90.33816,22.26198],[90.33915,22.25995],[90.33474,22.25213],[90.33334,22.24423],[90.33511,22.24344],[90.33962,22.24402],[90.34091,22.24147],[90.33893,22.23667],[90.34608,22.2369],[90.34784,22.23582],[90.35073,22.23125],[90.35495,22.22783],[90.35977,22.23034],[90.36496,22.23079],[90.36528,22.22872],[90.36427,22.22595],[90.36295,22.22467],[90.36327,22.21884],[90.36259,22.21651],[90.36449,22.21401],[90.36103,22.20508],[90.36193,22.20175],[90.36445,22.20239],[90.369,22.20157],[90.37511,22.19937],[90.37537,22.1956],[90.36803,22.18699],[90.36534,22.18534],[90.36405,22.18137],[90.35731,22.18023],[90.35699,22.17784],[90.35379,22.17569],[90.35059,22.17599],[90.35659,22.18182],[90.35627,22.18295],[90.35424,22.18049],[90.34054,22.16959],[90.34141,22.16497],[90.3399,22.1597],[90.33991,22.15342],[90.34203,22.14956],[90.34251,22.14691],[90.34129,22.13672],[90.34196,22.13396],[90.34619,22.13124],[90.3469,22.12814],[90.34322,22.11778],[90.33836,22.11328],[90.33422,22.10413],[90.33344,22.10061],[90.32962,22.09808],[90.32124,22.09594],[90.31813,22.09242],[90.31803,22.08911],[90.31956,22.08645],[90.31697,22.07972],[90.3131,22.07741],[90.30865,22.07284],[90.30462,22.07601],[90.30111,22.07588],[90.29527,22.07425],[90.29626,22.06971],[90.29466,22.06085],[90.29343,22.06018],[90.2863,22.0601],[90.28775,22.05841],[90.29425,22.05469],[90.29533,22.05267],[90.2946,22.05132],[90.2899,22.04998],[90.28665,22.04762],[90.28104,22.04707],[90.28111,22.04947],[90.28779,22.05089],[90.28979,22.05234],[90.28994,22.05428],[90.28739,22.05681],[90.27693,22.06041],[90.2788,22.05813],[90.28773,22.05542],[90.28926,22.05404],[90.28899,22.05307],[90.28145,22.0509],[90.2798,22.04876],[90.27967,22.04692],[90.27176,22.04536],[90.2661,22.04538],[90.2595,22.04725],[90.25654,22.04686],[90.25468,22.04451],[90.25268,22.03194],[90.25094,22.02907],[90.24774,22.02675],[90.24126,22.02623],[90.24219,22.02745],[90.24139,22.02833],[90.23995,22.02634],[90.23727,22.0266],[90.23798,22.03012],[90.22295,22.03191],[90.2237,22.03451],[90.23426,22.03797],[90.23711,22.03436],[90.24493,22.03869],[90.24606,22.04203],[90.2384,22.04084],[90.23343,22.04135],[90.22977,22.04281],[90.24007,22.05278],[90.23987,22.05416],[90.23358,22.05596],[90.22276,22.06078],[90.21962,22.06348],[90.21871,22.06624],[90.21613,22.06864],[90.21132,22.06824],[90.20712,22.06975],[90.20228,22.07313],[90.20276,22.07495],[90.20588,22.07412],[90.20971,22.07473],[90.21139,22.07776],[90.21041,22.08007],[90.20732,22.08203],[90.20472,22.08591],[90.19859,22.08685],[90.18964,22.08387],[90.18834,22.08144],[90.19109,22.07139],[90.18642,22.06967],[90.18662,22.06527],[90.19017,22.06001],[90.19386,22.05997],[90.19873,22.06254],[90.20225,22.06297],[90.20424,22.06127],[90.20096,22.05838],[90.20091,22.04999],[90.20318,22.04931],[90.20639,22.05197],[90.21159,22.05105],[90.21518,22.04931],[90.2151,22.04629],[90.21177,22.04608],[90.20821,22.04411],[90.20782,22.03927],[90.20863,22.03731],[90.21523,22.03089],[90.21427,22.02936],[90.21421,22.02731],[90.21062,22.02865],[90.21022,22.02997],[90.20582,22.03098],[90.19891,22.0304],[90.20432,22.02783],[90.20667,22.02394],[90.20753,22.02164],[90.2054,22.01964],[90.20193,22.02366],[90.19675,22.02321],[90.19044,22.02432],[90.18806,22.02112],[90.18437,22.02064],[90.18361,22.01963],[90.18697,22.0163],[90.18594,22.01278],[90.18626,22.01067],[90.18202,22.00648],[90.18337,22.00166],[90.18803,21.99893],[90.1903,21.9938],[90.18729,21.99181],[90.1882,21.98894],[90.19186,21.98508],[90.18829,21.98121],[90.18179,21.98104],[90.17276,21.97754],[90.17093,21.9781],[90.16971,21.98031],[90.16553,21.98376],[90.16308,21.98446],[90.15636,21.98404],[90.15195,21.98091],[90.14709,21.97501],[90.14415,21.96984],[90.13584,21.96076],[90.13255,21.9528],[90.13348,21.94625],[90.14236,21.93426],[90.14385,21.9314],[90.14369,21.92982],[90.13923,21.92867],[90.12006,21.92944],[90.11703,21.92813],[90.11389,21.92545],[90.11121,21.92198],[90.11028,21.91893],[90.11295,21.90701],[90.11241,21.90201],[90.10061,21.88462],[90.08733,21.87114],[90.08183,21.8682],[90.07548,21.86175],[90.06903,21.85987],[90.06366,21.85974],[90.05283,21.86224],[90.04874,21.86473],[90.04551,21.86567],[90.03607,21.87273],[90.0312,21.87504],[90.02776,21.87813],[90.02596,21.88016],[90.02585,21.88169],[90.02372,21.88344],[90.02227,21.8914],[90.02234,21.89341],[90.0238,21.89416],[90.02277,21.89536],[90.02396,21.89731],[90.0236,21.90446],[90.02553,21.91293],[90.02696,21.91408],[90.0304,21.92241],[90.02923,21.9269],[90.02866,21.92408],[90.02637,21.92522],[90.02457,21.92414],[90.02379,21.92657],[90.02534,21.92933],[90.02592,21.93304],[90.02966,21.93825],[90.03105,21.94779],[90.03227,21.9496],[90.0342,21.95054],[90.04357,21.95222],[90.0536,21.95565],[90.06554,21.96453],[90.06937,21.9684],[90.07382,21.97473],[90.07642,21.98098],[90.07636,21.98996],[90.07445,22],[90.07478,22.00426],[90.08121,22.02269],[90.08939,22.04012],[90.09071,22.04092],[90.09175,22.04435],[90.09978,22.05226],[90.10826,22.05754],[90.12522,22.07037],[90.1408,22.08515],[90.1511,22.0996],[90.15837,22.11454],[90.16366,22.11551],[90.17859,22.10754],[90.18858,22.10615],[90.1961,22.10756],[90.20269,22.1103],[90.2102,22.11439],[90.216,22.12006],[90.2215,22.12999],[90.22472,22.14139],[90.22363,22.14739],[90.22564,22.16352],[90.22778,22.16722],[90.23333,22.17167],[90.23854,22.18302],[90.23966,22.18979],[90.23719,22.2045],[90.23116,22.21696],[90.23233,22.22649],[90.23053,22.22835],[90.22633,22.23007],[90.22512,22.23257],[90.22652,22.23411],[90.23379,22.23592],[90.23653,22.23779],[90.23772,22.23999],[90.23851,22.24621],[90.24319,22.25208],[90.24648,22.26024],[90.24891,22.26081],[90.25642,22.25861],[90.26945,22.26176],[90.27186,22.26415],[90.2718,22.26987],[90.27177,22.27001]]],[[[90.27177,22.27001],[90.27139,22.27833],[90.27028,22.28028],[90.26826,22.28106],[90.26559,22.28003],[90.26179,22.2801],[90.25902,22.2814],[90.2616,22.28599],[90.26261,22.29379],[90.26502,22.29906],[90.26476,22.3008],[90.26353,22.30161],[90.26447,22.2996],[90.26139,22.29556],[90.26056,22.29333],[90.26028,22.28695],[90.2575,22.28139],[90.25833,22.27972],[90.26111,22.27861],[90.26694,22.27917],[90.26972,22.27861],[90.26917,22.27278],[90.27084,22.2675],[90.27028,22.26389],[90.25777,22.26],[90.24889,22.2625],[90.24555,22.26194],[90.24361,22.25944],[90.2425,22.25333],[90.23722,22.24694],[90.23583,22.23889],[90.23306,22.23694],[90.2275,22.23639],[90.22389,22.23305],[90.22361,22.23139],[90.22583,22.22861],[90.23111,22.22611],[90.23083,22.22361],[90.22889,22.22222],[90.21972,22.22639],[90.21917,22.2275],[90.22,22.23694],[90.21972,22.24389],[90.22083,22.25306],[90.22028,22.2625],[90.21722,22.27972],[90.21278,22.28472],[90.2107,22.29013],[90.21665,22.2915],[90.21626,22.29288],[90.21783,22.29315],[90.22514,22.29395],[90.22644,22.29186],[90.22926,22.2934],[90.22825,22.29542],[90.22858,22.29798],[90.23109,22.29981],[90.23347,22.29849],[90.24072,22.2977],[90.24598,22.29604],[90.24815,22.29838],[90.25004,22.2977],[90.25289,22.29832],[90.25503,22.29976],[90.26172,22.29869],[90.26288,22.30265],[90.26465,22.30421],[90.26634,22.30314],[90.26905,22.29623],[90.26438,22.28554],[90.26401,22.28316],[90.27216,22.28342],[90.27522,22.28272],[90.27262,22.28004],[90.2721,22.27258],[90.27177,22.27001]]]]}},{"type":"Feature","properties":{"name":"Bamna","district_id":"barguna","pcode":"100419","sql_upazila_id":"barguna-bamna","sql_name_bn":"বামনা"},"geometry":{"type":"MultiPolygon","coordinates":[[[[90.10194,22.29278],[90.09944,22.2865],[90.10111,22.29111],[90.10083,22.29222],[90.10194,22.29278]]],[[[90.08401,22.35016],[90.08968,22.34579],[90.08889,22.34528],[90.08472,22.34722],[90.08083,22.35028],[90.0815,22.35108],[90.08401,22.35016]]],[[[90.07403,22.34593],[90.07714,22.34466],[90.07897,22.34626],[90.08012,22.34932],[90.0825,22.34694],[90.0875,22.34472],[90.08916,22.34306],[90.08972,22.34167],[90.08861,22.33639],[90.08945,22.32944],[90.09278,22.32444],[90.09993,22.31799],[90.10416,22.31222],[90.10362,22.30722],[90.09778,22.29222],[90.09583,22.28333],[90.08889,22.27305],[90.08334,22.26805],[90.07833,22.26139],[90.07555,22.25611],[90.07333,22.24806],[90.07278,22.24222],[90.07139,22.23861],[90.07137,22.23284],[90.06889,22.21945],[90.06611,22.2175],[90.05611,22.21445],[90.0325,22.21139],[90.02613,22.20889],[90.026,22.21701],[90.02808,22.21862],[90.02824,22.2205],[90.02585,22.22124],[90.02214,22.21795],[90.01875,22.21774],[90.01946,22.22628],[90.02287,22.23934],[90.02575,22.24607],[90.02747,22.2478],[90.03129,22.25771],[90.02585,22.26422],[90.02337,22.27095],[90.0239,22.27482],[90.02666,22.28161],[90.02766,22.28935],[90.03288,22.29515],[90.03558,22.30248],[90.04146,22.30304],[90.04276,22.30552],[90.04384,22.31424],[90.04674,22.31645],[90.0557,22.31243],[90.05836,22.31516],[90.05903,22.31714],[90.05827,22.32123],[90.05285,22.32882],[90.0522,22.33237],[90.05928,22.35071],[90.05876,22.35472],[90.064,22.3542],[90.06656,22.35317],[90.06808,22.35223],[90.06899,22.34952],[90.07153,22.34757],[90.07403,22.34593]]]]}},{"type":"Feature","properties":{"name":"Barguna Sadar","district_id":"barguna","pcode":"100428","sql_upazila_id":"barguna-barguna-sadar","sql_name_bn":"বরগুনা সদর"},"geometry":{"type":"MultiPolygon","coordinates":[[[[90.03029,22.1253],[90.02979,22.12558],[90.03088,22.12663],[90.03329,22.12777],[90.03304,22.12665],[90.03029,22.12548],[90.03029,22.1253]]],[[[90.17564,22.24218],[90.1808,22.23429],[90.18571,22.23162],[90.19681,22.2289],[90.20502,22.22523],[90.20657,22.22297],[90.21068,22.22182],[90.21443,22.21586],[90.21819,22.20639],[90.22139,22.20167],[90.22806,22.195],[90.23,22.19194],[90.23,22.19028],[90.21639,22.17111],[90.21394,22.1654],[90.20978,22.15194],[90.20815,22.14043],[90.20504,22.12675],[90.20252,22.12394],[90.19949,22.12337],[90.1761,22.12723],[90.17167,22.12639],[90.17028,22.12722],[90.16778,22.12639],[90.165,22.12722],[90.1625,22.12583],[90.15778,22.12611],[90.15667,22.125],[90.15528,22.125],[90.15111,22.1225],[90.14445,22.11555],[90.1373,22.10311],[90.13668,22.10066],[90.1252,22.08801],[90.1077,22.07558],[90.1003,22.07202],[90.08703,22.06108],[90.08115,22.05324],[90.06555,22.025],[90.06111,22.01111],[90.06135,22.00667],[90.06009,22.00251],[90.06028,22],[90.05946,21.99846],[90.05666,21.97791],[90.05588,21.97771],[90.05524,21.9792],[90.05373,21.98007],[90.04163,21.98201],[90.03891,21.98154],[90.03248,21.98298],[90.0276,21.98313],[90.02188,21.98232],[90.01725,21.98287],[90.01353,21.98435],[90.01266,21.98583],[90.00894,21.98825],[90.00565,21.99349],[90.0015,21.99591],[90,21.99528],[89.99908,21.99587],[89.99722,22],[89.99597,22.00042],[89.99503,22.00206],[89.98753,22.02579],[89.98679,22.03513],[89.98833,22.03718],[89.99139,22.03857],[89.9959,22.03972],[90.00694,22.04028],[90.01556,22.04278],[90.02361,22.0475],[90.02749,22.05139],[90.03278,22.06111],[90.035,22.06889],[90.035,22.08167],[90.03083,22.09722],[90.03,22.10583],[90.03111,22.11667],[90.03445,22.12889],[90.03722,22.13194],[90.06306,22.1475],[90.06722,22.15167],[90.07028,22.15861],[90.07361,22.16083],[90.07332,22.16167],[90.07195,22.16139],[90.07057,22.1625],[90.06795,22.17039],[90.06248,22.17749],[90.055,22.18111],[90.04195,22.18583],[90.03639,22.18917],[90.03056,22.19083],[90.02834,22.19194],[90.025,22.19528],[90.02722,22.19695],[90.03278,22.19889],[90.03861,22.19972],[90.05805,22.20583],[90.07827,22.21593],[90.08621,22.21214],[90.09982,22.21651],[90.10181,22.21675],[90.10393,22.21552],[90.10879,22.215],[90.11297,22.21713],[90.11412,22.21876],[90.11607,22.23909],[90.11823,22.24127],[90.12128,22.24268],[90.12744,22.24243],[90.13068,22.24104],[90.13528,22.24043],[90.14398,22.24068],[90.15347,22.24269],[90.16354,22.24851],[90.1711,22.24291],[90.17564,22.24218]]]]}},{"type":"Feature","properties":{"name":"Betagi","district_id":"barguna","pcode":"100447","sql_upazila_id":"barguna-betagi","sql_name_bn":"বেতাগী"},"geometry":{"type":"MultiPolygon","coordinates":[[[[90.08278,22.23972],[90.08278,22.23917],[90.08139,22.23972],[90.08139,22.23778],[90.08028,22.23611],[90.08,22.23861],[90.08111,22.24389],[90.08361,22.2425],[90.08305,22.24],[90.08278,22.23972]]],[[[90.08389,22.24389],[90.08253,22.24448],[90.08195,22.24611],[90.08334,22.24833],[90.08528,22.24722],[90.08389,22.24402],[90.08389,22.24389]]],[[[90.08611,22.24861],[90.08556,22.24861],[90.08472,22.25167],[90.08639,22.25167],[90.08694,22.25083],[90.08614,22.24874],[90.08611,22.24861]]],[[[90.10445,22.27861],[90.1019,22.2745],[90.10144,22.27522],[90.10257,22.277],[90.10056,22.27528],[90.10055,22.27861],[90.10194,22.27972],[90.10306,22.27972],[90.1025,22.27889],[90.10306,22.27861],[90.10528,22.28139],[90.10639,22.28139],[90.10611,22.28028],[90.10445,22.27861]]],[[[90.10028,22.27917],[90.09917,22.28056],[90.09944,22.2865],[90.10249,22.29417],[90.10333,22.295],[90.10555,22.295],[90.10861,22.2925],[90.10943,22.28917],[90.10861,22.2875],[90.10917,22.28611],[90.10694,22.28279],[90.10389,22.28056],[90.10028,22.2793],[90.10028,22.27917]]],[[[90.10722,22.29833],[90.10694,22.29694],[90.10445,22.29611],[90.10445,22.29694],[90.10667,22.29833],[90.10722,22.29833]]],[[[90.24875,22.47843],[90.2385,22.46502],[90.23774,22.45945],[90.23901,22.45434],[90.23402,22.44757],[90.23081,22.44796],[90.22831,22.44682],[90.22768,22.44427],[90.23052,22.43729],[90.22928,22.43681],[90.22297,22.42508],[90.21898,22.42152],[90.21794,22.41749],[90.21414,22.41557],[90.20388,22.41553],[90.20067,22.41344],[90.19976,22.40941],[90.19994,22.40449],[90.19369,22.39961],[90.19018,22.39513],[90.18936,22.3924],[90.19081,22.38889],[90.18864,22.38368],[90.19008,22.36624],[90.1856,22.36286],[90.18381,22.36016],[90.18435,22.35524],[90.18361,22.34824],[90.18197,22.34228],[90.17972,22.33902],[90.17221,22.33976],[90.1711,22.33745],[90.17422,22.32978],[90.17749,22.32487],[90.17733,22.32332],[90.175,22.32394],[90.17046,22.32713],[90.16105,22.32826],[90.15205,22.33081],[90.14566,22.33665],[90.1433,22.33386],[90.14336,22.32946],[90.14481,22.32783],[90.14746,22.32783],[90.15237,22.32435],[90.15405,22.32243],[90.15422,22.31968],[90.15533,22.3176],[90.15746,22.32109],[90.16099,22.32135],[90.16332,22.31582],[90.16381,22.3093],[90.16187,22.30575],[90.15852,22.30537],[90.15329,22.30794],[90.15095,22.3056],[90.14951,22.30027],[90.15029,22.29722],[90.14877,22.29098],[90.14853,22.28448],[90.14928,22.28012],[90.15098,22.27917],[90.15215,22.27697],[90.15258,22.27211],[90.15368,22.26929],[90.15527,22.2664],[90.15901,22.26352],[90.16025,22.26126],[90.15951,22.25671],[90.16181,22.25529],[90.16354,22.24851],[90.15347,22.24269],[90.14398,22.24068],[90.13528,22.24043],[90.12376,22.24291],[90.11823,22.24127],[90.11607,22.23909],[90.11412,22.21876],[90.11297,22.21713],[90.10879,22.215],[90.10393,22.21552],[90.10181,22.21675],[90.09982,22.21651],[90.08621,22.21214],[90.07827,22.21593],[90.06892,22.21142],[90.07611,22.21728],[90.08111,22.22472],[90.08778,22.24722],[90.08829,22.25115],[90.08667,22.25861],[90.08722,22.26],[90.08916,22.26194],[90.09168,22.26306],[90.10194,22.26556],[90.10611,22.26861],[90.11,22.27361],[90.11361,22.28222],[90.11528,22.29806],[90.11444,22.3036],[90.11333,22.30556],[90.11361,22.30722],[90.1075,22.32528],[90.10306,22.33222],[90.09805,22.34556],[90.10528,22.35222],[90.11222,22.35722],[90.1175,22.36278],[90.12833,22.38194],[90.13306,22.38806],[90.13583,22.39418],[90.13963,22.39852],[90.15199,22.41107],[90.16111,22.41778],[90.16917,22.4225],[90.17611,22.42917],[90.17973,22.43778],[90.175,22.44861],[90.17554,22.45389],[90.17778,22.45917],[90.18889,22.47333],[90.19282,22.48004],[90.19513,22.47569],[90.20956,22.47485],[90.21549,22.47293],[90.22321,22.47667],[90.2338,22.48044],[90.23682,22.48271],[90.24043,22.48331],[90.24812,22.48244],[90.24875,22.47843]]]]}},{"type":"Feature","properties":{"name":"Patharghata","district_id":"barguna","pcode":"100485","sql_upazila_id":null,"sql_name_bn":null},"geometry":{"type":"MultiPolygon","coordinates":[[[[89.98304,21.95044],[89.98225,21.95078],[89.98354,21.95232],[89.98325,21.95642],[89.98512,21.95824],[89.98662,21.95857],[89.98526,21.95346],[89.98354,21.95084],[89.98304,21.95044]]],[[[89.88807,21.96816],[89.88946,21.96666],[89.88976,21.96394],[89.8906,21.96335],[89.89,21.96251],[89.89089,21.9614],[89.89,21.9614],[89.88892,21.9636],[89.88783,21.96389],[89.88725,21.96751],[89.88807,21.9683],[89.88807,21.96816]]],[[[89.89497,21.99808],[89.89833,21.99722],[89.89669,21.99304],[89.89397,21.99526],[89.89363,21.99808],[89.89497,21.99808]]],[[[89.88722,21.99919],[89.88917,21.995],[89.88778,21.9925],[89.89027,21.98806],[89.88861,21.98806],[89.88834,21.98667],[89.88416,21.98722],[89.88528,21.98583],[89.88167,21.98583],[89.88084,21.98361],[89.88139,21.99028],[89.88361,21.99417],[89.88389,21.99722],[89.88528,21.99915],[89.88667,21.99922],[89.88722,21.99919]]],[[[89.91805,22.00111],[89.915,22.00111],[89.915,22.00194],[89.91309,22.0028],[89.91171,22.00478],[89.91111,22.00695],[89.91472,22.00583],[89.91805,22.00194],[89.91805,22.00111]]],[[[89.90583,22.02917],[89.91028,22.02222],[89.91055,22.02],[89.90916,22.02],[89.90858,22.02223],[89.90667,22.0225],[89.90389,22.02667],[89.9025,22.02694],[89.90194,22.02806],[89.90056,22.02806],[89.90188,22.02717],[89.90083,22.02555],[89.90111,22.02472],[89.89861,22.0239],[89.89722,22.02194],[89.89778,22.01667],[89.89972,22.01389],[89.89972,22.01111],[89.89833,22.01111],[89.89417,22.01639],[89.89361,22.02],[89.89333,22.02333],[89.89417,22.02583],[89.89528,22.02639],[89.89584,22.03361],[89.89833,22.03333],[89.90528,22.02944],[89.90583,22.02917]]],[[[89.90389,22.05445],[89.90389,22.0525],[89.90278,22.05222],[89.90334,22.05056],[89.90278,22.04807],[89.89917,22.05305],[89.89833,22.05305],[89.89888,22.04944],[89.8975,22.04667],[89.89972,22.04333],[89.89667,22.04278],[89.89611,22.04389],[89.89694,22.04583],[89.89639,22.04639],[89.89667,22.04972],[89.8975,22.05028],[89.89667,22.05139],[89.89806,22.06001],[89.89944,22.06001],[89.89917,22.05889],[89.90334,22.055],[89.90389,22.05445]]],[[[90.0225,22.05361],[90.02194,22.05361],[90.0225,22.055],[90.02028,22.0575],[90.02028,22.06001],[90.02167,22.06083],[90.02333,22.06055],[90.02389,22.05806],[90.02389,22.05528],[90.0225,22.05388],[90.0225,22.05361]]],[[[90.01444,22.06111],[90.01195,22.0625],[90.01389,22.06307],[90.01639,22.0625],[90.01444,22.06139],[90.01444,22.06111]]],[[[90.01833,22.06083],[90.0175,22.06195],[90.01806,22.06333],[90.01972,22.06361],[90.01972,22.0625],[90.01833,22.06111],[90.01833,22.06083]]],[[[90.04639,22.17667],[90.03694,22.17611],[90.02833,22.17833],[90.02444,22.18194],[90.02306,22.18778],[90.03694,22.18528],[90.04667,22.17917],[90.04723,22.1775],[90.04639,22.17667]]],[[[90.02778,22.18778],[90.02333,22.18944],[90.0225,22.19111],[90.02722,22.19],[90.03,22.18806],[90.02778,22.18778]]],[[[90.01875,22.21774],[90.02214,22.21795],[90.02585,22.22124],[90.02824,22.2205],[90.02808,22.21862],[90.026,22.21701],[90.02613,22.20889],[90.02084,22.20472],[90.01694,22.19695],[90.01667,22.18611],[90.01861,22.18056],[90.02167,22.17583],[90.02611,22.1725],[90.03361,22.16861],[90.04389,22.16611],[90.05666,22.165],[90.05945,22.16361],[90.06084,22.16195],[90.03667,22.14972],[90.03028,22.14528],[90.02028,22.135],[90.01583,22.12778],[90.01333,22.1175],[90.01304,22.11],[90.01556,22.1],[90.01946,22.09444],[90.0225,22.0875],[90.02306,22.08167],[90.01889,22.07472],[90.00916,22.06582],[90.00389,22.06195],[89.99007,22.05472],[89.98397,22.05048],[89.98055,22.04666],[89.97672,22.04052],[89.97282,22.03307],[89.97199,22.02923],[89.97139,22.02501],[89.97171,22.01635],[89.97416,22.00972],[89.97916,22.00222],[89.98212,21.98848],[89.98758,21.9716],[89.98907,21.96354],[89.98801,21.96064],[89.98473,21.96122],[89.98116,21.96575],[89.98424,21.95936],[89.98056,21.95483],[89.9817,21.95477],[89.98149,21.95194],[89.98028,21.95248],[89.9792,21.95161],[89.97894,21.95012],[89.97672,21.9487],[89.97173,21.94742],[89.96783,21.94443],[89.9641,21.94482],[89.95902,21.94328],[89.95509,21.94374],[89.94639,21.94695],[89.93729,21.95465],[89.93658,21.95925],[89.9383,21.962],[89.93616,21.96482],[89.93559,21.96374],[89.93465,21.96395],[89.93143,21.96881],[89.93361,21.97836],[89.93447,21.99042],[89.93179,21.99713],[89.93111,22],[89.93195,22.00028],[89.92389,22.01333],[89.91906,22.01857],[89.91698,22.02215],[89.91387,22.03032],[89.90749,22.05658],[89.90056,22.07083],[89.90056,22.07278],[89.90467,22.08413],[89.90829,22.09812],[89.91,22.10909],[89.90945,22.11865],[89.91117,22.12762],[89.91134,22.13727],[89.90736,22.1537],[89.90713,22.15769],[89.91225,22.15577],[89.91223,22.15641],[89.92776,22.15784],[89.93633,22.16016],[89.94032,22.16202],[89.94292,22.1651],[89.947,22.17328],[89.95869,22.16745],[89.96169,22.16693],[89.96342,22.16923],[89.96272,22.1733],[89.9635,22.18012],[89.96848,22.18225],[89.97195,22.18794],[89.97129,22.19109],[89.96632,22.2017],[89.96647,22.21248],[89.96797,22.21856],[89.97241,22.21841],[89.97142,22.21095],[89.97163,22.20729],[89.97321,22.20366],[89.98281,22.19803],[89.98575,22.20219],[89.98711,22.20234],[89.9887,22.19722],[89.991,22.19529],[89.99358,22.195],[89.99527,22.19622],[89.99569,22.203],[89.9968,22.20531],[90.002,22.20886],[90.00069,22.21317],[90.00004,22.22392],[90.00135,22.22691],[90.01946,22.22628],[90.01886,22.21973],[90.01875,22.21774]]]]}}]}