{"type":"FeatureCollection","features":[{"type":"Feature","properties":{"name":"Agailjhara","district_id":"barishal","pcode":"100602","sql_upazila_id":"barishal-agailjhara","sql_name_bn":"আগৈলঝাড়া"},"geometry":{"type":"Polygon","coordinates":[[[90.13228,23.02925],[90.14677,23.03196],[90.15907,23.03196],[90.16644,23.03419],[90.16891,23.03614],[90.17197,23.03652],[90.18156,23.03551],[90.18819,23.03255],[90.19028,23.02971],[90.19138,23.02688],[90.19048,23.02142],[90.19449,23.01561],[90.19601,23.01431],[90.19926,23.01333],[90.20309,23.01016],[90.20629,23.00929],[90.20828,23.00278],[90.20734,23.00006],[90.20123,22.9984],[90.19937,22.99905],[90.19483,22.99841],[90.18907,22.99655],[90.18691,22.99438],[90.18571,22.99182],[90.18558,22.98909],[90.18738,22.98213],[90.19798,22.96127],[90.20427,22.9533],[90.20604,22.9523],[90.20744,22.94883],[90.21127,22.94589],[90.21133,22.94171],[90.21942,22.93347],[90.22012,22.93162],[90.21941,22.91942],[90.21574,22.91214],[90.21307,22.9098],[90.20786,22.90952],[90.20876,22.90858],[90.20948,22.90474],[90.20821,22.9019],[90.20084,22.90243],[90.19807,22.90541],[90.1931,22.90712],[90.19285,22.90467],[90.18951,22.90475],[90.18681,22.90606],[90.17984,22.90731],[90.17616,22.90882],[90.17497,22.9108],[90.17533,22.91255],[90.17295,22.9162],[90.16145,22.91744],[90.15795,22.91866],[90.14226,22.91821],[90.1407,22.9158],[90.13655,22.91572],[90.10693,22.91885],[90.10345,22.91841],[90.0685,22.92347],[90.06254,22.92572],[90.05692,22.92999],[90.05921,22.93367],[90.06014,22.93834],[90.05855,22.9438],[90.05892,22.95299],[90.05784,22.95718],[90.06072,22.96785],[90.06657,22.96635],[90.06944,22.96675],[90.07208,22.96846],[90.07405,22.97288],[90.08015,22.97776],[90.08796,22.98736],[90.0913,22.99407],[90.09449,22.99738],[90.09793,23.00313],[90.10529,23.00462],[90.12181,23.00322],[90.12638,23.0046],[90.12923,23.01064],[90.12891,23.0134],[90.13014,23.01542],[90.12923,23.02076],[90.13118,23.02654],[90.13228,23.02925]]]}},{"type":"Feature","properties":{"name":"Babuganj","district_id":"barishal","pcode":"100603","sql_upazila_id":"barishal-babuganj","sql_name_bn":"বাবুগঞ্জ"},"geometry":{"type":"Polygon","coordinates":[[[90.33028,22.94618],[90.35082,22.94058],[90.35966,22.93545],[90.36354,22.92565],[90.36194,22.915],[90.35036,22.88039],[90.34596,22.87838],[90.34129,22.87986],[90.32674,22.87815],[90.32528,22.88116],[90.32178,22.88033],[90.32303,22.87836],[90.32378,22.87394],[90.3246,22.87467],[90.33438,22.87649],[90.33656,22.87478],[90.34326,22.87668],[90.35204,22.87212],[90.35818,22.86112],[90.35674,22.85173],[90.35709,22.84035],[90.35394,22.83855],[90.34821,22.8372],[90.35197,22.83214],[90.35381,22.82747],[90.35211,22.8242],[90.3493,22.82358],[90.35397,22.81341],[90.36739,22.79755],[90.37466,22.78298],[90.37786,22.77371],[90.38506,22.76777],[90.38008,22.76474],[90.37375,22.75542],[90.37193,22.7457],[90.36574,22.75664],[90.3606,22.76122],[90.35332,22.76614],[90.34937,22.76675],[90.34142,22.76603],[90.33711,22.76699],[90.33116,22.76673],[90.32408,22.76599],[90.32291,22.76356],[90.31523,22.76168],[90.31194,22.75886],[90.30774,22.7573],[90.30743,22.75484],[90.30474,22.75389],[90.30325,22.75181],[90.30713,22.74641],[90.3061,22.74512],[90.30311,22.74433],[90.30342,22.74221],[90.30127,22.74044],[90.29345,22.73759],[90.29016,22.73739],[90.28338,22.74069],[90.28146,22.74068],[90.28048,22.73647],[90.27702,22.73673],[90.27583,22.73841],[90.2652,22.74118],[90.26089,22.74466],[90.25945,22.74839],[90.26009,22.7514],[90.24977,22.75433],[90.24969,22.75793],[90.25368,22.76138],[90.25428,22.76513],[90.25004,22.76638],[90.25015,22.77054],[90.25142,22.77365],[90.254,22.77736],[90.25802,22.77732],[90.25929,22.78084],[90.26323,22.78646],[90.25992,22.78996],[90.26106,22.79336],[90.25955,22.79688],[90.26028,22.79892],[90.26439,22.80385],[90.26037,22.80858],[90.25513,22.80955],[90.25502,22.81235],[90.25668,22.81642],[90.26111,22.82198],[90.26686,22.81921],[90.26811,22.82004],[90.27257,22.82861],[90.26901,22.83235],[90.27026,22.83723],[90.2738,22.84389],[90.28014,22.84271],[90.28075,22.84657],[90.28397,22.85347],[90.28091,22.85691],[90.28714,22.86716],[90.29825,22.88986],[90.30531,22.90049],[90.30685,22.9113],[90.30898,22.91457],[90.31451,22.91934],[90.31842,22.92611],[90.3222,22.92813],[90.32394,22.93071],[90.32786,22.93091],[90.33051,22.92839],[90.33312,22.92861],[90.33504,22.93306],[90.33331,22.94151],[90.33175,22.94378],[90.33028,22.94618]]]}},{"type":"Feature","properties":{"name":"Bakerganj","district_id":"barishal","pcode":"100607","sql_upazila_id":"barishal-bakerganj","sql_name_bn":"বাকেরগঞ্জ"},"geometry":{"type":"MultiPolygon","coordinates":[[[[90.43,22.50139],[90.42917,22.49806],[90.43027,22.4925],[90.43166,22.49111],[90.43195,22.48944],[90.43833,22.48444],[90.43972,22.4825],[90.44055,22.47611],[90.44167,22.47389],[90.44028,22.46806],[90.44083,22.46639],[90.43972,22.46389],[90.43528,22.45945],[90.43305,22.45889],[90.43083,22.45889],[90.42917,22.46],[90.42611,22.46361],[90.42306,22.47417],[90.41889,22.47861],[90.40334,22.48389],[90.3925,22.48556],[90.385,22.48805],[90.38528,22.49139],[90.38389,22.49917],[90.38084,22.50389],[90.38,22.50667],[90.38528,22.50611],[90.39111,22.50389],[90.39722,22.49861],[90.39694,22.49806],[90.39917,22.49639],[90.39944,22.495],[90.40278,22.49139],[90.40417,22.49139],[90.40722,22.495],[90.41,22.50472],[90.41167,22.50472],[90.41389,22.5025],[90.41389,22.50139],[90.41695,22.50139],[90.42416,22.50917],[90.42944,22.51194],[90.4325,22.51194],[90.43361,22.51139],[90.43387,22.50833],[90.43056,22.50167],[90.43,22.50139]]],[[[90.34815,22.5729],[90.35049,22.5725],[90.35169,22.57081],[90.34674,22.5669],[90.34352,22.56294],[90.3362,22.54979],[90.33543,22.54504],[90.33932,22.54306],[90.35113,22.54358],[90.35322,22.54283],[90.34648,22.53242],[90.34476,22.52697],[90.347,22.52421],[90.36155,22.52055],[90.36331,22.519],[90.36385,22.51649],[90.36256,22.51398],[90.35151,22.50802],[90.34921,22.50397],[90.34893,22.50217],[90.34974,22.49974],[90.35386,22.49366],[90.35222,22.48583],[90.35139,22.47472],[90.34805,22.47167],[90.34666,22.47083],[90.33925,22.46961],[90.33793,22.46862],[90.3263,22.4692],[90.31805,22.47361],[90.3125,22.47361],[90.30667,22.47084],[90.30717,22.47648],[90.30006,22.47305],[90.2984,22.47055],[90.29575,22.46921],[90.28294,22.47071],[90.28128,22.47304],[90.28068,22.47579],[90.27859,22.4743],[90.27039,22.46113],[90.26348,22.46141],[90.25591,22.46022],[90.25058,22.4572],[90.23901,22.45434],[90.23774,22.45945],[90.2385,22.46502],[90.24875,22.47843],[90.24812,22.48244],[90.24043,22.48331],[90.23682,22.48271],[90.2338,22.48044],[90.22321,22.47667],[90.21549,22.47293],[90.20956,22.47485],[90.19513,22.47569],[90.19282,22.48004],[90.20222,22.49361],[90.20139,22.49417],[90.2,22.49278],[90.19556,22.48694],[90.19417,22.4875],[90.19444,22.48944],[90.19722,22.49444],[90.20111,22.49833],[90.20765,22.50182],[90.20744,22.49664],[90.22719,22.50754],[90.23555,22.51054],[90.2472,22.51866],[90.26101,22.52433],[90.27409,22.53693],[90.28436,22.54188],[90.28741,22.55157],[90.28377,22.55623],[90.28503,22.55939],[90.29217,22.56254],[90.29831,22.56118],[90.30408,22.55746],[90.30826,22.56101],[90.30938,22.56344],[90.31046,22.57129],[90.31189,22.57372],[90.31841,22.57276],[90.32285,22.57636],[90.32941,22.57929],[90.33548,22.57932],[90.3455,22.57296],[90.34815,22.5729]]],[[[90.51585,22.58209],[90.52554,22.5754],[90.53994,22.56297],[90.5388,22.56107],[90.52709,22.55832],[90.52269,22.55686],[90.52023,22.55492],[90.5201,22.55264],[90.52207,22.55042],[90.52982,22.54885],[90.53254,22.54713],[90.53228,22.54474],[90.52877,22.53883],[90.52644,22.53752],[90.52242,22.53945],[90.51718,22.53359],[90.51471,22.53348],[90.51249,22.53131],[90.51051,22.53176],[90.50929,22.53436],[90.50932,22.54172],[90.50629,22.54351],[90.49902,22.53984],[90.49604,22.53972],[90.48634,22.53545],[90.4847,22.53446],[90.48267,22.53047],[90.4754,22.52922],[90.47285,22.53077],[90.47237,22.53335],[90.46821,22.53458],[90.46833,22.53271],[90.4665,22.531],[90.46528,22.53222],[90.45698,22.55051],[90.45283,22.56757],[90.45288,22.57217],[90.45422,22.57471],[90.45745,22.57598],[90.46948,22.57823],[90.48611,22.57923],[90.50027,22.58243],[90.51536,22.58223],[90.51585,22.58209]]],[[[90.48202,22.64943],[90.4802,22.6465],[90.47965,22.64264],[90.48029,22.64108],[90.48259,22.63942],[90.48473,22.64045],[90.48828,22.63956],[90.491,22.63715],[90.49334,22.63269],[90.49716,22.62797],[90.50079,22.62742],[90.50889,22.62225],[90.51139,22.60778],[90.51056,22.59722],[90.50889,22.59056],[90.50472,22.58639],[90.50083,22.58611],[90.49754,22.58694],[90.49348,22.58584],[90.47471,22.5855],[90.45556,22.58056],[90.45055,22.57806],[90.44639,22.57472],[90.44473,22.57028],[90.44695,22.56611],[90.44917,22.56389],[90.45143,22.5503],[90.46,22.53167],[90.45917,22.52528],[90.45472,22.52278],[90.45243,22.52438],[90.44726,22.52192],[90.43555,22.5125],[90.43073,22.51361],[90.42616,22.512],[90.41629,22.50333],[90.41483,22.50309],[90.41013,22.50736],[90.40965,22.52788],[90.41084,22.53333],[90.41306,22.5375],[90.41202,22.53923],[90.40987,22.53389],[90.40872,22.5282],[90.40916,22.50694],[90.40722,22.50417],[90.40528,22.49722],[90.40361,22.495],[90.40166,22.49528],[90.39861,22.5],[90.39111,22.50639],[90.38917,22.5075],[90.38139,22.50917],[90.37833,22.50805],[90.3775,22.50556],[90.38055,22.5],[90.38223,22.49444],[90.38277,22.49028],[90.38167,22.48861],[90.37444,22.49222],[90.37139,22.49556],[90.36472,22.49861],[90.35611,22.49611],[90.35167,22.50194],[90.35139,22.50333],[90.36083,22.50972],[90.36389,22.51278],[90.36555,22.51583],[90.36584,22.51861],[90.36389,22.52167],[90.36057,22.52366],[90.35583,22.52528],[90.34834,22.52528],[90.34722,22.52611],[90.34834,22.52972],[90.35139,22.53333],[90.35472,22.53972],[90.355,22.54333],[90.35278,22.54611],[90.35222,22.54556],[90.34695,22.54611],[90.34528,22.54528],[90.33916,22.545],[90.3375,22.54667],[90.34084,22.55389],[90.34556,22.56139],[90.35222,22.5675],[90.36111,22.57195],[90.36333,22.57528],[90.36361,22.57861],[90.35889,22.59194],[90.35639,22.595],[90.35083,22.59778],[90.34139,22.59917],[90.34055,22.6],[90.34417,22.61222],[90.345,22.61306],[90.34695,22.61278],[90.35111,22.60972],[90.36166,22.59889],[90.36417,22.59528],[90.37222,22.59111],[90.38583,22.58833],[90.39231,22.59292],[90.39439,22.59089],[90.39892,22.58262],[90.40349,22.57764],[90.40568,22.57641],[90.40961,22.57674],[90.41573,22.58116],[90.42212,22.59055],[90.42787,22.59471],[90.44234,22.60255],[90.44804,22.60915],[90.44827,22.61058],[90.44747,22.6118],[90.44389,22.61331],[90.43236,22.61198],[90.42766,22.61309],[90.43215,22.6179],[90.4398,22.62336],[90.44942,22.6318],[90.44968,22.63358],[90.44882,22.63599],[90.44344,22.6417],[90.44304,22.64362],[90.44443,22.6444],[90.44974,22.64419],[90.45673,22.64533],[90.46835,22.64815],[90.47236,22.65037],[90.47541,22.65521],[90.47849,22.65642],[90.48202,22.6536],[90.48221,22.65176],[90.48202,22.64943]]],[[[90.41283,22.6612],[90.41471,22.66013],[90.4188,22.66031],[90.42577,22.65751],[90.42841,22.64814],[90.43294,22.6442],[90.43524,22.64471],[90.43921,22.6493],[90.43923,22.65644],[90.43658,22.66177],[90.43868,22.6633],[90.44031,22.66348],[90.44183,22.66522],[90.44957,22.6632],[90.45183,22.66006],[90.45143,22.65499],[90.4495,22.65036],[90.44992,22.64832],[90.44271,22.64658],[90.44085,22.64389],[90.44145,22.64171],[90.44666,22.63448],[90.44706,22.63152],[90.44092,22.62829],[90.4307,22.62069],[90.42558,22.61391],[90.42662,22.61167],[90.4296,22.61032],[90.44468,22.611],[90.44646,22.60921],[90.43884,22.60331],[90.42703,22.5972],[90.4217,22.59344],[90.4146,22.5828],[90.41084,22.57948],[90.40684,22.57779],[90.40298,22.58012],[90.39671,22.59196],[90.39495,22.59387],[90.39118,22.59457],[90.38731,22.59149],[90.38344,22.59027],[90.37955,22.59208],[90.36998,22.59393],[90.36361,22.59833],[90.35947,22.60551],[90.35285,22.61147],[90.35599,22.61371],[90.3635,22.60622],[90.36426,22.60389],[90.36381,22.60227],[90.37418,22.59459],[90.37687,22.59573],[90.38306,22.59598],[90.39082,22.60138],[90.39005,22.60471],[90.38783,22.60717],[90.3849,22.60821],[90.37968,22.60537],[90.36998,22.61012],[90.37332,22.61654],[90.36907,22.61922],[90.36485,22.62104],[90.35939,22.61808],[90.35198,22.62088],[90.34344,22.62041],[90.34169,22.62206],[90.34172,22.62526],[90.34225,22.62661],[90.34375,22.62725],[90.34982,22.62545],[90.35229,22.62739],[90.35354,22.62993],[90.35663,22.63202],[90.35965,22.63612],[90.37287,22.63111],[90.38072,22.63115],[90.38331,22.63269],[90.38586,22.63565],[90.39024,22.63743],[90.39832,22.63403],[90.40323,22.63494],[90.40577,22.63733],[90.40581,22.64304],[90.40227,22.64473],[90.40016,22.64678],[90.40001,22.65021],[90.39867,22.65293],[90.40121,22.65715],[90.40228,22.66021],[90.40212,22.66301],[90.40413,22.66633],[90.40595,22.66743],[90.40821,22.66657],[90.41013,22.66452],[90.41283,22.6612]]]]}},{"type":"Feature","properties":{"name":"Banaripara","district_id":"barishal","pcode":"100610","sql_upazila_id":"barishal-banaripara","sql_name_bn":"বানারীপাড়া"},"geometry":{"type":"Polygon","coordinates":[[[90.05273,22.80805],[90.05413,22.81402],[90.05302,22.81907],[90.05463,22.82371],[90.05431,22.82589],[90.05328,22.8266],[90.04737,22.82565],[90.0451,22.82444],[90.04097,22.81996],[90.0351,22.81569],[90.03261,22.8154],[90.03049,22.81728],[90.03121,22.82589],[90.03374,22.83514],[90.03499,22.84751],[90.03425,22.85243],[90.03542,22.85744],[90.03476,22.86521],[90.06333,22.85813],[90.06839,22.85756],[90.07372,22.85516],[90.07463,22.85229],[90.07407,22.84933],[90.07562,22.84724],[90.07838,22.84632],[90.0789,22.84477],[90.07887,22.84334],[90.07334,22.83575],[90.07366,22.83135],[90.07504,22.82943],[90.08051,22.82582],[90.08921,22.8218],[90.0984,22.82068],[90.10024,22.82213],[90.10264,22.82853],[90.09795,22.834],[90.09781,22.83801],[90.09985,22.84019],[90.10588,22.84325],[90.11825,22.84034],[90.11964,22.841],[90.12099,22.84297],[90.12124,22.8453],[90.1205,22.85537],[90.12142,22.85701],[90.12399,22.8586],[90.12911,22.85963],[90.14503,22.8551],[90.14483,22.84968],[90.15222,22.84563],[90.15529,22.84464],[90.161,22.84748],[90.16733,22.84511],[90.17036,22.84304],[90.17142,22.83839],[90.18223,22.83255],[90.18721,22.83581],[90.19685,22.83484],[90.19856,22.834],[90.19844,22.82722],[90.20705,22.82495],[90.21052,22.82504],[90.21029,22.83007],[90.21118,22.83125],[90.21375,22.83205],[90.2191,22.83067],[90.22079,22.8292],[90.21712,22.82426],[90.22294,22.81932],[90.22282,22.81744],[90.21776,22.81116],[90.21489,22.80352],[90.21429,22.79942],[90.21558,22.79705],[90.21485,22.7909],[90.21071,22.79082],[90.2093,22.78914],[90.2088,22.78676],[90.20534,22.78485],[90.20255,22.78462],[90.19837,22.78146],[90.19374,22.78425],[90.19213,22.784],[90.19084,22.7822],[90.19182,22.7795],[90.18455,22.77624],[90.17129,22.7758],[90.16973,22.77509],[90.16807,22.76891],[90.16801,22.76006],[90.15941,22.75774],[90.15532,22.75989],[90.15452,22.75779],[90.15269,22.75624],[90.14494,22.75607],[90.14328,22.75651],[90.14001,22.75915],[90.13916,22.76231],[90.14192,22.76596],[90.13979,22.76749],[90.12778,22.76485],[90.12357,22.76689],[90.12285,22.77052],[90.12137,22.77304],[90.11649,22.77584],[90.10381,22.77676],[90.10007,22.77793],[90.09702,22.78221],[90.09531,22.7834],[90.08838,22.78322],[90.07461,22.78444],[90.06944,22.79038],[90.06886,22.79422],[90.06533,22.80172],[90.06335,22.80416],[90.05913,22.8062],[90.05273,22.80805]]]}},{"type":"Feature","properties":{"name":"Barishal Sadar (Kotwali)","district_id":"barishal","pcode":"100651","sql_upazila_id":null,"sql_name_bn":null},"geometry":{"type":"MultiPolygon","coordinates":[[[[90.50461,22.69374],[90.50584,22.68972],[90.50472,22.68056],[90.505,22.67333],[90.50361,22.66],[90.50222,22.6575],[90.50472,22.64861],[90.50472,22.64361],[90.50889,22.62225],[90.50079,22.62742],[90.49716,22.62797],[90.49334,22.63269],[90.491,22.63715],[90.48828,22.63956],[90.48473,22.64045],[90.48259,22.63942],[90.48029,22.64108],[90.47965,22.64264],[90.4802,22.6465],[90.48202,22.64943],[90.48202,22.6536],[90.47849,22.65642],[90.47541,22.65521],[90.48018,22.66465],[90.48077,22.6676],[90.48,22.67049],[90.48038,22.673],[90.48889,22.67972],[90.49028,22.6825],[90.49111,22.68722],[90.49361,22.69028],[90.49382,22.69165],[90.49583,22.69389],[90.49695,22.69361],[90.50111,22.69611],[90.50277,22.69611],[90.5044,22.69428],[90.50461,22.69374]]],[[[90.44109,22.75694],[90.45248,22.75524],[90.45909,22.75226],[90.46323,22.75184],[90.46586,22.74691],[90.4796,22.73716],[90.49065,22.72767],[90.4947,22.72324],[90.49946,22.71647],[90.50286,22.71305],[90.50496,22.70542],[90.50469,22.701],[90.50182,22.69846],[90.49554,22.69525],[90.49032,22.69068],[90.48817,22.68385],[90.48521,22.67919],[90.47908,22.67414],[90.47811,22.67192],[90.47829,22.66822],[90.47638,22.66212],[90.47218,22.65315],[90.46851,22.64979],[90.46655,22.64902],[90.44992,22.64832],[90.4495,22.65036],[90.45143,22.65499],[90.45183,22.66006],[90.44957,22.6632],[90.44183,22.66522],[90.44031,22.66348],[90.43868,22.6633],[90.43658,22.66177],[90.43923,22.65644],[90.43921,22.6493],[90.43524,22.64471],[90.43294,22.6442],[90.42841,22.64814],[90.42577,22.65751],[90.4188,22.66031],[90.41471,22.66013],[90.41283,22.6612],[90.40821,22.66657],[90.40595,22.66743],[90.40413,22.66633],[90.40212,22.66301],[90.40228,22.66021],[90.40054,22.65557],[90.39867,22.65293],[90.40001,22.65021],[90.40016,22.64678],[90.40227,22.64473],[90.40581,22.64304],[90.40577,22.63733],[90.40323,22.63494],[90.39832,22.63403],[90.39024,22.63743],[90.38807,22.63703],[90.38072,22.63115],[90.37287,22.63111],[90.37849,22.63737],[90.37458,22.64112],[90.37018,22.64729],[90.36652,22.64915],[90.36368,22.65344],[90.36013,22.65084],[90.35354,22.65424],[90.35308,22.65306],[90.35167,22.65333],[90.35694,22.66333],[90.36528,22.67306],[90.36889,22.67611],[90.37444,22.68361],[90.37805,22.69778],[90.38583,22.70028],[90.38861,22.70333],[90.38972,22.70611],[90.39194,22.70806],[90.39333,22.71333],[90.39167,22.72028],[90.38805,22.72778],[90.38778,22.73222],[90.38889,22.73639],[90.39278,22.73972],[90.395,22.74028],[90.39722,22.73944],[90.40444,22.73195],[90.40667,22.72445],[90.40806,22.72194],[90.41084,22.71972],[90.41917,22.71917],[90.42889,22.72333],[90.43361,22.72445],[90.43916,22.72944],[90.44,22.73306],[90.43806,22.73528],[90.4375,22.7375],[90.43111,22.7425],[90.42973,22.745],[90.4353,22.75559],[90.43801,22.75687],[90.4406,22.75695],[90.44109,22.75694]]],[[[90.4097,22.75888],[90.41789,22.75748],[90.43652,22.76355],[90.42833,22.75734],[90.42389,22.75056],[90.41922,22.74889],[90.41843,22.74621],[90.42278,22.74472],[90.43278,22.73583],[90.43445,22.7325],[90.43417,22.72944],[90.43111,22.72639],[90.42583,22.72639],[90.42111,22.72528],[90.41666,22.72305],[90.41222,22.7225],[90.41,22.72472],[90.40916,22.73306],[90.40694,22.73694],[90.40417,22.73972],[90.39806,22.74306],[90.39389,22.74278],[90.39,22.74111],[90.38528,22.735],[90.38445,22.73195],[90.385,22.72667],[90.38667,22.72445],[90.38778,22.71972],[90.38695,22.70722],[90.38445,22.70444],[90.38028,22.70306],[90.37583,22.69972],[90.37527,22.69583],[90.37167,22.68694],[90.36972,22.68528],[90.36584,22.67861],[90.35333,22.665],[90.34944,22.65639],[90.34583,22.65055],[90.34306,22.64778],[90.34167,22.64722],[90.34084,22.64778],[90.33472,22.65889],[90.33195,22.66222],[90.3275,22.66389],[90.31945,22.66389],[90.31825,22.6663],[90.32157,22.67205],[90.32354,22.67394],[90.32173,22.67575],[90.31557,22.67853],[90.31192,22.67662],[90.30782,22.6782],[90.3046,22.6805],[90.30431,22.68542],[90.30049,22.68614],[90.29621,22.68573],[90.29443,22.68372],[90.29376,22.68008],[90.29036,22.67987],[90.28383,22.68334],[90.28512,22.68725],[90.27911,22.69128],[90.27919,22.69441],[90.27341,22.69588],[90.27361,22.70517],[90.27675,22.70892],[90.27475,22.71285],[90.27599,22.71538],[90.2785,22.71608],[90.27362,22.71905],[90.27312,22.73014],[90.27726,22.73204],[90.27518,22.73317],[90.27067,22.73984],[90.27583,22.73841],[90.27702,22.73673],[90.28048,22.73647],[90.28146,22.74068],[90.28338,22.74069],[90.29016,22.73739],[90.29345,22.73759],[90.30127,22.74044],[90.30342,22.74221],[90.30311,22.74433],[90.3061,22.74512],[90.30713,22.74641],[90.30325,22.75181],[90.30474,22.75389],[90.30743,22.75484],[90.30774,22.7573],[90.31194,22.75886],[90.31523,22.76168],[90.32291,22.76356],[90.32408,22.76599],[90.33116,22.76673],[90.33711,22.76699],[90.34142,22.76603],[90.34937,22.76675],[90.35332,22.76614],[90.3606,22.76122],[90.36574,22.75664],[90.37193,22.7457],[90.37375,22.75542],[90.38008,22.76474],[90.38506,22.76777],[90.39406,22.76623],[90.4097,22.75888]]]]}},{"type":"Feature","properties":{"name":"Gaurnadi","district_id":"barishal","pcode":"100632","sql_upazila_id":null,"sql_name_bn":null},"geometry":{"type":"Polygon","coordinates":[[[90.13228,23.02925],[90.13486,23.0364],[90.1394,23.04154],[90.14261,23.04313],[90.14148,23.04416],[90.14184,23.04686],[90.13698,23.04716],[90.1347,23.04898],[90.14283,23.05387],[90.15214,23.05377],[90.15604,23.05785],[90.15557,23.06398],[90.15881,23.06636],[90.16251,23.06782],[90.1691,23.06606],[90.17363,23.06596],[90.17659,23.06521],[90.17986,23.06194],[90.18622,23.06082],[90.18939,23.06132],[90.19184,23.05983],[90.1925,23.05679],[90.19759,23.05913],[90.20021,23.0573],[90.20329,23.06128],[90.20499,23.06667],[90.21343,23.07116],[90.21567,23.07116],[90.22171,23.06513],[90.22569,23.05831],[90.22706,23.0541],[90.23515,23.04809],[90.23704,23.04222],[90.23684,23.03948],[90.23534,23.03672],[90.23286,23.03483],[90.23208,23.03119],[90.23441,23.02811],[90.23445,23.02491],[90.23566,23.02151],[90.23116,23.02007],[90.23077,23.01289],[90.23195,23.01046],[90.23623,23.00819],[90.236,23.00682],[90.23459,23.00057],[90.23329,22.99843],[90.22878,22.99922],[90.2266,22.98974],[90.23194,22.98761],[90.23434,22.98019],[90.23098,22.9773],[90.2323,22.97354],[90.23593,22.96793],[90.23729,22.96767],[90.23889,22.96911],[90.24081,22.97181],[90.24108,22.97489],[90.24321,22.97798],[90.24605,22.97512],[90.24946,22.97498],[90.25463,22.976],[90.2561,22.97528],[90.26033,22.97791],[90.26228,22.97451],[90.26046,22.97152],[90.25893,22.96973],[90.25439,22.96961],[90.2546,22.96572],[90.2561,22.96369],[90.25837,22.96317],[90.26308,22.96512],[90.26567,22.96717],[90.2736,22.97755],[90.27573,22.97864],[90.27909,22.97445],[90.28282,22.97271],[90.28678,22.97239],[90.29027,22.97487],[90.30634,22.97752],[90.31375,22.9762],[90.32111,22.97367],[90.31781,22.96593],[90.31719,22.95961],[90.31875,22.9554],[90.32485,22.94771],[90.33028,22.94618],[90.33331,22.94151],[90.33504,22.93306],[90.33312,22.92861],[90.33051,22.92839],[90.32786,22.93091],[90.32394,22.93071],[90.3222,22.92813],[90.31842,22.92611],[90.31451,22.91934],[90.3118,22.91758],[90.30685,22.9113],[90.30531,22.90049],[90.29825,22.88986],[90.29534,22.88353],[90.27424,22.89134],[90.27071,22.89131],[90.2692,22.89072],[90.26747,22.88853],[90.26585,22.88829],[90.26376,22.88885],[90.26134,22.89308],[90.2595,22.89398],[90.25681,22.8929],[90.25373,22.89377],[90.25162,22.89593],[90.24874,22.89714],[90.24383,22.89714],[90.23965,22.90027],[90.23418,22.89965],[90.23192,22.90285],[90.22974,22.90284],[90.22941,22.90856],[90.22695,22.91187],[90.22456,22.91747],[90.21941,22.91942],[90.22012,22.93162],[90.21942,22.93347],[90.21133,22.94171],[90.21127,22.94589],[90.20744,22.94883],[90.20604,22.9523],[90.20427,22.9533],[90.19798,22.96127],[90.18738,22.98213],[90.18558,22.98909],[90.18571,22.99182],[90.18691,22.99438],[90.18907,22.99655],[90.19483,22.99841],[90.19937,22.99905],[90.20123,22.9984],[90.20734,23.00006],[90.20828,23.00278],[90.20629,23.00929],[90.20309,23.01016],[90.19926,23.01333],[90.19601,23.01431],[90.19449,23.01561],[90.19048,23.02142],[90.19138,23.02688],[90.19028,23.02971],[90.18819,23.03255],[90.18156,23.03551],[90.17197,23.03652],[90.16891,23.03614],[90.16644,23.03419],[90.15907,23.03196],[90.14677,23.03196],[90.13877,23.03056],[90.13228,23.02925]]]}},{"type":"Feature","properties":{"name":"Hijla","district_id":"barishal","pcode":"100636","sql_upazila_id":null,"sql_name_bn":null},"geometry":{"type":"MultiPolygon","coordinates":[[[[90.61723,22.88258],[90.6216,22.88084],[90.62201,22.87945],[90.61889,22.87778],[90.61417,22.87833],[90.61361,22.87889],[90.61472,22.88181],[90.61694,22.8825],[90.61723,22.88258]]],[[[90.62041,22.88404],[90.62026,22.88491],[90.6217,22.88665],[90.62299,22.88685],[90.62099,22.88431],[90.62041,22.88404]]],[[[90.54853,22.89819],[90.54401,22.89832],[90.54616,22.89953],[90.54846,22.89879],[90.54853,22.89819]]],[[[90.60694,22.90083],[90.60917,22.9],[90.61111,22.89806],[90.61195,22.89389],[90.6075,22.88778],[90.60306,22.885],[90.60111,22.88861],[90.60139,22.89361],[90.60389,22.89889],[90.60611,22.90083],[90.60694,22.90083]]],[[[90.57139,22.89833],[90.57083,22.89889],[90.57166,22.89972],[90.5775,22.9025],[90.57941,22.90259],[90.57708,22.89986],[90.57166,22.89861],[90.57139,22.89833]]],[[[90.60278,22.90361],[90.60389,22.90195],[90.60111,22.8975],[90.59889,22.89167],[90.60028,22.88806],[90.60028,22.88639],[90.59889,22.88417],[90.59722,22.885],[90.59639,22.88389],[90.58611,22.88472],[90.58222,22.88333],[90.57972,22.88333],[90.57361,22.88889],[90.57389,22.88972],[90.5773,22.88895],[90.57361,22.89083],[90.57611,22.89528],[90.57944,22.895],[90.58139,22.89389],[90.58334,22.89444],[90.58389,22.89611],[90.5875,22.89861],[90.59639,22.90083],[90.60139,22.90361],[90.60278,22.90361]]],[[[90.60028,22.90583],[90.59666,22.90278],[90.58667,22.90028],[90.58195,22.89556],[90.57806,22.89778],[90.57472,22.89556],[90.57389,22.89305],[90.57166,22.89111],[90.56917,22.89167],[90.56472,22.89472],[90.56528,22.89556],[90.5725,22.89667],[90.58195,22.90055],[90.58361,22.90055],[90.59333,22.90528],[90.59917,22.90694],[90.60028,22.90611],[90.60028,22.90583]]],[[[90.57639,22.905],[90.57528,22.90556],[90.57584,22.90694],[90.57809,22.90877],[90.57938,22.90857],[90.57922,22.90766],[90.57639,22.905]]],[[[90.59317,22.90633],[90.59288,22.90747],[90.59554,22.90982],[90.59547,22.90794],[90.5936,22.9066],[90.59317,22.90633]]],[[[90.60889,22.91861],[90.60861,22.92167],[90.60917,22.92167],[90.60889,22.91889],[90.60889,22.91861]]],[[[90.59667,22.92338],[90.59595,22.92365],[90.59617,22.92432],[90.59818,22.92532],[90.59717,22.92351],[90.59667,22.92338]]],[[[90.64306,22.94306],[90.64667,22.93833],[90.65,22.93111],[90.64889,22.92889],[90.64445,22.9325],[90.64333,22.93167],[90.6425,22.93306],[90.64056,22.94028],[90.64278,22.94278],[90.64306,22.94306]]],[[[90.63416,22.95139],[90.63765,22.94994],[90.63972,22.94722],[90.64083,22.9475],[90.64027,22.94583],[90.63944,22.94555],[90.63306,22.94889],[90.63194,22.95],[90.63389,22.95139],[90.63416,22.95139]]],[[[90.62583,22.95639],[90.63167,22.95167],[90.63111,22.95083],[90.62917,22.95167],[90.62805,22.95111],[90.63055,22.94361],[90.63194,22.94194],[90.63111,22.94111],[90.62778,22.94389],[90.62833,22.94639],[90.62666,22.94944],[90.62695,22.95111],[90.62444,22.95556],[90.62527,22.95639],[90.62583,22.95639]]],[[[90.59389,22.95909],[90.59278,22.96],[90.59221,22.96305],[90.59312,22.9625],[90.59389,22.95917],[90.59389,22.95909]]],[[[90.62111,22.96639],[90.62444,22.96333],[90.62917,22.96083],[90.62989,22.95793],[90.63313,22.95806],[90.63667,22.95472],[90.63778,22.95194],[90.63639,22.95167],[90.63277,22.95306],[90.62639,22.95778],[90.62083,22.96028],[90.61889,22.96417],[90.61889,22.96583],[90.62028,22.96722],[90.62111,22.96639]]],[[[90.46584,22.97556],[90.47472,22.96861],[90.48389,22.965],[90.48889,22.96389],[90.49611,22.96],[90.51361,22.94667],[90.52194,22.93444],[90.52472,22.92667],[90.52444,22.92306],[90.52583,22.92139],[90.52834,22.91167],[90.53139,22.90778],[90.53083,22.90111],[90.52861,22.8975],[90.51092,22.88789],[90.50591,22.88831],[90.50382,22.88909],[90.50155,22.89401],[90.50145,22.89693],[90.50298,22.89826],[90.50445,22.90165],[90.50379,22.90487],[90.50241,22.90627],[90.49493,22.9092],[90.49146,22.90935],[90.48861,22.9113],[90.47668,22.91223],[90.47447,22.91354],[90.45547,22.91866],[90.44892,22.91732],[90.44551,22.91489],[90.44593,22.9082],[90.44514,22.90651],[90.42543,22.90339],[90.42124,22.8994],[90.42056,22.9025],[90.41824,22.90556],[90.41722,22.90889],[90.41757,22.91423],[90.4335,22.9233],[90.43652,22.92702],[90.43806,22.93056],[90.43861,22.93361],[90.43777,22.94139],[90.43361,22.94695],[90.43333,22.95056],[90.44361,22.95861],[90.45149,22.97139],[90.45861,22.97778],[90.46361,22.97861],[90.46584,22.97583],[90.46584,22.97556]]],[[[90.45061,22.97172],[90.45009,22.97096],[90.45116,22.97352],[90.45792,22.98171],[90.45837,22.97936],[90.4519,22.97346],[90.45061,22.97172]]],[[[90.58012,22.99036],[90.58316,22.98977],[90.58431,22.98697],[90.57982,22.98943],[90.57954,22.99034],[90.58012,22.99036]]],[[[90.5991,22.9962],[90.60028,22.99583],[90.60139,22.99389],[90.60056,22.99],[90.59917,22.98771],[90.59834,22.98861],[90.59861,22.98972],[90.59805,22.99028],[90.59695,22.98972],[90.59611,22.99139],[90.59869,22.9957],[90.5991,22.9962]]],[[[90.56679,23.02225],[90.56681,23.02112],[90.57068,23.01609],[90.5707,23.01418],[90.57428,23.00834],[90.57484,23.00556],[90.57874,23.00111],[90.5804,22.99588],[90.58234,22.99283],[90.58188,22.99189],[90.57651,22.99329],[90.57485,22.99582],[90.57056,22.9997],[90.57098,23.00028],[90.56956,23.00276],[90.56848,23.00307],[90.56762,23.00526],[90.56046,23.01084],[90.55931,23.01251],[90.55981,23.01471],[90.55875,23.01471],[90.55901,23.01803],[90.56126,23.01889],[90.56457,23.02216],[90.5662,23.02278],[90.56679,23.02225]]],[[[90.53126,23.03223],[90.52899,23.03249],[90.53066,23.03333],[90.53194,23.03224],[90.53126,23.03223]]],[[[90.55884,23.03575],[90.56194,23.03168],[90.56535,23.02363],[90.5611,23.02069],[90.56016,23.02089],[90.56016,23.01989],[90.55677,23.01669],[90.55698,23.01602],[90.55807,23.01635],[90.55756,23.01542],[90.55804,23.01184],[90.561,23.00817],[90.56071,23.0067],[90.56179,23.00717],[90.56251,23.00617],[90.56309,23.00336],[90.56541,22.99945],[90.5679,22.99691],[90.57568,22.99166],[90.57846,22.99111],[90.57844,22.99054],[90.57487,22.99081],[90.57404,22.9889],[90.57012,22.98584],[90.57154,22.98531],[90.5718,22.98639],[90.57484,22.98863],[90.57488,22.9897],[90.5765,22.99028],[90.58457,22.98553],[90.58461,22.98472],[90.58706,22.98303],[90.58732,22.9792],[90.58878,22.97636],[90.58929,22.97251],[90.58572,22.97193],[90.58875,22.97163],[90.5904,22.96415],[90.59039,22.96276],[90.58878,22.96224],[90.59064,22.96226],[90.59093,22.96089],[90.58897,22.95727],[90.58543,22.95895],[90.58589,22.9622],[90.58543,22.96002],[90.58453,22.96079],[90.58434,22.96028],[90.58598,22.95752],[90.5901,22.95596],[90.59176,22.94856],[90.5918,22.94507],[90.59111,22.94444],[90.59472,22.93583],[90.59444,22.93472],[90.59301,22.9349],[90.59194,22.92694],[90.58806,22.92583],[90.59055,22.92361],[90.58972,22.92111],[90.57445,22.90833],[90.56472,22.9025],[90.56194,22.90389],[90.555,22.90139],[90.55361,22.90195],[90.54389,22.9],[90.53986,22.89985],[90.53694,22.90139],[90.53733,22.90538],[90.53917,22.90694],[90.54111,22.91055],[90.54083,22.91417],[90.53889,22.90806],[90.53694,22.90694],[90.53167,22.91778],[90.52944,22.92861],[90.52306,22.93944],[90.51389,22.95222],[90.51028,22.95583],[90.505,22.95889],[90.50139,22.96278],[90.50278,22.96932],[90.50083,22.96833],[90.50056,22.96472],[90.49917,22.96278],[90.49667,22.96333],[90.48833,22.96944],[90.47818,22.98172],[90.47742,22.98144],[90.47889,22.9775],[90.48479,22.97125],[90.48611,22.97083],[90.48639,22.96944],[90.47583,22.97389],[90.46972,22.97861],[90.46528,22.98333],[90.45553,22.9894],[90.44806,22.99111],[90.43139,22.99028],[90.42528,22.99195],[90.4225,22.99445],[90.42278,22.99694],[90.42555,23.00111],[90.42917,23.00417],[90.4425,23.00917],[90.45222,23.00972],[90.4614,23.01255],[90.4675,23.01306],[90.48805,23.02195],[90.49053,23.02154],[90.49695,23.01833],[90.50472,23.0175],[90.5125,23.02028],[90.5175,23.02667],[90.52055,23.02861],[90.52531,23.02868],[90.52628,23.02933],[90.52778,23.02806],[90.52889,23.02555],[90.53006,23.0253],[90.53835,23.02857],[90.53936,23.02963],[90.54556,23.03104],[90.55357,23.03554],[90.55862,23.03608],[90.55884,23.03575]]],[[[90.51876,23.04576],[90.51876,23.04343],[90.51722,23.04278],[90.51778,23.04222],[90.5218,23.0419],[90.52699,23.0429],[90.52922,23.04156],[90.53124,23.03896],[90.53187,23.03703],[90.53066,23.03449],[90.52814,23.03282],[90.52721,23.03095],[90.52583,23.03194],[90.51806,23.02889],[90.50972,23.02028],[90.50528,23.01917],[90.4975,23.01972],[90.48984,23.02289],[90.50111,23.03389],[90.50528,23.03917],[90.51,23.04194],[90.51044,23.04297],[90.51392,23.04343],[90.51515,23.04443],[90.51602,23.04409],[90.5171,23.04536],[90.51624,23.04563],[90.51624,23.04649],[90.51825,23.04583],[90.51876,23.04576]]],[[[90.52013,23.04746],[90.52235,23.04636],[90.5229,23.0436],[90.51929,23.04387],[90.51983,23.04636],[90.51846,23.04721],[90.52,23.04749],[90.52013,23.04746]]],[[[90.53457,23.05303],[90.54317,23.05167],[90.54427,23.05052],[90.5443,23.04886],[90.5379,23.04943],[90.53127,23.04884],[90.53235,23.04778],[90.54708,23.04781],[90.54482,23.04887],[90.54935,23.05056],[90.55482,23.05027],[90.55622,23.04721],[90.55458,23.04193],[90.54873,23.03748],[90.53623,23.03275],[90.53241,23.0325],[90.53096,23.03391],[90.53179,23.03419],[90.53262,23.03692],[90.53236,23.03858],[90.53098,23.03997],[90.53095,23.04195],[90.52705,23.04387],[90.52399,23.04413],[90.52319,23.04584],[90.52376,23.04665],[90.52824,23.04639],[90.52824,23.04584],[90.5343,23.04613],[90.5246,23.0475],[90.52735,23.04917],[90.53542,23.05025],[90.53511,23.05134],[90.53321,23.05138],[90.53262,23.05219],[90.53344,23.05305],[90.53457,23.05303]]]]}},{"type":"Feature","properties":{"name":"Mehendiganj","district_id":"barishal","pcode":"100662","sql_upazila_id":"barishal-mehendiganj","sql_name_bn":"মেহেন্দিগঞ্জ"},"geometry":{"type":"MultiPolygon","coordinates":[[[[90.52639,22.62583],[90.52583,22.62583],[90.52472,22.62917],[90.52528,22.63028],[90.52722,22.62944],[90.52611,22.62889],[90.52695,22.62833],[90.52639,22.62611],[90.52639,22.62583]]],[[[90.53083,22.64028],[90.53222,22.63861],[90.53222,22.63278],[90.52944,22.62694],[90.52944,22.62361],[90.52861,22.62222],[90.53111,22.61611],[90.53361,22.61278],[90.53361,22.6075],[90.53445,22.605],[90.53416,22.59889],[90.535,22.59639],[90.53416,22.59639],[90.53278,22.59972],[90.53326,22.603],[90.53194,22.60806],[90.53028,22.61111],[90.53167,22.61361],[90.53083,22.61417],[90.53111,22.615],[90.52944,22.61583],[90.52887,22.61783],[90.52778,22.61806],[90.52834,22.62111],[90.52639,22.62222],[90.52583,22.62444],[90.52805,22.62722],[90.5275,22.63139],[90.52972,22.63361],[90.52666,22.63278],[90.52625,22.63083],[90.52417,22.63],[90.52389,22.63389],[90.52278,22.635],[90.52389,22.63667],[90.52389,22.63917],[90.52222,22.63722],[90.52139,22.63722],[90.52222,22.63611],[90.52139,22.63528],[90.52194,22.63333],[90.52084,22.63333],[90.52103,22.63465],[90.51889,22.6375],[90.51917,22.63889],[90.52306,22.64028],[90.53,22.64056],[90.53083,22.64028]]],[[[90.52055,22.65195],[90.52028,22.65444],[90.5211,22.65438],[90.52139,22.65278],[90.52055,22.65249],[90.52055,22.65195]]],[[[90.53445,22.66056],[90.53416,22.66278],[90.53639,22.66389],[90.53445,22.66083],[90.53445,22.66056]]],[[[90.51806,22.66028],[90.51694,22.66195],[90.51778,22.665],[90.51917,22.66583],[90.51806,22.66056],[90.51806,22.66028]]],[[[90.55139,22.66667],[90.55111,22.66778],[90.54945,22.66889],[90.55361,22.67028],[90.55139,22.66694],[90.55139,22.66667]]],[[[90.51694,22.66667],[90.515,22.6675],[90.51583,22.66972],[90.51722,22.67056],[90.51833,22.66917],[90.51694,22.66833],[90.51694,22.66694],[90.51694,22.66667]]],[[[90.53389,22.66306],[90.53416,22.67306],[90.53472,22.67306],[90.5375,22.67028],[90.5375,22.66833],[90.53639,22.66556],[90.53389,22.66333],[90.53389,22.66306]]],[[[90.55945,22.66528],[90.55666,22.66917],[90.5575,22.67],[90.55778,22.67278],[90.56026,22.67401],[90.56084,22.6725],[90.55972,22.67194],[90.56017,22.66696],[90.55945,22.66556],[90.55945,22.66528]]],[[[90.55347,22.67167],[90.55051,22.6707],[90.55305,22.67403],[90.55556,22.67444],[90.55389,22.67194],[90.55347,22.67167]]],[[[90.53056,22.66222],[90.53,22.66139],[90.52805,22.66222],[90.52923,22.6614],[90.52937,22.65985],[90.52834,22.66],[90.5275,22.6575],[90.525,22.65611],[90.52611,22.65556],[90.52611,22.65472],[90.52389,22.65195],[90.52194,22.65306],[90.52111,22.65639],[90.52306,22.66],[90.52472,22.67333],[90.52611,22.67444],[90.53167,22.67556],[90.53389,22.67417],[90.53306,22.67306],[90.5336,22.66976],[90.53333,22.66778],[90.53056,22.6625],[90.53056,22.66222]]],[[[90.51778,22.67225],[90.51694,22.67222],[90.51694,22.67611],[90.51798,22.67604],[90.51777,22.6725],[90.51778,22.67225]]],[[[90.53528,22.67778],[90.53472,22.67778],[90.535,22.68194],[90.53693,22.68036],[90.53667,22.67889],[90.53528,22.67805],[90.53528,22.67778]]],[[[90.53743,22.70917],[90.54021,22.70759],[90.54375,22.70379],[90.54885,22.70004],[90.54993,22.69696],[90.55604,22.68772],[90.55747,22.68356],[90.55726,22.67954],[90.55489,22.67552],[90.55251,22.67426],[90.54977,22.67392],[90.55229,22.67593],[90.5533,22.67546],[90.55424,22.67773],[90.55431,22.67974],[90.55288,22.68034],[90.55266,22.68202],[90.55101,22.68396],[90.55122,22.68772],[90.55029,22.68738],[90.55036,22.68282],[90.55187,22.68168],[90.55216,22.67813],[90.54649,22.67874],[90.54576,22.67954],[90.54842,22.68068],[90.54691,22.68034],[90.54555,22.68115],[90.54576,22.68209],[90.54454,22.68309],[90.54483,22.68477],[90.54368,22.6853],[90.54397,22.68711],[90.54239,22.68718],[90.5421,22.68785],[90.54311,22.68838],[90.54124,22.69153],[90.53585,22.68664],[90.53613,22.68544],[90.53527,22.68383],[90.53369,22.68276],[90.53463,22.68034],[90.53398,22.67867],[90.53125,22.6778],[90.52824,22.678],[90.53757,22.69106],[90.53786,22.69173],[90.53714,22.69207],[90.53917,22.69825],[90.53381,22.68611],[90.53242,22.68639],[90.53117,22.68423],[90.53061,22.68444],[90.53354,22.68917],[90.53298,22.68944],[90.52715,22.68139],[90.5202,22.68],[90.51854,22.68194],[90.51937,22.68472],[90.51771,22.68361],[90.51771,22.68194],[90.51632,22.68306],[90.51743,22.68528],[90.52104,22.68694],[90.51743,22.68611],[90.51688,22.68833],[90.51493,22.69111],[90.51465,22.7],[90.51604,22.70278],[90.51881,22.70333],[90.51965,22.7025],[90.52187,22.69472],[90.52382,22.69139],[90.52409,22.68806],[90.52299,22.68694],[90.52438,22.68694],[90.52548,22.68917],[90.52382,22.69194],[90.5202,22.70333],[90.52354,22.70833],[90.52576,22.70972],[90.53298,22.70917],[90.53521,22.71056],[90.53687,22.70944],[90.53743,22.70917]]],[[[90.45861,22.76667],[90.45972,22.76556],[90.46,22.76306],[90.45805,22.76528],[90.45049,22.76603],[90.44972,22.76583],[90.45064,22.76488],[90.44583,22.76389],[90.44666,22.76222],[90.44556,22.76083],[90.44278,22.76361],[90.44305,22.76472],[90.44666,22.76778],[90.45417,22.77056],[90.45583,22.77056],[90.45861,22.76722],[90.45861,22.76667]]],[[[90.47575,22.78444],[90.48028,22.77889],[90.48492,22.77068],[90.48592,22.76733],[90.48866,22.76384],[90.48865,22.76277],[90.487,22.76338],[90.48708,22.75621],[90.48808,22.75433],[90.48614,22.75158],[90.48643,22.75004],[90.4819,22.75272],[90.47644,22.75768],[90.4671,22.76183],[90.46288,22.7684],[90.46159,22.77746],[90.46071,22.77837],[90.46127,22.78507],[90.46297,22.78395],[90.47058,22.78631],[90.4736,22.78645],[90.47489,22.78537],[90.47575,22.78444]]],[[[90.45849,22.78952],[90.461,22.7895],[90.46112,22.78733],[90.46265,22.78532],[90.45984,22.78532],[90.45869,22.78758],[90.45651,22.78812],[90.45766,22.7895],[90.45849,22.78952]]],[[[90.44292,22.78931],[90.44069,22.78871],[90.43983,22.78984],[90.44248,22.79306],[90.4432,22.78971],[90.44292,22.78931]]],[[[90.49028,22.84056],[90.49535,22.83765],[90.49639,22.82917],[90.49244,22.82763],[90.49244,22.82689],[90.4986,22.82271],[90.4925,22.81944],[90.49055,22.82083],[90.48583,22.82889],[90.48651,22.83187],[90.48473,22.83139],[90.48361,22.83222],[90.48805,22.84056],[90.49028,22.84056]]],[[[90.4525,22.89361],[90.46333,22.89056],[90.46722,22.88833],[90.46861,22.88695],[90.47083,22.87917],[90.47166,22.87861],[90.47222,22.87944],[90.47056,22.88445],[90.4725,22.88361],[90.47305,22.88445],[90.47028,22.88639],[90.47,22.8875],[90.47083,22.88778],[90.47361,22.88639],[90.48722,22.87139],[90.49028,22.86972],[90.49389,22.86944],[90.495,22.86861],[90.49445,22.86583],[90.49167,22.86083],[90.48111,22.85083],[90.47833,22.84278],[90.47778,22.83833],[90.47833,22.83222],[90.48389,22.82083],[90.48354,22.81661],[90.48526,22.81634],[90.49139,22.81167],[90.49223,22.81722],[90.49805,22.82083],[90.5,22.82167],[90.505,22.82111],[90.50723,22.81917],[90.50639,22.81694],[90.50305,22.81361],[90.50027,22.81222],[90.49695,22.81278],[90.49333,22.81083],[90.49528,22.81028],[90.49464,22.80908],[90.49529,22.8068],[90.49414,22.80492],[90.49471,22.80445],[90.49917,22.80889],[90.50417,22.81167],[90.50777,22.815],[90.50916,22.8175],[90.50889,22.82167],[90.505,22.82556],[90.50083,22.82583],[90.4975,22.82806],[90.49834,22.83278],[90.49778,22.83833],[90.49445,22.84],[90.49223,22.84333],[90.48861,22.84139],[90.48778,22.84444],[90.49277,22.85083],[90.49583,22.85306],[90.50056,22.855],[90.50528,22.86111],[90.52695,22.88222],[90.52639,22.88305],[90.52556,22.8825],[90.51667,22.87445],[90.51556,22.87556],[90.51556,22.87972],[90.51861,22.88305],[90.52583,22.8875],[90.53472,22.89],[90.53833,22.88944],[90.54361,22.89056],[90.55444,22.88917],[90.56361,22.88639],[90.57722,22.87944],[90.58417,22.87722],[90.59611,22.87583],[90.60361,22.87583],[90.6125,22.87389],[90.61861,22.87417],[90.62639,22.87278],[90.62833,22.87333],[90.64139,22.86861],[90.66361,22.84639],[90.66778,22.84083],[90.66583,22.83945],[90.66611,22.83889],[90.66722,22.83861],[90.66861,22.83945],[90.67139,22.83667],[90.67944,22.82389],[90.68083,22.81972],[90.67778,22.81667],[90.67333,22.81444],[90.66944,22.81111],[90.66,22.80917],[90.65916,22.80833],[90.6575,22.80917],[90.65083,22.80695],[90.64528,22.80667],[90.635,22.80778],[90.63223,22.80917],[90.62389,22.81111],[90.61555,22.81056],[90.59972,22.81139],[90.59556,22.81083],[90.59278,22.81194],[90.58111,22.81028],[90.57,22.8075],[90.56639,22.805],[90.56472,22.805],[90.56055,22.80305],[90.54916,22.79639],[90.54111,22.79333],[90.53028,22.79861],[90.51222,22.80305],[90.50389,22.80167],[90.50111,22.8],[90.50627,22.7977],[90.5136,22.79689],[90.52711,22.79274],[90.53817,22.77612],[90.545,22.78111],[90.55361,22.78555],[90.55861,22.79111],[90.56194,22.79306],[90.565,22.7975],[90.58244,22.79977],[90.59025,22.79972],[90.58634,22.79549],[90.58628,22.7936],[90.58227,22.78993],[90.58175,22.7871],[90.58218,22.76269],[90.57891,22.75467],[90.57082,22.74477],[90.56884,22.74088],[90.56887,22.73585],[90.56489,22.73087],[90.56414,22.72684],[90.56508,22.72076],[90.56697,22.71787],[90.56731,22.71505],[90.56671,22.70281],[90.56429,22.70391],[90.56229,22.70933],[90.56055,22.72422],[90.55943,22.72165],[90.56111,22.70822],[90.56035,22.70626],[90.55087,22.70827],[90.54334,22.70642],[90.5415,22.70888],[90.54348,22.71629],[90.54247,22.72607],[90.54348,22.73264],[90.54276,22.73438],[90.54348,22.74389],[90.5452,22.75006],[90.54865,22.75769],[90.55339,22.76332],[90.5569,22.76599],[90.55776,22.76787],[90.55647,22.76773],[90.54779,22.76091],[90.54592,22.75903],[90.54075,22.75019],[90.53902,22.74939],[90.53514,22.75394],[90.53486,22.75475],[90.53701,22.75582],[90.53586,22.75836],[90.53514,22.75877],[90.53471,22.75823],[90.53543,22.75716],[90.53356,22.75622],[90.53098,22.75716],[90.52997,22.75662],[90.52839,22.75327],[90.52637,22.7451],[90.52595,22.73947],[90.52666,22.72754],[90.52969,22.71495],[90.52193,22.712],[90.51862,22.70947],[90.51631,22.71604],[90.51128,22.72026],[90.50912,22.72408],[90.50848,22.72394],[90.50813,22.72609],[90.50726,22.72635],[90.50626,22.72836],[90.50367,22.73533],[90.50209,22.736],[90.49419,22.74458],[90.49143,22.74633],[90.49029,22.76723],[90.48842,22.76817],[90.48827,22.77018],[90.48512,22.77661],[90.47764,22.78519],[90.47247,22.78827],[90.46844,22.78814],[90.46528,22.78586],[90.46384,22.78599],[90.4612,22.79099],[90.45789,22.80613],[90.45718,22.806],[90.45703,22.80466],[90.45832,22.8005],[90.45789,22.79836],[90.45876,22.79407],[90.45746,22.79367],[90.45804,22.7926],[90.45705,22.79035],[90.45531,22.80265],[90.45545,22.80707],[90.45621,22.80869],[90.46008,22.81044],[90.46138,22.80976],[90.46712,22.80976],[90.47359,22.81124],[90.46841,22.81298],[90.47028,22.81432],[90.4723,22.81459],[90.47244,22.81593],[90.45434,22.81057],[90.45472,22.81722],[90.45333,22.82],[90.45333,22.825],[90.45417,22.82778],[90.45444,22.84694],[90.45556,22.85194],[90.45528,22.86361],[90.45444,22.86695],[90.45139,22.87278],[90.44861,22.87639],[90.44417,22.87972],[90.44,22.88445],[90.44028,22.88611],[90.44527,22.89056],[90.45084,22.89361],[90.4525,22.89361]]],[[[90.481,22.91189],[90.48861,22.9113],[90.49146,22.90935],[90.49493,22.9092],[90.50241,22.90627],[90.50379,22.90487],[90.50445,22.90165],[90.50298,22.89826],[90.50145,22.89693],[90.50246,22.89102],[90.50382,22.88909],[90.50591,22.88831],[90.51092,22.88789],[90.51287,22.88871],[90.50336,22.87864],[90.49695,22.87417],[90.49361,22.87361],[90.49111,22.87639],[90.48278,22.87861],[90.47916,22.88583],[90.46972,22.89],[90.46,22.89556],[90.45333,22.89611],[90.44917,22.895],[90.44195,22.89222],[90.43972,22.89],[90.43806,22.88556],[90.43916,22.88111],[90.45028,22.86722],[90.45194,22.86333],[90.45222,22.85806],[90.45194,22.8525],[90.45,22.84583],[90.44807,22.83249],[90.44639,22.83028],[90.44527,22.81417],[90.44444,22.81285],[90.44368,22.8143],[90.44246,22.8147],[90.445,22.80944],[90.44527,22.80639],[90.4425,22.79917],[90.43806,22.79139],[90.4325,22.79],[90.41805,22.79611],[90.40667,22.80333],[90.39555,22.80556],[90.39,22.80889],[90.38667,22.81222],[90.38708,22.81478],[90.39194,22.81583],[90.40361,22.81333],[90.40583,22.815],[90.40667,22.8175],[90.40389,22.82167],[90.39861,22.82667],[90.39467,22.83195],[90.39136,22.83665],[90.38972,22.84056],[90.38221,22.84793],[90.38611,22.85695],[90.39027,22.86194],[90.39584,22.87306],[90.39694,22.8775],[90.39659,22.88007],[90.3975,22.88695],[90.40028,22.89361],[90.40389,22.89583],[90.41833,22.89639],[90.42543,22.90339],[90.44514,22.90651],[90.44593,22.9082],[90.44551,22.91489],[90.44892,22.91732],[90.45148,22.918],[90.45547,22.91866],[90.45787,22.91824],[90.47447,22.91354],[90.47668,22.91223],[90.481,22.91189]]]]}},{"type":"Feature","properties":{"name":"Muladi","district_id":"barishal","pcode":"100669","sql_upazila_id":"barishal-muladi","sql_name_bn":"মুলাদী"},"geometry":{"type":"MultiPolygon","coordinates":[[[[90.43361,22.78833],[90.43806,22.78778],[90.44167,22.78611],[90.44444,22.78444],[90.44861,22.77945],[90.44833,22.77444],[90.44139,22.76722],[90.43916,22.7675],[90.43417,22.77861],[90.43333,22.78222],[90.43111,22.78583],[90.43139,22.7875],[90.43278,22.78833],[90.43361,22.78833]]],[[[90.37337,23.05496],[90.37673,23.05311],[90.38242,23.05463],[90.38523,23.05056],[90.39137,23.05041],[90.39442,23.04885],[90.40275,23.04699],[90.40662,23.04398],[90.41019,23.04252],[90.41445,23.04385],[90.42404,23.04081],[90.42647,23.03658],[90.42627,23.03407],[90.41517,23.02567],[90.4138,23.0233],[90.40676,23.02044],[90.38727,23.01789],[90.39217,23.01589],[90.41136,23.01399],[90.41167,23.01198],[90.42491,23.01398],[90.42572,23.01317],[90.42354,23.01255],[90.42667,23.01028],[90.42139,23.0075],[90.41278,23.00472],[90.40184,23.00583],[90.4013,23.00139],[90.41047,22.99932],[90.4165,22.99905],[90.42028,22.99278],[90.4225,22.99055],[90.42778,22.98833],[90.44139,22.985],[90.45167,22.98472],[90.45792,22.98171],[90.45116,22.97352],[90.44833,22.9675],[90.44361,22.96167],[90.4325,22.95222],[90.43166,22.94917],[90.4325,22.94639],[90.43667,22.94028],[90.43716,22.93384],[90.43528,22.92778],[90.43327,22.92425],[90.42357,22.92024],[90.41711,22.91541],[90.41531,22.90996],[90.41936,22.90114],[90.41903,22.89779],[90.41489,22.89724],[90.407,22.8983],[90.4012,22.89587],[90.39836,22.89322],[90.39616,22.88726],[90.3939,22.8744],[90.39217,22.86892],[90.38254,22.85449],[90.38142,22.85114],[90.38118,22.84811],[90.38198,22.84601],[90.38988,22.83677],[90.39397,22.82882],[90.40307,22.81942],[90.40482,22.81558],[90.40459,22.81484],[90.40316,22.81458],[90.39507,22.81778],[90.3873,22.81655],[90.38589,22.81567],[90.38504,22.81359],[90.38638,22.80982],[90.39204,22.80513],[90.40054,22.80278],[90.42108,22.79226],[90.42694,22.79028],[90.42805,22.78917],[90.42879,22.78565],[90.43243,22.77997],[90.43771,22.76712],[90.43652,22.76355],[90.41789,22.75748],[90.4097,22.75888],[90.39406,22.76623],[90.38506,22.76777],[90.37786,22.77371],[90.37466,22.78298],[90.36739,22.79755],[90.35397,22.81341],[90.3493,22.82358],[90.35211,22.8242],[90.35381,22.82747],[90.35197,22.83214],[90.34821,22.8372],[90.35394,22.83855],[90.35709,22.84035],[90.35674,22.85173],[90.35818,22.86112],[90.35204,22.87212],[90.34326,22.87668],[90.33656,22.87478],[90.33438,22.87649],[90.3246,22.87467],[90.32378,22.87394],[90.32303,22.87836],[90.32178,22.88033],[90.32528,22.88116],[90.32674,22.87815],[90.34129,22.87986],[90.34596,22.87838],[90.35036,22.88039],[90.36194,22.915],[90.36354,22.92565],[90.35966,22.93545],[90.35082,22.94058],[90.32485,22.94771],[90.31875,22.9554],[90.31719,22.95961],[90.31781,22.96593],[90.32111,22.97367],[90.32223,22.97337],[90.32575,22.97523],[90.32736,22.9773],[90.3259,22.98042],[90.33044,22.98962],[90.32821,23.00087],[90.32412,23.01411],[90.32129,23.01932],[90.32082,23.02253],[90.31858,23.02452],[90.31472,23.02621],[90.31168,23.03103],[90.31175,23.03554],[90.31361,23.04618],[90.31474,23.04911],[90.31858,23.05331],[90.32665,23.05564],[90.35405,23.05423],[90.37236,23.05647],[90.37337,23.05496]]]]}},{"type":"Feature","properties":{"name":"Wazirpur","district_id":"barishal","pcode":"100694","sql_upazila_id":"barishal-wazirpur","sql_name_bn":"উজিরপুর"},"geometry":{"type":"Polygon","coordinates":[[[90.05692,22.92999],[90.06254,22.92572],[90.0685,22.92347],[90.10345,22.91841],[90.10693,22.91885],[90.13655,22.91572],[90.1407,22.9158],[90.14226,22.91821],[90.15795,22.91866],[90.16145,22.91744],[90.17295,22.9162],[90.17533,22.91255],[90.17497,22.9108],[90.17616,22.90882],[90.18951,22.90475],[90.19285,22.90467],[90.1931,22.90712],[90.19807,22.90541],[90.20084,22.90243],[90.20547,22.90163],[90.20821,22.9019],[90.20948,22.90474],[90.20876,22.90858],[90.20786,22.90952],[90.21307,22.9098],[90.21574,22.91214],[90.21941,22.91942],[90.22456,22.91747],[90.22695,22.91187],[90.22941,22.90856],[90.22974,22.90284],[90.23192,22.90285],[90.23418,22.89965],[90.23965,22.90027],[90.24383,22.89714],[90.24874,22.89714],[90.25162,22.89593],[90.25373,22.89377],[90.25681,22.8929],[90.2595,22.89398],[90.26134,22.89308],[90.26376,22.88885],[90.26585,22.88829],[90.26747,22.88853],[90.2692,22.89072],[90.27071,22.89131],[90.27424,22.89134],[90.29534,22.88353],[90.28714,22.86716],[90.28091,22.85691],[90.28397,22.85347],[90.28075,22.84657],[90.28014,22.84271],[90.2738,22.84389],[90.27026,22.83723],[90.26901,22.83235],[90.27257,22.82861],[90.26811,22.82004],[90.26686,22.81921],[90.26111,22.82198],[90.25668,22.81642],[90.25502,22.81235],[90.25513,22.80955],[90.26037,22.80858],[90.26439,22.80385],[90.26028,22.79892],[90.25955,22.79688],[90.26106,22.79336],[90.25992,22.78996],[90.26323,22.78646],[90.25929,22.78084],[90.25802,22.77732],[90.254,22.77736],[90.25142,22.77365],[90.25015,22.77054],[90.25004,22.76638],[90.25428,22.76513],[90.25368,22.76138],[90.24969,22.75793],[90.24977,22.75433],[90.2384,22.75488],[90.23396,22.75133],[90.22863,22.75323],[90.22526,22.75211],[90.22384,22.75248],[90.2218,22.75476],[90.2223,22.7572],[90.22097,22.75872],[90.21375,22.7594],[90.2101,22.76171],[90.20977,22.76543],[90.21246,22.77342],[90.20773,22.77239],[90.20381,22.77419],[90.20319,22.77604],[90.20018,22.77708],[90.19837,22.78146],[90.20255,22.78462],[90.20534,22.78485],[90.2088,22.78676],[90.2093,22.78914],[90.21071,22.79082],[90.21485,22.7909],[90.21558,22.79705],[90.2143,22.80011],[90.21599,22.80732],[90.21776,22.81116],[90.22282,22.81744],[90.22294,22.81932],[90.21712,22.82426],[90.22079,22.8292],[90.2191,22.83067],[90.21375,22.83205],[90.21118,22.83125],[90.21029,22.83007],[90.21052,22.82504],[90.20705,22.82495],[90.19844,22.82722],[90.19856,22.834],[90.19685,22.83484],[90.18721,22.83581],[90.18223,22.83255],[90.17142,22.83839],[90.17036,22.84304],[90.16733,22.84511],[90.161,22.84748],[90.15529,22.84464],[90.15222,22.84563],[90.14483,22.84968],[90.14503,22.8551],[90.12911,22.85963],[90.12399,22.8586],[90.12142,22.85701],[90.1205,22.85537],[90.12124,22.8453],[90.12099,22.84297],[90.11964,22.841],[90.11825,22.84034],[90.10588,22.84325],[90.09985,22.84019],[90.09781,22.83801],[90.09795,22.834],[90.10264,22.82853],[90.10024,22.82213],[90.0984,22.82068],[90.08921,22.8218],[90.08051,22.82582],[90.07504,22.82943],[90.07366,22.83135],[90.07334,22.83575],[90.07887,22.84334],[90.0789,22.84477],[90.07838,22.84632],[90.07562,22.84724],[90.07407,22.84933],[90.07463,22.85229],[90.07372,22.85516],[90.06839,22.85756],[90.04368,22.86262],[90.03187,22.86614],[90.01768,22.86642],[90.02059,22.87564],[90.0206,22.88272],[90.02514,22.89341],[90.02638,22.89876],[90.03169,22.90926],[90.03467,22.91948],[90.03509,22.92855],[90.04047,22.93066],[90.05373,22.93018],[90.05692,22.92999]]]}}]}