{"type":"FeatureCollection","features":[{"type":"Feature","properties":{"name":"Bhola Sadar","district_id":"bhola","pcode":"100918","sql_upazila_id":"bhola-bhola-sadar","sql_name_bn":"ভোলা সদর"},"geometry":{"type":"MultiPolygon","coordinates":[[[[90.57944,22.57061],[90.58361,22.57055],[90.58583,22.56833],[90.59028,22.56667],[90.59139,22.56694],[90.59194,22.56639],[90.59139,22.565],[90.58722,22.56389],[90.58556,22.56417],[90.58444,22.56361],[90.58417,22.5625],[90.58528,22.56194],[90.5925,22.56417],[90.59834,22.56139],[90.59972,22.55944],[90.60028,22.55722],[90.59972,22.55611],[90.59722,22.55417],[90.595,22.55361],[90.595,22.55445],[90.59278,22.55278],[90.59111,22.55305],[90.59055,22.55445],[90.58916,22.55361],[90.58583,22.55556],[90.58476,22.55532],[90.57903,22.56082],[90.5735,22.57033],[90.57917,22.57055],[90.57944,22.57061]]],[[[90.54556,22.61194],[90.55334,22.60833],[90.55861,22.60167],[90.56834,22.5975],[90.57361,22.59417],[90.58667,22.58167],[90.59111,22.57333],[90.58916,22.57278],[90.58,22.57833],[90.57639,22.58139],[90.57202,22.58343],[90.57217,22.58249],[90.58806,22.57195],[90.58722,22.57111],[90.58001,22.57188],[90.57317,22.57105],[90.56848,22.58152],[90.56145,22.59207],[90.54583,22.6073],[90.54062,22.60978],[90.54472,22.61194],[90.54556,22.61194]]],[[[90.53833,22.61778],[90.54056,22.61611],[90.53861,22.615],[90.53584,22.61639],[90.53555,22.61722],[90.53694,22.61778],[90.53833,22.61778]]],[[[90.5823,22.70872],[90.584,22.70884],[90.59212,22.7147],[90.5942,22.71479],[90.59604,22.69919],[90.59512,22.68995],[90.59743,22.6885],[90.60206,22.69042],[90.60427,22.68972],[90.60417,22.68581],[90.60568,22.67956],[90.60286,22.67082],[90.60291,22.66642],[90.60422,22.66251],[90.60968,22.65575],[90.61554,22.63753],[90.61575,22.63236],[90.61436,22.62162],[90.61143,22.6158],[90.60761,22.60242],[90.61858,22.58377],[90.61909,22.58083],[90.6175,22.57053],[90.61868,22.56512],[90.61729,22.56321],[90.61378,22.56337],[90.60809,22.56504],[90.60513,22.56643],[90.60025,22.57035],[90.59416,22.58002],[90.5891,22.58635],[90.57395,22.5997],[90.57281,22.60179],[90.57053,22.60204],[90.56638,22.60377],[90.56511,22.60511],[90.56324,22.605],[90.5589,22.60721],[90.5527,22.61304],[90.55004,22.61423],[90.54226,22.62009],[90.54078,22.61915],[90.53554,22.61862],[90.53407,22.61983],[90.5342,22.6214],[90.53782,22.62835],[90.54504,22.63656],[90.55098,22.64094],[90.55972,22.64441],[90.5641,22.64532],[90.57109,22.64905],[90.57581,22.65402],[90.57826,22.65958],[90.5775,22.66139],[90.57806,22.66556],[90.5775,22.67167],[90.57428,22.67975],[90.5675,22.70194],[90.56889,22.70389],[90.56894,22.70642],[90.57444,22.71666],[90.58216,22.72378],[90.58377,22.72407],[90.58688,22.72247],[90.58712,22.72102],[90.58118,22.71831],[90.57801,22.71502],[90.57794,22.71341],[90.58184,22.70895],[90.5823,22.70872]]],[[[90.67667,22.79833],[90.67778,22.79778],[90.67778,22.79639],[90.67667,22.79528],[90.67083,22.79278],[90.6625,22.79194],[90.66119,22.7936],[90.65889,22.79445],[90.65916,22.79611],[90.66028,22.79722],[90.66122,22.79631],[90.66396,22.79597],[90.67639,22.79833],[90.67667,22.79833]]],[[[90.61111,22.80222],[90.62083,22.80056],[90.62583,22.79861],[90.62778,22.79889],[90.63194,22.7975],[90.63778,22.79722],[90.64778,22.79361],[90.65527,22.78823],[90.65916,22.78417],[90.665,22.76861],[90.66556,22.75722],[90.66778,22.75194],[90.6675,22.74972],[90.66972,22.74195],[90.66944,22.73917],[90.67416,22.72278],[90.68472,22.71028],[90.68611,22.70611],[90.68972,22.68778],[90.68601,22.68435],[90.68431,22.6812],[90.68003,22.6792],[90.67667,22.67438],[90.67779,22.66864],[90.67628,22.66371],[90.67674,22.65873],[90.67142,22.64277],[90.66402,22.64153],[90.6617,22.64045],[90.66109,22.63704],[90.66404,22.63605],[90.66478,22.62998],[90.66393,22.6244],[90.65975,22.62343],[90.65669,22.61249],[90.65963,22.60339],[90.6593,22.59894],[90.65646,22.59696],[90.65873,22.58645],[90.65888,22.58119],[90.66192,22.57357],[90.66394,22.56689],[90.6643,22.56255],[90.66637,22.55764],[90.66978,22.55184],[90.67346,22.54888],[90.67561,22.54443],[90.67552,22.54352],[90.67225,22.54161],[90.66543,22.54549],[90.65991,22.55332],[90.65221,22.55859],[90.64272,22.56218],[90.62329,22.56591],[90.62116,22.56777],[90.62164,22.57814],[90.61999,22.58705],[90.61606,22.59636],[90.61452,22.59748],[90.61341,22.59984],[90.61367,22.59792],[90.61237,22.59758],[90.60979,22.60156],[90.61412,22.61312],[90.61551,22.6192],[90.6171,22.63043],[90.61693,22.63958],[90.61367,22.64721],[90.61105,22.65655],[90.60625,22.66209],[90.60459,22.66533],[90.60426,22.66981],[90.60694,22.67945],[90.60548,22.68984],[90.60477,22.69079],[90.60149,22.69179],[90.59695,22.68959],[90.59615,22.69027],[90.59737,22.69543],[90.59747,22.70138],[90.59541,22.71233],[90.59611,22.71417],[90.59527,22.71577],[90.59327,22.71667],[90.59057,22.71576],[90.58704,22.71334],[90.58418,22.71011],[90.58191,22.71083],[90.57945,22.71344],[90.57945,22.71498],[90.58198,22.71714],[90.58758,22.71956],[90.58873,22.72135],[90.58736,22.72426],[90.58436,22.72561],[90.5826,22.72557],[90.57711,22.72101],[90.57204,22.71513],[90.56757,22.70607],[90.56671,22.70281],[90.56731,22.71505],[90.56697,22.71787],[90.56508,22.72076],[90.56414,22.72684],[90.56489,22.73087],[90.56887,22.73585],[90.56884,22.74088],[90.57082,22.74477],[90.57891,22.75467],[90.58218,22.76269],[90.58175,22.7871],[90.58227,22.78993],[90.58628,22.7936],[90.58634,22.79549],[90.59025,22.79972],[90.59639,22.8],[90.59889,22.80222],[90.60611,22.80222],[90.60694,22.80028],[90.60472,22.79889],[90.60667,22.79611],[90.60833,22.80083],[90.61056,22.80222],[90.61111,22.80222]]],[[[90.66903,22.80529],[90.67109,22.80528],[90.67236,22.80445],[90.67223,22.80361],[90.665,22.79944],[90.6625,22.79889],[90.65389,22.79944],[90.65056,22.80222],[90.65083,22.80389],[90.65278,22.805],[90.65444,22.80361],[90.65556,22.80361],[90.65778,22.805],[90.66666,22.80472],[90.66861,22.80528],[90.66903,22.80529]]]]}},{"type":"Feature","properties":{"name":"Borhanuddin","district_id":"bhola","pcode":"100921","sql_upazila_id":"bhola-borhanuddin","sql_name_bn":"বোরহানউদ্দিন"},"geometry":{"type":"MultiPolygon","coordinates":[[[[90.67306,22.405],[90.67416,22.3975],[90.67416,22.38889],[90.67306,22.3875],[90.67167,22.3875],[90.67028,22.39305],[90.67062,22.39791],[90.66889,22.39778],[90.66528,22.40278],[90.66167,22.40583],[90.66084,22.40944],[90.6625,22.41444],[90.66278,22.42056],[90.66541,22.43377],[90.66833,22.43889],[90.66908,22.43813],[90.66937,22.43504],[90.66841,22.4299],[90.66917,22.41917],[90.67278,22.40528],[90.67306,22.405]]],[[[90.67056,22.44917],[90.66966,22.44966],[90.67056,22.46111],[90.67,22.46639],[90.67028,22.46972],[90.6711,22.47074],[90.67243,22.46502],[90.67223,22.45806],[90.67083,22.44944],[90.67056,22.44917]]],[[[90.6725,22.47139],[90.67111,22.47333],[90.67111,22.47667],[90.67223,22.47611],[90.67274,22.47161],[90.6725,22.47139]]],[[[90.67035,22.47761],[90.66978,22.47801],[90.66949,22.4831],[90.6702,22.48504],[90.67056,22.47821],[90.67035,22.47761]]],[[[90.63333,22.55167],[90.63944,22.55083],[90.64027,22.55],[90.64333,22.54944],[90.64528,22.54972],[90.64694,22.54833],[90.64889,22.54889],[90.65472,22.54333],[90.65472,22.54194],[90.6525,22.53861],[90.65111,22.53778],[90.64889,22.54055],[90.64806,22.53833],[90.64639,22.53695],[90.64389,22.54],[90.64278,22.545],[90.64167,22.54528],[90.64278,22.53889],[90.6425,22.53583],[90.64333,22.53389],[90.64333,22.5325],[90.64194,22.53056],[90.63917,22.5325],[90.63556,22.53667],[90.63474,22.53597],[90.63503,22.53431],[90.64306,22.52389],[90.64667,22.51639],[90.64722,22.51111],[90.64833,22.50889],[90.64972,22.49556],[90.65056,22.49417],[90.64972,22.49028],[90.64889,22.48972],[90.64139,22.4925],[90.6275,22.49361],[90.62278,22.50194],[90.62,22.50417],[90.61889,22.50611],[90.61889,22.51167],[90.61694,22.51222],[90.61777,22.50945],[90.61723,22.50805],[90.60472,22.51944],[90.6025,22.52889],[90.59972,22.53472],[90.60028,22.53695],[90.60333,22.54055],[90.60445,22.54333],[90.60694,22.54583],[90.61,22.5475],[90.61472,22.54833],[90.61972,22.55056],[90.63277,22.55167],[90.63333,22.55167]]],[[[90.72409,22.56278],[90.72948,22.56149],[90.73705,22.56226],[90.74056,22.56182],[90.74908,22.56325],[90.7526,22.56081],[90.75402,22.55734],[90.75468,22.54665],[90.75999,22.54285],[90.77344,22.54239],[90.78028,22.53278],[90.78054,22.53168],[90.77831,22.52973],[90.78065,22.51813],[90.78408,22.51695],[90.78461,22.51048],[90.78354,22.50777],[90.78349,22.50446],[90.79491,22.50585],[90.79853,22.50512],[90.80114,22.50664],[90.81084,22.49472],[90.81983,22.48656],[90.81777,22.48468],[90.81493,22.4787],[90.81451,22.4754],[90.81844,22.47454],[90.82216,22.47142],[90.81493,22.46745],[90.80816,22.46998],[90.805,22.46607],[90.80737,22.46492],[90.80936,22.46527],[90.81079,22.46357],[90.80901,22.46173],[90.80273,22.45877],[90.80447,22.45695],[90.80475,22.45426],[90.81075,22.45272],[90.81236,22.45091],[90.8157,22.45287],[90.82251,22.46296],[90.82573,22.46521],[90.82749,22.46437],[90.8275,22.46054],[90.82659,22.45919],[90.82793,22.45482],[90.82649,22.44846],[90.82616,22.44225],[90.82386,22.4378],[90.82319,22.43411],[90.80917,22.43221],[90.80823,22.42989],[90.80962,22.42517],[90.80724,22.41445],[90.80824,22.41299],[90.81105,22.41193],[90.8119,22.40569],[90.81557,22.39863],[90.81385,22.39314],[90.80968,22.38851],[90.80711,22.38716],[90.80568,22.38486],[90.81533,22.38562],[90.81903,22.38392],[90.81862,22.38241],[90.8154,22.3819],[90.8143,22.37645],[90.81255,22.37399],[90.8139,22.37132],[90.81635,22.37097],[90.81582,22.36797],[90.81689,22.36097],[90.81514,22.36033],[90.81582,22.35648],[90.82179,22.34838],[90.80934,22.35272],[90.79917,22.35883],[90.7944,22.3604],[90.79136,22.36367],[90.78993,22.36707],[90.78959,22.37194],[90.79093,22.38132],[90.79408,22.38911],[90.79259,22.39247],[90.79003,22.39368],[90.78595,22.4031],[90.78365,22.40459],[90.77773,22.40469],[90.77132,22.40321],[90.75972,22.3957],[90.75377,22.39478],[90.74609,22.39606],[90.74425,22.39835],[90.73718,22.40334],[90.73537,22.40847],[90.73405,22.40987],[90.73365,22.41257],[90.73469,22.42202],[90.73409,22.4246],[90.73283,22.42584],[90.73102,22.42532],[90.72859,22.4207],[90.72377,22.40838],[90.71815,22.40282],[90.71907,22.40246],[90.71523,22.39993],[90.70299,22.39963],[90.6944,22.40152],[90.69201,22.4005],[90.68425,22.40042],[90.6769,22.39776],[90.67113,22.42628],[90.67353,22.4528],[90.67388,22.46945],[90.67223,22.47833],[90.67278,22.47972],[90.67134,22.48031],[90.67167,22.48389],[90.66974,22.4882],[90.66727,22.50565],[90.66697,22.51031],[90.66907,22.52374],[90.66936,22.53137],[90.66851,22.53246],[90.66827,22.53647],[90.66543,22.54549],[90.67225,22.54161],[90.67158,22.53591],[90.67401,22.53476],[90.67904,22.53737],[90.68275,22.54161],[90.68545,22.5428],[90.69225,22.54479],[90.69907,22.54535],[90.70647,22.55109],[90.71253,22.55909],[90.71458,22.56355],[90.71684,22.5644],[90.71801,22.56397],[90.72409,22.56278]]]]}},{"type":"Feature","properties":{"name":"Charfasson","district_id":"bhola","pcode":"100925","sql_upazila_id":null,"sql_name_bn":null},"geometry":{"type":"MultiPolygon","coordinates":[[[[90.59583,21.73779],[90.59496,21.7384],[90.60027,21.74162],[90.60227,21.74129],[90.59625,21.73786],[90.59583,21.73779]]],[[[90.6059,21.74599],[90.60804,21.74619],[90.60546,21.74465],[90.60239,21.74451],[90.60339,21.7464],[90.60546,21.74606],[90.6059,21.74599]]],[[[90.58702,21.75184],[90.5853,21.75104],[90.58315,21.75252],[90.58351,21.75326],[90.59432,21.75702],[90.59382,21.75569],[90.58788,21.75191],[90.58702,21.75184]]],[[[90.59343,21.75943],[90.59121,21.7595],[90.59256,21.76111],[90.59364,21.76105],[90.59336,21.75977],[90.59343,21.75943]]],[[[90.57137,21.76387],[90.56815,21.76266],[90.56622,21.76286],[90.56458,21.76179],[90.56113,21.76293],[90.57001,21.76454],[90.57137,21.76528],[90.57252,21.76784],[90.57395,21.76764],[90.57452,21.76676],[90.5741,21.76441],[90.57217,21.764],[90.57137,21.76387]]],[[[90.56165,21.76415],[90.56036,21.7659],[90.56065,21.76866],[90.56165,21.76462],[90.56165,21.76415]]],[[[90.56121,21.77295],[90.5602,21.77389],[90.56056,21.77644],[90.56156,21.77833],[90.56264,21.77826],[90.56156,21.77308],[90.56121,21.77295]]],[[[90.5873,21.78627],[90.5873,21.78553],[90.58566,21.78465],[90.58466,21.785],[90.58588,21.78594],[90.58322,21.78573],[90.58723,21.78701],[90.5873,21.78627]]],[[[90.59081,21.78701],[90.59296,21.78607],[90.59174,21.78076],[90.58817,21.77827],[90.58459,21.77794],[90.58129,21.77484],[90.57649,21.77417],[90.57571,21.77498],[90.57685,21.77639],[90.57656,21.7776],[90.57292,21.77814],[90.57607,21.77955],[90.57922,21.77921],[90.58544,21.78157],[90.58702,21.7811],[90.58723,21.78015],[90.58881,21.78042],[90.5906,21.7819],[90.59075,21.78382],[90.58823,21.7858],[90.58637,21.79011],[90.5873,21.79031],[90.58988,21.78748],[90.59081,21.78701]]],[[[90.72539,21.80455],[90.72543,21.80053],[90.72421,21.79887],[90.72475,21.80011],[90.72418,21.80258],[90.72503,21.80455],[90.72539,21.80455]]],[[[90.724,21.80427],[90.72346,21.80279],[90.72284,21.80284],[90.72254,21.8037],[90.72336,21.80479],[90.72373,21.80428],[90.724,21.80427]]],[[[90.73206,21.84444],[90.73112,21.84443],[90.7311,21.84506],[90.7326,21.84621],[90.73288,21.845],[90.73206,21.8447],[90.73206,21.84444]]],[[[90.77988,21.85038],[90.77815,21.85119],[90.77673,21.85374],[90.7773,21.85468],[90.77887,21.85401],[90.77988,21.85226],[90.77988,21.85038]]],[[[90.60287,21.85981],[90.60689,21.85811],[90.60854,21.85515],[90.60367,21.85461],[90.60008,21.85172],[90.59879,21.85226],[90.5983,21.85347],[90.59701,21.85334],[90.59608,21.85448],[90.5935,21.85502],[90.59364,21.8567],[90.59486,21.85771],[90.60194,21.86006],[90.60287,21.85981]]],[[[90.772,21.83989],[90.77085,21.83935],[90.76956,21.84002],[90.77028,21.84513],[90.76627,21.84944],[90.7667,21.85119],[90.76842,21.85307],[90.76785,21.85441],[90.76971,21.85791],[90.76971,21.86033],[90.77085,21.85966],[90.77229,21.85334],[90.77071,21.85119],[90.77128,21.84957],[90.77529,21.84675],[90.77515,21.8446],[90.77428,21.84406],[90.77372,21.84177],[90.77229,21.84123],[90.772,21.83989]]],[[[90.61866,21.8604],[90.61723,21.85785],[90.60706,21.84924],[90.60348,21.84735],[90.60226,21.84762],[90.60255,21.8489],[90.60591,21.85085],[90.60856,21.85354],[90.61114,21.85421],[90.6125,21.85724],[90.61465,21.85891],[90.61414,21.86011],[90.61737,21.8602],[90.61945,21.86417],[90.6188,21.86087],[90.61866,21.8604]]],[[[90.78159,21.86046],[90.78117,21.85683],[90.78016,21.85629],[90.77959,21.85966],[90.77629,21.8602],[90.77687,21.86316],[90.774,21.86961],[90.77457,21.87055],[90.77802,21.86975],[90.78016,21.86665],[90.7813,21.86194],[90.78159,21.86046]]],[[[90.81767,21.87223],[90.81969,21.87277],[90.82227,21.8721],[90.82427,21.87008],[90.82227,21.86645],[90.81954,21.86363],[90.81525,21.86147],[90.81267,21.86147],[90.80695,21.86376],[90.80637,21.86457],[90.80766,21.8682],[90.80608,21.87008],[90.80666,21.87062],[90.81224,21.87344],[90.81725,21.87277],[90.81767,21.87223]]],[[[90.62857,21.87436],[90.62698,21.87261],[90.62304,21.87085],[90.61967,21.87167],[90.61989,21.87281],[90.62833,21.87503],[90.62857,21.87436]]],[[[90.71256,21.87169],[90.71378,21.87068],[90.71228,21.86941],[90.71335,21.86839],[90.71313,21.86725],[90.71135,21.86786],[90.71156,21.87471],[90.7092,21.87673],[90.7107,21.87794],[90.71235,21.87787],[90.71364,21.87545],[90.71371,21.87377],[90.71256,21.87229],[90.71256,21.87169]]],[[[90.82101,21.88435],[90.81836,21.88408],[90.81592,21.88536],[90.81492,21.8861],[90.81534,21.88751],[90.82645,21.89235],[90.82702,21.88926],[90.82215,21.88489],[90.82101,21.88435]]],[[[90.81585,21.9052],[90.81628,21.90237],[90.81786,21.90022],[90.81786,21.89807],[90.81413,21.89431],[90.81155,21.8939],[90.80811,21.89013],[90.80568,21.88933],[90.80196,21.89013],[90.80225,21.89618],[90.80382,21.89834],[90.81084,21.90183],[90.81242,21.90466],[90.80568,21.89968],[90.80253,21.89861],[90.80103,21.89951],[90.79988,21.89843],[90.79902,21.89387],[90.79809,21.89296],[90.79709,21.89444],[90.79552,21.88992],[90.79424,21.88951],[90.79066,21.89116],[90.79237,21.88806],[90.79237,21.88655],[90.7918,21.8801],[90.79007,21.8787],[90.78764,21.87816],[90.78234,21.87951],[90.78019,21.8783],[90.77733,21.87978],[90.77718,21.88126],[90.78048,21.88489],[90.78262,21.88865],[90.78463,21.89699],[90.78692,21.9017],[90.79366,21.90977],[90.80138,21.91138],[90.80912,21.91111],[90.81499,21.90614],[90.81585,21.9052]]],[[[90.73286,21.92001],[90.73028,21.91893],[90.73135,21.92108],[90.73315,21.92041],[90.73286,21.92001]]],[[[90.66618,21.92355],[90.66718,21.92288],[90.66776,21.92369],[90.66904,21.92348],[90.67169,21.92065],[90.66982,21.91911],[90.66846,21.91985],[90.66861,21.91797],[90.66102,21.91098],[90.65658,21.90466],[90.65257,21.90103],[90.65057,21.89726],[90.64877,21.89686],[90.64763,21.89262],[90.64212,21.89141],[90.63595,21.89188],[90.6356,21.89397],[90.63639,21.89746],[90.63782,21.89955],[90.64964,21.90762],[90.65443,21.91333],[90.6656,21.92376],[90.66618,21.92355]]],[[[90.73479,21.9229],[90.732,21.92229],[90.73429,21.92572],[90.73515,21.92559],[90.73494,21.9231],[90.73479,21.9229]]],[[[90.74399,21.92757],[90.74834,21.92731],[90.75329,21.92455],[90.75363,21.92273],[90.75571,21.92199],[90.76089,21.91573],[90.76118,21.91009],[90.74861,21.88694],[90.74439,21.87678],[90.74167,21.87295],[90.74084,21.86847],[90.73626,21.86618],[90.73562,21.86507],[90.73505,21.86043],[90.72788,21.85817],[90.72108,21.85871],[90.71822,21.86113],[90.71621,21.86597],[90.71822,21.87835],[90.71965,21.88184],[90.71908,21.88319],[90.71549,21.87466],[90.71466,21.87509],[90.71438,21.87818],[90.71072,21.87925],[90.71301,21.88019],[90.7143,21.88167],[90.71735,21.89126],[90.72366,21.89879],[90.72795,21.91412],[90.72881,21.91466],[90.73167,21.91358],[90.73311,21.91412],[90.73598,21.91923],[90.73655,21.92434],[90.73766,21.92627],[90.7397,21.92784],[90.74142,21.92784],[90.74399,21.92757]]],[[[90.85522,21.94717],[90.85508,21.94637],[90.85365,21.9467],[90.85394,21.94811],[90.85501,21.94805],[90.85522,21.94717]]],[[[90.84029,21.94994],[90.83721,21.95035],[90.83535,21.95203],[90.83313,21.95613],[90.83471,21.95606],[90.84093,21.95068],[90.84058,21.95008],[90.84029,21.94994]]],[[[90.85648,21.95417],[90.85355,21.95612],[90.8532,21.95814],[90.85434,21.95874],[90.85677,21.95451],[90.85648,21.95417]]],[[[90.64039,21.97066],[90.64139,21.96642],[90.64318,21.96346],[90.63845,21.9521],[90.63459,21.94732],[90.63036,21.94463],[90.62664,21.94416],[90.62578,21.9451],[90.62692,21.94967],[90.62563,21.95734],[90.62728,21.96474],[90.63129,21.96924],[90.64024,21.97092],[90.64039,21.97066]]],[[[90.64475,21.96481],[90.64447,21.96407],[90.64333,21.9646],[90.64111,21.96992],[90.64529,21.97174],[90.64604,21.96837],[90.64504,21.96575],[90.64475,21.96481]]],[[[90.84723,21.96959],[90.84802,21.96898],[90.8472,21.96425],[90.84849,21.96115],[90.84906,21.96196],[90.84784,21.96472],[90.84798,21.96633],[90.84931,21.96635],[90.84996,21.96514],[90.85021,21.95535],[90.84817,21.95189],[90.84388,21.95063],[90.84479,21.95281],[90.83927,21.95447],[90.83448,21.95804],[90.83309,21.96],[90.83327,21.96173],[90.8321,21.96329],[90.83084,21.96321],[90.83084,21.9644],[90.83298,21.96803],[90.84008,21.97166],[90.84416,21.97207],[90.84645,21.97126],[90.84733,21.97001],[90.84723,21.96959]]],[[[90.65253,21.97342],[90.65274,21.97093],[90.64701,21.96502],[90.64669,21.97161],[90.64819,21.97275],[90.65117,21.97323],[90.65253,21.97342]]],[[[90.67744,21.97639],[90.69131,21.97646],[90.69666,21.975],[90.70139,21.97528],[90.70194,21.97472],[90.69778,21.96389],[90.69473,21.95306],[90.69305,21.95111],[90.69082,21.94511],[90.6861,21.93649],[90.68337,21.93314],[90.6818,21.93287],[90.68216,21.93153],[90.67815,21.92822],[90.67657,21.92776],[90.6738,21.92332],[90.67294,21.92386],[90.67043,21.92305],[90.669,21.92517],[90.66771,21.92423],[90.66463,21.92524],[90.66427,21.92383],[90.66227,21.9227],[90.6489,21.9085],[90.63546,21.89947],[90.63388,21.89676],[90.6341,21.89285],[90.621,21.88931],[90.61767,21.88965],[90.61539,21.88877],[90.61275,21.88957],[90.6116,21.89174],[90.61153,21.89422],[90.61846,21.9072],[90.62097,21.91389],[90.62203,21.91457],[90.62232,21.91806],[90.62712,21.92781],[90.62704,21.92875],[90.62532,21.9301],[90.63693,21.94412],[90.6414,21.95532],[90.64527,21.9611],[90.65357,21.97093],[90.65372,21.97388],[90.65983,21.97531],[90.6772,21.97642],[90.67744,21.97639]]],[[[90.85362,21.98171],[90.85133,21.98198],[90.84897,21.98359],[90.8499,21.98729],[90.85426,21.99106],[90.85563,21.99059],[90.85813,21.98763],[90.85749,21.98406],[90.85462,21.98191],[90.85362,21.98171]]],[[[90.82609,21.9948],[90.8263,21.99366],[90.8283,21.99178],[90.82788,21.98982],[90.82666,21.99016],[90.82573,21.99218],[90.82365,21.9921],[90.82344,21.99156],[90.82551,21.99068],[90.82601,21.98826],[90.82544,21.98718],[90.82275,21.98822],[90.81866,21.98059],[90.81694,21.97985],[90.81536,21.98059],[90.81133,21.97925],[90.80968,21.97958],[90.80947,21.98086],[90.81483,21.98913],[90.81927,21.99252],[90.82043,21.99198],[90.82086,21.99379],[90.82272,21.99494],[90.8238,21.99466],[90.82416,21.99628],[90.8253,21.99641],[90.82594,21.99527],[90.82609,21.9948]]],[[[90.71163,21.99611],[90.69898,21.98515],[90.69547,21.98407],[90.69547,21.98555],[90.70155,21.98905],[90.70556,21.99598],[90.70885,21.99591],[90.7111,21.99799],[90.71243,22.00202],[90.714,22.00309],[90.715,22],[90.71193,21.9964],[90.71163,21.99611]]],[[[90.86139,22.00083],[90.86,22.00222],[90.86034,22.0039],[90.86179,22.004],[90.86278,22.00222],[90.86139,22.00083]]],[[[90.72673,22.01333],[90.72508,22.01185],[90.72284,22.01145],[90.72083,22.00666],[90.71833,22.00361],[90.7157,22.00513],[90.71861,22.00917],[90.7225,22.01278],[90.72667,22.01361],[90.72673,22.01333]]],[[[90.84278,22.01972],[90.84639,22.01722],[90.84361,22.00972],[90.84388,22.0075],[90.8425,22.005],[90.845,22.00333],[90.84472,22.00139],[90.84579,21.99898],[90.84457,21.99622],[90.84184,21.99562],[90.84235,21.99401],[90.84099,21.99219],[90.83984,21.99206],[90.8387,21.99407],[90.83906,21.9969],[90.83833,22],[90.84084,22.00222],[90.84,22.00306],[90.83889,22.00194],[90.8375,22.00278],[90.83627,22.01167],[90.83833,22.01639],[90.84139,22.01972],[90.84278,22.01972]]],[[[90.80583,22.04389],[90.80583,22.03972],[90.805,22.03889],[90.80194,22.04083],[90.80111,22.04278],[90.8025,22.04389],[90.80527,22.04444],[90.80583,22.04389]]],[[[90.74889,22.05083],[90.7525,22.04944],[90.75318,22.04833],[90.75163,22.04336],[90.75254,22.04218],[90.75182,22.0387],[90.74778,22.03778],[90.745,22.03555],[90.74361,22.03584],[90.73917,22.03222],[90.73666,22.03306],[90.73473,22.03222],[90.735,22.03056],[90.73778,22.02861],[90.73778,22.02667],[90.73444,22.02361],[90.73222,22.02444],[90.73111,22.0239],[90.72833,22.02056],[90.72889,22.01972],[90.73028,22.02028],[90.73333,22.01833],[90.73194,22.01694],[90.73028,22.01722],[90.72668,22.01528],[90.72056,22.01389],[90.71972,22.01472],[90.72028,22.01833],[90.72528,22.02417],[90.72694,22.0275],[90.73167,22.03139],[90.73055,22.03222],[90.73083,22.03333],[90.73306,22.03611],[90.73583,22.04194],[90.74194,22.04833],[90.745,22.05028],[90.74778,22.05083],[90.74889,22.05083]]],[[[90.605,22.11972],[90.60667,22.11444],[90.60694,22.10528],[90.60389,22.10139],[90.60333,22.10167],[90.60167,22.10028],[90.59915,22.09667],[90.59889,22.09361],[90.59778,22.09333],[90.59611,22.09528],[90.59528,22.09861],[90.59611,22.10528],[90.60194,22.11833],[90.60472,22.11972],[90.605,22.11972]]],[[[90.81933,22.13228],[90.81805,22.13194],[90.81796,22.13355],[90.81824,22.13436],[90.8194,22.13355],[90.81933,22.13228]]],[[[90.83694,22.17722],[90.83305,22.17917],[90.83472,22.17972],[90.83694,22.17861],[90.83694,22.17722]]],[[[90.85245,22.17603],[90.85015,22.17738],[90.85015,22.18032],[90.85202,22.18059],[90.85274,22.17617],[90.85245,22.17603]]],[[[90.62295,22.18337],[90.62401,22.18322],[90.62491,22.1788],[90.62408,22.17461],[90.62316,22.17281],[90.62195,22.1725],[90.62195,22.175],[90.61971,22.18066],[90.62242,22.18328],[90.62295,22.18337]]],[[[90.60222,22.18833],[90.60528,22.18722],[90.60639,22.18556],[90.60528,22.17528],[90.60306,22.17222],[90.60361,22.17139],[90.60306,22.17],[90.60361,22.16111],[90.60583,22.15028],[90.605,22.13583],[90.60528,22.12472],[90.60222,22.12361],[90.60083,22.12222],[90.60029,22.11833],[90.59389,22.10306],[90.59417,22.09667],[90.59634,22.08941],[90.5963,22.08573],[90.59528,22.08389],[90.59611,22.08278],[90.59556,22.07722],[90.59216,22.06404],[90.58806,22.05639],[90.58552,22.05419],[90.58,22.05167],[90.57722,22.05583],[90.57722,22.05722],[90.58444,22.06944],[90.58389,22.07],[90.5825,22.06861],[90.57907,22.06319],[90.5763,22.06917],[90.5766,22.08111],[90.57919,22.09154],[90.58562,22.1049],[90.58594,22.10712],[90.58461,22.11012],[90.58266,22.10863],[90.57529,22.09367],[90.57375,22.11154],[90.57446,22.12694],[90.57576,22.1333],[90.56619,22.12852],[90.55804,22.12787],[90.55054,22.12618],[90.53661,22.12169],[90.53458,22.12168],[90.53178,22.12495],[90.53917,22.12904],[90.54972,22.13139],[90.55585,22.13147],[90.5589,22.13251],[90.56287,22.13529],[90.56831,22.14144],[90.57064,22.14899],[90.57305,22.15167],[90.5725,22.1525],[90.56973,22.15055],[90.5675,22.14333],[90.56583,22.14055],[90.56306,22.13694],[90.55889,22.13389],[90.55361,22.13278],[90.54889,22.13305],[90.54111,22.13445],[90.53833,22.13611],[90.53778,22.13722],[90.54001,22.14361],[90.54778,22.1575],[90.5525,22.16222],[90.5575,22.165],[90.56777,22.17475],[90.56917,22.17472],[90.57056,22.1775],[90.57306,22.17667],[90.57513,22.17931],[90.57833,22.18139],[90.57889,22.18194],[90.57833,22.1825],[90.57659,22.18283],[90.57694,22.18389],[90.58389,22.18556],[90.58861,22.18528],[90.59805,22.18833],[90.60222,22.18833]]],[[[90.58139,22.22944],[90.57889,22.22694],[90.57667,22.2325],[90.57722,22.23556],[90.58083,22.23833],[90.58305,22.23694],[90.58305,22.23167],[90.58139,22.22972],[90.58139,22.22944]]],[[[90.5875,22.23972],[90.58833,22.23889],[90.58778,22.23639],[90.58889,22.23333],[90.58833,22.23222],[90.58916,22.22832],[90.58444,22.20861],[90.5825,22.20472],[90.57361,22.19555],[90.57056,22.19263],[90.56722,22.19194],[90.56611,22.19278],[90.56528,22.19528],[90.56639,22.19722],[90.57111,22.20138],[90.57417,22.20639],[90.57667,22.21333],[90.57861,22.22445],[90.58417,22.23139],[90.58472,22.23444],[90.58417,22.23917],[90.58611,22.23972],[90.5875,22.23972]]],[[[90.59222,22.22917],[90.59139,22.22917],[90.59055,22.23056],[90.59028,22.23583],[90.59222,22.24028],[90.59506,22.2414],[90.59695,22.23667],[90.59666,22.23389],[90.5925,22.22944],[90.59222,22.22917]]],[[[90.63111,22.24583],[90.63306,22.24472],[90.6325,22.24],[90.63361,22.23278],[90.63722,22.21944],[90.63472,22.21278],[90.63194,22.21139],[90.62889,22.20751],[90.61667,22.19583],[90.60306,22.19139],[90.59084,22.18861],[90.58472,22.18833],[90.58,22.19028],[90.57861,22.19221],[90.57889,22.19611],[90.58083,22.2],[90.58528,22.20417],[90.58639,22.20667],[90.58806,22.21638],[90.59139,22.22361],[90.59194,22.22778],[90.59805,22.23361],[90.59805,22.24195],[90.60167,22.24362],[90.62278,22.24417],[90.63084,22.24583],[90.63111,22.24583]]],[[[90.76736,22.26241],[90.77483,22.25524],[90.77942,22.25374],[90.78217,22.2511],[90.78323,22.24782],[90.78325,22.24045],[90.78874,22.23482],[90.79401,22.22783],[90.7945,22.22416],[90.80022,22.21785],[90.80614,22.21392],[90.80818,22.21431],[90.81048,22.21293],[90.81392,22.20667],[90.81869,22.2002],[90.82345,22.1983],[90.82483,22.19917],[90.82584,22.19206],[90.82777,22.19021],[90.82639,22.17917],[90.82472,22.17417],[90.825,22.16278],[90.82389,22.15167],[90.81583,22.13083],[90.81333,22.12611],[90.81165,22.12448],[90.81142,22.12347],[90.81258,22.12394],[90.81223,22.12251],[90.79833,22.10695],[90.79305,22.09611],[90.78722,22.08722],[90.78667,22.08417],[90.78611,22.08361],[90.785,22.08444],[90.77722,22.07806],[90.76949,22.06952],[90.76139,22.06306],[90.74389,22.05472],[90.74028,22.05194],[90.73361,22.04444],[90.72477,22.03727],[90.7175,22.02861],[90.70805,22.02],[90.70389,22.01361],[90.70055,22.01],[90.69917,22.00972],[90.69675,22.00647],[90.69268,22.00422],[90.68486,22.00175],[90.67168,21.99855],[90.66106,21.99703],[90.65627,21.9953],[90.64212,21.99393],[90.63847,21.99272],[90.63208,21.99329],[90.62037,22.00299],[90.61946,22.00583],[90.62053,22.01267],[90.62392,22.018],[90.63342,22.02333],[90.63965,22.03039],[90.64104,22.03299],[90.64303,22.0407],[90.64363,22.0532],[90.64269,22.05119],[90.64111,22.03722],[90.63944,22.03278],[90.63667,22.02917],[90.62902,22.02193],[90.62359,22.0194],[90.61791,22.01062],[90.61369,22.01061],[90.6078,22.01733],[90.60438,22.02494],[90.6,22.03028],[90.59917,22.03306],[90.59944,22.03778],[90.5975,22.04083],[90.59812,22.04778],[90.60896,22.07787],[90.61384,22.08822],[90.61689,22.09758],[90.61922,22.10927],[90.62128,22.113],[90.62454,22.11486],[90.63166,22.12104],[90.63361,22.12528],[90.63908,22.13236],[90.63861,22.13278],[90.6332,22.12694],[90.63111,22.1225],[90.62889,22.12],[90.6225,22.115],[90.62055,22.11444],[90.61945,22.11555],[90.61806,22.11861],[90.61971,22.12942],[90.61934,22.14264],[90.62334,22.15639],[90.62334,22.16278],[90.62473,22.165],[90.62444,22.16639],[90.62638,22.17426],[90.62629,22.18439],[90.62511,22.18698],[90.63917,22.19944],[90.65028,22.21556],[90.65623,22.22892],[90.66116,22.24299],[90.6657,22.25257],[90.66802,22.25174],[90.66767,22.251],[90.68069,22.2475],[90.68869,22.24718],[90.69336,22.24872],[90.70437,22.25572],[90.7131,22.25593],[90.71645,22.25768],[90.71813,22.25948],[90.72054,22.26025],[90.72807,22.26045],[90.73913,22.25895],[90.74564,22.26403],[90.75341,22.2681],[90.75845,22.26762],[90.76541,22.26509],[90.76736,22.26241]]]]}},{"type":"Feature","properties":{"name":"Daulatkhan","district_id":"bhola","pcode":"100929","sql_upazila_id":null,"sql_name_bn":null},"geometry":{"type":"MultiPolygon","coordinates":[[[[90.80194,22.63696],[90.80111,22.6375],[90.80389,22.64222],[90.80527,22.64695],[90.80666,22.64778],[90.80695,22.64444],[90.80237,22.6375],[90.80194,22.63696]]],[[[90.69527,22.67917],[90.69833,22.67639],[90.69917,22.67444],[90.69917,22.66722],[90.70084,22.66167],[90.70167,22.655],[90.70583,22.64667],[90.70611,22.64333],[90.7075,22.64278],[90.71042,22.6386],[90.71315,22.63633],[90.71502,22.63177],[90.72083,22.62833],[90.72833,22.62111],[90.72528,22.61945],[90.71667,22.61861],[90.70917,22.62111],[90.70444,22.62528],[90.70368,22.62431],[90.70819,22.62007],[90.71597,22.61643],[90.73153,22.61613],[90.7373,22.61699],[90.74167,22.61639],[90.75,22.61167],[90.75417,22.60806],[90.7575,22.60306],[90.75916,22.59889],[90.75972,22.59056],[90.75916,22.58306],[90.76083,22.57028],[90.76334,22.56222],[90.76527,22.55889],[90.76556,22.55611],[90.77344,22.54239],[90.75999,22.54285],[90.75468,22.54665],[90.75402,22.55734],[90.7526,22.56081],[90.74908,22.56325],[90.74056,22.56182],[90.73705,22.56226],[90.72948,22.56149],[90.71684,22.5644],[90.71458,22.56355],[90.71253,22.55909],[90.70647,22.55109],[90.69907,22.54535],[90.69225,22.54479],[90.68545,22.5428],[90.68275,22.54161],[90.67728,22.53633],[90.67401,22.53476],[90.67158,22.53591],[90.67225,22.54161],[90.67552,22.54352],[90.67561,22.54443],[90.67346,22.54888],[90.66978,22.55184],[90.66637,22.55764],[90.6643,22.56255],[90.66394,22.56689],[90.66192,22.57357],[90.65971,22.57814],[90.65646,22.59696],[90.6593,22.59894],[90.65963,22.60339],[90.65669,22.61249],[90.65975,22.62343],[90.66393,22.6244],[90.66478,22.62998],[90.66404,22.63605],[90.66109,22.63704],[90.6617,22.64045],[90.66402,22.64153],[90.67142,22.64277],[90.67273,22.64524],[90.67674,22.65873],[90.67628,22.66371],[90.67779,22.66864],[90.67667,22.67438],[90.68003,22.6792],[90.68431,22.6812],[90.68601,22.68435],[90.68972,22.68778],[90.69139,22.68389],[90.69527,22.67945],[90.69527,22.67917]]]]}},{"type":"Feature","properties":{"name":"Lalmohan","district_id":"bhola","pcode":"100954","sql_upazila_id":"bhola-lalmohan","sql_name_bn":"লালমোহন"},"geometry":{"type":"MultiPolygon","coordinates":[[[[90.67445,22.29556],[90.67445,22.29389],[90.67306,22.29389],[90.67028,22.29694],[90.67387,22.31597],[90.67403,22.32725],[90.67523,22.33429],[90.67419,22.34492],[90.67475,22.35076],[90.67658,22.35546],[90.67905,22.35307],[90.67999,22.3483],[90.67943,22.34408],[90.67977,22.32683],[90.67472,22.29583],[90.67445,22.29556]]],[[[90.74208,22.40001],[90.74609,22.39606],[90.75377,22.39478],[90.75972,22.3957],[90.77132,22.40321],[90.77773,22.40469],[90.78365,22.40459],[90.78595,22.4031],[90.79003,22.39368],[90.79259,22.39247],[90.79408,22.38911],[90.79093,22.38132],[90.78959,22.37194],[90.78993,22.36707],[90.79136,22.36367],[90.7944,22.3604],[90.79917,22.35883],[90.80934,22.35272],[90.83048,22.34609],[90.83607,22.34719],[90.83889,22.34445],[90.83972,22.33972],[90.83916,22.33389],[90.84,22.33194],[90.84084,22.32111],[90.84194,22.31778],[90.84167,22.31472],[90.84333,22.30611],[90.84444,22.29222],[90.84167,22.27639],[90.84167,22.26417],[90.83722,22.24889],[90.83556,22.23972],[90.83444,22.2375],[90.83417,22.23278],[90.8325,22.22889],[90.83139,22.22333],[90.82777,22.19021],[90.82584,22.19206],[90.82483,22.19917],[90.82345,22.1983],[90.81869,22.2002],[90.81392,22.20667],[90.81048,22.21293],[90.80818,22.21431],[90.80614,22.21392],[90.80022,22.21785],[90.7945,22.22416],[90.79401,22.22783],[90.78874,22.23482],[90.78325,22.24045],[90.78323,22.24782],[90.78217,22.2511],[90.77942,22.25374],[90.77483,22.25524],[90.76541,22.26509],[90.75845,22.26762],[90.75341,22.2681],[90.74564,22.26403],[90.73913,22.25895],[90.72807,22.26045],[90.72054,22.26025],[90.71813,22.25948],[90.71645,22.25768],[90.7131,22.25593],[90.70437,22.25572],[90.69336,22.24872],[90.68869,22.24718],[90.68069,22.2475],[90.66767,22.251],[90.66802,22.25174],[90.6657,22.25257],[90.67083,22.25972],[90.67687,22.27469],[90.67923,22.29946],[90.68159,22.30749],[90.68305,22.31688],[90.68307,22.32541],[90.68417,22.33333],[90.68259,22.33903],[90.68195,22.34425],[90.6824,22.35046],[90.68191,22.35499],[90.68091,22.35706],[90.68147,22.3691],[90.6804,22.37091],[90.68061,22.36099],[90.67973,22.35944],[90.675,22.36583],[90.67416,22.37083],[90.675,22.37889],[90.67722,22.38778],[90.6769,22.39776],[90.68425,22.40042],[90.69201,22.4005],[90.6944,22.40152],[90.70299,22.39963],[90.71523,22.39993],[90.71907,22.40246],[90.71815,22.40282],[90.72377,22.40838],[90.72859,22.4207],[90.73102,22.42532],[90.73283,22.42584],[90.73409,22.4246],[90.73469,22.42202],[90.73365,22.41257],[90.73405,22.40987],[90.73537,22.40847],[90.73718,22.40334],[90.73888,22.40215],[90.74208,22.40001]]]]}},{"type":"Feature","properties":{"name":"Monpura","district_id":"bhola","pcode":"100965","sql_upazila_id":"bhola-monpura","sql_name_bn":"মনপুরা"},"geometry":{"type":"MultiPolygon","coordinates":[[[[90.89194,22.07306],[90.89417,22.07083],[90.89584,22.06667],[90.89694,22.05972],[90.8968,22.05445],[90.89611,22.05194],[90.89333,22.04889],[90.88944,22.04722],[90.88472,22.04833],[90.8825,22.05028],[90.87917,22.05528],[90.87861,22.06055],[90.87972,22.06667],[90.88389,22.07139],[90.88695,22.07361],[90.89056,22.0725],[90.89109,22.07307],[90.89013,22.07378],[90.89056,22.07452],[90.89171,22.07344],[90.89194,22.07306]]],[[[90.88623,22.08707],[90.88696,22.08426],[90.8881,22.08452],[90.88925,22.08278],[90.89127,22.08171],[90.89112,22.08104],[90.8894,22.0805],[90.88738,22.08211],[90.88595,22.08211],[90.88451,22.08506],[90.88322,22.086],[90.88363,22.08695],[90.8858,22.08747],[90.88623,22.08707]]],[[[90.88377,22.08947],[90.88334,22.08853],[90.88047,22.08719],[90.88018,22.08786],[90.88133,22.08893],[90.87975,22.0896],[90.88277,22.09148],[90.88377,22.09041],[90.88377,22.08947]]],[[[90.88322,22.09444],[90.88164,22.09229],[90.8802,22.09216],[90.87933,22.09296],[90.8792,22.09364],[90.8812,22.09444],[90.88235,22.09632],[90.88307,22.09632],[90.88336,22.09497],[90.88322,22.09444]]],[[[90.89694,22.13027],[90.89722,22.12833],[90.89503,22.12494],[90.89513,22.12278],[90.89361,22.11889],[90.88303,22.10987],[90.88249,22.11057],[90.88333,22.1125],[90.89333,22.12694],[90.89667,22.13],[90.89694,22.13027]]],[[[90.90122,22.13234],[90.90112,22.13118],[90.89997,22.13104],[90.90041,22.13399],[90.9027,22.13814],[90.90299,22.13667],[90.90127,22.13292],[90.90122,22.13234]]],[[[90.8989,22.24095],[90.90034,22.2376],[90.90077,22.23171],[90.89991,22.23037],[90.89819,22.23037],[90.89717,22.22943],[90.89718,22.2234],[90.89646,22.2234],[90.89487,22.2242],[90.89502,22.22876],[90.89603,22.23037],[90.89861,22.23157],[90.89905,22.23827],[90.8979,22.24068],[90.89603,22.24122],[90.89588,22.2439],[90.89717,22.2439],[90.89861,22.24189],[90.8989,22.24095]]],[[[90.93056,22.24917],[90.93222,22.24833],[90.93061,22.24666],[90.92944,22.24361],[90.92756,22.24385],[90.92583,22.24222],[90.92278,22.24278],[90.9225,22.24639],[90.92445,22.24722],[90.92611,22.24639],[90.9275,22.2475],[90.92889,22.2475],[90.93027,22.24917],[90.93056,22.24917]]],[[[90.90305,22.26944],[90.90444,22.26861],[90.90334,22.2675],[90.90639,22.26443],[90.90861,22.26056],[90.90722,22.25639],[90.9075,22.25167],[90.90694,22.25083],[90.90806,22.24917],[90.90806,22.24694],[90.90556,22.24195],[90.90139,22.24528],[90.89917,22.24861],[90.8982,22.25166],[90.89833,22.25417],[90.8975,22.25444],[90.89694,22.25667],[90.89694,22.25889],[90.89972,22.26361],[90.90083,22.26972],[90.90222,22.27083],[90.90305,22.26972],[90.90305,22.26944]]],[[[90.93611,22.2875],[90.9375,22.28554],[90.93945,22.28695],[90.94027,22.28639],[90.94,22.28528],[90.94195,22.28444],[90.94195,22.28056],[90.94167,22.27778],[90.94,22.27695],[90.93889,22.275],[90.93833,22.265],[90.9355,22.25768],[90.93528,22.25444],[90.93445,22.25306],[90.935,22.25167],[90.9323,22.24965],[90.9316,22.25021],[90.93195,22.25111],[90.92973,22.25222],[90.92858,22.25242],[90.92791,22.25078],[90.92667,22.25111],[90.92639,22.25361],[90.92793,22.25885],[90.92778,22.26139],[90.92917,22.26333],[90.92861,22.26443],[90.93027,22.26944],[90.92973,22.27222],[90.93111,22.27416],[90.93056,22.27528],[90.93166,22.27806],[90.93111,22.28167],[90.93584,22.2875],[90.93611,22.2875]]],[[[90.90634,22.28748],[90.90512,22.28794],[90.90433,22.29022],[90.90476,22.29103],[90.90656,22.28768],[90.90634,22.28748]]],[[[90.98278,22.35139],[90.98608,22.35116],[90.98685,22.35047],[90.98917,22.34417],[90.99138,22.335],[90.9931,22.31446],[90.9976,22.30175],[91.00111,22.28695],[91,22.27278],[90.99872,22.2697],[90.99778,22.24806],[90.99666,22.24551],[90.99611,22.23583],[90.99488,22.232],[90.99389,22.22333],[90.9925,22.22],[90.99223,22.21139],[90.98805,22.2],[90.98417,22.19306],[90.9845,22.19139],[90.98194,22.18806],[90.97972,22.18833],[90.97861,22.18722],[90.97889,22.18556],[90.97722,22.18334],[90.97583,22.17944],[90.97444,22.17278],[90.97195,22.16917],[90.9725,22.16611],[90.96306,22.15139],[90.96333,22.15055],[90.9614,22.14723],[90.95306,22.13583],[90.94942,22.13279],[90.94861,22.13056],[90.93445,22.10972],[90.93361,22.10889],[90.93167,22.11043],[90.93224,22.10724],[90.93092,22.10661],[90.92861,22.10306],[90.92778,22.10139],[90.92805,22.09944],[90.92416,22.0925],[90.92361,22.08917],[90.9225,22.08805],[90.92361,22.08556],[90.92251,22.08078],[90.92306,22.07694],[90.92194,22.07417],[90.91778,22.07167],[90.91333,22.07083],[90.90972,22.07167],[90.90667,22.07306],[90.9025,22.07722],[90.90056,22.08083],[90.89833,22.09972],[90.89917,22.10361],[90.89861,22.10472],[90.89611,22.10444],[90.89667,22.10278],[90.89611,22.10028],[90.89297,22.09446],[90.8905,22.09229],[90.8875,22.09389],[90.895,22.10556],[90.89528,22.10944],[90.89722,22.11167],[90.90028,22.12472],[90.90722,22.14333],[90.91139,22.15195],[90.91166,22.15409],[90.92028,22.16861],[90.92694,22.185],[90.93027,22.18889],[90.9325,22.195],[90.93195,22.19667],[90.93361,22.20278],[90.93667,22.21056],[90.93833,22.21222],[90.95084,22.23722],[90.95277,22.24389],[90.9575,22.25472],[90.95834,22.25944],[90.96028,22.26361],[90.96111,22.26917],[90.96778,22.285],[90.97139,22.30167],[90.97111,22.30556],[90.97195,22.30833],[90.97139,22.32944],[90.96835,22.34058],[90.96806,22.34722],[90.96889,22.34861],[90.97166,22.34972],[90.97528,22.34972],[90.9825,22.35139],[90.98278,22.35139]]],[[[90.93027,22.35472],[90.93528,22.35111],[90.93611,22.34888],[90.9375,22.33556],[90.93694,22.33222],[90.93222,22.32528],[90.93166,22.3175],[90.92445,22.30028],[90.92333,22.29917],[90.92028,22.29833],[90.91639,22.29445],[90.91505,22.29464],[90.91269,22.29565],[90.91082,22.2996],[90.90945,22.30074],[90.9106,22.29746],[90.90972,22.29694],[90.90778,22.30111],[90.90806,22.3036],[90.91222,22.3125],[90.91278,22.31639],[90.91583,22.32389],[90.91889,22.32917],[90.92333,22.33971],[90.92611,22.34833],[90.93,22.35472],[90.93027,22.35472]]],[[[90.97361,22.42083],[90.9775,22.4175],[90.97778,22.41667],[90.97667,22.41528],[90.98417,22.40778],[90.98611,22.40278],[90.98582,22.38819],[90.98444,22.38305],[90.98194,22.37944],[90.98221,22.37833],[90.9764,22.3725],[90.97472,22.37167],[90.9675,22.3725],[90.96472,22.37194],[90.96,22.37444],[90.95695,22.3775],[90.95389,22.38083],[90.95277,22.38445],[90.95333,22.38806],[90.95277,22.39],[90.95556,22.39194],[90.95361,22.39333],[90.95417,22.39639],[90.95361,22.39889],[90.95556,22.40111],[90.95417,22.4025],[90.95333,22.40639],[90.95444,22.40722],[90.95333,22.41],[90.96306,22.41833],[90.97,22.42083],[90.97139,22.42028],[90.97334,22.42083],[90.97361,22.42083]]]]}},{"type":"Feature","properties":{"name":"Tazumuddin","district_id":"bhola","pcode":"100991","sql_upazila_id":"bhola-tazumuddin","sql_name_bn":"তজুমদ্দিন"},"geometry":{"type":"MultiPolygon","coordinates":[[[[90.87057,22.35086],[90.86993,22.35099],[90.87014,22.35186],[90.8728,22.353],[90.87122,22.35119],[90.87057,22.35086]]],[[[90.8725,22.36083],[90.87361,22.35917],[90.87222,22.355],[90.86777,22.35152],[90.86639,22.35583],[90.86472,22.34889],[90.86389,22.34805],[90.86224,22.34833],[90.86528,22.35722],[90.86611,22.3625],[90.86861,22.36889],[90.87116,22.37245],[90.8725,22.37167],[90.87278,22.36667],[90.87361,22.36528],[90.8725,22.36361],[90.87305,22.36283],[90.8725,22.36194],[90.8725,22.36083]]],[[[90.88972,22.37806],[90.89,22.37167],[90.88831,22.36478],[90.88789,22.35795],[90.88688,22.35594],[90.88735,22.34676],[90.88583,22.34472],[90.88528,22.34194],[90.88639,22.34028],[90.88556,22.33833],[90.88412,22.33791],[90.8825,22.33556],[90.87967,22.33463],[90.87833,22.33583],[90.87861,22.3375],[90.87611,22.33778],[90.87556,22.33861],[90.8775,22.34278],[90.87889,22.34389],[90.87861,22.345],[90.88071,22.34905],[90.88055,22.35111],[90.88232,22.35327],[90.88167,22.355],[90.88356,22.35695],[90.88389,22.36111],[90.8835,22.36265],[90.88167,22.36306],[90.88055,22.36194],[90.87945,22.36306],[90.87833,22.3675],[90.88621,22.3778],[90.88223,22.37528],[90.87805,22.37056],[90.87833,22.36972],[90.87583,22.36667],[90.875,22.3675],[90.875,22.37],[90.87334,22.3725],[90.87305,22.37472],[90.88223,22.39389],[90.88611,22.39861],[90.8875,22.3975],[90.88972,22.39028],[90.89027,22.38472],[90.88907,22.38208],[90.88972,22.37889],[90.88972,22.37806]]],[[[90.81983,22.48656],[90.83195,22.47417],[90.83722,22.47111],[90.84556,22.46445],[90.86139,22.44528],[90.86704,22.43487],[90.86741,22.42996],[90.86622,22.42754],[90.86532,22.42204],[90.86514,22.41547],[90.8619,22.40287],[90.84611,22.38083],[90.84084,22.36778],[90.84111,22.35722],[90.83889,22.34445],[90.83607,22.34719],[90.83048,22.34609],[90.82179,22.34838],[90.81876,22.35184],[90.81582,22.35648],[90.81514,22.36033],[90.81689,22.36097],[90.81582,22.36797],[90.81635,22.37097],[90.8139,22.37132],[90.81255,22.37399],[90.8143,22.37645],[90.8154,22.3819],[90.81862,22.38241],[90.81903,22.38392],[90.81533,22.38562],[90.80568,22.38486],[90.80711,22.38716],[90.80968,22.38851],[90.81385,22.39314],[90.81557,22.39863],[90.8119,22.40569],[90.81105,22.41193],[90.80824,22.41299],[90.80724,22.41445],[90.80962,22.42517],[90.80823,22.42989],[90.80917,22.43221],[90.82319,22.43411],[90.82386,22.4378],[90.82616,22.44225],[90.82649,22.44846],[90.82793,22.45482],[90.82659,22.45919],[90.8275,22.46054],[90.82749,22.46437],[90.82573,22.46521],[90.82251,22.46296],[90.8157,22.45287],[90.81236,22.45091],[90.81075,22.45272],[90.80475,22.45426],[90.80447,22.45695],[90.80273,22.45877],[90.80901,22.46173],[90.81079,22.46357],[90.80936,22.46527],[90.80737,22.46492],[90.805,22.46607],[90.80816,22.46998],[90.81493,22.46745],[90.82216,22.47142],[90.81844,22.47454],[90.81451,22.4754],[90.81493,22.4787],[90.81777,22.48468],[90.8195,22.48635],[90.81983,22.48656]]],[[[90.78833,22.52083],[90.80114,22.50664],[90.79853,22.50512],[90.79491,22.50585],[90.78349,22.50446],[90.78354,22.50777],[90.78461,22.51048],[90.78408,22.51695],[90.78065,22.51813],[90.77831,22.52973],[90.78054,22.53168],[90.78445,22.52528],[90.78833,22.52111],[90.78833,22.52083]]]]}}]}