{"type":"FeatureCollection","features":[{"type":"Feature","properties":{"name":"Adamdighi","district_id":"bogra","pcode":"501006","sql_upazila_id":"bogra-adamdighi","sql_name_bn":"আদমদিঘি"},"geometry":{"type":"Polygon","coordinates":[[[89.08644,24.87681],[89.08973,24.86891],[89.08788,24.86556],[89.08487,24.86496],[89.08439,24.86028],[89.08749,24.85843],[89.09347,24.86179],[89.09552,24.86041],[89.09595,24.85356],[89.0988,24.85132],[89.09814,24.84834],[89.09894,24.8464],[89.0983,24.84503],[89.09429,24.84501],[89.08795,24.84284],[89.08586,24.84046],[89.08425,24.83591],[89.08459,24.83254],[89.08857,24.83148],[89.09161,24.82854],[89.09537,24.82246],[89.09793,24.82255],[89.10178,24.82571],[89.10415,24.82518],[89.10779,24.81573],[89.11324,24.81551],[89.1206,24.81373],[89.12737,24.81527],[89.12828,24.81349],[89.13077,24.81221],[89.13184,24.81329],[89.13472,24.81354],[89.13937,24.80945],[89.14543,24.80956],[89.1478,24.80874],[89.14924,24.80285],[89.15414,24.80013],[89.15441,24.79618],[89.15788,24.79381],[89.1591,24.78998],[89.16187,24.78653],[89.16622,24.78455],[89.16929,24.78429],[89.16899,24.77493],[89.1671,24.77369],[89.16041,24.77901],[89.15635,24.77899],[89.15608,24.77745],[89.15743,24.77538],[89.15612,24.77003],[89.14156,24.75904],[89.13902,24.75581],[89.13903,24.75016],[89.14579,24.7353],[89.14142,24.73319],[89.13937,24.73327],[89.13795,24.73466],[89.13693,24.7395],[89.13612,24.74053],[89.13444,24.74084],[89.13253,24.73604],[89.12711,24.73021],[89.12727,24.72816],[89.13174,24.72617],[89.13358,24.72177],[89.1308,24.72022],[89.11868,24.7238],[89.11486,24.72238],[89.11852,24.71949],[89.12342,24.71732],[89.12315,24.71533],[89.11964,24.71396],[89.11517,24.71516],[89.10533,24.7228],[89.10159,24.72415],[89.09785,24.72421],[89.09026,24.71943],[89.08697,24.72107],[89.08605,24.72363],[89.08827,24.72735],[89.09217,24.73025],[89.09643,24.73149],[89.09787,24.73306],[89.09591,24.73655],[89.08864,24.73932],[89.08891,24.7417],[89.092,24.74581],[89.09641,24.74972],[89.09756,24.75203],[89.09177,24.7545],[89.08968,24.75657],[89.08948,24.76236],[89.08429,24.76783],[89.08488,24.77072],[89.08791,24.77453],[89.09007,24.77899],[89.09085,24.78182],[89.08944,24.78445],[89.08603,24.78694],[89.08035,24.78736],[89.07648,24.78628],[89.06651,24.78079],[89.06419,24.78133],[89.06247,24.78369],[89.05842,24.78442],[89.05048,24.78924],[89.04786,24.78985],[89.03992,24.78115],[89.03535,24.78059],[89.02831,24.78108],[89.02586,24.78021],[89.02379,24.77837],[89.02239,24.77566],[89.0228,24.77304],[89.02122,24.77113],[89.01609,24.76859],[89.01381,24.76498],[89.00272,24.76712],[89.00027,24.76624],[88.99742,24.76037],[88.99516,24.7587],[88.99319,24.75572],[88.99217,24.75284],[88.99209,24.74319],[88.98959,24.7431],[88.98506,24.74578],[88.982,24.74536],[88.97918,24.74393],[88.97608,24.73954],[88.9719,24.73908],[88.96873,24.73986],[88.96668,24.74153],[88.96577,24.74427],[88.96619,24.74943],[88.96983,24.75944],[88.97636,24.77127],[88.97796,24.77585],[88.97762,24.7813],[88.97462,24.78793],[88.97795,24.78942],[88.97941,24.79207],[88.97901,24.7973],[88.97978,24.79927],[88.98438,24.8034],[88.98402,24.80546],[88.97836,24.80701],[88.97649,24.80897],[88.97427,24.81246],[88.97404,24.81507],[88.97618,24.82158],[88.97969,24.82545],[88.98479,24.82203],[88.98704,24.82245],[88.98912,24.82511],[88.98933,24.82731],[88.98766,24.82875],[88.98143,24.83099],[88.97732,24.84695],[88.97778,24.84983],[88.97968,24.85213],[88.9825,24.85363],[88.98518,24.85376],[88.98888,24.85525],[88.99294,24.8647],[88.99734,24.86279],[89.01398,24.86322],[89.01509,24.8619],[89.01311,24.85815],[89.01703,24.85538],[89.01941,24.85576],[89.0205,24.85866],[89.02473,24.86205],[89.03655,24.86229],[89.03938,24.86318],[89.04114,24.86431],[89.04161,24.86732],[89.0425,24.8684],[89.0502,24.86977],[89.05339,24.86911],[89.05548,24.86595],[89.05806,24.86713],[89.06161,24.87172],[89.06733,24.87356],[89.06809,24.87577],[89.06935,24.87611],[89.07184,24.87494],[89.07716,24.8745],[89.08644,24.87681]]]}},{"type":"Feature","properties":{"name":"Bogura Sadar","district_id":"bogra","pcode":"501020","sql_upazila_id":"bogra-bogura-sadar","sql_name_bn":"বগুড়া সদর"},"geometry":{"type":"Polygon","coordinates":[[[89.37437,24.98886],[89.38163,24.98359],[89.3828,24.98186],[89.38158,24.97937],[89.38306,24.97758],[89.38605,24.97669],[89.38652,24.9748],[89.38519,24.96763],[89.38638,24.96408],[89.39037,24.96215],[89.399,24.96182],[89.40078,24.95918],[89.4025,24.95146],[89.39995,24.94395],[89.39983,24.94007],[89.4081,24.93513],[89.40974,24.92695],[89.41166,24.92567],[89.41399,24.92165],[89.41811,24.92595],[89.41966,24.92473],[89.41879,24.92046],[89.41459,24.91525],[89.41375,24.9131],[89.41363,24.90899],[89.40806,24.90432],[89.40703,24.90187],[89.40699,24.89885],[89.40903,24.89751],[89.41049,24.89407],[89.41258,24.89153],[89.41261,24.884],[89.41652,24.88653],[89.41927,24.88113],[89.41949,24.87936],[89.41611,24.8742],[89.41612,24.87061],[89.41744,24.86637],[89.4268,24.8597],[89.42924,24.85967],[89.43446,24.86218],[89.43456,24.86007],[89.43232,24.85622],[89.43635,24.8536],[89.43648,24.84949],[89.4357,24.84773],[89.43243,24.84606],[89.43109,24.84446],[89.4317,24.84315],[89.43518,24.84157],[89.43795,24.83829],[89.43732,24.83283],[89.44246,24.82911],[89.44405,24.82709],[89.44735,24.82637],[89.44866,24.81636],[89.44964,24.81487],[89.45151,24.81405],[89.45481,24.79963],[89.4576,24.79304],[89.45769,24.79098],[89.45487,24.78622],[89.45305,24.78059],[89.45629,24.766],[89.45862,24.76255],[89.46332,24.76375],[89.46632,24.75881],[89.46677,24.75607],[89.46856,24.75393],[89.47173,24.75264],[89.47379,24.748],[89.48083,24.74586],[89.48142,24.74397],[89.48495,24.7417],[89.48878,24.74314],[89.49131,24.74049],[89.49312,24.74012],[89.49351,24.73732],[89.49656,24.73135],[89.4951,24.73034],[89.49197,24.72992],[89.48436,24.73058],[89.48084,24.73005],[89.47858,24.72825],[89.47785,24.72575],[89.47843,24.72237],[89.47337,24.72169],[89.46832,24.72249],[89.46506,24.7219],[89.46204,24.72062],[89.46024,24.71711],[89.45835,24.71616],[89.45348,24.71605],[89.44257,24.71788],[89.43449,24.72145],[89.42559,24.7236],[89.42197,24.71942],[89.41386,24.7202],[89.41116,24.71943],[89.40837,24.71643],[89.40087,24.71635],[89.40003,24.71419],[89.40234,24.70851],[89.39674,24.71046],[89.3936,24.70941],[89.39163,24.70686],[89.3896,24.69998],[89.38313,24.6972],[89.3827,24.69361],[89.38075,24.6922],[89.37888,24.69268],[89.37801,24.69759],[89.37641,24.69938],[89.3728,24.69989],[89.3689,24.70283],[89.36534,24.70321],[89.35495,24.70144],[89.35065,24.698],[89.34627,24.69679],[89.34272,24.69278],[89.33965,24.69207],[89.33365,24.70138],[89.32671,24.70157],[89.32599,24.69884],[89.32609,24.6917],[89.32457,24.68984],[89.32151,24.68997],[89.31872,24.69172],[89.31506,24.69867],[89.31283,24.70012],[89.30608,24.70041],[89.30496,24.69985],[89.30196,24.69543],[89.29829,24.69616],[89.29433,24.69346],[89.29111,24.6972],[89.28473,24.69641],[89.27934,24.70047],[89.27834,24.70509],[89.27895,24.70828],[89.28108,24.709],[89.28341,24.71103],[89.28452,24.71474],[89.28344,24.71822],[89.2778,24.72215],[89.28046,24.72984],[89.2783,24.73289],[89.27796,24.73534],[89.28197,24.74175],[89.28036,24.74759],[89.28197,24.75083],[89.28443,24.7532],[89.28853,24.75093],[89.29086,24.7521],[89.29222,24.7566],[89.29947,24.76651],[89.31137,24.7685],[89.31608,24.77039],[89.31642,24.77284],[89.31409,24.77669],[89.31728,24.78105],[89.31699,24.78271],[89.3133,24.788],[89.31334,24.79125],[89.32047,24.80179],[89.32182,24.8044],[89.3216,24.80646],[89.31986,24.81269],[89.31694,24.81374],[89.30707,24.81985],[89.30819,24.82463],[89.30785,24.82669],[89.31156,24.83407],[89.3121,24.83669],[89.31195,24.84457],[89.31004,24.84761],[89.31075,24.84949],[89.31513,24.85418],[89.31738,24.85906],[89.31508,24.86028],[89.31438,24.86423],[89.32055,24.87215],[89.32054,24.87524],[89.31605,24.87751],[89.31505,24.88248],[89.31297,24.88165],[89.31167,24.88275],[89.30684,24.88263],[89.30674,24.88366],[89.30345,24.88574],[89.30479,24.89292],[89.30168,24.89461],[89.30017,24.89851],[89.30095,24.90068],[89.30329,24.90281],[89.30389,24.90578],[89.30039,24.90649],[89.29443,24.90992],[89.29736,24.91896],[89.2944,24.92259],[89.29412,24.92579],[89.29698,24.92935],[89.29311,24.93505],[89.29303,24.93847],[89.28683,24.93905],[89.28385,24.94022],[89.2813,24.94236],[89.27562,24.94287],[89.2674,24.94655],[89.26875,24.94962],[89.26794,24.95465],[89.27017,24.96336],[89.27705,24.96295],[89.28334,24.96488],[89.29379,24.96426],[89.29909,24.96289],[89.30713,24.96475],[89.31169,24.96424],[89.31391,24.96651],[89.31593,24.96734],[89.31894,24.96714],[89.32101,24.96837],[89.32511,24.96622],[89.32758,24.96767],[89.32792,24.97012],[89.32944,24.97136],[89.33337,24.97087],[89.33797,24.96734],[89.33788,24.96568],[89.33628,24.96324],[89.33649,24.95964],[89.33884,24.95277],[89.34134,24.95184],[89.34704,24.95194],[89.35002,24.95083],[89.3546,24.95141],[89.3585,24.94754],[89.36015,24.94952],[89.3606,24.96042],[89.3585,24.96221],[89.3574,24.96456],[89.35732,24.96741],[89.36144,24.97302],[89.36636,24.9744],[89.37093,24.98011],[89.37395,24.98116],[89.37416,24.98241],[89.37437,24.98886]]]}},{"type":"Feature","properties":{"name":"Dhunat","district_id":"bogra","pcode":"501027","sql_upazila_id":null,"sql_name_bn":null},"geometry":{"type":"Polygon","coordinates":[[[89.53742,24.78782],[89.54423,24.78694],[89.55067,24.7827],[89.55564,24.78093],[89.55585,24.78246],[89.55402,24.78551],[89.54916,24.79133],[89.54901,24.79362],[89.55215,24.79466],[89.55797,24.79945],[89.55998,24.79988],[89.5703,24.79633],[89.57648,24.79095],[89.57743,24.78774],[89.5772,24.78483],[89.5806,24.77782],[89.57801,24.76793],[89.57536,24.76122],[89.57796,24.75988],[89.58096,24.75979],[89.58692,24.76154],[89.58848,24.76119],[89.5905,24.75796],[89.5933,24.74919],[89.59502,24.74723],[89.60164,24.7468],[89.60429,24.74836],[89.60468,24.75384],[89.60625,24.75451],[89.60937,24.75373],[89.61404,24.75664],[89.61729,24.75688],[89.61949,24.75794],[89.62412,24.76267],[89.62701,24.76287],[89.6316,24.76092],[89.63246,24.75966],[89.6324,24.75606],[89.63397,24.75244],[89.63201,24.74659],[89.63504,24.74507],[89.649,24.7421],[89.65341,24.74455],[89.6563,24.74497],[89.66,24.73756],[89.66129,24.73258],[89.65944,24.72981],[89.64933,24.72263],[89.64744,24.72169],[89.64458,24.72286],[89.64018,24.72081],[89.63574,24.71675],[89.63554,24.71602],[89.63928,24.71431],[89.64376,24.71397],[89.64598,24.71212],[89.647,24.70942],[89.64697,24.70685],[89.64607,24.70561],[89.63508,24.70164],[89.63311,24.69967],[89.63226,24.69723],[89.63241,24.69471],[89.62932,24.68864],[89.62761,24.6869],[89.62061,24.69115],[89.61687,24.69205],[89.61263,24.69148],[89.61098,24.68659],[89.60862,24.68696],[89.60566,24.6898],[89.6041,24.69358],[89.60404,24.69855],[89.6023,24.6992],[89.59634,24.70544],[89.59023,24.70237],[89.58516,24.70164],[89.58173,24.70162],[89.57715,24.70482],[89.57514,24.7044],[89.5677,24.69974],[89.56606,24.70689],[89.56383,24.71229],[89.55814,24.70848],[89.55649,24.70598],[89.55608,24.70336],[89.55796,24.69957],[89.56245,24.69535],[89.56146,24.69171],[89.55789,24.69084],[89.55624,24.68424],[89.55416,24.68318],[89.55244,24.68086],[89.55119,24.67637],[89.55368,24.67195],[89.55352,24.66927],[89.54916,24.65734],[89.55077,24.656],[89.56244,24.65575],[89.55258,24.64782],[89.5523,24.64583],[89.55331,24.64165],[89.5571,24.63219],[89.55553,24.6269],[89.55221,24.6266],[89.55087,24.62433],[89.55121,24.62187],[89.55355,24.62024],[89.5593,24.6208],[89.56308,24.61847],[89.56589,24.61838],[89.57092,24.62106],[89.57721,24.61956],[89.58304,24.6216],[89.584,24.61879],[89.5881,24.618],[89.59181,24.61487],[89.59939,24.61261],[89.59866,24.60948],[89.60111,24.60665],[89.60064,24.60038],[89.60294,24.59521],[89.60468,24.5868],[89.60201,24.57953],[89.60249,24.56908],[89.59541,24.56289],[89.59425,24.56091],[89.59396,24.55755],[89.58498,24.55475],[89.57964,24.55145],[89.57041,24.54791],[89.56799,24.54828],[89.56464,24.55385],[89.56211,24.55623],[89.55537,24.55671],[89.55328,24.55416],[89.55537,24.5515],[89.55266,24.55],[89.54985,24.54987],[89.54722,24.5535],[89.54102,24.55597],[89.53403,24.56491],[89.53009,24.56415],[89.52745,24.56697],[89.52811,24.56925],[89.53213,24.57159],[89.5345,24.5759],[89.53415,24.57756],[89.52929,24.57791],[89.52843,24.57895],[89.52997,24.58172],[89.52982,24.58429],[89.52721,24.58528],[89.52348,24.5822],[89.52072,24.58115],[89.51742,24.58113],[89.51406,24.58676],[89.50594,24.59114],[89.49924,24.59327],[89.49783,24.5954],[89.49837,24.59808],[89.50671,24.60511],[89.50874,24.60788],[89.51022,24.61494],[89.50951,24.62214],[89.51129,24.62452],[89.51148,24.62948],[89.5124,24.63198],[89.50632,24.6393],[89.50366,24.63722],[89.49974,24.63812],[89.49195,24.6438],[89.49043,24.64685],[89.49544,24.65615],[89.49443,24.66449],[89.49612,24.66533],[89.49866,24.66832],[89.49784,24.67141],[89.49511,24.67356],[89.49197,24.67177],[89.49149,24.66898],[89.48799,24.66411],[89.48656,24.66494],[89.48581,24.66859],[89.49115,24.67577],[89.49005,24.68206],[89.49041,24.68508],[89.49372,24.69412],[89.49158,24.69712],[89.49281,24.70497],[89.49255,24.70903],[89.48719,24.70966],[89.47915,24.70656],[89.47871,24.71472],[89.48134,24.71544],[89.47843,24.72237],[89.47785,24.72575],[89.47858,24.72825],[89.48084,24.73005],[89.48436,24.73058],[89.49197,24.72992],[89.4951,24.73034],[89.49656,24.73135],[89.49351,24.73732],[89.49312,24.74012],[89.49131,24.74049],[89.48878,24.74314],[89.48495,24.7417],[89.48142,24.74397],[89.48083,24.74586],[89.47379,24.748],[89.47173,24.75264],[89.46856,24.75393],[89.46677,24.75607],[89.46632,24.75881],[89.46332,24.76375],[89.46609,24.76521],[89.47072,24.76515],[89.4747,24.76379],[89.4772,24.76411],[89.47874,24.7666],[89.48432,24.7683],[89.49338,24.76689],[89.49551,24.76806],[89.4958,24.77074],[89.49276,24.77728],[89.4981,24.78338],[89.50255,24.78447],[89.50598,24.78403],[89.51173,24.77962],[89.51416,24.77868],[89.52421,24.78193],[89.52524,24.78374],[89.52933,24.78119],[89.53201,24.78549],[89.53396,24.78598],[89.53513,24.7854],[89.53742,24.78782]]]}},{"type":"Feature","properties":{"name":"Dupchachia","district_id":"bogra","pcode":"501033","sql_upazila_id":null,"sql_name_bn":null},"geometry":{"type":"Polygon","coordinates":[[[89.18659,24.94717],[89.187,24.94454],[89.18521,24.94136],[89.18677,24.92982],[89.18921,24.92997],[89.18977,24.93071],[89.19533,24.923],[89.19809,24.92401],[89.19995,24.92205],[89.20163,24.9214],[89.2032,24.92202],[89.20462,24.92109],[89.20509,24.91795],[89.2066,24.91833],[89.20776,24.92066],[89.20983,24.92184],[89.21233,24.91559],[89.21043,24.91453],[89.21247,24.91177],[89.20819,24.90964],[89.20918,24.90832],[89.20896,24.9062],[89.20437,24.90414],[89.20237,24.90405],[89.20079,24.90303],[89.19906,24.89934],[89.19523,24.89847],[89.1937,24.89665],[89.19278,24.89193],[89.19044,24.88967],[89.18887,24.88934],[89.18375,24.89064],[89.18204,24.88816],[89.18194,24.8849],[89.18425,24.87945],[89.18409,24.87152],[89.18664,24.86938],[89.19405,24.86686],[89.19491,24.86486],[89.19367,24.86087],[89.19472,24.85487],[89.19331,24.8514],[89.19483,24.84734],[89.19303,24.84307],[89.18814,24.84204],[89.18761,24.83913],[89.18773,24.83416],[89.18942,24.82884],[89.18407,24.82587],[89.18114,24.82618],[89.17837,24.82421],[89.18458,24.82072],[89.18385,24.81754],[89.18061,24.81711],[89.1748,24.81882],[89.17186,24.81833],[89.16768,24.81929],[89.16354,24.81858],[89.16344,24.81476],[89.16131,24.80862],[89.16332,24.8042],[89.16068,24.80332],[89.15769,24.80432],[89.15612,24.80325],[89.15414,24.80013],[89.14924,24.80285],[89.1478,24.80874],[89.14543,24.80956],[89.13937,24.80945],[89.13472,24.81354],[89.13184,24.81329],[89.13077,24.81221],[89.12828,24.81349],[89.12737,24.81527],[89.1206,24.81373],[89.11324,24.81551],[89.10779,24.81573],[89.10415,24.82518],[89.10178,24.82571],[89.09793,24.82255],[89.09537,24.82246],[89.09161,24.82854],[89.08857,24.83148],[89.08459,24.83254],[89.08425,24.83591],[89.08586,24.84046],[89.08795,24.84284],[89.09429,24.84501],[89.0983,24.84503],[89.09894,24.8464],[89.09814,24.84834],[89.0988,24.85132],[89.09595,24.85356],[89.09552,24.86041],[89.09347,24.86179],[89.08749,24.85843],[89.08439,24.86028],[89.08487,24.86496],[89.08788,24.86556],[89.08973,24.86891],[89.08644,24.87681],[89.09084,24.87917],[89.0913,24.88128],[89.08912,24.88153],[89.0866,24.88041],[89.08485,24.88093],[89.08337,24.88215],[89.08134,24.88616],[89.07793,24.88836],[89.08042,24.89353],[89.0834,24.89716],[89.08453,24.89704],[89.08936,24.89225],[89.09512,24.89231],[89.09912,24.89873],[89.10121,24.90647],[89.09978,24.9078],[89.09715,24.90759],[89.09541,24.9144],[89.0935,24.91721],[89.09194,24.91751],[89.09039,24.91918],[89.08954,24.92695],[89.08574,24.92852],[89.08634,24.93833],[89.09217,24.94513],[89.096,24.94641],[89.09641,24.94914],[89.09269,24.95289],[89.09342,24.95636],[89.09215,24.96038],[89.09011,24.96301],[89.09189,24.96551],[89.09627,24.96517],[89.10035,24.96635],[89.10243,24.9681],[89.10396,24.97561],[89.10897,24.97471],[89.11287,24.97194],[89.11831,24.9712],[89.12054,24.9693],[89.12733,24.96616],[89.12805,24.9637],[89.12189,24.95572],[89.12244,24.95462],[89.13577,24.95427],[89.16033,24.95575],[89.1694,24.95504],[89.17639,24.95703],[89.17875,24.95626],[89.17881,24.95101],[89.1831,24.94795],[89.18659,24.94717]]]}},{"type":"Feature","properties":{"name":"Gabtali","district_id":"bogra","pcode":"501040","sql_upazila_id":"bogra-gabtali","sql_name_bn":"গাবতলী"},"geometry":{"type":"Polygon","coordinates":[[[89.44098,25.02853],[89.44614,25.02105],[89.44494,25.01599],[89.44521,25.01302],[89.44575,25.01187],[89.44905,25.00995],[89.45039,25.00714],[89.4506,25.00417],[89.45014,25.00246],[89.44335,24.9962],[89.44205,24.99291],[89.4429,24.99073],[89.44711,24.98634],[89.45128,24.97602],[89.45352,24.97486],[89.45887,24.97594],[89.46085,24.97471],[89.46126,24.97311],[89.45926,24.9684],[89.45739,24.96009],[89.459,24.95567],[89.46158,24.9597],[89.46355,24.95762],[89.46622,24.95194],[89.46796,24.95089],[89.47048,24.95172],[89.47704,24.95067],[89.48147,24.94486],[89.48371,24.94409],[89.4876,24.94473],[89.49015,24.94384],[89.49302,24.93838],[89.49433,24.93814],[89.49549,24.94498],[89.49739,24.94678],[89.49953,24.94693],[89.50227,24.94582],[89.50877,24.94094],[89.51465,24.9318],[89.51926,24.92661],[89.52242,24.92423],[89.52626,24.92538],[89.53121,24.92178],[89.53417,24.92267],[89.53597,24.9219],[89.53165,24.91722],[89.53093,24.91545],[89.53323,24.90903],[89.53284,24.90407],[89.52724,24.89763],[89.52443,24.89818],[89.5239,24.8959],[89.52512,24.89361],[89.52441,24.89185],[89.51844,24.89078],[89.51578,24.89222],[89.51451,24.89151],[89.51409,24.88816],[89.51813,24.88599],[89.51896,24.88301],[89.51819,24.88165],[89.5157,24.88259],[89.514,24.8817],[89.51356,24.87697],[89.51238,24.87367],[89.51344,24.87287],[89.51606,24.87271],[89.51661,24.87162],[89.51537,24.86833],[89.5161,24.86678],[89.5209,24.86598],[89.52169,24.86426],[89.52306,24.8635],[89.53014,24.86393],[89.53741,24.86047],[89.53898,24.86125],[89.54223,24.86543],[89.54478,24.86415],[89.54915,24.86399],[89.55257,24.85361],[89.55187,24.8486],[89.5468,24.84478],[89.54478,24.83779],[89.53687,24.83206],[89.53475,24.82849],[89.53024,24.82769],[89.52889,24.82588],[89.52939,24.82068],[89.53316,24.80882],[89.53838,24.80699],[89.5373,24.80523],[89.5329,24.80374],[89.52972,24.79579],[89.53366,24.79609],[89.53588,24.79395],[89.53716,24.79175],[89.53742,24.78782],[89.53513,24.7854],[89.53396,24.78598],[89.53201,24.78549],[89.52933,24.78119],[89.52524,24.78374],[89.52421,24.78193],[89.51416,24.77868],[89.51173,24.77962],[89.50598,24.78403],[89.50255,24.78447],[89.4981,24.78338],[89.49276,24.77728],[89.4958,24.77074],[89.49551,24.76806],[89.49338,24.76689],[89.48432,24.7683],[89.47874,24.7666],[89.4772,24.76411],[89.4747,24.76379],[89.47072,24.76515],[89.46609,24.76521],[89.46043,24.76265],[89.45862,24.76255],[89.45629,24.766],[89.45305,24.78059],[89.45487,24.78622],[89.45769,24.79098],[89.4576,24.79304],[89.45481,24.79963],[89.45151,24.81405],[89.44964,24.81487],[89.44866,24.81636],[89.44735,24.82637],[89.44405,24.82709],[89.44246,24.82911],[89.43732,24.83283],[89.43795,24.83829],[89.43518,24.84157],[89.4317,24.84315],[89.43109,24.84446],[89.43243,24.84606],[89.4357,24.84773],[89.43648,24.84949],[89.43635,24.8536],[89.43232,24.85622],[89.43456,24.86007],[89.43446,24.86218],[89.42924,24.85967],[89.4268,24.8597],[89.41744,24.86637],[89.41612,24.87061],[89.41611,24.8742],[89.41949,24.87936],[89.41927,24.88113],[89.41652,24.88653],[89.41261,24.884],[89.41258,24.89153],[89.41049,24.89407],[89.40903,24.89751],[89.40699,24.89885],[89.40703,24.90187],[89.40806,24.90432],[89.41363,24.90899],[89.41375,24.9131],[89.41459,24.91525],[89.41879,24.92046],[89.41966,24.92473],[89.41811,24.92595],[89.41399,24.92165],[89.41166,24.92567],[89.40974,24.92695],[89.4081,24.93513],[89.39983,24.94007],[89.39995,24.94395],[89.4025,24.95146],[89.40078,24.95918],[89.399,24.96182],[89.39037,24.96215],[89.38638,24.96408],[89.38519,24.96763],[89.38652,24.9748],[89.38605,24.97669],[89.38306,24.97758],[89.38158,24.97937],[89.3828,24.98186],[89.38163,24.98359],[89.37437,24.98886],[89.37138,24.98965],[89.37057,24.99084],[89.37092,24.99295],[89.37554,24.99684],[89.37717,25.00184],[89.37864,25.00325],[89.38108,25.00421],[89.38161,25.00591],[89.38719,25.0067],[89.39412,25.00958],[89.39992,25.01735],[89.40192,25.01744],[89.40498,25.01598],[89.40792,25.01606],[89.41135,25.01893],[89.42311,25.01829],[89.4255,25.019],[89.42815,25.02503],[89.43366,25.0249],[89.43526,25.02751],[89.43777,25.02822],[89.44098,25.02853]]]}},{"type":"Feature","properties":{"name":"Kahaloo","district_id":"bogra","pcode":"501054","sql_upazila_id":"bogra-kahaloo","sql_name_bn":"কাহালু"},"geometry":{"type":"Polygon","coordinates":[[[89.2674,24.94655],[89.27562,24.94287],[89.2813,24.94236],[89.28385,24.94022],[89.28683,24.93905],[89.29303,24.93847],[89.29311,24.93505],[89.29698,24.92935],[89.29412,24.92579],[89.2944,24.92259],[89.29736,24.91896],[89.29443,24.90992],[89.30039,24.90649],[89.30389,24.90578],[89.30329,24.90281],[89.30095,24.90068],[89.30017,24.89851],[89.30168,24.89461],[89.30479,24.89292],[89.30345,24.88574],[89.30674,24.88366],[89.30684,24.88263],[89.31167,24.88275],[89.31297,24.88165],[89.31505,24.88248],[89.31605,24.87751],[89.32054,24.87524],[89.32055,24.87215],[89.31438,24.86423],[89.31508,24.86028],[89.31738,24.85906],[89.31513,24.85418],[89.31075,24.84949],[89.31004,24.84761],[89.31195,24.84457],[89.3121,24.83669],[89.31156,24.83407],[89.30785,24.82669],[89.30819,24.82463],[89.30707,24.81985],[89.31694,24.81374],[89.31986,24.81269],[89.32182,24.8044],[89.31334,24.79125],[89.3133,24.788],[89.31699,24.78271],[89.31728,24.78105],[89.31409,24.77669],[89.31642,24.77284],[89.31608,24.77039],[89.31137,24.7685],[89.29947,24.76651],[89.29222,24.7566],[89.29086,24.7521],[89.28853,24.75093],[89.28443,24.7532],[89.28197,24.75083],[89.28036,24.74759],[89.28197,24.74175],[89.27796,24.73534],[89.2783,24.73289],[89.28046,24.72984],[89.2778,24.72215],[89.27637,24.72275],[89.27505,24.72225],[89.27167,24.71618],[89.26971,24.71574],[89.26636,24.72234],[89.26635,24.72593],[89.26324,24.72733],[89.25968,24.72765],[89.25833,24.72914],[89.25812,24.73236],[89.2572,24.7339],[89.25237,24.73298],[89.25121,24.73407],[89.24981,24.7378],[89.24472,24.74081],[89.23717,24.74215],[89.23474,24.74782],[89.22849,24.74788],[89.22683,24.75006],[89.22781,24.75291],[89.22701,24.75491],[89.22302,24.75552],[89.22186,24.75759],[89.21585,24.7621],[89.21614,24.76535],[89.2178,24.76864],[89.21814,24.77132],[89.21604,24.77323],[89.20895,24.7713],[89.20439,24.77688],[89.2028,24.7802],[89.20449,24.7843],[89.20339,24.78773],[89.19574,24.79111],[89.19346,24.79387],[89.19082,24.79236],[89.18077,24.79383],[89.1797,24.79845],[89.17615,24.79975],[89.17202,24.79944],[89.1673,24.79709],[89.1645,24.79774],[89.16174,24.79697],[89.15788,24.79381],[89.15441,24.79618],[89.15414,24.80013],[89.15612,24.80325],[89.15769,24.80432],[89.16068,24.80332],[89.16332,24.8042],[89.16131,24.80862],[89.16344,24.81476],[89.16354,24.81858],[89.16768,24.81929],[89.17186,24.81833],[89.1748,24.81882],[89.18061,24.81711],[89.18385,24.81754],[89.18458,24.82072],[89.17837,24.82421],[89.18114,24.82618],[89.18407,24.82587],[89.18942,24.82884],[89.18773,24.83416],[89.18761,24.83913],[89.18814,24.84204],[89.19303,24.84307],[89.19483,24.84734],[89.19331,24.8514],[89.19472,24.85487],[89.19367,24.86087],[89.19491,24.86486],[89.19405,24.86686],[89.18664,24.86938],[89.18409,24.87152],[89.18425,24.87945],[89.18194,24.8849],[89.18204,24.88816],[89.18375,24.89064],[89.18887,24.88934],[89.19044,24.88967],[89.19278,24.89193],[89.1937,24.89665],[89.19523,24.89847],[89.19906,24.89934],[89.20079,24.90303],[89.20237,24.90405],[89.20437,24.90414],[89.20896,24.9062],[89.20918,24.90832],[89.20819,24.90964],[89.21247,24.91177],[89.21043,24.91453],[89.21233,24.91559],[89.2238,24.91714],[89.23398,24.92052],[89.24318,24.92607],[89.24874,24.93047],[89.25056,24.93091],[89.26347,24.94231],[89.2674,24.94655]]]}},{"type":"Feature","properties":{"name":"Nandigram","district_id":"bogra","pcode":"501067","sql_upazila_id":null,"sql_name_bn":null},"geometry":{"type":"Polygon","coordinates":[[[89.15788,24.79381],[89.16174,24.79697],[89.1645,24.79774],[89.1673,24.79709],[89.17202,24.79944],[89.17615,24.79975],[89.1797,24.79845],[89.18077,24.79383],[89.19082,24.79236],[89.19346,24.79387],[89.19574,24.79111],[89.20339,24.78773],[89.20449,24.7843],[89.2028,24.7802],[89.20439,24.77688],[89.20895,24.7713],[89.21604,24.77323],[89.21814,24.77132],[89.2178,24.76864],[89.21614,24.76535],[89.21585,24.7621],[89.22186,24.75759],[89.22302,24.75552],[89.22701,24.75491],[89.22781,24.75291],[89.22683,24.75006],[89.22849,24.74788],[89.23474,24.74782],[89.23717,24.74215],[89.24472,24.74081],[89.24981,24.7378],[89.25121,24.73407],[89.25237,24.73298],[89.2572,24.7339],[89.25812,24.73236],[89.25833,24.72914],[89.25968,24.72765],[89.26324,24.72733],[89.26635,24.72593],[89.26636,24.72234],[89.26971,24.71574],[89.27167,24.71618],[89.27505,24.72225],[89.27637,24.72275],[89.28344,24.71822],[89.28452,24.71474],[89.28341,24.71103],[89.28108,24.709],[89.27895,24.70828],[89.27834,24.70509],[89.27934,24.70047],[89.28473,24.69641],[89.29111,24.6972],[89.29433,24.69346],[89.29829,24.69616],[89.30196,24.69543],[89.30496,24.69985],[89.30608,24.70041],[89.31283,24.70012],[89.31506,24.69867],[89.31872,24.69172],[89.32151,24.68997],[89.32457,24.68984],[89.32609,24.6917],[89.32599,24.69884],[89.32671,24.70157],[89.33365,24.70138],[89.33965,24.69207],[89.33202,24.68599],[89.33598,24.68332],[89.33646,24.68189],[89.33432,24.68036],[89.33323,24.67827],[89.33456,24.67523],[89.34157,24.67128],[89.34442,24.66897],[89.34459,24.66777],[89.34275,24.66602],[89.34216,24.66374],[89.34389,24.66241],[89.34399,24.66052],[89.3405,24.65588],[89.34085,24.65382],[89.33877,24.64768],[89.34135,24.64463],[89.3417,24.64177],[89.34565,24.63888],[89.34714,24.63287],[89.34737,24.62728],[89.3443,24.61584],[89.34378,24.60968],[89.34203,24.60462],[89.33804,24.60032],[89.3363,24.60052],[89.33327,24.60317],[89.33139,24.60228],[89.32148,24.60335],[89.31161,24.60283],[89.31007,24.6045],[89.3093,24.60748],[89.31001,24.61454],[89.30946,24.6166],[89.30793,24.61799],[89.30336,24.6169],[89.30087,24.61733],[89.30078,24.62057],[89.29841,24.62454],[89.29567,24.62628],[89.29256,24.62739],[89.28558,24.62786],[89.28285,24.62972],[89.28104,24.62957],[89.27846,24.62777],[89.27447,24.62803],[89.2672,24.63136],[89.2639,24.63134],[89.2612,24.63058],[89.2551,24.62224],[89.25198,24.62239],[89.24997,24.62103],[89.25757,24.61445],[89.25701,24.60927],[89.25467,24.60695],[89.24815,24.6045],[89.24682,24.60292],[89.2437,24.59736],[89.24168,24.59019],[89.2404,24.58815],[89.23294,24.58531],[89.22882,24.58507],[89.22622,24.5868],[89.225,24.58938],[89.21976,24.59497],[89.21826,24.59995],[89.21782,24.60503],[89.21844,24.61068],[89.21659,24.61731],[89.21323,24.6174],[89.21146,24.61644],[89.20795,24.60958],[89.20641,24.61063],[89.20544,24.61326],[89.20553,24.61594],[89.20392,24.61709],[89.19775,24.61835],[89.19653,24.62008],[89.2018,24.62294],[89.20258,24.6304],[89.20922,24.6332],[89.21207,24.63659],[89.21141,24.63882],[89.20972,24.63918],[89.20772,24.63806],[89.20515,24.63797],[89.20647,24.64406],[89.20455,24.64477],[89.20203,24.64331],[89.19562,24.64439],[89.19299,24.65463],[89.19017,24.65421],[89.18318,24.64925],[89.1777,24.65039],[89.17681,24.64982],[89.17313,24.64381],[89.17534,24.64002],[89.17744,24.63828],[89.17754,24.63566],[89.17314,24.63417],[89.17257,24.62727],[89.1703,24.62523],[89.16122,24.62355],[89.15682,24.62045],[89.15408,24.62065],[89.15266,24.62168],[89.15414,24.62613],[89.15316,24.62779],[89.14547,24.63271],[89.14313,24.64061],[89.13883,24.64784],[89.14045,24.65251],[89.14015,24.65565],[89.14483,24.65581],[89.14664,24.65692],[89.14764,24.66201],[89.14588,24.66772],[89.15337,24.66931],[89.16195,24.66561],[89.16439,24.66677],[89.16708,24.67303],[89.16728,24.67536],[89.16474,24.68141],[89.15952,24.68484],[89.15704,24.68521],[89.15559,24.68416],[89.15412,24.68071],[89.14935,24.67721],[89.14703,24.6765],[89.14381,24.67802],[89.13842,24.68253],[89.13565,24.68632],[89.13463,24.68945],[89.1346,24.69314],[89.13493,24.69569],[89.13762,24.70167],[89.13849,24.70842],[89.147,24.71636],[89.15297,24.7277],[89.15293,24.737],[89.15152,24.73838],[89.14579,24.7353],[89.13903,24.75016],[89.13902,24.75581],[89.14156,24.75904],[89.15612,24.77003],[89.15743,24.77538],[89.15608,24.77745],[89.15635,24.77899],[89.16041,24.77901],[89.1671,24.77369],[89.16899,24.77493],[89.16929,24.78429],[89.16622,24.78455],[89.16187,24.78653],[89.1591,24.78998],[89.15788,24.79381]]]}},{"type":"Feature","properties":{"name":"Sariakandi","district_id":"bogra","pcode":"501081","sql_upazila_id":null,"sql_name_bn":null},"geometry":{"type":"Polygon","coordinates":[[[89.65246,25.04387],[89.65664,25.02325],[89.66222,25.01131],[89.66355,25.00438],[89.66303,24.99914],[89.66453,24.99067],[89.66669,24.98494],[89.67694,24.97117],[89.68107,24.95867],[89.68178,24.95307],[89.68071,24.94812],[89.67927,24.94391],[89.67683,24.94087],[89.67554,24.93734],[89.67572,24.92513],[89.67924,24.92165],[89.68605,24.91706],[89.68778,24.90813],[89.68602,24.90673],[89.68125,24.90668],[89.67487,24.90305],[89.67204,24.89698],[89.66665,24.89682],[89.66319,24.89584],[89.66367,24.89018],[89.66824,24.8823],[89.66972,24.8772],[89.67,24.87109],[89.67102,24.868],[89.68231,24.85027],[89.68385,24.84101],[89.68597,24.83636],[89.69376,24.83026],[89.69532,24.82676],[89.6989,24.82301],[89.70767,24.81627],[89.72939,24.80577],[89.73436,24.80364],[89.74563,24.80492],[89.7493,24.8035],[89.74975,24.80036],[89.74841,24.79923],[89.73257,24.79728],[89.72713,24.7937],[89.72357,24.7865],[89.71996,24.78295],[89.71581,24.78129],[89.70273,24.78054],[89.68436,24.78547],[89.67872,24.78463],[89.67587,24.78216],[89.67501,24.77892],[89.67568,24.77303],[89.67493,24.7699],[89.67268,24.76571],[89.66666,24.7603],[89.66547,24.75678],[89.66631,24.75437],[89.66822,24.75229],[89.66743,24.74962],[89.66553,24.74839],[89.65827,24.74768],[89.6563,24.74497],[89.65341,24.74455],[89.649,24.7421],[89.63504,24.74507],[89.63201,24.74659],[89.63397,24.75244],[89.6324,24.75606],[89.63246,24.75966],[89.6316,24.76092],[89.62701,24.76287],[89.62412,24.76267],[89.61949,24.75794],[89.61729,24.75688],[89.61404,24.75664],[89.60937,24.75373],[89.60625,24.75451],[89.60468,24.75384],[89.60429,24.74836],[89.60164,24.7468],[89.59502,24.74723],[89.5933,24.74919],[89.5905,24.75796],[89.58848,24.76119],[89.58692,24.76154],[89.58096,24.75979],[89.57796,24.75988],[89.57536,24.76122],[89.57801,24.76793],[89.5806,24.77782],[89.5772,24.78483],[89.57743,24.78774],[89.57648,24.79095],[89.5703,24.79633],[89.55998,24.79988],[89.55797,24.79945],[89.55215,24.79466],[89.54901,24.79362],[89.54916,24.79133],[89.55402,24.78551],[89.55585,24.78246],[89.55564,24.78093],[89.55067,24.7827],[89.54423,24.78694],[89.53742,24.78782],[89.53716,24.79175],[89.53588,24.79395],[89.53366,24.79609],[89.52972,24.79579],[89.5329,24.80374],[89.5373,24.80523],[89.53838,24.80699],[89.53316,24.80882],[89.52939,24.82068],[89.52889,24.82588],[89.53024,24.82769],[89.53475,24.82849],[89.53687,24.83206],[89.54478,24.83779],[89.5468,24.84478],[89.55187,24.8486],[89.55257,24.85361],[89.54915,24.86399],[89.54478,24.86415],[89.54223,24.86543],[89.53898,24.86125],[89.53741,24.86047],[89.53014,24.86393],[89.52306,24.8635],[89.52169,24.86426],[89.5209,24.86598],[89.5161,24.86678],[89.51537,24.86833],[89.51661,24.87162],[89.51606,24.87271],[89.51344,24.87287],[89.51238,24.87367],[89.51356,24.87697],[89.514,24.8817],[89.5157,24.88259],[89.51819,24.88165],[89.51896,24.88301],[89.51813,24.88599],[89.51409,24.88816],[89.51399,24.89014],[89.51578,24.89222],[89.51844,24.89078],[89.52441,24.89185],[89.52512,24.89361],[89.5239,24.8959],[89.52443,24.89818],[89.52724,24.89763],[89.53284,24.90407],[89.53323,24.90903],[89.53093,24.91545],[89.53165,24.91722],[89.53597,24.9219],[89.53619,24.9319],[89.54103,24.93332],[89.53816,24.93838],[89.53923,24.93912],[89.55135,24.94102],[89.55186,24.9417],[89.55053,24.94485],[89.54829,24.94579],[89.54353,24.94545],[89.54141,24.95073],[89.54355,24.95179],[89.54559,24.95461],[89.53882,24.95801],[89.53803,24.95984],[89.53918,24.96114],[89.54431,24.96102],[89.54596,24.96249],[89.54668,24.96419],[89.54536,24.96854],[89.54718,24.97326],[89.54684,24.97543],[89.54292,24.97268],[89.54105,24.96928],[89.53857,24.97079],[89.53642,24.9735],[89.53235,24.98262],[89.53609,24.9864],[89.5365,24.98783],[89.53476,24.98933],[89.53132,24.98937],[89.51844,24.98667],[89.51671,24.988],[89.51595,24.99144],[89.51726,24.99593],[89.51994,24.99892],[89.52333,24.99974],[89.52689,24.99913],[89.53191,24.99986],[89.53855,24.99579],[89.54494,24.99994],[89.55235,24.99631],[89.55716,24.99186],[89.56028,24.99148],[89.56217,24.9922],[89.56618,24.99665],[89.56863,24.99697],[89.57249,24.99562],[89.57727,24.99658],[89.5795,24.99489],[89.58169,24.9908],[89.58105,24.98557],[89.58285,24.98424],[89.58543,24.985],[89.58699,24.98989],[89.58718,24.994],[89.58675,24.99806],[89.58489,24.99974],[89.58454,25.00151],[89.59233,25.00706],[89.59323,25.00871],[89.59294,25.01042],[89.59055,25.01405],[89.59103,25.01655],[89.59317,25.01744],[89.59872,25.01572],[89.60136,25.01625],[89.60221,25.02281],[89.60382,25.02605],[89.60273,25.02777],[89.60042,25.02865],[89.59426,25.02753],[89.5921,25.02898],[89.59108,25.03254],[89.59287,25.03502],[89.59711,25.03782],[89.59707,25.03948],[89.59108,25.043],[89.59711,25.04351],[89.60348,25.04791],[89.60912,25.0492],[89.61442,25.04878],[89.62341,25.04506],[89.63938,25.03619],[89.64156,25.03593],[89.64389,25.03726],[89.64721,25.04159],[89.65167,25.04368],[89.65246,25.04387]]]}},{"type":"Feature","properties":{"name":"Sherpur","district_id":"bogra","pcode":"501088","sql_upazila_id":"bogra-sherpur","sql_name_bn":"শেরপুর"},"geometry":{"type":"Polygon","coordinates":[[[89.47843,24.72237],[89.48134,24.71544],[89.47871,24.71472],[89.47915,24.70656],[89.48719,24.70966],[89.49255,24.70903],[89.49281,24.70497],[89.49158,24.69712],[89.49372,24.69412],[89.49041,24.68508],[89.49005,24.68206],[89.49115,24.67577],[89.48581,24.66859],[89.48656,24.66494],[89.48799,24.66411],[89.49149,24.66898],[89.49197,24.67177],[89.49511,24.67356],[89.49784,24.67141],[89.49866,24.66832],[89.49612,24.66533],[89.49443,24.66449],[89.49544,24.65615],[89.49043,24.64685],[89.49195,24.6438],[89.49974,24.63812],[89.50366,24.63722],[89.50632,24.6393],[89.5124,24.63198],[89.51148,24.62948],[89.51129,24.62452],[89.50951,24.62214],[89.51022,24.61494],[89.50874,24.60788],[89.50671,24.60511],[89.49837,24.59808],[89.49783,24.5954],[89.49924,24.59327],[89.50594,24.59114],[89.51406,24.58676],[89.51742,24.58113],[89.52072,24.58115],[89.52348,24.5822],[89.52721,24.58528],[89.52982,24.58429],[89.52997,24.58172],[89.52843,24.57895],[89.52929,24.57791],[89.53415,24.57756],[89.5345,24.5759],[89.53213,24.57159],[89.52811,24.56925],[89.52745,24.56697],[89.53009,24.56415],[89.52997,24.56015],[89.53601,24.55055],[89.53486,24.54862],[89.53317,24.54836],[89.53078,24.55153],[89.52716,24.55043],[89.52355,24.5564],[89.52142,24.55609],[89.51964,24.55331],[89.51765,24.55339],[89.50063,24.55947],[89.49751,24.55928],[89.49324,24.55739],[89.48371,24.5587],[89.47462,24.55589],[89.47343,24.55448],[89.47472,24.54922],[89.47283,24.54793],[89.46599,24.54983],[89.45904,24.54786],[89.45354,24.55192],[89.44783,24.55341],[89.43106,24.55377],[89.43031,24.55486],[89.43079,24.55811],[89.42832,24.5603],[89.42002,24.56456],[89.41535,24.56513],[89.41196,24.5638],[89.40958,24.55795],[89.40668,24.55581],[89.40017,24.55457],[89.39762,24.55506],[89.39524,24.55788],[89.39169,24.56003],[89.38833,24.56058],[89.38327,24.55978],[89.38,24.55833],[89.37532,24.55815],[89.37183,24.55887],[89.36726,24.56138],[89.35714,24.56109],[89.35175,24.56377],[89.34905,24.56762],[89.34687,24.56793],[89.34052,24.56378],[89.33878,24.5699],[89.33008,24.58215],[89.32884,24.58804],[89.32922,24.59334],[89.33139,24.60228],[89.33327,24.60317],[89.3363,24.60052],[89.33804,24.60032],[89.34203,24.60462],[89.34378,24.60968],[89.3443,24.61584],[89.34737,24.62728],[89.34714,24.63287],[89.34565,24.63888],[89.3417,24.64177],[89.34135,24.64463],[89.33877,24.64768],[89.34085,24.65382],[89.3405,24.65588],[89.34399,24.66052],[89.34389,24.66241],[89.34216,24.66374],[89.34275,24.66602],[89.34459,24.66777],[89.34442,24.66897],[89.33456,24.67523],[89.33323,24.67827],[89.33432,24.68036],[89.33646,24.68189],[89.33598,24.68332],[89.33202,24.68599],[89.3329,24.68724],[89.33668,24.68908],[89.33965,24.69207],[89.34272,24.69278],[89.34627,24.69679],[89.35065,24.698],[89.35495,24.70144],[89.36534,24.70321],[89.3689,24.70283],[89.3728,24.69989],[89.37641,24.69938],[89.37801,24.69759],[89.37888,24.69268],[89.38075,24.6922],[89.3827,24.69361],[89.38313,24.6972],[89.3896,24.69998],[89.39163,24.70686],[89.3936,24.70941],[89.39674,24.71046],[89.40234,24.70851],[89.40003,24.71419],[89.40087,24.71635],[89.40837,24.71643],[89.41116,24.71943],[89.41386,24.7202],[89.42197,24.71942],[89.42559,24.7236],[89.43449,24.72145],[89.44257,24.71788],[89.45348,24.71605],[89.45835,24.71616],[89.46024,24.71711],[89.46204,24.72062],[89.46506,24.7219],[89.46832,24.72249],[89.47337,24.72169],[89.47843,24.72237]]]}},{"type":"Feature","properties":{"name":"Shibganj","district_id":"bogra","pcode":"501094","sql_upazila_id":"bogra-shibganj","sql_name_bn":"শিবগঞ্জ"},"geometry":{"type":"Polygon","coordinates":[[[89.45572,25.05567],[89.45483,25.0539],[89.4557,25.05136],[89.45217,25.0453],[89.45137,25.04211],[89.45523,25.03938],[89.45532,25.0379],[89.45366,25.03529],[89.45069,25.03356],[89.44409,25.03175],[89.44098,25.02853],[89.43526,25.02751],[89.43366,25.0249],[89.42815,25.02503],[89.4255,25.019],[89.41904,25.01805],[89.41135,25.01893],[89.40792,25.01606],[89.40498,25.01598],[89.40192,25.01744],[89.39992,25.01735],[89.39412,25.00958],[89.38719,25.0067],[89.38161,25.00591],[89.38108,25.00421],[89.37717,25.00184],[89.37554,24.99684],[89.37092,24.99295],[89.37057,24.99084],[89.37138,24.98965],[89.37437,24.98886],[89.37395,24.98116],[89.37093,24.98011],[89.36636,24.9744],[89.36144,24.97302],[89.35732,24.96741],[89.3574,24.96456],[89.3585,24.96221],[89.3606,24.96042],[89.36015,24.94952],[89.3585,24.94754],[89.3546,24.95141],[89.35002,24.95083],[89.34704,24.95194],[89.34134,24.95184],[89.33884,24.95277],[89.33649,24.95964],[89.33628,24.96324],[89.33788,24.96568],[89.33797,24.96734],[89.33337,24.97087],[89.32944,24.97136],[89.32792,24.97012],[89.32758,24.96767],[89.32511,24.96622],[89.32101,24.96837],[89.31894,24.96714],[89.31593,24.96734],[89.31391,24.96651],[89.31169,24.96424],[89.30713,24.96475],[89.29909,24.96289],[89.29379,24.96426],[89.28334,24.96488],[89.27705,24.96295],[89.27017,24.96336],[89.26794,24.95465],[89.26875,24.94962],[89.2674,24.94655],[89.25966,24.93858],[89.25056,24.93091],[89.24874,24.93047],[89.24318,24.92607],[89.23398,24.92052],[89.22983,24.91885],[89.2238,24.91714],[89.21233,24.91559],[89.20983,24.92184],[89.20776,24.92066],[89.2066,24.91833],[89.20509,24.91795],[89.20462,24.92109],[89.2032,24.92202],[89.20163,24.9214],[89.19995,24.92205],[89.19809,24.92401],[89.19533,24.923],[89.18977,24.93071],[89.18921,24.92997],[89.18677,24.92982],[89.18521,24.94136],[89.187,24.94454],[89.18659,24.94717],[89.18874,24.94818],[89.18907,24.9508],[89.18542,24.96031],[89.18583,24.96259],[89.18485,24.96511],[89.17972,24.97018],[89.17937,24.97292],[89.18071,24.98027],[89.1838,24.98247],[89.18421,24.98509],[89.18618,24.98747],[89.1938,24.98631],[89.19551,24.98744],[89.19217,24.99118],[89.18961,24.992],[89.18961,24.99759],[89.19107,24.99883],[89.19427,24.99926],[89.20052,24.99857],[89.20353,24.99906],[89.20356,25.00111],[89.20264,25.00272],[89.19788,25.00276],[89.19626,25.00392],[89.20212,25.00677],[89.20642,25.01039],[89.20896,25.01379],[89.21103,25.01919],[89.2188,25.02442],[89.21888,25.02596],[89.21365,25.02982],[89.21381,25.03229],[89.2164,25.03323],[89.21845,25.03213],[89.22253,25.02729],[89.22708,25.02582],[89.22775,25.02411],[89.23013,25.02356],[89.23641,25.02527],[89.24075,25.03082],[89.24228,25.03435],[89.24299,25.04627],[89.24449,25.05145],[89.2466,25.05457],[89.24911,25.0558],[89.25098,25.05897],[89.25114,25.0624],[89.24872,25.06978],[89.2495,25.07189],[89.25787,25.07541],[89.26308,25.08088],[89.26681,25.08279],[89.27366,25.08985],[89.27637,25.09165],[89.27801,25.09473],[89.28325,25.10029],[89.29036,25.11254],[89.29659,25.1165],[89.30589,25.12036],[89.30789,25.12056],[89.31947,25.11741],[89.32732,25.12123],[89.33114,25.12158],[89.3345,25.12091],[89.34069,25.11612],[89.34386,25.11471],[89.34521,25.1135],[89.34455,25.11055],[89.3361,25.10452],[89.33319,25.10155],[89.34509,25.0998],[89.3471,25.10046],[89.35046,25.09883],[89.35828,25.09043],[89.36108,25.08994],[89.36527,25.09068],[89.3662,25.08952],[89.36468,25.0879],[89.36173,25.08726],[89.36001,25.08444],[89.35955,25.07796],[89.36266,25.0723],[89.36401,25.07058],[89.37253,25.06819],[89.38097,25.06359],[89.38552,25.05927],[89.38644,25.0538],[89.38804,25.05162],[89.39035,25.05142],[89.39183,25.05464],[89.3927,25.05929],[89.39258,25.06857],[89.39441,25.06984],[89.40356,25.06813],[89.40526,25.06879],[89.40437,25.07215],[89.40209,25.0748],[89.40144,25.07708],[89.40358,25.07847],[89.41161,25.07644],[89.41405,25.07663],[89.41459,25.08077],[89.41567,25.08127],[89.42471,25.07541],[89.42611,25.07244],[89.42558,25.0654],[89.42792,25.06366],[89.42998,25.06369],[89.43206,25.07008],[89.43427,25.07108],[89.4429,25.0721],[89.44538,25.0707],[89.44501,25.06741],[89.44727,25.06755],[89.45077,25.07205],[89.45583,25.07266],[89.45718,25.07094],[89.4557,25.068],[89.45132,25.06272],[89.45091,25.06022],[89.45126,25.05829],[89.45348,25.05627],[89.45572,25.05567]]]}},{"type":"Feature","properties":{"name":"Sonatala","district_id":"bogra","pcode":"501095","sql_upazila_id":"bogra-sonatala","sql_name_bn":"সোনাতলা"},"geometry":{"type":"Polygon","coordinates":[[[89.52787,25.03967],[89.53767,25.03948],[89.54224,25.04049],[89.55506,25.03764],[89.55888,25.0381],[89.56461,25.03728],[89.56982,25.03862],[89.57223,25.03768],[89.57386,25.038],[89.57804,25.04209],[89.59108,25.043],[89.59707,25.03948],[89.59711,25.03782],[89.59287,25.03502],[89.59108,25.03254],[89.5921,25.02898],[89.59426,25.02753],[89.60042,25.02865],[89.60273,25.02777],[89.60382,25.02605],[89.60221,25.02281],[89.60136,25.01625],[89.59872,25.01572],[89.59317,25.01744],[89.59103,25.01655],[89.59055,25.01405],[89.59294,25.01042],[89.59323,25.00871],[89.59233,25.00706],[89.58454,25.00151],[89.58489,24.99974],[89.58675,24.99806],[89.58718,24.994],[89.58699,24.98989],[89.58543,24.985],[89.58285,24.98424],[89.58105,24.98557],[89.58169,24.9908],[89.5795,24.99489],[89.57727,24.99658],[89.57249,24.99562],[89.56863,24.99697],[89.56618,24.99665],[89.56217,24.9922],[89.56028,24.99148],[89.55716,24.99186],[89.55235,24.99631],[89.54494,24.99994],[89.53855,24.99579],[89.53191,24.99986],[89.52689,24.99913],[89.52333,24.99974],[89.51994,24.99892],[89.51726,24.99593],[89.51595,24.99144],[89.51671,24.988],[89.51844,24.98667],[89.53132,24.98937],[89.53476,24.98933],[89.5365,24.98783],[89.53609,24.9864],[89.53235,24.98262],[89.53507,24.97603],[89.53857,24.97079],[89.54105,24.96928],[89.54292,24.97268],[89.54684,24.97543],[89.54726,24.97468],[89.54536,24.96854],[89.54668,24.96419],[89.54596,24.96249],[89.54431,24.96102],[89.53918,24.96114],[89.53803,24.95984],[89.53882,24.95801],[89.54559,24.95461],[89.54355,24.95179],[89.54141,24.95073],[89.54353,24.94545],[89.54829,24.94579],[89.55053,24.94485],[89.55186,24.9417],[89.55135,24.94102],[89.53923,24.93912],[89.53816,24.93838],[89.54103,24.93332],[89.53619,24.9319],[89.53597,24.9219],[89.53417,24.92267],[89.53121,24.92178],[89.52626,24.92538],[89.52242,24.92423],[89.51926,24.92661],[89.51465,24.9318],[89.50877,24.94094],[89.50227,24.94582],[89.49953,24.94693],[89.49739,24.94678],[89.49549,24.94498],[89.49433,24.93814],[89.49302,24.93838],[89.49015,24.94384],[89.4876,24.94473],[89.48371,24.94409],[89.48147,24.94486],[89.47704,24.95067],[89.47048,24.95172],[89.46796,24.95089],[89.46622,24.95194],[89.46355,24.95762],[89.46158,24.9597],[89.459,24.95567],[89.45739,24.96009],[89.45926,24.9684],[89.46126,24.97311],[89.46085,24.97471],[89.45887,24.97594],[89.45352,24.97486],[89.45128,24.97602],[89.44711,24.98634],[89.4429,24.99073],[89.44205,24.99291],[89.44335,24.9962],[89.45014,25.00246],[89.4506,25.00417],[89.45039,25.00714],[89.44905,25.00995],[89.44575,25.01187],[89.44521,25.01302],[89.44494,25.01599],[89.44614,25.02105],[89.44098,25.02853],[89.44409,25.03175],[89.45069,25.03356],[89.45366,25.03529],[89.45532,25.0379],[89.45523,25.03938],[89.45137,25.04211],[89.45217,25.0453],[89.4557,25.05136],[89.45483,25.0539],[89.45572,25.05567],[89.45715,25.05617],[89.45752,25.05906],[89.4557,25.06283],[89.45876,25.06342],[89.46285,25.0608],[89.46834,25.06028],[89.46913,25.05919],[89.4632,25.055],[89.47337,25.05373],[89.47594,25.05477],[89.47665,25.05613],[89.4762,25.06045],[89.47878,25.0615],[89.48537,25.0593],[89.49027,25.0614],[89.49213,25.06001],[89.49361,25.05481],[89.49655,25.05096],[89.50512,25.04744],[89.50765,25.04473],[89.52423,25.04001],[89.52787,25.03967]]]}}]}