{"type":"FeatureCollection","features":[{"type":"Feature","properties":{"name":"Akhaura","district_id":"brahmanbaria","pcode":"201202","sql_upazila_id":"brahmanbaria-akhaura","sql_name_bn":"আখাউড়া"},"geometry":{"type":"Polygon","coordinates":[[[91.1422,23.85686],[91.14689,23.85068],[91.14961,23.84957],[91.15343,23.85107],[91.15539,23.84952],[91.16119,23.8484],[91.16061,23.85504],[91.16532,23.8548],[91.16508,23.85703],[91.16802,23.86146],[91.16811,23.8662],[91.1629,23.868],[91.16399,23.87071],[91.17357,23.87296],[91.17381,23.86924],[91.17581,23.86359],[91.17432,23.85855],[91.17794,23.85622],[91.17703,23.85396],[91.18084,23.85111],[91.18458,23.85015],[91.18635,23.85067],[91.18756,23.84755],[91.19122,23.84802],[91.19468,23.85152],[91.19678,23.85558],[91.19396,23.85954],[91.19586,23.86183],[91.20044,23.86485],[91.2028,23.87141],[91.20538,23.87476],[91.20332,23.87864],[91.20341,23.88288],[91.1981,23.88411],[91.19978,23.88703],[91.20583,23.8928],[91.21052,23.89079],[91.21479,23.89192],[91.21627,23.89468],[91.21484,23.89661],[91.21707,23.903],[91.22887,23.90427],[91.24216,23.90972],[91.246,23.91001],[91.24945,23.91329],[91.24886,23.90891],[91.2412,23.90404],[91.23411,23.90144],[91.23216,23.89949],[91.23251,23.8832],[91.23769,23.87991],[91.24723,23.85839],[91.255,23.84955],[91.2569,23.84452],[91.25761,23.83965],[91.25177,23.83308],[91.24646,23.82529],[91.24368,23.81965],[91.23762,23.81153],[91.23738,23.8084],[91.23513,23.80212],[91.23206,23.79701],[91.22735,23.79514],[91.22557,23.79275],[91.22118,23.79115],[91.21944,23.78805],[91.21501,23.78383],[91.21118,23.78212],[91.20403,23.78072],[91.19659,23.78008],[91.19324,23.78096],[91.19232,23.7871],[91.19514,23.79193],[91.19694,23.79325],[91.20317,23.79354],[91.20593,23.79517],[91.2067,23.79744],[91.20679,23.80343],[91.19756,23.80563],[91.19095,23.80496],[91.18501,23.80021],[91.18036,23.80223],[91.1791,23.81088],[91.18311,23.81751],[91.18279,23.82118],[91.18087,23.8218],[91.17886,23.82197],[91.17593,23.82074],[91.17358,23.81841],[91.16774,23.81834],[91.16718,23.82024],[91.16467,23.82031],[91.16286,23.81699],[91.15923,23.81418],[91.14812,23.81431],[91.14558,23.81552],[91.14152,23.81603],[91.1367,23.81834],[91.1295,23.81734],[91.12601,23.81268],[91.12352,23.81156],[91.12189,23.81354],[91.12144,23.81676],[91.12275,23.82535],[91.12239,23.8297],[91.12518,23.83379],[91.12526,23.83607],[91.12934,23.84316],[91.13495,23.84226],[91.13863,23.84291],[91.14048,23.84731],[91.14069,23.85303],[91.1422,23.85686]]]}},{"type":"Feature","properties":{"name":"Banchharampur","district_id":"brahmanbaria","pcode":"201204","sql_upazila_id":null,"sql_name_bn":null},"geometry":{"type":"Polygon","coordinates":[[[90.83502,23.8617],[90.83791,23.85775],[90.84056,23.8562],[90.84433,23.84827],[90.8473,23.84688],[90.84711,23.83329],[90.84628,23.83109],[90.84251,23.8273],[90.84144,23.82527],[90.84177,23.82395],[90.84617,23.82578],[90.84723,23.82787],[90.85068,23.82732],[90.85558,23.83097],[90.86105,23.83334],[90.86235,23.83651],[90.87096,23.83646],[90.87303,23.83435],[90.87308,23.832],[90.87009,23.8294],[90.86543,23.81958],[90.86955,23.81661],[90.87041,23.81414],[90.87448,23.81169],[90.87896,23.81232],[90.87953,23.81048],[90.88228,23.81006],[90.88594,23.80106],[90.89043,23.8002],[90.89108,23.78933],[90.88781,23.78913],[90.87835,23.78429],[90.88207,23.77894],[90.88557,23.77097],[90.88288,23.76938],[90.88193,23.75924],[90.8824,23.7566],[90.88892,23.75254],[90.88963,23.74557],[90.88623,23.74319],[90.88619,23.7364],[90.88534,23.73339],[90.88533,23.73116],[90.88763,23.72852],[90.8875,23.72648],[90.88488,23.72312],[90.87917,23.71967],[90.87131,23.72107],[90.86842,23.72274],[90.86102,23.72145],[90.85819,23.71936],[90.84863,23.72427],[90.8456,23.72412],[90.84442,23.72615],[90.8372,23.72635],[90.83404,23.72727],[90.83266,23.7313],[90.82784,23.72954],[90.81718,23.73198],[90.81157,23.73727],[90.80781,23.74318],[90.8048,23.74537],[90.80112,23.74626],[90.79604,23.74256],[90.79057,23.73647],[90.78633,23.73355],[90.7836,23.73271],[90.77837,23.7337],[90.77664,23.73094],[90.77743,23.72595],[90.77495,23.72111],[90.78041,23.71674],[90.77802,23.71103],[90.77893,23.70815],[90.78724,23.69521],[90.78781,23.69159],[90.78039,23.68715],[90.77766,23.68636],[90.7736,23.68675],[90.76559,23.68963],[90.76499,23.69439],[90.76352,23.69711],[90.76008,23.69583],[90.75648,23.697],[90.74319,23.69099],[90.74362,23.69545],[90.7422,23.69967],[90.73392,23.70875],[90.72697,23.71849],[90.72433,23.7237],[90.72324,23.72836],[90.72268,23.74022],[90.72414,23.74715],[90.7291,23.7564],[90.74345,23.77202],[90.75787,23.7841],[90.76598,23.79697],[90.76746,23.80219],[90.76794,23.8091],[90.76537,23.82415],[90.76402,23.82831],[90.76112,23.83324],[90.75687,23.83656],[90.75493,23.83936],[90.75401,23.84585],[90.75636,23.85167],[90.76067,23.85584],[90.76975,23.86189],[90.78146,23.8646],[90.79221,23.86397],[90.80914,23.8607],[90.81803,23.86086],[90.83502,23.8617]]]}},{"type":"Feature","properties":{"name":"Brahmanbaria Sadar","district_id":"brahmanbaria","pcode":"201213","sql_upazila_id":"brahmanbaria-brahmanbaria-sadar","sql_name_bn":"ব্রাহ্মণবাড়িয়া সদর"},"geometry":{"type":"Polygon","coordinates":[[[91.27041,24.09774],[91.27912,24.09458],[91.28169,24.09611],[91.28347,24.09846],[91.29187,24.09731],[91.29331,24.09361],[91.29264,24.09077],[91.28711,24.08064],[91.28663,24.0778],[91.28838,24.06215],[91.28931,24.06173],[91.29439,24.06312],[91.30099,24.06071],[91.30412,24.06039],[91.30856,24.04735],[91.31162,24.04521],[91.31412,24.04091],[91.31481,24.03769],[91.31443,24.03238],[91.30848,24.02964],[91.3083,24.02828],[91.31031,24.02479],[91.31068,24.02112],[91.30885,24.01729],[91.30582,24.01721],[91.29918,24.01975],[91.29806,24.01846],[91.30113,24.01288],[91.29707,24.00689],[91.29674,24.0031],[91.30173,23.99989],[91.30641,23.99857],[91.30405,23.98949],[91.30074,23.98336],[91.30063,23.97502],[91.29966,23.97272],[91.28949,23.96803],[91.28626,23.97103],[91.28448,23.97565],[91.28558,23.9831],[91.28368,23.9831],[91.28156,23.98019],[91.27876,23.97387],[91.27327,23.96666],[91.26608,23.94864],[91.26687,23.94462],[91.27225,23.94206],[91.27402,23.9403],[91.27798,23.92819],[91.27627,23.92624],[91.26724,23.92707],[91.26231,23.92646],[91.25443,23.92754],[91.25184,23.92899],[91.24685,23.92838],[91.23646,23.92965],[91.23522,23.9286],[91.23559,23.92736],[91.2443,23.92389],[91.24604,23.92161],[91.24945,23.91329],[91.246,23.91001],[91.24216,23.90972],[91.22887,23.90427],[91.21707,23.903],[91.21484,23.89661],[91.21627,23.89468],[91.21479,23.89192],[91.21052,23.89079],[91.20583,23.8928],[91.19978,23.88703],[91.1981,23.88411],[91.20341,23.88288],[91.20332,23.87864],[91.20538,23.87476],[91.2028,23.87141],[91.20044,23.86485],[91.19586,23.86183],[91.19396,23.85954],[91.19678,23.85558],[91.19468,23.85152],[91.19122,23.84802],[91.18756,23.84755],[91.18635,23.85067],[91.18458,23.85015],[91.18084,23.85111],[91.17703,23.85396],[91.17794,23.85622],[91.17432,23.85855],[91.17581,23.86359],[91.17381,23.86924],[91.17357,23.87296],[91.16399,23.87071],[91.1629,23.868],[91.16811,23.8662],[91.16802,23.86146],[91.16508,23.85703],[91.16532,23.8548],[91.16061,23.85504],[91.16119,23.8484],[91.15539,23.84952],[91.15343,23.85107],[91.14961,23.84957],[91.14689,23.85068],[91.1422,23.85686],[91.14351,23.86362],[91.13775,23.86606],[91.13107,23.86585],[91.13054,23.86117],[91.12679,23.85997],[91.11727,23.85925],[91.11411,23.8642],[91.10141,23.8658],[91.09852,23.86222],[91.0932,23.86294],[91.09058,23.86524],[91.08956,23.86685],[91.09164,23.87252],[91.08979,23.87514],[91.08814,23.88198],[91.08334,23.8833],[91.08073,23.8947],[91.08548,23.89594],[91.08247,23.9123],[91.08358,23.91535],[91.08481,23.92553],[91.08428,23.93219],[91.08495,23.95142],[91.07809,23.95498],[91.07223,23.95445],[91.06171,23.94879],[91.04721,23.94775],[91.04003,23.94526],[91.03471,23.94072],[91.02822,23.93146],[91.02274,23.92921],[91.0182,23.9307],[91.01567,23.9322],[91.01535,23.93368],[91.01154,23.93448],[91.00896,23.93615],[91.00565,23.93498],[91.00269,23.93128],[91.00011,23.92193],[90.99848,23.92208],[90.99213,23.92579],[90.9874,23.93272],[90.98689,23.94004],[90.99109,23.94341],[90.99268,23.94418],[90.99673,23.94281],[91.00531,23.94361],[91.00977,23.94549],[91.01041,23.95113],[91.01291,23.95438],[91.00962,23.9612],[91.01217,23.96765],[91.00764,23.96965],[91.00172,23.9697],[90.99994,23.96889],[90.99857,23.96538],[90.9938,23.96214],[90.99101,23.9617],[90.98859,23.96245],[90.98909,23.96615],[90.9863,23.96719],[90.98515,23.96854],[90.98224,23.96987],[90.97411,23.97128],[90.97324,23.97747],[90.97175,23.98157],[90.97185,23.98642],[90.97025,23.98921],[90.968,23.99726],[90.96793,24.0064],[90.96999,24.01138],[90.97226,24.01543],[90.9791,24.02399],[90.9843,24.03448],[90.98896,24.04019],[91.0108,24.05304],[91.0267,24.05934],[91.04449,24.07185],[91.0512,24.0799],[91.06178,24.0799],[91.06705,24.07759],[91.07131,24.08251],[91.07767,24.08261],[91.08078,24.07956],[91.08395,24.07467],[91.08671,24.07431],[91.09316,24.07552],[91.09494,24.07386],[91.0966,24.06907],[91.09512,24.06477],[91.08867,24.06375],[91.08939,24.05733],[91.08737,24.05179],[91.08139,24.04465],[91.08124,24.04367],[91.08313,24.04203],[91.09473,24.04787],[91.10332,24.04873],[91.1097,24.04375],[91.11115,24.04412],[91.11446,24.05237],[91.11765,24.05348],[91.12601,24.05308],[91.13683,24.05107],[91.14043,24.05148],[91.14212,24.05304],[91.14702,24.05268],[91.15298,24.05017],[91.1551,24.05143],[91.1592,24.04994],[91.1601,24.04854],[91.15923,24.03486],[91.16765,24.02183],[91.17436,24.01593],[91.17538,24.01265],[91.17435,24.01016],[91.17497,24.0065],[91.17396,24.00103],[91.17196,23.99612],[91.17358,23.99418],[91.17575,23.99492],[91.1797,23.99956],[91.18249,24.00542],[91.18681,24.00673],[91.18874,24.01136],[91.18938,24.01529],[91.18833,24.01777],[91.18943,24.0202],[91.18966,24.02498],[91.19192,24.0283],[91.19118,24.03055],[91.18653,24.03073],[91.18833,24.03525],[91.19225,24.0392],[91.20085,24.04216],[91.21074,24.04069],[91.2134,24.04118],[91.21375,24.04535],[91.21512,24.04679],[91.22061,24.0491],[91.22443,24.05362],[91.23513,24.06274],[91.23359,24.0669],[91.23792,24.07003],[91.23889,24.07589],[91.24014,24.07757],[91.23922,24.07954],[91.23973,24.08164],[91.24512,24.08263],[91.24901,24.08229],[91.25094,24.07995],[91.25175,24.07473],[91.2543,24.07529],[91.25855,24.07808],[91.2579,24.08101],[91.26463,24.08602],[91.26425,24.08775],[91.26726,24.09235],[91.26984,24.09233],[91.27041,24.09774]]]}},{"type":"Feature","properties":{"name":"Kasba","district_id":"brahmanbaria","pcode":"201263","sql_upazila_id":"brahmanbaria-kasba","sql_name_bn":"কসবা"},"geometry":{"type":"Polygon","coordinates":[[[91.09852,23.86222],[91.10141,23.8658],[91.10936,23.86501],[91.11411,23.8642],[91.11727,23.85925],[91.12679,23.85997],[91.13054,23.86117],[91.13107,23.86585],[91.13775,23.86606],[91.14351,23.86362],[91.14069,23.85303],[91.14048,23.84731],[91.13863,23.84291],[91.13495,23.84226],[91.12934,23.84316],[91.12526,23.83607],[91.12518,23.83379],[91.12239,23.8297],[91.12275,23.82535],[91.12144,23.81676],[91.12189,23.81354],[91.12352,23.81156],[91.12601,23.81268],[91.1295,23.81734],[91.1367,23.81834],[91.14152,23.81603],[91.14558,23.81552],[91.14812,23.81431],[91.15923,23.81418],[91.16286,23.81699],[91.16467,23.82031],[91.16718,23.82024],[91.16774,23.81834],[91.17062,23.81826],[91.17358,23.81841],[91.17593,23.82074],[91.17886,23.82197],[91.18279,23.82118],[91.18311,23.81751],[91.1791,23.81088],[91.18036,23.80223],[91.18501,23.80021],[91.19095,23.80496],[91.19756,23.80563],[91.20679,23.80343],[91.2067,23.79744],[91.20593,23.79517],[91.20317,23.79354],[91.19694,23.79325],[91.19514,23.79193],[91.19232,23.7871],[91.19324,23.78096],[91.19659,23.78008],[91.20802,23.78135],[91.21501,23.78383],[91.21944,23.78805],[91.22118,23.79115],[91.22557,23.79275],[91.22735,23.79514],[91.23206,23.79701],[91.231,23.79173],[91.23399,23.78576],[91.23409,23.76936],[91.23257,23.76369],[91.23035,23.75964],[91.2294,23.75258],[91.22759,23.7496],[91.22681,23.7453],[91.22462,23.7401],[91.22306,23.73973],[91.21996,23.74119],[91.21709,23.74368],[91.2143,23.7501],[91.21091,23.75156],[91.19552,23.75325],[91.18759,23.75113],[91.17236,23.75206],[91.16394,23.74624],[91.16167,23.74266],[91.15818,23.72915],[91.15585,23.72344],[91.15449,23.70983],[91.15668,23.69909],[91.15614,23.69442],[91.15829,23.69122],[91.17664,23.69202],[91.18774,23.69189],[91.19336,23.69081],[91.19724,23.69231],[91.20101,23.69243],[91.20513,23.69008],[91.20676,23.68804],[91.21006,23.68755],[91.20844,23.68268],[91.20793,23.67179],[91.20602,23.66539],[91.20614,23.66023],[91.2099,23.65659],[91.20708,23.65142],[91.20207,23.64819],[91.19889,23.64697],[91.19531,23.64872],[91.19523,23.65528],[91.17616,23.65719],[91.17164,23.66235],[91.1649,23.66534],[91.16128,23.6706],[91.16154,23.67131],[91.15338,23.67296],[91.14178,23.66984],[91.14094,23.66736],[91.14217,23.6631],[91.13952,23.66249],[91.13113,23.66483],[91.13126,23.67031],[91.12807,23.67057],[91.12498,23.67403],[91.12466,23.68277],[91.12055,23.69214],[91.12108,23.69521],[91.11927,23.6972],[91.11708,23.69566],[91.11366,23.69478],[91.10996,23.6949],[91.10993,23.69774],[91.11322,23.70022],[91.11106,23.70845],[91.10432,23.70789],[91.10207,23.70624],[91.0975,23.70825],[91.09878,23.71073],[91.10204,23.71264],[91.09957,23.7159],[91.10004,23.71995],[91.09779,23.72046],[91.09418,23.71942],[91.09268,23.71425],[91.08943,23.7147],[91.08772,23.71405],[91.08479,23.7167],[91.0833,23.7188],[91.08419,23.72106],[91.0869,23.72179],[91.089,23.72761],[91.0887,23.72962],[91.0866,23.73072],[91.08273,23.73133],[91.08015,23.72951],[91.0788,23.72515],[91.07581,23.72197],[91.07433,23.7247],[91.07394,23.72785],[91.07522,23.73564],[91.07389,23.73498],[91.07525,23.73684],[91.0748,23.73982],[91.07126,23.74106],[91.06126,23.7423],[91.05885,23.74339],[91.05727,23.74681],[91.05878,23.74865],[91.06313,23.75099],[91.06351,23.75309],[91.06739,23.75824],[91.06678,23.76037],[91.06503,23.76053],[91.06039,23.75729],[91.05869,23.75711],[91.05865,23.76134],[91.06062,23.76385],[91.05923,23.7672],[91.05684,23.76898],[91.05547,23.76382],[91.05349,23.76125],[91.05031,23.76367],[91.04678,23.76502],[91.04382,23.76476],[91.0426,23.76594],[91.04272,23.76769],[91.04363,23.76854],[91.05045,23.7695],[91.05038,23.77292],[91.04966,23.77757],[91.04629,23.78006],[91.04187,23.77578],[91.04003,23.7768],[91.03851,23.78381],[91.04044,23.78695],[91.03841,23.79427],[91.04144,23.79264],[91.0437,23.79247],[91.04432,23.79399],[91.04412,23.80091],[91.04619,23.80268],[91.04938,23.80237],[91.05066,23.80118],[91.05309,23.80061],[91.05799,23.80065],[91.0598,23.80203],[91.06056,23.80384],[91.07013,23.80827],[91.07668,23.8126],[91.08119,23.81219],[91.08237,23.8133],[91.0818,23.81526],[91.08388,23.81698],[91.08795,23.82406],[91.08861,23.82673],[91.08085,23.82768],[91.07708,23.82939],[91.07238,23.8298],[91.07001,23.83243],[91.0685,23.83745],[91.06651,23.83995],[91.0664,23.84212],[91.06815,23.84391],[91.07531,23.8436],[91.07755,23.84485],[91.08149,23.84423],[91.08438,23.8497],[91.08815,23.84965],[91.09021,23.84742],[91.09196,23.84726],[91.09416,23.85269],[91.09414,23.85566],[91.0954,23.85751],[91.09852,23.86222]]]}},{"type":"Feature","properties":{"name":"Nabinagar","district_id":"brahmanbaria","pcode":"201285","sql_upazila_id":"brahmanbaria-nabinagar","sql_name_bn":"নবীনগর"},"geometry":{"type":"Polygon","coordinates":[[[91.09852,23.86222],[91.09414,23.85566],[91.09416,23.85269],[91.09196,23.84726],[91.09021,23.84742],[91.08815,23.84965],[91.08438,23.8497],[91.08149,23.84423],[91.07755,23.84485],[91.07531,23.8436],[91.06815,23.84391],[91.0664,23.84212],[91.06651,23.83995],[91.0685,23.83745],[91.07001,23.83243],[91.07238,23.8298],[91.07708,23.82939],[91.08085,23.82768],[91.08861,23.82673],[91.08795,23.82406],[91.08388,23.81698],[91.0818,23.81526],[91.08237,23.8133],[91.08119,23.81219],[91.07668,23.8126],[91.07013,23.80827],[91.06056,23.80384],[91.0598,23.80203],[91.05799,23.80065],[91.05309,23.80061],[91.05066,23.80118],[91.04938,23.80237],[91.04619,23.80268],[91.04412,23.80091],[91.04432,23.79399],[91.0437,23.79247],[91.04144,23.79264],[91.03486,23.79659],[91.01133,23.79036],[91.00589,23.79079],[91.0005,23.79492],[90.99748,23.79473],[90.99631,23.79333],[90.99799,23.79123],[91.0007,23.78996],[91.00256,23.78728],[90.9791,23.78424],[90.96324,23.77958],[90.96107,23.77849],[90.96196,23.7751],[90.96053,23.77376],[90.95769,23.77332],[90.94859,23.77539],[90.94478,23.77406],[90.93512,23.77254],[90.92086,23.76691],[90.91707,23.76621],[90.91367,23.76779],[90.91086,23.7666],[90.90768,23.76714],[90.90478,23.76665],[90.90303,23.76526],[90.90083,23.76092],[90.89781,23.75928],[90.8925,23.75822],[90.88892,23.75254],[90.8824,23.7566],[90.88193,23.75924],[90.88288,23.76938],[90.88557,23.77097],[90.88207,23.77894],[90.87835,23.78429],[90.88781,23.78913],[90.89108,23.78933],[90.89043,23.8002],[90.88594,23.80106],[90.88228,23.81006],[90.87953,23.81048],[90.87896,23.81232],[90.87448,23.81169],[90.87041,23.81414],[90.86955,23.81661],[90.86543,23.81958],[90.87009,23.8294],[90.87308,23.832],[90.87303,23.83435],[90.87096,23.83646],[90.86235,23.83651],[90.86105,23.83334],[90.85558,23.83097],[90.85068,23.82732],[90.84723,23.82787],[90.84617,23.82578],[90.84177,23.82395],[90.84144,23.82527],[90.84251,23.8273],[90.84628,23.83109],[90.84711,23.83329],[90.8473,23.84688],[90.84433,23.84827],[90.84056,23.8562],[90.83791,23.85775],[90.83502,23.8617],[90.8404,23.86637],[90.84397,23.86805],[90.84774,23.86618],[90.86044,23.87374],[90.86654,23.87216],[90.87477,23.86424],[90.88237,23.85467],[90.88938,23.85386],[90.89879,23.85494],[90.90755,23.85968],[90.91104,23.86639],[90.9152,23.87056],[90.9174,23.87433],[90.92125,23.89543],[90.92282,23.89916],[90.92325,23.90263],[90.93224,23.90994],[90.93646,23.91234],[90.9425,23.91417],[90.94768,23.91856],[90.94978,23.92485],[90.94582,23.94203],[90.94681,23.94708],[90.95661,23.95603],[90.9645,23.95874],[90.97218,23.96619],[90.97411,23.97128],[90.98224,23.96987],[90.98515,23.96854],[90.9863,23.96719],[90.98909,23.96615],[90.98859,23.96245],[90.99101,23.9617],[90.9938,23.96214],[90.99857,23.96538],[90.99994,23.96889],[91.00172,23.9697],[91.00764,23.96965],[91.01217,23.96765],[91.00962,23.9612],[91.01291,23.95438],[91.01041,23.95113],[91.00977,23.94549],[91.00531,23.94361],[90.99673,23.94281],[90.99268,23.94418],[90.98689,23.94004],[90.9874,23.93272],[90.99213,23.92579],[90.99848,23.92208],[91.00011,23.92193],[91.00269,23.93128],[91.00565,23.93498],[91.00896,23.93615],[91.01154,23.93448],[91.01535,23.93368],[91.01567,23.9322],[91.0182,23.9307],[91.02274,23.92921],[91.02822,23.93146],[91.033,23.93853],[91.03783,23.944],[91.04367,23.94693],[91.06171,23.94879],[91.07223,23.95445],[91.07507,23.95483],[91.07809,23.95498],[91.08495,23.95142],[91.08428,23.93219],[91.08481,23.92553],[91.08358,23.91535],[91.08247,23.9123],[91.08548,23.89594],[91.08073,23.8947],[91.08334,23.8833],[91.08814,23.88198],[91.08979,23.87514],[91.09164,23.87252],[91.08956,23.86685],[91.0932,23.86294],[91.09852,23.86222]]]}},{"type":"Feature","properties":{"name":"Nasirnagar","district_id":"brahmanbaria","pcode":"201290","sql_upazila_id":"brahmanbaria-nasirnagar","sql_name_bn":"নাসিরনগর"},"geometry":{"type":"Polygon","coordinates":[[[91.17745,24.26342],[91.1937,24.24158],[91.19862,24.23826],[91.20429,24.23623],[91.21119,24.23502],[91.24039,24.23235],[91.2572,24.22621],[91.26918,24.2251],[91.27336,24.22605],[91.27705,24.2246],[91.2827,24.22624],[91.28718,24.22551],[91.28873,24.22661],[91.28958,24.22876],[91.28442,24.23095],[91.28378,24.23206],[91.28458,24.23846],[91.28746,24.248],[91.29144,24.25423],[91.29533,24.25834],[91.29619,24.26061],[91.30076,24.26458],[91.30784,24.26864],[91.31175,24.26925],[91.32254,24.26543],[91.32548,24.26284],[91.32535,24.2593],[91.32886,24.25354],[91.32963,24.24706],[91.32887,24.24377],[91.32499,24.2392],[91.32571,24.23312],[91.32317,24.23103],[91.32034,24.23299],[91.31733,24.23336],[91.3153,24.2313],[91.31203,24.22991],[91.30805,24.22614],[91.30737,24.22307],[91.30283,24.22652],[91.2986,24.2263],[91.2989,24.21743],[91.29653,24.21453],[91.2934,24.2149],[91.2914,24.21913],[91.28767,24.22032],[91.28457,24.22018],[91.28412,24.21312],[91.282,24.21014],[91.27822,24.20693],[91.2765,24.20298],[91.27787,24.199],[91.28359,24.1969],[91.28796,24.1974],[91.30093,24.20372],[91.30487,24.20303],[91.30756,24.20393],[91.30952,24.20587],[91.31405,24.20568],[91.31476,24.20447],[91.31581,24.19009],[91.31356,24.18907],[91.31066,24.19241],[91.30484,24.19349],[91.30193,24.19146],[91.29361,24.18804],[91.28748,24.18764],[91.28484,24.18275],[91.2803,24.18265],[91.27731,24.18011],[91.27691,24.176],[91.27801,24.16974],[91.27676,24.16491],[91.27415,24.16111],[91.27153,24.15998],[91.26959,24.15667],[91.26963,24.15267],[91.26649,24.14922],[91.26279,24.14812],[91.26244,24.14556],[91.26408,24.14397],[91.27156,24.14336],[91.27226,24.13825],[91.27153,24.13559],[91.27136,24.12742],[91.2745,24.12534],[91.2803,24.12557],[91.28324,24.12492],[91.28345,24.122],[91.28495,24.12001],[91.28994,24.12204],[91.29185,24.12096],[91.29094,24.11836],[91.28793,24.11547],[91.28271,24.11402],[91.27542,24.11611],[91.27209,24.11438],[91.27137,24.11028],[91.26933,24.106],[91.26916,24.10138],[91.27041,24.09774],[91.26984,24.09233],[91.26726,24.09235],[91.26425,24.08775],[91.26463,24.08602],[91.2579,24.08101],[91.25855,24.07808],[91.2543,24.07529],[91.25175,24.07473],[91.25094,24.07995],[91.24901,24.08229],[91.24763,24.08776],[91.24599,24.08946],[91.24395,24.09752],[91.23801,24.10231],[91.23437,24.10419],[91.22472,24.10566],[91.21445,24.1092],[91.20858,24.10868],[91.20272,24.10524],[91.19922,24.10414],[91.19653,24.10461],[91.1947,24.10288],[91.19501,24.09923],[91.19703,24.09734],[91.20199,24.09691],[91.20422,24.09252],[91.2011,24.09129],[91.19669,24.09324],[91.19361,24.09172],[91.19234,24.0897],[91.19167,24.08492],[91.18771,24.08143],[91.18153,24.08286],[91.17867,24.08602],[91.17885,24.09088],[91.1694,24.09262],[91.16362,24.09827],[91.16116,24.11067],[91.15907,24.11559],[91.14568,24.1255],[91.14262,24.13169],[91.14316,24.13431],[91.14146,24.13635],[91.12944,24.1364],[91.12334,24.14228],[91.11774,24.14226],[91.11612,24.13916],[91.11333,24.13878],[91.11082,24.14644],[91.11113,24.15151],[91.11505,24.15901],[91.12038,24.16195],[91.11759,24.16329],[91.11903,24.16668],[91.12122,24.16781],[91.12045,24.16909],[91.11367,24.16831],[91.11001,24.16635],[91.10736,24.16619],[91.10036,24.1697],[91.09748,24.16846],[91.09415,24.16866],[91.09112,24.17223],[91.08756,24.17324],[91.08324,24.17741],[91.07946,24.17769],[91.07784,24.17625],[91.07646,24.17657],[91.07629,24.17892],[91.07079,24.18009],[91.06873,24.17518],[91.06945,24.16887],[91.07294,24.16598],[91.07245,24.16062],[91.06964,24.15978],[91.06599,24.16],[91.05969,24.16537],[91.05667,24.17093],[91.05484,24.17269],[91.05072,24.17389],[91.04092,24.17272],[91.03976,24.17573],[91.04167,24.1783],[91.04059,24.17965],[91.03251,24.17923],[91.03186,24.1809],[91.02876,24.1803],[91.02322,24.18482],[91.03017,24.19366],[91.03825,24.2072],[91.04797,24.20932],[91.06171,24.20964],[91.08076,24.20741],[91.08489,24.20341],[91.08817,24.20324],[91.09222,24.20418],[91.09456,24.20715],[91.09411,24.20859],[91.09218,24.21004],[91.08808,24.21116],[91.07897,24.21814],[91.07903,24.21963],[91.08306,24.22184],[91.0827,24.22541],[91.08363,24.23106],[91.08503,24.2321],[91.08136,24.23693],[91.08321,24.23836],[91.09469,24.23933],[91.09879,24.23614],[91.10838,24.23579],[91.12368,24.23638],[91.13568,24.23819],[91.14456,24.24056],[91.16058,24.25249],[91.17197,24.25758],[91.17745,24.26342]]]}},{"type":"Feature","properties":{"name":"Sarail","district_id":"brahmanbaria","pcode":"201294","sql_upazila_id":"brahmanbaria-sarail","sql_name_bn":"সরাইল"},"geometry":{"type":"Polygon","coordinates":[[[91.02322,24.18482],[91.02876,24.1803],[91.03186,24.1809],[91.03251,24.17923],[91.04059,24.17965],[91.04167,24.1783],[91.03976,24.17573],[91.04092,24.17272],[91.05072,24.17389],[91.05484,24.17269],[91.05667,24.17093],[91.05969,24.16537],[91.06599,24.16],[91.06964,24.15978],[91.07245,24.16062],[91.07294,24.16598],[91.06945,24.16887],[91.06873,24.17518],[91.07079,24.18009],[91.07629,24.17892],[91.07646,24.17657],[91.07784,24.17625],[91.07946,24.17769],[91.08324,24.17741],[91.08756,24.17324],[91.09112,24.17223],[91.09415,24.16866],[91.09748,24.16846],[91.10036,24.1697],[91.10736,24.16619],[91.11001,24.16635],[91.11367,24.16831],[91.12045,24.16909],[91.12122,24.16781],[91.11903,24.16668],[91.11759,24.16329],[91.12038,24.16195],[91.11505,24.15901],[91.11113,24.15151],[91.11082,24.14644],[91.11333,24.13878],[91.11612,24.13916],[91.11774,24.14226],[91.12334,24.14228],[91.12944,24.1364],[91.14146,24.13635],[91.14316,24.13431],[91.14262,24.13169],[91.14568,24.1255],[91.15907,24.11559],[91.16116,24.11067],[91.16362,24.09827],[91.1694,24.09262],[91.17885,24.09088],[91.17867,24.08602],[91.18153,24.08286],[91.18771,24.08143],[91.19167,24.08492],[91.19234,24.0897],[91.19361,24.09172],[91.19669,24.09324],[91.2011,24.09129],[91.20422,24.09252],[91.20199,24.09691],[91.19703,24.09734],[91.19501,24.09923],[91.1947,24.10288],[91.19653,24.10461],[91.19922,24.10414],[91.20272,24.10524],[91.20858,24.10868],[91.21445,24.1092],[91.22472,24.10566],[91.23437,24.10419],[91.24108,24.09994],[91.24395,24.09752],[91.24483,24.09566],[91.24599,24.08946],[91.24763,24.08776],[91.24901,24.08229],[91.24512,24.08263],[91.23973,24.08164],[91.23922,24.07954],[91.24014,24.07757],[91.23889,24.07589],[91.23792,24.07003],[91.23359,24.0669],[91.23513,24.06274],[91.22443,24.05362],[91.22061,24.0491],[91.21512,24.04679],[91.21375,24.04535],[91.2134,24.04118],[91.21074,24.04069],[91.20085,24.04216],[91.19225,24.0392],[91.18833,24.03525],[91.18653,24.03073],[91.19118,24.03055],[91.19192,24.0283],[91.18966,24.02498],[91.18943,24.0202],[91.18833,24.01777],[91.18938,24.01529],[91.18874,24.01136],[91.18681,24.00673],[91.18249,24.00542],[91.1797,23.99956],[91.17575,23.99492],[91.17358,23.99418],[91.17196,23.99612],[91.17396,24.00103],[91.17497,24.0065],[91.17435,24.01016],[91.17538,24.01265],[91.17436,24.01593],[91.16765,24.02183],[91.15923,24.03486],[91.1601,24.04854],[91.1592,24.04994],[91.1551,24.05143],[91.15298,24.05017],[91.14702,24.05268],[91.14212,24.05304],[91.14043,24.05148],[91.13683,24.05107],[91.12601,24.05308],[91.11765,24.05348],[91.11446,24.05237],[91.11115,24.04412],[91.1097,24.04375],[91.10332,24.04873],[91.09473,24.04787],[91.08313,24.04203],[91.08124,24.04367],[91.08139,24.04465],[91.08737,24.05179],[91.08939,24.05733],[91.08867,24.06375],[91.09512,24.06477],[91.0966,24.06907],[91.09494,24.07386],[91.09316,24.07552],[91.08671,24.07431],[91.08395,24.07467],[91.08078,24.07956],[91.07767,24.08261],[91.07131,24.08251],[91.06705,24.07759],[91.06178,24.0799],[91.0512,24.0799],[91.05339,24.08332],[91.05541,24.09081],[91.05379,24.10016],[91.04591,24.11106],[91.03838,24.11737],[91.03059,24.12147],[91.02601,24.12376],[91.01404,24.12762],[91.00029,24.13444],[90.99534,24.14062],[90.98907,24.14565],[90.98557,24.14962],[90.98341,24.15294],[90.98299,24.15569],[90.98402,24.15989],[90.98922,24.1631],[90.99121,24.16538],[91.01007,24.17412],[91.021,24.18228],[91.02322,24.18482]]]}}]}