{"type":"FeatureCollection","features":[{"type":"Feature","properties":{"name":"Chandpur Sadar","district_id":"chandpur","pcode":"201322","sql_upazila_id":"chandpur-chandpur-sadar","sql_name_bn":"চাঁদপুর সদর"},"geometry":{"type":"MultiPolygon","coordinates":[[[[90.63472,23.15222],[90.64167,23.14611],[90.645,23.14139],[90.64361,23.13694],[90.64389,23.13389],[90.645,23.13167],[90.64472,23.12834],[90.64361,23.12722],[90.64333,23.12306],[90.64333,23.11944],[90.64445,23.11806],[90.64278,23.11833],[90.64194,23.11944],[90.63695,23.13139],[90.63695,23.1375],[90.63333,23.14694],[90.63361,23.15195],[90.63445,23.15195],[90.63472,23.15222]]],[[[90.63556,23.16778],[90.6375,23.16722],[90.63944,23.16444],[90.64027,23.15334],[90.64194,23.14972],[90.64139,23.14833],[90.63611,23.15334],[90.63528,23.15583],[90.63583,23.15806],[90.63445,23.16111],[90.63472,23.16444],[90.63389,23.16722],[90.63445,23.16778],[90.63556,23.16778]]],[[[90.63722,23.18722],[90.64027,23.18528],[90.64111,23.18167],[90.63722,23.17389],[90.6375,23.16889],[90.63611,23.16861],[90.63445,23.17083],[90.63416,23.17917],[90.63528,23.18611],[90.63667,23.18722],[90.63722,23.18722]]],[[[90.60667,23.20695],[90.60514,23.20542],[90.60667,23.20711],[90.60667,23.20695]]],[[[90.59809,23.33072],[90.60574,23.32928],[90.61658,23.32566],[90.62268,23.32049],[90.62596,23.31321],[90.63054,23.30956],[90.63396,23.3088],[90.63757,23.30997],[90.64119,23.31405],[90.6471,23.32316],[90.65175,23.3279],[90.6543,23.32932],[90.65889,23.33018],[90.66375,23.32943],[90.66521,23.32792],[90.66677,23.32382],[90.67347,23.32001],[90.67854,23.31429],[90.68188,23.31272],[90.68324,23.31451],[90.68608,23.31519],[90.68777,23.31315],[90.68871,23.30125],[90.69138,23.29256],[90.69308,23.29092],[90.69614,23.29069],[90.69904,23.28922],[90.7028,23.28977],[90.70419,23.28802],[90.704,23.28426],[90.70885,23.28351],[90.71107,23.28243],[90.71458,23.27892],[90.72343,23.27533],[90.72505,23.27535],[90.7278,23.27118],[90.73491,23.27054],[90.73792,23.26881],[90.74086,23.26702],[90.74827,23.2581],[90.7525,23.25554],[90.76714,23.25169],[90.77393,23.25084],[90.77964,23.24767],[90.77719,23.24139],[90.77869,23.23941],[90.78255,23.23703],[90.78778,23.23633],[90.7916,23.23469],[90.79652,23.22995],[90.79612,23.22767],[90.79214,23.22218],[90.79124,23.21929],[90.79177,23.21271],[90.78218,23.21557],[90.78059,23.21476],[90.77776,23.21797],[90.77406,23.21789],[90.77018,23.21576],[90.76842,23.21735],[90.76598,23.21581],[90.76091,23.21513],[90.75806,23.21772],[90.75857,23.22005],[90.762,23.22002],[90.76408,23.22448],[90.7612,23.23003],[90.75675,23.22392],[90.75569,23.22023],[90.75164,23.21839],[90.75007,23.2162],[90.74825,23.21625],[90.74274,23.21975],[90.73933,23.21858],[90.73863,23.22231],[90.73705,23.22543],[90.73789,23.22798],[90.73263,23.22823],[90.72898,23.22552],[90.725,23.22008],[90.72575,23.21623],[90.7243,23.21382],[90.72852,23.21302],[90.72697,23.20941],[90.7289,23.20708],[90.72712,23.20421],[90.72704,23.20147],[90.72823,23.1979],[90.72771,23.197],[90.7251,23.19552],[90.72204,23.19577],[90.72021,23.20135],[90.7161,23.19974],[90.71353,23.19734],[90.7114,23.19295],[90.70953,23.19124],[90.70622,23.19176],[90.70335,23.18789],[90.70286,23.18591],[90.70564,23.18081],[90.69961,23.17599],[90.69918,23.17224],[90.69695,23.16898],[90.69975,23.16857],[90.70165,23.16949],[90.7046,23.16776],[90.70387,23.16429],[90.70468,23.16251],[90.70457,23.15863],[90.70296,23.1553],[90.70457,23.15286],[90.70451,23.1491],[90.701,23.14673],[90.69547,23.13973],[90.68873,23.12773],[90.68514,23.12896],[90.68071,23.12901],[90.67111,23.12165],[90.66673,23.11936],[90.6618,23.11759],[90.6505,23.11716],[90.65278,23.12083],[90.65305,23.125],[90.6525,23.12639],[90.65056,23.12667],[90.64833,23.13333],[90.64667,23.13917],[90.64639,23.14556],[90.64222,23.155],[90.64139,23.16417],[90.63889,23.16917],[90.63944,23.17056],[90.63861,23.17194],[90.63944,23.17556],[90.64278,23.1825],[90.64132,23.19486],[90.64,23.19361],[90.63972,23.1875],[90.63667,23.18861],[90.63528,23.19167],[90.63528,23.205],[90.63639,23.20889],[90.63773,23.22084],[90.62522,23.22148],[90.61441,23.22103],[90.61366,23.21855],[90.6137,23.22346],[90.61177,23.22996],[90.59806,23.25992],[90.58971,23.27314],[90.58064,23.29162],[90.57436,23.30165],[90.57263,23.30814],[90.57391,23.31331],[90.57642,23.31759],[90.5786,23.32336],[90.57887,23.32622],[90.58079,23.32953],[90.5862,23.33078],[90.59322,23.33078],[90.59809,23.33072]]]]}},{"type":"Feature","properties":{"name":"Faridganj","district_id":"chandpur","pcode":"201345","sql_upazila_id":null,"sql_name_bn":null},"geometry":{"type":"Polygon","coordinates":[[[90.84807,23.19067],[90.85573,23.18608],[90.86037,23.18476],[90.86461,23.18054],[90.87083,23.18141],[90.87162,23.17511],[90.87357,23.17363],[90.87444,23.17132],[90.87839,23.16602],[90.86813,23.16529],[90.86373,23.16327],[90.85952,23.15969],[90.8564,23.159],[90.8554,23.15988],[90.85215,23.15886],[90.85074,23.15749],[90.85074,23.15568],[90.85412,23.1468],[90.85023,23.14348],[90.84445,23.14068],[90.83922,23.13096],[90.82828,23.12707],[90.82407,23.12693],[90.82201,23.12451],[90.82182,23.12271],[90.81709,23.12167],[90.81448,23.11921],[90.81097,23.11786],[90.80626,23.11717],[90.80538,23.1185],[90.80286,23.11699],[90.80148,23.11489],[90.80107,23.11055],[90.79849,23.10538],[90.79661,23.09757],[90.79541,23.08489],[90.79605,23.07865],[90.79554,23.07674],[90.7916,23.07512],[90.77769,23.07405],[90.77333,23.07299],[90.75819,23.06552],[90.75692,23.06427],[90.75925,23.06045],[90.75879,23.05962],[90.75318,23.05601],[90.7476,23.05399],[90.73943,23.04764],[90.73746,23.04436],[90.73539,23.04341],[90.72839,23.04262],[90.72595,23.04327],[90.72442,23.04529],[90.71976,23.04805],[90.71664,23.05239],[90.71383,23.05299],[90.71123,23.05652],[90.7088,23.05728],[90.70692,23.05654],[90.70368,23.06084],[90.70094,23.06018],[90.69636,23.06141],[90.69592,23.06284],[90.69343,23.06278],[90.69277,23.06911],[90.68951,23.07501],[90.68784,23.0754],[90.6871,23.07759],[90.68939,23.08329],[90.68687,23.08644],[90.68672,23.08936],[90.68522,23.09139],[90.68205,23.09187],[90.68026,23.09459],[90.6804,23.0991],[90.68138,23.10062],[90.6835,23.10057],[90.6861,23.10176],[90.68697,23.10362],[90.68621,23.10513],[90.6866,23.10957],[90.68431,23.11232],[90.68578,23.11724],[90.69044,23.12238],[90.68873,23.12773],[90.69547,23.13973],[90.701,23.14673],[90.70451,23.1491],[90.70457,23.15286],[90.70296,23.1553],[90.70457,23.15863],[90.70468,23.16251],[90.70387,23.16429],[90.7046,23.16776],[90.70165,23.16949],[90.69975,23.16857],[90.69695,23.16898],[90.69918,23.17224],[90.69961,23.17599],[90.70564,23.18081],[90.70286,23.18591],[90.70335,23.18789],[90.70622,23.19176],[90.70953,23.19124],[90.7114,23.19295],[90.71353,23.19734],[90.7161,23.19974],[90.72021,23.20135],[90.72204,23.19577],[90.7251,23.19552],[90.72771,23.197],[90.72823,23.1979],[90.72704,23.20147],[90.72712,23.20421],[90.7289,23.20708],[90.72697,23.20941],[90.72852,23.21302],[90.7243,23.21382],[90.72575,23.21623],[90.725,23.22008],[90.72898,23.22552],[90.73263,23.22823],[90.73789,23.22798],[90.73705,23.22543],[90.73863,23.22231],[90.73933,23.21858],[90.74274,23.21975],[90.74825,23.21625],[90.75007,23.2162],[90.75164,23.21839],[90.75569,23.22023],[90.75675,23.22392],[90.7612,23.23003],[90.76408,23.22448],[90.762,23.22002],[90.75857,23.22005],[90.75806,23.21772],[90.75912,23.21615],[90.76091,23.21513],[90.76367,23.21541],[90.76598,23.21581],[90.76842,23.21735],[90.77018,23.21576],[90.77406,23.21789],[90.77776,23.21797],[90.78059,23.21476],[90.78218,23.21557],[90.79177,23.21271],[90.7943,23.20972],[90.79641,23.20945],[90.79961,23.20965],[90.80367,23.21525],[90.80674,23.21729],[90.8101,23.21533],[90.81434,23.21636],[90.81476,23.21784],[90.81969,23.21754],[90.82253,23.21633],[90.8267,23.21211],[90.82728,23.20724],[90.83051,23.20642],[90.8335,23.20777],[90.83494,23.20979],[90.83696,23.21042],[90.83809,23.20862],[90.83919,23.20209],[90.84222,23.19933],[90.84445,23.19282],[90.84807,23.19067]]]}},{"type":"Feature","properties":{"name":"Haimchar","district_id":"chandpur","pcode":"201347","sql_upazila_id":"chandpur-haimchar","sql_name_bn":"হাইমচর"},"geometry":{"type":"MultiPolygon","coordinates":[[[[90.64417,23.1181],[90.64333,23.11722],[90.64296,23.1183],[90.64417,23.1181]]],[[[90.68578,23.11724],[90.68431,23.11232],[90.6866,23.10957],[90.68621,23.10513],[90.68697,23.10362],[90.6861,23.10176],[90.6835,23.10057],[90.68138,23.10062],[90.6804,23.0991],[90.68026,23.09459],[90.68205,23.09187],[90.68522,23.09139],[90.68672,23.08936],[90.68687,23.08644],[90.68939,23.08329],[90.6871,23.07759],[90.68784,23.0754],[90.68951,23.07501],[90.69277,23.06911],[90.69343,23.06278],[90.68715,23.06092],[90.67852,23.05408],[90.67601,23.05279],[90.6741,23.05325],[90.6699,23.05095],[90.66734,23.04849],[90.66834,23.04325],[90.67116,23.03909],[90.67244,23.03351],[90.66776,23.02851],[90.66611,23.0254],[90.66693,23.02401],[90.66886,23.02304],[90.67464,23.02235],[90.67609,23.01954],[90.67531,23.0168],[90.66902,23.01648],[90.66791,23.01143],[90.66856,23.00903],[90.66817,23.0065],[90.66602,23.00317],[90.66223,23.00058],[90.66054,22.99786],[90.65718,22.99537],[90.65425,22.99439],[90.64615,22.98819],[90.64278,22.99417],[90.63944,23.00306],[90.6375,23.01028],[90.63583,23.02222],[90.63667,23.02972],[90.63667,23.04333],[90.63805,23.05556],[90.6375,23.05944],[90.63861,23.0625],[90.63805,23.07111],[90.63889,23.07472],[90.63889,23.08667],[90.63972,23.08694],[90.63917,23.08722],[90.63917,23.09139],[90.64056,23.10139],[90.64222,23.10722],[90.64417,23.11167],[90.65,23.11695],[90.6618,23.11759],[90.66673,23.11936],[90.67111,23.12165],[90.68071,23.12901],[90.68514,23.12896],[90.68873,23.12773],[90.69044,23.12238],[90.68764,23.11931],[90.68578,23.11724]]]]}},{"type":"Feature","properties":{"name":"Hajiganj","district_id":"chandpur","pcode":"201349","sql_upazila_id":"chandpur-hajiganj","sql_name_bn":"হাজীগঞ্জ"},"geometry":{"type":"Polygon","coordinates":[[[90.91496,23.28539],[90.91434,23.28004],[90.91002,23.27597],[90.91269,23.27369],[90.91338,23.27173],[90.91063,23.26814],[90.90939,23.26446],[90.91012,23.26193],[90.91133,23.26093],[90.91036,23.25627],[90.91167,23.25407],[90.901,23.25292],[90.89926,23.25136],[90.90013,23.24929],[90.89336,23.24135],[90.88804,23.24104],[90.8821,23.23753],[90.87782,23.23616],[90.87698,23.23355],[90.87889,23.23276],[90.88345,23.2327],[90.88937,23.23009],[90.88905,23.22411],[90.885,23.22284],[90.88026,23.22302],[90.8772,23.21774],[90.87672,23.2125],[90.87782,23.21155],[90.87664,23.20637],[90.87717,23.20318],[90.87504,23.20111],[90.866,23.20027],[90.86264,23.19875],[90.8627,23.19481],[90.85741,23.19517],[90.84807,23.19067],[90.84445,23.19282],[90.84222,23.19933],[90.83919,23.20209],[90.83809,23.20862],[90.83696,23.21042],[90.83494,23.20979],[90.8335,23.20777],[90.83051,23.20642],[90.82728,23.20724],[90.8267,23.21211],[90.82253,23.21633],[90.81969,23.21754],[90.81476,23.21784],[90.81434,23.21636],[90.8101,23.21533],[90.80674,23.21729],[90.80367,23.21525],[90.79961,23.20965],[90.7943,23.20972],[90.79177,23.21271],[90.79124,23.21929],[90.79214,23.22218],[90.79612,23.22767],[90.79652,23.22995],[90.7916,23.23469],[90.78778,23.23633],[90.78255,23.23703],[90.77869,23.23941],[90.77719,23.24139],[90.77964,23.24767],[90.77812,23.24902],[90.77393,23.25084],[90.76714,23.25169],[90.76144,23.25349],[90.76364,23.2617],[90.76138,23.26897],[90.76107,23.28114],[90.75199,23.28473],[90.74477,23.284],[90.74277,23.28565],[90.74295,23.28764],[90.74178,23.28995],[90.74024,23.29079],[90.74409,23.29601],[90.74175,23.30314],[90.74325,23.30476],[90.74586,23.30464],[90.74601,23.30121],[90.74854,23.30001],[90.74925,23.30456],[90.755,23.30664],[90.75538,23.30846],[90.75422,23.3115],[90.75072,23.31737],[90.74911,23.32586],[90.75031,23.32634],[90.75628,23.32517],[90.75627,23.32688],[90.75822,23.32906],[90.76466,23.32884],[90.77009,23.32648],[90.77243,23.32734],[90.77592,23.32685],[90.7773,23.32499],[90.79071,23.31991],[90.79465,23.31993],[90.79782,23.32116],[90.80065,23.32103],[90.80417,23.32203],[90.81053,23.32524],[90.8118,23.32766],[90.81773,23.32928],[90.82084,23.3248],[90.82514,23.32618],[90.828,23.32554],[90.82883,23.32238],[90.83154,23.31871],[90.83493,23.31543],[90.84295,23.31008],[90.84911,23.3109],[90.85281,23.30943],[90.86511,23.3086],[90.86792,23.30653],[90.86897,23.30394],[90.87211,23.3026],[90.87212,23.299],[90.87107,23.29771],[90.87608,23.2977],[90.87823,23.30021],[90.88828,23.29973],[90.88947,23.29592],[90.88933,23.29353],[90.89143,23.29074],[90.89667,23.28849],[90.8969,23.28597],[90.90301,23.28736],[90.91009,23.28762],[90.91496,23.28539]]]}},{"type":"Feature","properties":{"name":"Kachua","district_id":"chandpur","pcode":"201358","sql_upazila_id":"chandpur-kachua","sql_name_bn":"কচুয়া"},"geometry":{"type":"Polygon","coordinates":[[[90.79436,23.43169],[90.79733,23.43424],[90.80265,23.44564],[90.80595,23.44687],[90.81189,23.4429],[90.81436,23.44563],[90.81865,23.44661],[90.81947,23.4487],[90.81917,23.45683],[90.81992,23.46057],[90.82249,23.46251],[90.83142,23.46182],[90.83482,23.4663],[90.84293,23.47118],[90.84825,23.47099],[90.85119,23.4688],[90.85361,23.46018],[90.8616,23.45774],[90.86304,23.4537],[90.86525,23.45234],[90.87124,23.45355],[90.8779,23.4523],[90.87925,23.44958],[90.88186,23.447],[90.88532,23.44],[90.88589,23.43067],[90.88906,23.42043],[90.89105,23.41033],[90.89506,23.4048],[90.8963,23.40625],[90.89806,23.40632],[90.89954,23.40405],[90.89941,23.39806],[90.90241,23.39604],[90.9025,23.39313],[90.91025,23.39441],[90.91515,23.38765],[90.923,23.38443],[90.93251,23.37316],[90.93362,23.37063],[90.93388,23.36724],[90.93307,23.35813],[90.93536,23.35321],[90.93443,23.35004],[90.9351,23.34745],[90.93969,23.34459],[90.94917,23.34126],[90.95373,23.34496],[90.95852,23.34592],[90.96326,23.32684],[90.96525,23.3245],[90.97511,23.31831],[90.977,23.31477],[90.97849,23.30914],[90.97823,23.29932],[90.98205,23.29757],[90.98489,23.29286],[90.98521,23.2896],[90.98383,23.28564],[90.98743,23.28456],[90.9926,23.28786],[90.99537,23.28831],[90.99751,23.28688],[91.00159,23.28003],[91.00598,23.26912],[91.01123,23.26727],[91.01365,23.2648],[91.01497,23.26151],[91.01466,23.25598],[91.01881,23.24918],[91.0146,23.24828],[91.01133,23.24619],[91.00361,23.24566],[90.99704,23.25267],[90.99462,23.25327],[90.99123,23.25272],[90.98865,23.25393],[90.97641,23.26385],[90.97366,23.2641],[90.9707,23.26332],[90.96104,23.2662],[90.94275,23.27895],[90.93964,23.27715],[90.93784,23.27754],[90.92678,23.27606],[90.92401,23.28116],[90.9184,23.28547],[90.91496,23.28539],[90.90811,23.28797],[90.8969,23.28597],[90.89667,23.28849],[90.89143,23.29074],[90.88933,23.29353],[90.88947,23.29592],[90.88828,23.29973],[90.87823,23.30021],[90.87608,23.2977],[90.87107,23.29771],[90.87212,23.299],[90.87211,23.3026],[90.86897,23.30394],[90.86792,23.30653],[90.86511,23.3086],[90.85281,23.30943],[90.84911,23.3109],[90.84295,23.31008],[90.83493,23.31543],[90.83154,23.31871],[90.82883,23.32238],[90.828,23.32554],[90.82514,23.32618],[90.82084,23.3248],[90.81773,23.32928],[90.8118,23.32766],[90.80936,23.33161],[90.80859,23.33882],[90.8108,23.34133],[90.81394,23.33983],[90.81683,23.34021],[90.81647,23.34256],[90.81525,23.3471],[90.81006,23.35711],[90.80968,23.36078],[90.80363,23.38086],[90.80138,23.39867],[90.79722,23.40929],[90.7966,23.41341],[90.79272,23.42522],[90.79436,23.43169]]]}},{"type":"Feature","properties":{"name":"Matlab","district_id":"chandpur","pcode":"201379","sql_upazila_id":null,"sql_name_bn":null},"geometry":{"type":"Polygon","coordinates":[[[90.69154,23.4898],[90.69658,23.47859],[90.69351,23.47655],[90.69382,23.47049],[90.69646,23.46689],[90.70142,23.46722],[90.70844,23.45923],[90.70533,23.45599],[90.7065,23.44534],[90.71172,23.44196],[90.71158,23.43745],[90.71442,23.43264],[90.71531,23.42891],[90.72489,23.42289],[90.72939,23.42451],[90.735,23.41403],[90.73396,23.4108],[90.73706,23.40976],[90.74122,23.41251],[90.74181,23.41564],[90.74047,23.41864],[90.73799,23.41933],[90.7364,23.41834],[90.73409,23.42062],[90.73335,23.42293],[90.73605,23.42714],[90.73946,23.4242],[90.7476,23.42023],[90.74949,23.41859],[90.75345,23.41895],[90.75515,23.41747],[90.75616,23.41397],[90.75975,23.42027],[90.76312,23.41813],[90.76608,23.42046],[90.76617,23.42303],[90.76794,23.42578],[90.77083,23.42805],[90.76833,23.43194],[90.76958,23.43585],[90.76949,23.44093],[90.77031,23.44313],[90.77735,23.44336],[90.78017,23.44204],[90.78587,23.43801],[90.78702,23.43496],[90.78957,23.43272],[90.79436,23.43169],[90.79272,23.42522],[90.7966,23.41341],[90.79722,23.40929],[90.80138,23.39867],[90.80363,23.38086],[90.80968,23.36078],[90.81006,23.35711],[90.81525,23.3471],[90.81683,23.34021],[90.81394,23.33983],[90.8108,23.34133],[90.80983,23.34033],[90.80859,23.33882],[90.80936,23.33161],[90.8118,23.32766],[90.81053,23.32524],[90.80065,23.32103],[90.79071,23.31991],[90.7773,23.32499],[90.77592,23.32685],[90.77243,23.32734],[90.77009,23.32648],[90.76466,23.32884],[90.75822,23.32906],[90.75627,23.32688],[90.75628,23.32517],[90.75031,23.32634],[90.74911,23.32586],[90.75072,23.31737],[90.75422,23.3115],[90.75538,23.30846],[90.755,23.30664],[90.74925,23.30456],[90.74854,23.30001],[90.74601,23.30121],[90.74586,23.30464],[90.74325,23.30476],[90.74175,23.30314],[90.74409,23.29601],[90.74024,23.29079],[90.74178,23.28995],[90.74295,23.28764],[90.74277,23.28565],[90.74477,23.284],[90.75199,23.28473],[90.76107,23.28114],[90.76138,23.26897],[90.76364,23.2617],[90.76144,23.25349],[90.7525,23.25554],[90.74827,23.2581],[90.74086,23.26702],[90.73491,23.27054],[90.7278,23.27118],[90.72505,23.27535],[90.72343,23.27533],[90.71458,23.27892],[90.71107,23.28243],[90.70885,23.28351],[90.704,23.28426],[90.70419,23.28802],[90.7028,23.28977],[90.69904,23.28922],[90.69614,23.29069],[90.69308,23.29092],[90.69138,23.29256],[90.68871,23.30125],[90.68777,23.31315],[90.68608,23.31519],[90.68324,23.31451],[90.68188,23.31272],[90.67854,23.31429],[90.67347,23.32001],[90.66677,23.32382],[90.66521,23.32792],[90.66375,23.32943],[90.65889,23.33018],[90.6543,23.32932],[90.65175,23.3279],[90.6471,23.32316],[90.64119,23.31405],[90.63757,23.30997],[90.63396,23.3088],[90.63054,23.30956],[90.62596,23.31321],[90.62268,23.32049],[90.61658,23.32566],[90.60574,23.32928],[90.59809,23.33072],[90.5862,23.33078],[90.58079,23.32953],[90.57989,23.33286],[90.56483,23.33973],[90.55912,23.34352],[90.55624,23.3477],[90.5516,23.35123],[90.54848,23.35582],[90.54349,23.37101],[90.54064,23.37404],[90.5392,23.3843],[90.54459,23.39942],[90.55112,23.41017],[90.56276,23.4268],[90.57642,23.44944],[90.58069,23.46218],[90.58167,23.46753],[90.58727,23.481],[90.59314,23.48685],[90.60592,23.49048],[90.62164,23.49034],[90.62546,23.4923],[90.63173,23.49878],[90.63724,23.50236],[90.64471,23.50303],[90.649,23.5019],[90.66737,23.49198],[90.68079,23.48856],[90.68511,23.48858],[90.69154,23.4898]]]}},{"type":"Feature","properties":{"name":"Shahrasti","district_id":"chandpur","pcode":"201395","sql_upazila_id":"chandpur-shahrasti","sql_name_bn":"শাহরাস্তি"},"geometry":{"type":"Polygon","coordinates":[[[91.01881,23.24918],[91.02838,23.24345],[91.02737,23.23429],[91.03043,23.2269],[91.02985,23.22457],[91.03152,23.22036],[91.02695,23.2146],[91.02368,23.21406],[91.01965,23.21108],[91.01645,23.20729],[91.01405,23.20261],[91.01603,23.19845],[91.01987,23.19412],[91.01887,23.19198],[91.01224,23.1901],[91.01019,23.18838],[91.01104,23.1847],[91.00452,23.17808],[91.00922,23.1727],[91.0094,23.17064],[91.0038,23.16401],[91.0045,23.16078],[91.0151,23.15091],[91.01315,23.14314],[91.01167,23.14015],[91.00891,23.138],[91.0018,23.13819],[90.99238,23.13672],[90.98581,23.13467],[90.98243,23.13189],[90.98089,23.13252],[90.9706,23.12976],[90.96721,23.12982],[90.96381,23.1331],[90.96301,23.13669],[90.96129,23.13839],[90.96097,23.14146],[90.95917,23.14271],[90.94682,23.1412],[90.94487,23.14178],[90.94386,23.14108],[90.93812,23.14121],[90.93592,23.14327],[90.93114,23.14292],[90.92513,23.14567],[90.91925,23.14513],[90.91757,23.14627],[90.91908,23.15068],[90.91843,23.15133],[90.91481,23.15207],[90.9112,23.14965],[90.90749,23.14932],[90.90531,23.15047],[90.9006,23.1586],[90.89465,23.1627],[90.89155,23.16411],[90.88727,23.16385],[90.88258,23.16548],[90.88132,23.16665],[90.87839,23.16602],[90.87444,23.17132],[90.87357,23.17363],[90.87162,23.17511],[90.87083,23.18141],[90.86461,23.18054],[90.86037,23.18476],[90.85573,23.18608],[90.84807,23.19067],[90.85741,23.19517],[90.8627,23.19481],[90.86264,23.19875],[90.866,23.20027],[90.87504,23.20111],[90.87717,23.20318],[90.87664,23.20637],[90.87782,23.21155],[90.87672,23.2125],[90.8772,23.21774],[90.88026,23.22302],[90.885,23.22284],[90.88905,23.22411],[90.88937,23.23009],[90.88345,23.2327],[90.87889,23.23276],[90.87698,23.23355],[90.87782,23.23616],[90.8821,23.23753],[90.88804,23.24104],[90.89336,23.24135],[90.90013,23.24929],[90.89926,23.25136],[90.901,23.25292],[90.91167,23.25407],[90.91036,23.25627],[90.91133,23.26093],[90.91012,23.26193],[90.90939,23.26446],[90.91063,23.26814],[90.91338,23.27173],[90.91269,23.27369],[90.91002,23.27597],[90.91434,23.28004],[90.91496,23.28539],[90.9184,23.28547],[90.9217,23.28322],[90.92401,23.28116],[90.92678,23.27606],[90.93784,23.27754],[90.93964,23.27715],[90.94275,23.27895],[90.96104,23.2662],[90.9707,23.26332],[90.97366,23.2641],[90.97641,23.26385],[90.98865,23.25393],[90.99123,23.25272],[90.99462,23.25327],[90.99704,23.25267],[91.00361,23.24566],[91.01133,23.24619],[91.0146,23.24828],[91.01881,23.24918]]]}}]}