{"type":"FeatureCollection","features":[{"type":"Feature","properties":{"name":"Bholahat","district_id":"chapainawabganj","pcode":"507018","sql_upazila_id":"chapainawabganj-bholahat","sql_name_bn":"ভোলাহাট"},"geometry":{"type":"Polygon","coordinates":[[[88.17561,24.86098],[88.17554,24.86189],[88.17373,24.86287],[88.16736,24.86349],[88.16219,24.8679],[88.16126,24.87551],[88.16277,24.87743],[88.16252,24.87941],[88.15478,24.88419],[88.15497,24.88657],[88.15973,24.89091],[88.16179,24.8893],[88.16616,24.8878],[88.16978,24.88822],[88.17059,24.89021],[88.16754,24.8938],[88.16517,24.89498],[88.16248,24.89781],[88.15713,24.89848],[88.15432,24.90486],[88.1517,24.90834],[88.14576,24.91338],[88.1424,24.91495],[88.14059,24.91734],[88.13893,24.93194],[88.13969,24.93613],[88.14287,24.93707],[88.15155,24.93247],[88.15468,24.93336],[88.15755,24.93474],[88.16056,24.93985],[88.16331,24.9409],[88.16789,24.94723],[88.17101,24.9497],[88.17283,24.94991],[88.1772,24.94738],[88.17933,24.94901],[88.18002,24.95389],[88.18977,24.95302],[88.19328,24.95345],[88.20716,24.95891],[88.22311,24.96043],[88.22797,24.95943],[88.23054,24.95798],[88.23439,24.9495],[88.23844,24.94396],[88.24773,24.93542],[88.25491,24.93037],[88.25945,24.92534],[88.26357,24.91826],[88.26727,24.90205],[88.26687,24.89343],[88.26472,24.88464],[88.26158,24.87814],[88.25506,24.86905],[88.25487,24.86673],[88.25835,24.8629],[88.25948,24.85993],[88.25752,24.85581],[88.25806,24.84632],[88.25674,24.84253],[88.2543,24.83976],[88.25087,24.84064],[88.24072,24.85111],[88.24053,24.85349],[88.2383,24.85687],[88.23531,24.85911],[88.23324,24.85833],[88.23061,24.85528],[88.2316,24.85198],[88.23602,24.84616],[88.23811,24.83319],[88.24265,24.82629],[88.24327,24.82351],[88.23956,24.8128],[88.2323,24.80332],[88.23031,24.80714],[88.22732,24.80949],[88.21516,24.81566],[88.21342,24.81806],[88.21725,24.82711],[88.21656,24.82865],[88.21062,24.8267],[88.20869,24.82809],[88.20664,24.83372],[88.20715,24.83707],[88.20978,24.84114],[88.20985,24.84574],[88.20786,24.84791],[88.20187,24.85079],[88.20094,24.85284],[88.20238,24.85658],[88.19745,24.85991],[88.19646,24.86156],[88.19653,24.86361],[88.19447,24.86533],[88.19078,24.86337],[88.18646,24.85937],[88.18289,24.85872],[88.17561,24.86098]]]}},{"type":"Feature","properties":{"name":"Chapainawabganj Sadar","district_id":"chapainawabganj","pcode":"507066","sql_upazila_id":"chapainawabganj-chapainawabganj-sadar","sql_name_bn":"চাঁপাইনবাবগঞ্জ সদর"},"geometry":{"type":"Polygon","coordinates":[[[88.42387,24.63204],[88.4197,24.63032],[88.41894,24.62778],[88.42308,24.61865],[88.42319,24.61672],[88.42107,24.61521],[88.41601,24.6135],[88.41333,24.61085],[88.39628,24.60147],[88.38967,24.59983],[88.37547,24.60143],[88.36785,24.59866],[88.36406,24.59994],[88.35689,24.5987],[88.34699,24.58669],[88.34282,24.58503],[88.33915,24.58608],[88.33266,24.5863],[88.33048,24.58451],[88.32998,24.5819],[88.33128,24.57968],[88.32977,24.57697],[88.32696,24.57478],[88.32308,24.5697],[88.31554,24.56857],[88.31031,24.56913],[88.30757,24.56841],[88.30513,24.56571],[88.304,24.5626],[88.30386,24.5593],[88.30544,24.5464],[88.31136,24.52586],[88.31133,24.51138],[88.30541,24.49401],[88.30528,24.49094],[88.30609,24.48611],[88.31114,24.47199],[88.32217,24.45627],[88.33644,24.44289],[88.34189,24.43204],[88.34586,24.42826],[88.35472,24.417],[88.36519,24.40715],[88.36848,24.40445],[88.38494,24.39471],[88.4109,24.38477],[88.41798,24.37926],[88.41399,24.3773],[88.39924,24.37454],[88.39187,24.37211],[88.3848,24.37348],[88.36676,24.3729],[88.34818,24.37647],[88.33301,24.38319],[88.32774,24.38675],[88.31187,24.40176],[88.29572,24.41427],[88.28586,24.42418],[88.2801,24.43518],[88.27085,24.44144],[88.26469,24.44496],[88.26009,24.44647],[88.25045,24.44808],[88.23652,24.45182],[88.21673,24.45414],[88.20546,24.45791],[88.19683,24.46281],[88.19373,24.46624],[88.19175,24.47318],[88.19008,24.4762],[88.18025,24.48519],[88.17578,24.49033],[88.16441,24.49825],[88.16005,24.50061],[88.15507,24.50183],[88.14785,24.50563],[88.14369,24.51049],[88.13722,24.51604],[88.12306,24.53171],[88.11048,24.54252],[88.10993,24.55484],[88.11095,24.56941],[88.11139,24.57067],[88.12148,24.57083],[88.12324,24.57723],[88.12268,24.58172],[88.12318,24.58211],[88.13333,24.58079],[88.14312,24.58146],[88.14661,24.58268],[88.14923,24.58471],[88.15202,24.58429],[88.15807,24.58163],[88.16393,24.58556],[88.16985,24.58484],[88.17135,24.58653],[88.17434,24.5865],[88.184,24.58507],[88.18624,24.58585],[88.18954,24.58565],[88.1939,24.58346],[88.1957,24.58101],[88.20908,24.57398],[88.21133,24.57504],[88.21899,24.57481],[88.22124,24.57593],[88.21887,24.57874],[88.21358,24.58064],[88.21321,24.58263],[88.21378,24.58365],[88.21895,24.5827],[88.2243,24.578],[88.22722,24.57662],[88.22772,24.57985],[88.22923,24.58183],[88.23172,24.58305],[88.23241,24.58487],[88.23154,24.58675],[88.22184,24.59375],[88.21586,24.59442],[88.21174,24.59292],[88.2098,24.59021],[88.20675,24.58921],[88.20482,24.59087],[88.20595,24.59546],[88.20428,24.59871],[88.1973,24.60172],[88.19736,24.60359],[88.19893,24.60545],[88.199,24.60687],[88.19744,24.60853],[88.1977,24.61223],[88.19589,24.61319],[88.19141,24.61862],[88.19073,24.62141],[88.19186,24.62276],[88.19647,24.62188],[88.20163,24.61712],[88.20542,24.61216],[88.20866,24.61178],[88.21178,24.61239],[88.21509,24.61446],[88.2174,24.61745],[88.21766,24.61967],[88.21958,24.62028],[88.22426,24.61842],[88.22726,24.62124],[88.22664,24.62323],[88.22421,24.62603],[88.22397,24.6287],[88.22542,24.63062],[88.23121,24.6312],[88.24241,24.62453],[88.24335,24.62594],[88.23895,24.6317],[88.23869,24.63443],[88.24408,24.64285],[88.23999,24.65298],[88.24036,24.65457],[88.24821,24.65292],[88.25603,24.6591],[88.25715,24.66227],[88.26202,24.6611],[88.26651,24.66327],[88.2728,24.66197],[88.27767,24.66273],[88.28142,24.66423],[88.29221,24.66647],[88.2982,24.66988],[88.29973,24.67873],[88.29768,24.68249],[88.29532,24.68433],[88.29308,24.68502],[88.28702,24.68377],[88.28003,24.68116],[88.27166,24.67618],[88.26766,24.67502],[88.26106,24.67614],[88.25682,24.67828],[88.25222,24.68286],[88.25098,24.6852],[88.25243,24.69143],[88.25462,24.69477],[88.25937,24.69893],[88.26274,24.69958],[88.28268,24.71793],[88.28304,24.71117],[88.28429,24.70945],[88.29102,24.70929],[88.29848,24.70042],[88.30408,24.69674],[88.30595,24.69446],[88.30906,24.6925],[88.31323,24.69172],[88.31735,24.69209],[88.32059,24.69115],[88.33117,24.68431],[88.33546,24.67956],[88.34288,24.67847],[88.3438,24.67562],[88.3438,24.67029],[88.34914,24.66609],[88.35112,24.66262],[88.35167,24.65925],[88.35041,24.65712],[88.34398,24.65344],[88.34372,24.64991],[88.34533,24.64751],[88.3604,24.6446],[88.36222,24.64589],[88.36465,24.64569],[88.36626,24.64125],[88.36726,24.64153],[88.36858,24.64384],[88.37025,24.64451],[88.37668,24.64417],[88.38171,24.6389],[88.38358,24.63968],[88.38403,24.64183],[88.38324,24.64905],[88.39246,24.64862],[88.39533,24.64707],[88.39644,24.64331],[88.3981,24.64176],[88.40616,24.64197],[88.41263,24.63993],[88.41393,24.63844],[88.42085,24.63611],[88.42387,24.63204]]]}},{"type":"Feature","properties":{"name":"Gomastapur","district_id":"chapainawabganj","pcode":"507037","sql_upazila_id":null,"sql_name_bn":null},"geometry":{"type":"Polygon","coordinates":[[[88.4942,24.90853],[88.48606,24.90493],[88.48361,24.90195],[88.48298,24.89946],[88.48679,24.89652],[88.48682,24.89238],[88.49078,24.88337],[88.49039,24.88212],[88.48727,24.88045],[88.4831,24.87107],[88.4799,24.86735],[88.47401,24.86383],[88.47269,24.86214],[88.4741,24.85565],[88.47401,24.85003],[88.47281,24.84511],[88.46992,24.84315],[88.46687,24.84323],[88.46222,24.85196],[88.45979,24.85465],[88.45064,24.8594],[88.44427,24.85877],[88.44263,24.85652],[88.44437,24.85372],[88.44893,24.85152],[88.45309,24.84779],[88.45432,24.84437],[88.4505,24.8431],[88.43884,24.84406],[88.43607,24.84063],[88.43381,24.83605],[88.43075,24.83693],[88.42889,24.83911],[88.42632,24.83907],[88.42445,24.8404],[88.42428,24.84352],[88.42167,24.84661],[88.41911,24.84771],[88.41617,24.84331],[88.40806,24.84621],[88.40556,24.84573],[88.40616,24.84069],[88.40527,24.83728],[88.40302,24.83679],[88.39941,24.83744],[88.39846,24.83631],[88.40344,24.83076],[88.40219,24.82941],[88.40361,24.82526],[88.39585,24.82129],[88.39253,24.8186],[88.38847,24.81835],[88.3856,24.81968],[88.38545,24.8127],[88.38619,24.81014],[88.37826,24.8068],[88.37475,24.80309],[88.36594,24.80282],[88.36244,24.8011],[88.35963,24.80209],[88.35671,24.80456],[88.35421,24.80492],[88.34483,24.80034],[88.34028,24.79993],[88.33559,24.79628],[88.33241,24.79676],[88.33052,24.79371],[88.32571,24.79069],[88.3245,24.78417],[88.32455,24.77963],[88.32584,24.77456],[88.33075,24.76703],[88.32973,24.76369],[88.3306,24.76056],[88.33327,24.75758],[88.33594,24.74989],[88.33473,24.74343],[88.33073,24.74023],[88.32542,24.74187],[88.31553,24.74876],[88.30155,24.74922],[88.298,24.75005],[88.29578,24.75688],[88.29328,24.75747],[88.28915,24.75585],[88.28659,24.75343],[88.27116,24.74721],[88.26606,24.75292],[88.26333,24.75777],[88.26461,24.77076],[88.26856,24.77998],[88.26933,24.78372],[88.26163,24.77845],[88.25751,24.77757],[88.24839,24.77231],[88.2457,24.76876],[88.24339,24.76775],[88.24039,24.76811],[88.23576,24.76423],[88.23196,24.7625],[88.22896,24.76298],[88.22691,24.76499],[88.22204,24.76684],[88.2223,24.76894],[88.23081,24.78199],[88.23514,24.79104],[88.23621,24.79529],[88.23566,24.79841],[88.2323,24.80332],[88.23956,24.8128],[88.24327,24.82351],[88.24265,24.82629],[88.23811,24.83319],[88.23602,24.84616],[88.2316,24.85198],[88.23061,24.85528],[88.23324,24.85833],[88.23531,24.85911],[88.2383,24.85687],[88.24053,24.85349],[88.24072,24.85111],[88.24589,24.8463],[88.24831,24.84282],[88.25087,24.84064],[88.2543,24.83976],[88.25674,24.84253],[88.25806,24.84632],[88.25752,24.85581],[88.25948,24.85993],[88.25835,24.8629],[88.25487,24.86673],[88.25506,24.86905],[88.26158,24.87814],[88.26382,24.87546],[88.26538,24.87482],[88.26688,24.87492],[88.26876,24.87706],[88.27104,24.88931],[88.27424,24.8945],[88.27587,24.89568],[88.27743,24.89573],[88.2794,24.88731],[88.2846,24.88868],[88.28796,24.8861],[88.29309,24.88787],[88.2959,24.88791],[88.29758,24.88755],[88.30039,24.8851],[88.30194,24.88224],[88.2998,24.87929],[88.30428,24.87041],[88.31531,24.88076],[88.3215,24.88224],[88.32274,24.88155],[88.32361,24.87916],[88.32303,24.87468],[88.3282,24.86953],[88.32515,24.86589],[88.33445,24.87106],[88.3369,24.87564],[88.34361,24.88211],[88.34789,24.89218],[88.3474,24.89548],[88.34578,24.89821],[88.34315,24.89898],[88.33904,24.8981],[88.33579,24.89847],[88.33586,24.90188],[88.33468,24.90421],[88.32968,24.90386],[88.32633,24.9107],[88.32584,24.91457],[88.32629,24.91587],[88.3276,24.9166],[88.3306,24.91657],[88.3316,24.91809],[88.33616,24.91783],[88.33661,24.91903],[88.33456,24.92427],[88.33531,24.92516],[88.338,24.92513],[88.339,24.92672],[88.3382,24.9286],[88.33877,24.93115],[88.34102,24.93436],[88.34085,24.93692],[88.34173,24.93901],[88.34317,24.93985],[88.35118,24.94353],[88.35349,24.94209],[88.35555,24.94247],[88.36082,24.94935],[88.3634,24.95143],[88.36571,24.95152],[88.36582,24.94806],[88.36849,24.94423],[88.37443,24.94185],[88.37655,24.94263],[88.38154,24.93883],[88.38447,24.93778],[88.38766,24.9385],[88.39092,24.94113],[88.39542,24.94104],[88.39899,24.94299],[88.4015,24.94569],[88.40208,24.94966],[88.39972,24.95406],[88.3991,24.95713],[88.39705,24.95902],[88.40488,24.96475],[88.40993,24.9631],[88.41451,24.96442],[88.41702,24.96724],[88.42882,24.96504],[88.43207,24.96357],[88.43543,24.95986],[88.43685,24.9565],[88.43665,24.95208],[88.4338,24.94375],[88.43315,24.93689],[88.43364,24.93206],[88.43599,24.92812],[88.44508,24.92218],[88.45483,24.92056],[88.45684,24.92293],[88.45299,24.92922],[88.45306,24.93199],[88.45582,24.93389],[88.47209,24.93959],[88.47964,24.93542],[88.48643,24.92985],[88.49165,24.92288],[88.4942,24.90853]]]}},{"type":"Feature","properties":{"name":"Nachole","district_id":"chapainawabganj","pcode":"507056","sql_upazila_id":null,"sql_name_bn":null},"geometry":{"type":"Polygon","coordinates":[[[88.40344,24.83076],[88.40487,24.82956],[88.412,24.83211],[88.41469,24.8343],[88.41633,24.83882],[88.41845,24.83738],[88.41901,24.83603],[88.41806,24.83285],[88.41379,24.8267],[88.41283,24.82194],[88.41402,24.8209],[88.41646,24.81997],[88.42569,24.82119],[88.42829,24.81652],[88.43122,24.81546],[88.43504,24.8156],[88.43585,24.81786],[88.43774,24.81995],[88.44148,24.82076],[88.44517,24.82027],[88.44571,24.81953],[88.44327,24.81507],[88.44256,24.80928],[88.44305,24.8061],[88.43642,24.80458],[88.43498,24.8022],[88.43277,24.79495],[88.43437,24.78705],[88.43273,24.78655],[88.43099,24.78844],[88.42774,24.78779],[88.42512,24.78588],[88.42274,24.78358],[88.42166,24.78035],[88.41571,24.77479],[88.41551,24.77246],[88.41669,24.77052],[88.42,24.7702],[88.43299,24.77412],[88.43719,24.77885],[88.44437,24.7781],[88.45142,24.77922],[88.45809,24.77689],[88.46156,24.77101],[88.46854,24.76964],[88.47233,24.76404],[88.47614,24.76343],[88.47752,24.76569],[88.47861,24.77261],[88.48055,24.77435],[88.48217,24.77354],[88.48428,24.77091],[88.48708,24.76957],[88.49477,24.77075],[88.49538,24.76853],[88.49467,24.76535],[88.4897,24.75587],[88.49274,24.7505],[88.49117,24.74824],[88.48842,24.74725],[88.48679,24.74528],[88.48248,24.74464],[88.47614,24.74873],[88.47477,24.75226],[88.4766,24.75724],[88.47505,24.75964],[88.46895,24.76112],[88.46595,24.76092],[88.45914,24.75764],[88.45744,24.75498],[88.45867,24.75145],[88.46472,24.75031],[88.46546,24.74849],[88.46493,24.74361],[88.46223,24.73744],[88.4634,24.73415],[88.46626,24.73122],[88.47663,24.73544],[88.48,24.73518],[88.48592,24.73302],[88.48885,24.73385],[88.49211,24.73711],[88.49586,24.73747],[88.50582,24.73436],[88.508,24.73332],[88.50855,24.73144],[88.50672,24.72623],[88.50855,24.71719],[88.5005,24.71551],[88.4978,24.7106],[88.4913,24.70668],[88.49167,24.69481],[88.49022,24.69063],[88.48564,24.68494],[88.4814,24.68345],[88.47074,24.68611],[88.464,24.68566],[88.45931,24.68201],[88.4583,24.67856],[88.46053,24.67587],[88.46812,24.67228],[88.47174,24.67094],[88.4761,24.67067],[88.47836,24.67314],[88.47862,24.67592],[88.48056,24.67823],[88.48344,24.67803],[88.48541,24.6766],[88.49034,24.67689],[88.49372,24.67884],[88.49877,24.67908],[88.50203,24.68171],[88.50796,24.68228],[88.51063,24.68169],[88.51156,24.67855],[88.51067,24.67516],[88.50754,24.67308],[88.50174,24.67354],[88.50109,24.66771],[88.4948,24.66833],[88.49167,24.667],[88.48979,24.66446],[88.49294,24.65858],[88.49025,24.65623],[88.48619,24.65677],[88.48051,24.65552],[88.47118,24.65703],[88.47,24.65903],[88.46996,24.66198],[88.4679,24.66223],[88.46083,24.65839],[88.44633,24.66334],[88.44141,24.66685],[88.43848,24.66637],[88.43697,24.66376],[88.43539,24.65555],[88.43337,24.65171],[88.43037,24.64993],[88.42738,24.64938],[88.42445,24.65055],[88.42319,24.64687],[88.42928,24.64148],[88.42864,24.63898],[88.42939,24.63726],[88.4285,24.63467],[88.42387,24.63204],[88.42085,24.63611],[88.41393,24.63844],[88.41263,24.63993],[88.40616,24.64197],[88.3981,24.64176],[88.39644,24.64331],[88.39533,24.64707],[88.39246,24.64862],[88.38324,24.64905],[88.38403,24.64183],[88.38358,24.63968],[88.38171,24.6389],[88.37668,24.64417],[88.37025,24.64451],[88.36858,24.64384],[88.36726,24.64153],[88.36626,24.64125],[88.36465,24.64569],[88.36222,24.64589],[88.3604,24.6446],[88.34533,24.64751],[88.34372,24.64991],[88.34398,24.65344],[88.35041,24.65712],[88.35167,24.65925],[88.35112,24.66262],[88.34914,24.66609],[88.3438,24.67029],[88.3438,24.67562],[88.34288,24.67847],[88.33546,24.67956],[88.33117,24.68431],[88.32059,24.69115],[88.31735,24.69209],[88.31323,24.69172],[88.30906,24.6925],[88.29848,24.70042],[88.29102,24.70929],[88.28429,24.70945],[88.28304,24.71117],[88.28268,24.71793],[88.28544,24.72051],[88.2862,24.72618],[88.28515,24.72943],[88.27881,24.73624],[88.27116,24.74721],[88.28659,24.75343],[88.28915,24.75585],[88.29328,24.75747],[88.29578,24.75688],[88.298,24.75005],[88.30155,24.74922],[88.31553,24.74876],[88.32542,24.74187],[88.33073,24.74023],[88.33473,24.74343],[88.33594,24.74989],[88.33327,24.75758],[88.3306,24.76056],[88.32973,24.76369],[88.33075,24.76703],[88.32584,24.77456],[88.32455,24.77963],[88.3245,24.78417],[88.32571,24.79069],[88.33052,24.79371],[88.33241,24.79676],[88.33559,24.79628],[88.34028,24.79993],[88.34483,24.80034],[88.35421,24.80492],[88.35671,24.80456],[88.35963,24.80209],[88.36244,24.8011],[88.36594,24.80282],[88.37475,24.80309],[88.37826,24.8068],[88.38619,24.81014],[88.38545,24.8127],[88.3856,24.81968],[88.38847,24.81835],[88.39253,24.8186],[88.39585,24.82129],[88.40361,24.82526],[88.40219,24.82941],[88.40344,24.83076]]]}},{"type":"Feature","properties":{"name":"Shibganj","district_id":"chapainawabganj","pcode":"507088","sql_upazila_id":"chapainawabganj-shibganj","sql_name_bn":"শিবগঞ্জ"},"geometry":{"type":"Polygon","coordinates":[[[88.2323,24.80332],[88.23566,24.79841],[88.23621,24.79529],[88.23514,24.79104],[88.23081,24.78199],[88.2223,24.76894],[88.22204,24.76684],[88.22691,24.76499],[88.22896,24.76298],[88.23196,24.7625],[88.23576,24.76423],[88.24039,24.76811],[88.24339,24.76775],[88.2457,24.76876],[88.24839,24.77231],[88.25751,24.77757],[88.26163,24.77845],[88.26933,24.78372],[88.26856,24.77998],[88.26461,24.77076],[88.26333,24.75777],[88.26606,24.75292],[88.27247,24.74571],[88.27881,24.73624],[88.28515,24.72943],[88.2862,24.72618],[88.28544,24.72051],[88.26274,24.69958],[88.25937,24.69893],[88.25462,24.69477],[88.25243,24.69143],[88.25098,24.6852],[88.25222,24.68286],[88.25682,24.67828],[88.26106,24.67614],[88.26766,24.67502],[88.27166,24.67618],[88.28003,24.68116],[88.28702,24.68377],[88.29308,24.68502],[88.29532,24.68433],[88.29768,24.68249],[88.29973,24.67873],[88.2982,24.66988],[88.29221,24.66647],[88.28142,24.66423],[88.27767,24.66273],[88.2728,24.66197],[88.26651,24.66327],[88.26202,24.6611],[88.25715,24.66227],[88.25603,24.6591],[88.24821,24.65292],[88.24036,24.65457],[88.23999,24.65298],[88.24408,24.64285],[88.23869,24.63443],[88.23895,24.6317],[88.24335,24.62594],[88.24241,24.62453],[88.23121,24.6312],[88.22542,24.63062],[88.22397,24.6287],[88.22421,24.62603],[88.22664,24.62323],[88.22726,24.62124],[88.22426,24.61842],[88.21958,24.62028],[88.21766,24.61967],[88.2174,24.61745],[88.21509,24.61446],[88.21178,24.61239],[88.20866,24.61178],[88.20542,24.61216],[88.20163,24.61712],[88.19647,24.62188],[88.19186,24.62276],[88.19073,24.62141],[88.19141,24.61862],[88.19589,24.61319],[88.1977,24.61223],[88.19744,24.60853],[88.199,24.60687],[88.19893,24.60545],[88.19736,24.60359],[88.1973,24.60172],[88.20428,24.59871],[88.20595,24.59546],[88.20482,24.59087],[88.20675,24.58921],[88.2098,24.59021],[88.21174,24.59292],[88.21586,24.59442],[88.22184,24.59375],[88.23154,24.58675],[88.23241,24.58487],[88.23172,24.58305],[88.22923,24.58183],[88.22772,24.57985],[88.22722,24.57662],[88.2243,24.578],[88.21895,24.5827],[88.21378,24.58365],[88.21321,24.58263],[88.21358,24.58064],[88.21887,24.57874],[88.22124,24.57593],[88.21899,24.57481],[88.21133,24.57504],[88.20908,24.57398],[88.1957,24.58101],[88.1939,24.58346],[88.18954,24.58565],[88.18624,24.58585],[88.184,24.58507],[88.17434,24.5865],[88.17135,24.58653],[88.16985,24.58484],[88.16393,24.58556],[88.15807,24.58163],[88.15202,24.58429],[88.14923,24.58471],[88.14661,24.58268],[88.14312,24.58146],[88.13333,24.58079],[88.12318,24.58211],[88.12268,24.58172],[88.12324,24.57723],[88.12148,24.57083],[88.11139,24.57067],[88.11095,24.56941],[88.10993,24.55484],[88.11048,24.54252],[88.10376,24.54893],[88.09387,24.56216],[88.092,24.56496],[88.08939,24.57275],[88.081,24.58536],[88.07279,24.6],[88.06956,24.60485],[88.05598,24.62033],[88.04789,24.63298],[88.04615,24.63742],[88.03842,24.64406],[88.03182,24.64722],[88.01306,24.66273],[88.01057,24.66666],[88.01132,24.66904],[88.02586,24.68399],[88.0341,24.69365],[88.05987,24.71505],[88.06474,24.72138],[88.06931,24.73259],[88.07381,24.74118],[88.07312,24.74369],[88.0682,24.74701],[88.06733,24.7498],[88.07401,24.75726],[88.07482,24.7594],[88.07445,24.76065],[88.0714,24.76221],[88.07021,24.76414],[88.07059,24.76942],[88.07372,24.77139],[88.0779,24.77],[88.08095,24.77077],[88.08364,24.77342],[88.08983,24.78252],[88.0955,24.78061],[88.10593,24.77945],[88.10736,24.78166],[88.10583,24.79989],[88.10739,24.80448],[88.11202,24.81257],[88.12246,24.82163],[88.12415,24.82134],[88.1257,24.81866],[88.13099,24.80596],[88.13317,24.8039],[88.13742,24.80648],[88.13451,24.82018],[88.13503,24.83176],[88.14021,24.83427],[88.14109,24.83967],[88.14503,24.84286],[88.14584,24.84451],[88.1456,24.84713],[88.14761,24.85023],[88.14986,24.85084],[88.15391,24.849],[88.15917,24.8497],[88.16254,24.84851],[88.16441,24.85045],[88.16422,24.85607],[88.16766,24.85906],[88.17323,24.85941],[88.17561,24.86098],[88.18289,24.85872],[88.18646,24.85937],[88.19078,24.86337],[88.19447,24.86533],[88.19653,24.86361],[88.19646,24.86156],[88.19745,24.85991],[88.20238,24.85658],[88.20094,24.85284],[88.20187,24.85079],[88.20786,24.84791],[88.20985,24.84574],[88.20978,24.84114],[88.20715,24.83707],[88.20664,24.83372],[88.20714,24.831],[88.20869,24.82809],[88.21062,24.8267],[88.21656,24.82865],[88.21725,24.82711],[88.21342,24.81806],[88.21516,24.81566],[88.22732,24.80949],[88.23031,24.80714],[88.2323,24.80332]]]}}]}