{"type":"FeatureCollection","features":[{"type":"Feature","properties":{"name":"Anwara","district_id":"chattogram","pcode":"201504","sql_upazila_id":"chattogram-anwara","sql_name_bn":"আনোয়ারা"},"geometry":{"type":"Polygon","coordinates":[[[91.7795,22.2505],[91.78566,22.25691],[91.79946,22.26334],[91.80853,22.2688],[91.8151,22.27551],[91.83136,22.27222],[91.83479,22.27018],[91.83565,22.26834],[91.83971,22.26593],[91.84093,22.26404],[91.84368,22.26352],[91.84672,22.26416],[91.8492,22.26634],[91.85644,22.26754],[91.85995,22.26344],[91.86666,22.26777],[91.86938,22.27115],[91.87054,22.2776],[91.86912,22.28134],[91.87701,22.28198],[91.88663,22.27816],[91.89036,22.27794],[91.89189,22.27663],[91.88687,22.27252],[91.88678,22.27123],[91.89045,22.27039],[91.89289,22.27136],[91.89891,22.26979],[91.90061,22.27355],[91.90248,22.27359],[91.90277,22.27105],[91.9057,22.26954],[91.90888,22.26925],[91.90978,22.27155],[91.91397,22.27148],[91.91622,22.27343],[91.9187,22.27424],[91.92181,22.27397],[91.92308,22.2726],[91.93159,22.27399],[91.93307,22.27331],[91.93654,22.26602],[91.95195,22.2661],[91.95518,22.2669],[91.95758,22.26583],[91.95745,22.26095],[91.96255,22.25821],[91.96369,22.25612],[91.95924,22.24651],[91.95152,22.23845],[91.95161,22.23639],[91.95277,22.23481],[91.95253,22.23254],[91.94739,22.22769],[91.94735,22.22446],[91.94864,22.21911],[91.95077,22.21583],[91.94052,22.21623],[91.93976,22.20365],[91.9323,22.20326],[91.92597,22.20562],[91.92367,22.20853],[91.91656,22.20981],[91.91488,22.20853],[91.91416,22.20403],[91.91111,22.20036],[91.90826,22.19999],[91.90701,22.19744],[91.89333,22.19121],[91.88716,22.19341],[91.87923,22.19463],[91.87524,22.19647],[91.86563,22.19696],[91.86334,22.19609],[91.86178,22.19308],[91.86642,22.18911],[91.87645,22.18744],[91.88457,22.18349],[91.88645,22.18171],[91.88757,22.17779],[91.88599,22.17529],[91.88637,22.17224],[91.88572,22.17041],[91.88088,22.16684],[91.87742,22.16687],[91.87112,22.16981],[91.86978,22.17244],[91.86517,22.17631],[91.85695,22.17992],[91.84914,22.18557],[91.84694,22.18496],[91.84574,22.18363],[91.84547,22.18079],[91.84938,22.17668],[91.84933,22.17414],[91.84646,22.17155],[91.84887,22.16674],[91.84914,22.16452],[91.85099,22.16177],[91.8499,22.15993],[91.82968,22.15937],[91.82027,22.17139],[91.82056,22.17278],[91.81778,22.17611],[91.81889,22.17861],[91.8175,22.18306],[91.81778,22.18444],[91.81445,22.1925],[91.81194,22.20889],[91.81194,22.21],[91.81445,22.21167],[91.81389,22.21305],[91.81445,22.21417],[91.81223,22.21611],[91.81611,22.22167],[91.81555,22.22361],[91.81472,22.22361],[91.81445,22.22222],[91.81361,22.22305],[91.81361,22.22528],[91.8125,22.22694],[91.8125,22.22778],[91.8147,22.22969],[91.8083,22.23289],[91.8,22.22556],[91.79833,22.22611],[91.79639,22.22832],[91.79667,22.23083],[91.79417,22.23222],[91.78972,22.23667],[91.78806,22.24028],[91.78416,22.24417],[91.78,22.25],[91.7795,22.2505]]]}},{"type":"Feature","properties":{"name":"Banshkhali","district_id":"chattogram","pcode":"201508","sql_upazila_id":"chattogram-banshkhali","sql_name_bn":"বাঁশখালী"},"geometry":{"type":"Polygon","coordinates":[[[91.82027,22.17139],[91.82968,22.15937],[91.8499,22.15993],[91.85099,22.16177],[91.84914,22.16452],[91.84887,22.16674],[91.84646,22.17155],[91.84933,22.17414],[91.84938,22.17668],[91.84547,22.18079],[91.84574,22.18363],[91.84694,22.18496],[91.84914,22.18557],[91.85695,22.17992],[91.86517,22.17631],[91.86978,22.17244],[91.87112,22.16981],[91.87742,22.16687],[91.88088,22.16684],[91.88572,22.17041],[91.88637,22.17224],[91.88599,22.17529],[91.88757,22.17779],[91.88645,22.18171],[91.88457,22.18349],[91.87645,22.18744],[91.86642,22.18911],[91.86178,22.19308],[91.86334,22.19609],[91.86563,22.19696],[91.87524,22.19647],[91.87923,22.19463],[91.88716,22.19341],[91.89333,22.19121],[91.90701,22.19744],[91.90826,22.19999],[91.91111,22.20036],[91.91416,22.20403],[91.91488,22.20853],[91.91656,22.20981],[91.92367,22.20853],[91.92597,22.20562],[91.9323,22.20326],[91.93976,22.20365],[91.9387,22.19802],[91.93369,22.19481],[91.93528,22.19255],[91.94656,22.19086],[91.95527,22.18798],[91.95547,22.18619],[91.94848,22.18506],[91.94861,22.1825],[91.95159,22.1771],[91.9505,22.17201],[91.95171,22.16898],[91.95406,22.16764],[91.95986,22.16774],[91.96503,22.17065],[91.96712,22.16873],[91.96674,22.16647],[91.97009,22.15996],[91.97223,22.1586],[91.9738,22.14739],[91.97548,22.14654],[91.98399,22.14894],[91.98526,22.14604],[91.98545,22.14317],[91.98906,22.14223],[91.99513,22.13177],[91.99431,22.12852],[91.99678,22.12197],[91.99647,22.11974],[91.99035,22.12061],[91.98676,22.12204],[91.98194,22.13173],[91.97885,22.13462],[91.97408,22.13529],[91.97328,22.13978],[91.97105,22.13991],[91.96937,22.13519],[91.95455,22.1308],[91.95361,22.12805],[91.95557,22.11926],[91.95487,22.11549],[91.9579,22.10031],[91.96008,22.09876],[91.9703,22.0988],[91.97562,22.10107],[91.9829,22.10162],[91.98954,22.10132],[91.992,22.09931],[91.99016,22.09353],[91.987,22.08906],[91.98505,22.08757],[91.98507,22.07983],[91.98663,22.07524],[91.98615,22.07177],[91.98958,22.06832],[91.98874,22.05841],[91.991,22.05707],[91.99442,22.05669],[91.99633,22.05395],[91.99718,22.05134],[91.99687,22.04747],[91.99937,22.04534],[92.00096,22.0424],[92.00145,22.03411],[92.00324,22.02759],[92.00926,22.02382],[92.01215,22.01659],[92.01768,22.00921],[92.02165,21.99345],[92.02072,21.9887],[92.02174,21.98393],[92.02609,21.97033],[92.03044,21.96375],[92.03303,21.96273],[92.03235,21.95723],[92.03478,21.95559],[92.03721,21.94678],[92.04329,21.94192],[92.04507,21.9413],[92.04685,21.93415],[92.04768,21.92365],[92.04308,21.91969],[92.04282,21.91605],[92.0412,21.91528],[92.03854,21.91695],[92.03622,21.91718],[92.02469,21.91601],[92.01534,21.91838],[92.01013,21.9212],[92.00549,21.92158],[91.99689,21.91826],[91.99247,21.91532],[91.98867,21.91495],[91.98252,21.91824],[91.98098,21.91782],[91.97935,21.91654],[91.97435,21.90541],[91.97591,21.90095],[91.97556,21.89933],[91.9732,21.89676],[91.97033,21.89504],[91.96666,21.89557],[91.96615,21.90254],[91.96503,21.90405],[91.96381,21.90434],[91.96196,21.90376],[91.95894,21.8976],[91.95768,21.8968],[91.95378,21.89918],[91.95136,21.89856],[91.95046,21.89326],[91.94837,21.89104],[91.94552,21.88978],[91.93441,21.89014],[91.93065,21.88599],[91.92944,21.88278],[91.9302,21.87391],[91.92947,21.8685],[91.92614,21.86713],[91.92413,21.86742],[91.92071,21.87033],[91.92024,21.86288],[91.916,21.86187],[91.91199,21.8917],[91.90712,21.90487],[91.90483,21.9151],[91.90426,21.92209],[91.90196,21.93123],[91.89881,21.94011],[91.89652,21.94119],[91.89652,21.94226],[91.89796,21.94334],[91.89595,21.94415],[91.89423,21.94603],[91.89051,21.9463],[91.88821,21.94764],[91.88622,21.95437],[91.88679,21.9549],[91.88937,21.95222],[91.89051,21.94737],[91.8928,21.9471],[91.8928,21.94926],[91.88707,21.95705],[91.8865,21.96217],[91.88478,21.96728],[91.88564,21.97696],[91.88306,21.98019],[91.88249,21.98395],[91.88106,21.98261],[91.88077,21.97965],[91.87991,21.97911],[91.87905,21.97992],[91.87791,21.98422],[91.87389,21.98933],[91.87074,21.99848],[91.87083,22.00028],[91.86945,22.00194],[91.86916,22.00417],[91.87195,22.00694],[91.87167,22.00833],[91.87334,22.01056],[91.87278,22.01139],[91.87527,22.01444],[91.87417,22.01556],[91.87695,22.01694],[91.87805,22.02084],[91.8775,22.02667],[91.87611,22.02917],[91.87361,22.03083],[91.875,22.03555],[91.87417,22.04056],[91.87556,22.04361],[91.87527,22.04583],[91.87666,22.04583],[91.87695,22.04389],[91.87889,22.04194],[91.87972,22.04278],[91.87917,22.04639],[91.87666,22.04861],[91.87722,22.05083],[91.87583,22.05388],[91.87611,22.05528],[91.87222,22.05833],[91.87278,22.06001],[91.86972,22.06556],[91.87027,22.0675],[91.86861,22.06944],[91.86417,22.08],[91.86472,22.0825],[91.86333,22.08694],[91.86166,22.08778],[91.86278,22.08945],[91.86222,22.08999],[91.86278,22.09333],[91.86028,22.09889],[91.8625,22.10306],[91.86361,22.1075],[91.8625,22.11416],[91.85944,22.11889],[91.85973,22.12111],[91.85866,22.12245],[91.85224,22.12008],[91.85306,22.11695],[91.84917,22.11305],[91.84333,22.11528],[91.83916,22.12],[91.83861,22.12278],[91.83694,22.12472],[91.83556,22.12861],[91.83166,22.13529],[91.83111,22.14083],[91.82389,22.15722],[91.82389,22.16055],[91.82278,22.16444],[91.82333,22.16639],[91.82111,22.16778],[91.82027,22.17111],[91.82027,22.17139]]]}},{"type":"Feature","properties":{"name":"Boalkhali","district_id":"chattogram","pcode":"201512","sql_upazila_id":"chattogram-boalkhali","sql_name_bn":"বোয়ালখালী"},"geometry":{"type":"Polygon","coordinates":[[[92.01871,22.44002],[92.00733,22.43054],[91.99878,22.42678],[91.9934,22.41799],[91.99281,22.41551],[91.99331,22.41394],[91.99764,22.41321],[91.9975,22.41055],[91.99884,22.40549],[92.00865,22.38144],[92.00903,22.37838],[92.01124,22.3739],[92.01371,22.36233],[92.00636,22.36101],[91.97944,22.36009],[91.96583,22.36177],[91.95933,22.36482],[91.94573,22.358],[91.93228,22.35735],[91.92906,22.35657],[91.92399,22.35372],[91.92242,22.35397],[91.91682,22.35235],[91.90011,22.35138],[91.89554,22.34988],[91.88336,22.34858],[91.87885,22.34625],[91.87441,22.34107],[91.87076,22.33444],[91.86363,22.32992],[91.85838,22.33722],[91.85271,22.33796],[91.83716,22.34543],[91.84874,22.34966],[91.85347,22.3547],[91.85915,22.35807],[91.86046,22.35993],[91.86337,22.37975],[91.86583,22.38479],[91.87022,22.38997],[91.87014,22.39784],[91.87106,22.39965],[91.87518,22.40332],[91.88038,22.41123],[91.88329,22.41625],[91.88346,22.41842],[91.8884,22.42595],[91.90803,22.43335],[91.91934,22.43569],[91.9407,22.4383],[91.94777,22.4381],[91.95686,22.43462],[91.96687,22.433],[91.98255,22.42803],[91.99103,22.42729],[91.99825,22.42884],[92.0048,22.43196],[92.015,22.43913],[92.01871,22.44002]]]}},{"type":"Feature","properties":{"name":"Chandanaish","district_id":"chattogram","pcode":"201518","sql_upazila_id":"chattogram-chandanaish","sql_name_bn":"চন্দনাইশ"},"geometry":{"type":"Polygon","coordinates":[[[92.10672,22.32083],[92.11508,22.32045],[92.12185,22.32546],[92.12664,22.32785],[92.13394,22.32966],[92.13892,22.32993],[92.14913,22.32593],[92.15217,22.32623],[92.14892,22.31677],[92.147,22.3151],[92.1397,22.31411],[92.13894,22.31254],[92.13946,22.30027],[92.13892,22.29685],[92.13742,22.29417],[92.1374,22.29119],[92.14199,22.28694],[92.14317,22.2841],[92.14302,22.28086],[92.14269,22.27606],[92.13613,22.26347],[92.13662,22.26016],[92.14368,22.24867],[92.14403,22.24157],[92.14636,22.23358],[92.15268,22.22676],[92.16159,22.2129],[92.1667,22.20854],[92.16565,22.20274],[92.15479,22.20508],[92.15115,22.20481],[92.14894,22.20817],[92.14851,22.21045],[92.14406,22.21247],[92.14138,22.21582],[92.1401,22.2157],[92.13619,22.21295],[92.13473,22.20819],[92.13699,22.20606],[92.14375,22.19557],[92.14081,22.19308],[92.14303,22.18472],[92.14186,22.18242],[92.13678,22.18126],[92.13197,22.18454],[92.12968,22.18525],[92.12591,22.18249],[92.12197,22.18153],[92.12051,22.17828],[92.12015,22.17328],[92.1236,22.16783],[92.12449,22.16287],[92.12719,22.15701],[92.12449,22.15346],[92.13032,22.13982],[92.1245,22.14017],[92.11884,22.14472],[92.12068,22.14753],[92.11807,22.15209],[92.1163,22.15964],[92.11144,22.16039],[92.10659,22.17043],[92.10632,22.17402],[92.10055,22.17454],[92.0938,22.17727],[92.09042,22.17113],[92.07597,22.17335],[92.0729,22.17574],[92.06995,22.17522],[92.06269,22.17119],[92.0626,22.16459],[92.06167,22.16274],[92.05721,22.16032],[92.05278,22.15933],[92.04837,22.16115],[92.04725,22.16918],[92.04973,22.18184],[92.04859,22.18478],[92.03673,22.18869],[92.03495,22.19089],[92.03141,22.19227],[92.0247,22.18715],[92.02942,22.1827],[92.02999,22.18095],[92.0302,22.17554],[92.02578,22.17158],[92.02607,22.1687],[92.02791,22.16504],[92.02435,22.16385],[92.00954,22.16256],[92.00562,22.16226],[92.00213,22.163],[91.99801,22.16461],[91.99552,22.17193],[91.99183,22.17441],[91.99042,22.17654],[91.98569,22.1777],[91.98549,22.18078],[91.98634,22.18237],[91.98597,22.18662],[91.98372,22.19145],[91.98184,22.19457],[91.97794,22.1963],[91.97012,22.20524],[91.96333,22.20617],[91.95936,22.20897],[91.95596,22.20955],[91.95026,22.21041],[91.94026,22.21002],[91.94052,22.21623],[91.95077,22.21583],[91.94864,22.21911],[91.94735,22.22446],[91.94739,22.22769],[91.95253,22.23254],[91.95277,22.23481],[91.95161,22.23639],[91.95152,22.23845],[91.95924,22.24651],[91.97234,22.24615],[91.98559,22.24381],[91.98856,22.24222],[91.99193,22.24155],[91.99391,22.24273],[92.00371,22.24467],[92.00589,22.24884],[92.01182,22.25266],[92.01655,22.26311],[92.02072,22.26373],[92.01681,22.26718],[92.01587,22.26909],[92.017,22.27064],[92.02614,22.27016],[92.03193,22.26863],[92.033,22.26778],[92.03289,22.26555],[92.0318,22.26355],[92.03854,22.26122],[92.04918,22.2598],[92.05277,22.2583],[92.05154,22.25243],[92.05479,22.25123],[92.06226,22.25228],[92.06032,22.26573],[92.06368,22.28218],[92.06309,22.29093],[92.05992,22.29721],[92.0606,22.30023],[92.06154,22.30156],[92.06405,22.30151],[92.06527,22.299],[92.06857,22.29685],[92.0758,22.29509],[92.07897,22.2952],[92.07998,22.29226],[92.0862,22.29133],[92.09224,22.29235],[92.09666,22.29381],[92.09892,22.29826],[92.09972,22.30337],[92.10387,22.31223],[92.10672,22.32083]]]}},{"type":"Feature","properties":{"name":"Fatikchhari","district_id":"chattogram","pcode":"201533","sql_upazila_id":"chattogram-fatikchhari","sql_name_bn":"ফটিকছড়ি"},"geometry":{"type":"Polygon","coordinates":[[[91.61871,22.94415],[91.62356,22.94804],[91.62426,22.95131],[91.62896,22.95687],[91.62742,22.96016],[91.62834,22.96119],[91.63123,22.96135],[91.6333,22.96296],[91.63438,22.96468],[91.6336,22.96642],[91.63449,22.96754],[91.6366,22.96756],[91.63726,22.96977],[91.63943,22.97068],[91.64603,22.97885],[91.65013,22.97989],[91.65268,22.9831],[91.65442,22.98588],[91.65174,22.9865],[91.65151,22.99069],[91.65214,22.99195],[91.65541,22.99105],[91.65704,22.98667],[91.66294,22.98941],[91.66224,22.99002],[91.66325,22.99056],[91.66584,22.99057],[91.66676,22.98781],[91.67544,22.98789],[91.67799,22.99121],[91.68028,22.99232],[91.67966,22.99469],[91.6804,22.9959],[91.682,22.99616],[91.68283,22.99454],[91.68171,22.99002],[91.68562,22.98786],[91.6885,22.98794],[91.69152,22.992],[91.69056,22.9933],[91.69203,22.99693],[91.69834,23.00264],[91.70073,23.00085],[91.70523,23.00048],[91.71087,22.99779],[91.71507,22.99691],[91.71722,22.99463],[91.72048,22.98822],[91.72154,22.98071],[91.72371,22.97819],[91.72557,22.97364],[91.72883,22.9623],[91.73258,22.95318],[91.73199,22.94721],[91.73324,22.9434],[91.73818,22.93554],[91.73851,22.93244],[91.73648,22.92995],[91.73485,22.92265],[91.7367,22.91826],[91.73602,22.91352],[91.7319,22.90705],[91.73208,22.90239],[91.73458,22.89836],[91.73873,22.8969],[91.73793,22.89342],[91.73482,22.88705],[91.73599,22.87625],[91.73793,22.87408],[91.74591,22.87365],[91.74879,22.86962],[91.7515,22.86808],[91.75448,22.87001],[91.75591,22.86948],[91.75765,22.86662],[91.76534,22.85863],[91.76735,22.85412],[91.7675,22.8516],[91.76545,22.84787],[91.77,22.8355],[91.77427,22.8306],[91.77536,22.82739],[91.77392,22.82176],[91.77786,22.81259],[91.77833,22.80902],[91.78195,22.80338],[91.78374,22.79469],[91.78587,22.79287],[91.78661,22.79086],[91.79441,22.7835],[91.79901,22.77488],[91.8002,22.7702],[91.80213,22.76799],[91.80492,22.76971],[91.80617,22.77613],[91.8108,22.7818],[91.811,22.78438],[91.81381,22.79004],[91.81743,22.7929],[91.81991,22.79341],[91.83031,22.79053],[91.83747,22.78963],[91.83788,22.78708],[91.83614,22.77749],[91.83804,22.7756],[91.84508,22.78183],[91.84849,22.78048],[91.85506,22.77176],[91.8583,22.77233],[91.86047,22.77594],[91.86244,22.77731],[91.86461,22.77738],[91.86444,22.77139],[91.86243,22.76559],[91.85884,22.75897],[91.85951,22.7569],[91.86208,22.75685],[91.86802,22.76004],[91.87193,22.76406],[91.87501,22.76495],[91.87757,22.76742],[91.8824,22.76707],[91.88533,22.76604],[91.88993,22.76661],[91.89134,22.7659],[91.89094,22.76254],[91.89262,22.75794],[91.89523,22.7565],[91.893,22.75464],[91.89022,22.75553],[91.88618,22.75348],[91.88888,22.74983],[91.89616,22.74903],[91.89654,22.7478],[91.89082,22.73853],[91.8884,22.73297],[91.88502,22.71976],[91.88584,22.71345],[91.88992,22.70014],[91.89367,22.69731],[91.90633,22.69256],[91.90939,22.69297],[91.91331,22.69817],[91.91476,22.69874],[91.92053,22.69647],[91.92811,22.7003],[91.934,22.69699],[91.93312,22.68891],[91.93379,22.68572],[91.93252,22.68274],[91.93308,22.68153],[91.94402,22.67664],[91.94732,22.67265],[91.94838,22.66961],[91.94607,22.66516],[91.93854,22.66382],[91.93123,22.66385],[91.92902,22.66523],[91.92853,22.67057],[91.92657,22.67299],[91.92329,22.67167],[91.9212,22.66801],[91.91751,22.66726],[91.91356,22.66314],[91.9105,22.65849],[91.9148,22.65609],[91.91588,22.65454],[91.92043,22.65431],[91.9162,22.64854],[91.91536,22.64511],[91.91331,22.64397],[91.9124,22.64232],[91.91243,22.63982],[91.91776,22.63452],[91.91451,22.63008],[91.90834,22.63007],[91.90398,22.6275],[91.90279,22.62439],[91.90355,22.61547],[91.90242,22.61354],[91.89464,22.61673],[91.89144,22.60433],[91.88294,22.59558],[91.88027,22.59088],[91.87588,22.57187],[91.8748,22.56889],[91.87202,22.56635],[91.86927,22.56498],[91.86669,22.5649],[91.86482,22.56673],[91.86549,22.57462],[91.86778,22.5806],[91.86752,22.58199],[91.86634,22.58247],[91.86228,22.5805],[91.85963,22.5755],[91.85369,22.56983],[91.84453,22.56503],[91.84236,22.56859],[91.8379,22.572],[91.83562,22.57482],[91.82973,22.57718],[91.82732,22.58418],[91.82049,22.58848],[91.8178,22.58915],[91.8173,22.59055],[91.81816,22.59574],[91.82107,22.60253],[91.82076,22.60586],[91.81765,22.60834],[91.81477,22.61321],[91.80695,22.62051],[91.80437,22.62678],[91.79834,22.63142],[91.79466,22.63733],[91.79355,22.63769],[91.78672,22.63474],[91.78536,22.63315],[91.7837,22.63047],[91.78328,22.62675],[91.78118,22.62389],[91.7759,22.62052],[91.77507,22.61504],[91.76711,22.60478],[91.7626,22.60111],[91.75844,22.59986],[91.75551,22.60057],[91.7527,22.60459],[91.74896,22.60636],[91.74339,22.6065],[91.7421,22.60913],[91.73917,22.6086],[91.7382,22.60663],[91.72861,22.60638],[91.72652,22.60829],[91.72258,22.61614],[91.72078,22.61806],[91.70619,22.62364],[91.69536,22.62126],[91.6928,22.62433],[91.69083,22.63447],[91.68848,22.64186],[91.68617,22.64607],[91.67856,22.65432],[91.67599,22.66414],[91.67553,22.66953],[91.66817,22.68042],[91.66587,22.69061],[91.65676,22.71295],[91.64725,22.72669],[91.63992,22.74213],[91.63804,22.76188],[91.6384,22.76677],[91.64664,22.77604],[91.6389,22.791],[91.63395,22.80834],[91.63309,22.81661],[91.63408,22.82135],[91.6315,22.82938],[91.63578,22.8477],[91.64119,22.85777],[91.64096,22.86175],[91.63992,22.86362],[91.64048,22.87545],[91.638,22.88237],[91.63721,22.88959],[91.63892,22.89519],[91.63972,22.90223],[91.63149,22.91122],[91.63187,22.91484],[91.62661,22.92827],[91.62594,22.93449],[91.62495,22.93733],[91.6223,22.93839],[91.61871,22.94415]]]}},{"type":"Feature","properties":{"name":"Hathazari","district_id":"chattogram","pcode":"201537","sql_upazila_id":"chattogram-hathazari","sql_name_bn":"হাটহাজারী"},"geometry":{"type":"Polygon","coordinates":[[[91.84453,22.56503],[91.84294,22.55912],[91.84474,22.55716],[91.84342,22.55531],[91.84448,22.55193],[91.8438,22.5503],[91.84048,22.54786],[91.84094,22.54693],[91.84326,22.54746],[91.84376,22.54686],[91.84565,22.53695],[91.84478,22.53677],[91.84244,22.54017],[91.84063,22.54038],[91.83864,22.53841],[91.83871,22.53514],[91.83972,22.53267],[91.84173,22.53191],[91.84633,22.528],[91.85344,22.52806],[91.84508,22.52571],[91.8416,22.52226],[91.84164,22.52136],[91.84561,22.51992],[91.84872,22.51647],[91.84628,22.51568],[91.84258,22.51155],[91.84326,22.50748],[91.8469,22.50581],[91.85204,22.50834],[91.85752,22.5084],[91.86018,22.50919],[91.86445,22.50799],[91.87108,22.51104],[91.87383,22.51076],[91.86825,22.50622],[91.86716,22.50319],[91.86776,22.50219],[91.87257,22.50086],[91.8732,22.50014],[91.87228,22.49754],[91.8726,22.49567],[91.8766,22.49394],[91.87709,22.49261],[91.87631,22.48742],[91.87212,22.48022],[91.86474,22.48102],[91.86217,22.48054],[91.85579,22.47779],[91.85292,22.47504],[91.853,22.47383],[91.85575,22.47224],[91.86908,22.47224],[91.87196,22.47184],[91.87238,22.47107],[91.86938,22.45909],[91.86689,22.45701],[91.86528,22.45972],[91.8658,22.46257],[91.86884,22.46773],[91.86796,22.46894],[91.85665,22.46938],[91.85333,22.46758],[91.85427,22.46192],[91.86087,22.45064],[91.86503,22.44604],[91.87058,22.44243],[91.87178,22.43883],[91.87123,22.4324],[91.86769,22.42668],[91.86762,22.42403],[91.86842,22.4205],[91.87005,22.4186],[91.86587,22.41361],[91.86228,22.41178],[91.85864,22.41238],[91.85521,22.41055],[91.85031,22.41335],[91.84499,22.41241],[91.84141,22.41083],[91.839,22.41206],[91.83853,22.41436],[91.83907,22.41661],[91.83783,22.41788],[91.83472,22.41844],[91.82939,22.41577],[91.82657,22.41598],[91.82041,22.41238],[91.81561,22.40683],[91.81562,22.4044],[91.81707,22.40287],[91.81518,22.40056],[91.81239,22.40026],[91.80961,22.40146],[91.80358,22.39528],[91.7951,22.39004],[91.78174,22.39776],[91.78591,22.40624],[91.78476,22.41062],[91.77833,22.41948],[91.77677,22.43225],[91.77264,22.43926],[91.77213,22.44364],[91.77266,22.45041],[91.76811,22.46085],[91.75552,22.47773],[91.75621,22.48368],[91.76265,22.48601],[91.76649,22.4891],[91.76698,22.49702],[91.75888,22.50037],[91.75765,22.50208],[91.75852,22.50535],[91.75861,22.51192],[91.75721,22.51746],[91.75262,22.52152],[91.75256,22.52424],[91.74975,22.53166],[91.7449,22.53525],[91.74367,22.54155],[91.74125,22.54528],[91.73895,22.5469],[91.73259,22.54611],[91.72952,22.54701],[91.72753,22.55169],[91.7255,22.56192],[91.72359,22.56705],[91.72137,22.56921],[91.72028,22.57153],[91.71964,22.57975],[91.71744,22.58009],[91.71401,22.57878],[91.71158,22.58089],[91.70907,22.59979],[91.70287,22.61616],[91.70017,22.61731],[91.69536,22.62126],[91.70619,22.62364],[91.72078,22.61806],[91.72258,22.61614],[91.72652,22.60829],[91.72861,22.60638],[91.7382,22.60663],[91.73917,22.6086],[91.7421,22.60913],[91.74339,22.6065],[91.74896,22.60636],[91.7527,22.60459],[91.75551,22.60057],[91.75844,22.59986],[91.7626,22.60111],[91.76711,22.60478],[91.76973,22.60867],[91.77344,22.61214],[91.77507,22.61504],[91.7759,22.62052],[91.78118,22.62389],[91.78328,22.62675],[91.7837,22.63047],[91.78672,22.63474],[91.79355,22.63769],[91.79466,22.63733],[91.79834,22.63142],[91.80543,22.62538],[91.80695,22.62051],[91.81477,22.61321],[91.81765,22.60834],[91.82076,22.60586],[91.82107,22.60253],[91.81816,22.59574],[91.8173,22.59055],[91.8178,22.58915],[91.82049,22.58848],[91.82732,22.58418],[91.82973,22.57718],[91.83562,22.57482],[91.84424,22.56613],[91.84453,22.56503]]]}},{"type":"Feature","properties":{"name":"Kotwali","district_id":"chattogram","pcode":"201541","sql_upazila_id":"chattogram-kotwali","sql_name_bn":"কোতোয়ালী"},"geometry":{"type":"Polygon","coordinates":[[[91.88346,22.41842],[91.88329,22.41625],[91.88038,22.41123],[91.87518,22.40332],[91.87106,22.39965],[91.87014,22.39784],[91.87022,22.38997],[91.86583,22.38479],[91.86337,22.37975],[91.86117,22.36246],[91.85915,22.35807],[91.85347,22.3547],[91.84874,22.34966],[91.84685,22.34863],[91.80501,22.33379],[91.79472,22.32691],[91.78884,22.32196],[91.78343,22.31577],[91.78074,22.30939],[91.7804,22.30628],[91.78065,22.29912],[91.78172,22.29698],[91.78742,22.29253],[91.79291,22.29061],[91.80223,22.28898],[91.80602,22.28753],[91.81425,22.28674],[91.81793,22.28454],[91.81892,22.28109],[91.81412,22.27404],[91.80853,22.2688],[91.79946,22.26334],[91.78566,22.25691],[91.7795,22.2505],[91.77778,22.25528],[91.77611,22.25694],[91.77611,22.25833],[91.77444,22.26111],[91.775,22.26278],[91.77139,22.26417],[91.7675,22.26805],[91.76451,22.27362],[91.765,22.27639],[91.76417,22.27722],[91.76417,22.27889],[91.76527,22.28],[91.765,22.28279],[91.7675,22.28444],[91.76778,22.28667],[91.7675,22.28806],[91.76611,22.28917],[91.76611,22.29167],[91.76833,22.29389],[91.76861,22.29556],[91.76667,22.29779],[91.76694,22.29944],[91.765,22.30056],[91.76417,22.305],[91.7625,22.30694],[91.76278,22.30861],[91.76139,22.31111],[91.7625,22.3125],[91.7625,22.31528],[91.76139,22.31667],[91.76028,22.32417],[91.75861,22.3275],[91.75916,22.32889],[91.75777,22.33028],[91.75861,22.33167],[91.75667,22.33333],[91.75639,22.33583],[91.755,22.33778],[91.75555,22.33861],[91.75417,22.34028],[91.75389,22.34584],[91.75305,22.34667],[91.75389,22.34917],[91.75166,22.35361],[91.75278,22.355],[91.75222,22.35611],[91.75278,22.3575],[91.75166,22.35889],[91.75195,22.36444],[91.75027,22.36695],[91.75083,22.37333],[91.75,22.37556],[91.74861,22.37639],[91.74889,22.37806],[91.75341,22.38134],[91.76889,22.38603],[91.77064,22.38878],[91.77076,22.39114],[91.77823,22.39695],[91.78174,22.39776],[91.7951,22.39004],[91.80358,22.39528],[91.80961,22.40146],[91.81239,22.40026],[91.81518,22.40056],[91.81707,22.40287],[91.81562,22.4044],[91.81561,22.40683],[91.82041,22.41238],[91.82657,22.41598],[91.82939,22.41577],[91.83472,22.41844],[91.83783,22.41788],[91.83907,22.41661],[91.83853,22.41436],[91.839,22.41206],[91.84141,22.41083],[91.84499,22.41241],[91.85031,22.41335],[91.85521,22.41055],[91.85864,22.41238],[91.86228,22.41178],[91.86587,22.41361],[91.87005,22.4186],[91.86842,22.4205],[91.86762,22.42403],[91.86769,22.42668],[91.87123,22.4324],[91.87178,22.43883],[91.87058,22.44243],[91.87615,22.44102],[91.87888,22.4395],[91.87767,22.42948],[91.87821,22.42783],[91.88133,22.42481],[91.8833,22.41933],[91.88346,22.41842]]]}},{"type":"Feature","properties":{"name":"Lohagara","district_id":"chattogram","pcode":"201547","sql_upazila_id":"chattogram-lohagara","sql_name_bn":"লোহাগাড়া"},"geometry":{"type":"Polygon","coordinates":[[[92.16731,22.07084],[92.16731,22.06916],[92.17188,22.06945],[92.17336,22.0668],[92.17372,22.06058],[92.17605,22.05919],[92.18194,22.05122],[92.1869,22.0523],[92.19645,22.0504],[92.20038,22.04414],[92.20704,22.04425],[92.20983,22.04142],[92.20832,22.03902],[92.20659,22.03794],[92.20583,22.03495],[92.21105,22.03309],[92.21977,22.03185],[92.21902,22.02922],[92.20981,22.0235],[92.20753,22.01817],[92.20732,22.01489],[92.20844,22.01126],[92.21055,22.00968],[92.21381,22.0088],[92.21701,21.99701],[92.21667,21.99539],[92.21376,21.99143],[92.20284,21.9841],[92.20017,21.98138],[92.19913,21.97826],[92.20094,21.97423],[92.20041,21.97279],[92.19383,21.97269],[92.19064,21.97121],[92.18881,21.96934],[92.19077,21.96683],[92.19515,21.96525],[92.1946,21.96467],[92.19519,21.96386],[92.19155,21.96189],[92.18899,21.96188],[92.18422,21.96353],[92.17831,21.96381],[92.16772,21.96857],[92.16731,21.96391],[92.17001,21.96154],[92.16848,21.95863],[92.17217,21.95321],[92.17129,21.94566],[92.17964,21.9377],[92.17993,21.93645],[92.17731,21.93321],[92.17241,21.93234],[92.16847,21.93374],[92.16236,21.93407],[92.13912,21.92862],[92.1345,21.92859],[92.12948,21.93326],[92.12541,21.93864],[92.12296,21.94749],[92.12526,21.95319],[92.12726,21.95603],[92.12585,21.95887],[92.12272,21.95928],[92.1206,21.95869],[92.11845,21.95684],[92.11491,21.95187],[92.11218,21.9498],[92.11066,21.94973],[92.10433,21.95276],[92.10142,21.95301],[92.09876,21.95482],[92.09303,21.95095],[92.08378,21.94959],[92.0815,21.94827],[92.07953,21.94362],[92.07574,21.94011],[92.06165,21.93292],[92.05983,21.92901],[92.05579,21.92917],[92.04861,21.93516],[92.04685,21.93415],[92.04507,21.9413],[92.04329,21.94192],[92.03721,21.94678],[92.03628,21.94862],[92.03478,21.95559],[92.03235,21.95723],[92.03303,21.96273],[92.03044,21.96375],[92.02609,21.97033],[92.02174,21.98393],[92.02072,21.9887],[92.02165,21.99345],[92.01768,22.00921],[92.01215,22.01659],[92.00926,22.02382],[92.02304,22.0255],[92.03153,22.02868],[92.035,22.03073],[92.03558,22.03852],[92.03745,22.03995],[92.04817,22.04325],[92.05329,22.04667],[92.05585,22.04678],[92.05887,22.04571],[92.06138,22.0428],[92.06137,22.03946],[92.06269,22.0366],[92.06883,22.03418],[92.07127,22.03102],[92.07226,22.02713],[92.07525,22.02382],[92.08313,22.02344],[92.07844,22.03826],[92.0775,22.04364],[92.07876,22.04543],[92.08441,22.04513],[92.08877,22.0468],[92.09154,22.05022],[92.0954,22.05204],[92.09786,22.05181],[92.10014,22.05337],[92.10291,22.05872],[92.10318,22.06198],[92.10658,22.06731],[92.10932,22.06793],[92.11181,22.06988],[92.11429,22.07064],[92.11431,22.07292],[92.11037,22.07686],[92.11357,22.08317],[92.1169,22.08502],[92.1204,22.08557],[92.12325,22.08508],[92.13062,22.07887],[92.14563,22.07866],[92.15004,22.07293],[92.15498,22.0688],[92.15752,22.06815],[92.16291,22.06855],[92.16731,22.07084]]]}},{"type":"Feature","properties":{"name":"Mirsarai","district_id":"chattogram","pcode":"201553","sql_upazila_id":null,"sql_name_bn":null},"geometry":{"type":"Polygon","coordinates":[[[91.58335,22.96322],[91.58742,22.96397],[91.59033,22.96955],[91.59238,22.97036],[91.59553,22.97504],[91.5974,22.97574],[91.59822,22.97516],[91.59677,22.97047],[91.59964,22.96961],[91.60385,22.9719],[91.60652,22.97509],[91.60768,22.97285],[91.61196,22.97335],[91.612,22.97192],[91.60836,22.97004],[91.60738,22.96834],[91.6091,22.96605],[91.61068,22.9659],[91.60725,22.9633],[91.60572,22.95993],[91.60663,22.95885],[91.60522,22.9578],[91.60485,22.95604],[91.60874,22.95634],[91.61131,22.95485],[91.615,22.95885],[91.61786,22.96],[91.61924,22.95977],[91.61882,22.95672],[91.61629,22.95484],[91.61821,22.95276],[91.61899,22.94999],[91.61668,22.94649],[91.6223,22.93839],[91.62495,22.93733],[91.62641,22.93218],[91.62661,22.92827],[91.63187,22.91484],[91.63149,22.91122],[91.63972,22.90223],[91.63892,22.89519],[91.63721,22.88959],[91.638,22.88237],[91.64048,22.87545],[91.63992,22.86362],[91.64096,22.86175],[91.64119,22.85777],[91.63578,22.8477],[91.6315,22.82938],[91.63408,22.82135],[91.63309,22.81661],[91.63395,22.80834],[91.6389,22.791],[91.64664,22.77604],[91.6384,22.76677],[91.63804,22.76188],[91.63911,22.74835],[91.63992,22.74213],[91.64725,22.72669],[91.65676,22.71295],[91.66587,22.69061],[91.66817,22.68042],[91.66068,22.67698],[91.65869,22.67435],[91.65863,22.67281],[91.65108,22.66446],[91.65129,22.6621],[91.65049,22.65997],[91.64813,22.66051],[91.64422,22.65722],[91.64001,22.65533],[91.63311,22.65476],[91.63098,22.65347],[91.62831,22.64878],[91.63095,22.64614],[91.632,22.64265],[91.63356,22.64304],[91.63495,22.64573],[91.63704,22.64767],[91.63904,22.6466],[91.63986,22.64439],[91.63408,22.64007],[91.62565,22.62967],[91.62348,22.6283],[91.62254,22.62966],[91.62143,22.63442],[91.62189,22.63813],[91.62115,22.63924],[91.61807,22.637],[91.61644,22.63704],[91.61231,22.64066],[91.60274,22.62609],[91.59656,22.61473],[91.59535,22.61409],[91.59306,22.61611],[91.59583,22.61917],[91.59417,22.62083],[91.59278,22.625],[91.59222,22.62556],[91.59055,22.62444],[91.59,22.625],[91.59028,22.62556],[91.58667,22.62972],[91.58611,22.63167],[91.58195,22.63556],[91.58195,22.63833],[91.57777,22.64111],[91.57389,22.64583],[91.57417,22.64695],[91.56861,22.65167],[91.56,22.66195],[91.55833,22.66222],[91.54556,22.67444],[91.53778,22.67945],[91.53528,22.68001],[91.53278,22.68278],[91.53029,22.68333],[91.52444,22.68917],[91.52333,22.68889],[91.52112,22.69028],[91.51945,22.69028],[91.51278,22.69333],[91.51056,22.69361],[91.50806,22.69528],[91.50083,22.69722],[91.50027,22.69833],[91.49889,22.69806],[91.49722,22.69945],[91.49416,22.69972],[91.48666,22.705],[91.47611,22.71028],[91.47583,22.71194],[91.46555,22.72],[91.46445,22.72361],[91.46111,22.72694],[91.46167,22.72833],[91.45722,22.73389],[91.45778,22.73639],[91.45556,22.73833],[91.45611,22.74083],[91.45528,22.74333],[91.45667,22.74472],[91.45639,22.74722],[91.45889,22.74945],[91.46139,22.75028],[91.46416,22.755],[91.46472,22.75805],[91.46722,22.76028],[91.46667,22.76083],[91.46416,22.76028],[91.46111,22.75361],[91.45556,22.74916],[91.45472,22.75083],[91.45583,22.7525],[91.45389,22.75583],[91.45361,22.75889],[91.45028,22.76167],[91.44861,22.76778],[91.44972,22.7775],[91.44833,22.7825],[91.44444,22.7875],[91.4375,22.79028],[91.43136,22.7972],[91.42667,22.80028],[91.42,22.8075],[91.41778,22.81139],[91.41833,22.81361],[91.41972,22.815],[91.42445,22.81611],[91.42611,22.81722],[91.42944,22.82444],[91.42917,22.82806],[91.43083,22.83222],[91.43081,22.83904],[91.42858,22.83972],[91.43144,22.84965],[91.43434,22.85416],[91.44473,22.85556],[91.45854,22.85505],[91.46832,22.8561],[91.47018,22.85947],[91.47067,22.86738],[91.46465,22.8728],[91.46207,22.87844],[91.46471,22.88642],[91.47186,22.89368],[91.47797,22.8987],[91.4879,22.90319],[91.4952,22.90524],[91.50179,22.90452],[91.5109,22.89971],[91.51297,22.90027],[91.51288,22.90111],[91.51559,22.90062],[91.52319,22.90587],[91.53246,22.9092],[91.53448,22.91053],[91.53808,22.9169],[91.53796,22.91979],[91.53676,22.92068],[91.53785,22.92319],[91.54323,22.92942],[91.54313,22.93202],[91.54174,22.93514],[91.53774,22.93818],[91.53455,22.94017],[91.53263,22.93973],[91.52993,22.94153],[91.53097,22.94438],[91.53297,22.94645],[91.53555,22.94635],[91.54157,22.94284],[91.54354,22.94282],[91.5484,22.94846],[91.54961,22.95096],[91.54979,22.95526],[91.55224,22.95613],[91.55888,22.951],[91.56198,22.95179],[91.5641,22.95374],[91.5723,22.9463],[91.57323,22.94802],[91.57307,22.95301],[91.58114,22.95869],[91.58339,22.96262],[91.58335,22.96322]]]}},{"type":"Feature","properties":{"name":"Patiya","district_id":"chattogram","pcode":"201561","sql_upazila_id":"chattogram-patiya","sql_name_bn":"পটিয়া"},"geometry":{"type":"Polygon","coordinates":[[[92.01871,22.44002],[92.02139,22.43854],[92.02139,22.43393],[92.01995,22.43103],[92.02068,22.4262],[92.01934,22.42351],[92.01948,22.42104],[92.0212,22.41899],[92.02405,22.41761],[92.02391,22.41518],[92.02494,22.41375],[92.02809,22.41259],[92.02998,22.41057],[92.0306,22.40645],[92.03238,22.40252],[92.03419,22.39229],[92.03896,22.38914],[92.04599,22.38172],[92.04958,22.38042],[92.05641,22.38068],[92.06202,22.38651],[92.06334,22.38698],[92.0657,22.3862],[92.07134,22.37407],[92.07388,22.37057],[92.07469,22.36533],[92.07714,22.35934],[92.0846,22.34719],[92.08721,22.34082],[92.09017,22.33633],[92.09074,22.33318],[92.09865,22.32482],[92.1052,22.32098],[92.10672,22.32083],[92.10387,22.31223],[92.09972,22.30337],[92.09892,22.29826],[92.09666,22.29381],[92.0862,22.29133],[92.08255,22.29185],[92.07998,22.29226],[92.07897,22.2952],[92.0758,22.29509],[92.06857,22.29685],[92.06527,22.299],[92.06405,22.30151],[92.06154,22.30156],[92.05984,22.29913],[92.05992,22.29721],[92.06309,22.29093],[92.06368,22.28218],[92.06032,22.26573],[92.06226,22.25228],[92.05479,22.25123],[92.05154,22.25243],[92.05277,22.2583],[92.04918,22.2598],[92.03854,22.26122],[92.0318,22.26355],[92.03289,22.26555],[92.033,22.26778],[92.03193,22.26863],[92.02614,22.27016],[92.017,22.27064],[92.01587,22.26909],[92.01681,22.26718],[92.02072,22.26373],[92.01655,22.26311],[92.01182,22.25266],[92.00589,22.24884],[92.00371,22.24467],[91.99391,22.24273],[91.99193,22.24155],[91.98856,22.24222],[91.98559,22.24381],[91.97234,22.24615],[91.95924,22.24651],[91.96369,22.25612],[91.96255,22.25821],[91.95745,22.26095],[91.95758,22.26583],[91.95518,22.2669],[91.95195,22.2661],[91.93654,22.26602],[91.93307,22.27331],[91.93159,22.27399],[91.92308,22.2726],[91.92181,22.27397],[91.9187,22.27424],[91.91622,22.27343],[91.91397,22.27148],[91.90978,22.27155],[91.90888,22.26925],[91.9057,22.26954],[91.90277,22.27105],[91.90248,22.27359],[91.90061,22.27355],[91.89891,22.26979],[91.89289,22.27136],[91.89045,22.27039],[91.88678,22.27123],[91.88687,22.27252],[91.89189,22.27663],[91.89036,22.27794],[91.88663,22.27816],[91.87701,22.28198],[91.86912,22.28134],[91.87054,22.2776],[91.86938,22.27115],[91.86666,22.26777],[91.86425,22.26666],[91.86269,22.26472],[91.85995,22.26344],[91.85644,22.26754],[91.8492,22.26634],[91.84672,22.26416],[91.84368,22.26352],[91.84093,22.26404],[91.83971,22.26593],[91.83565,22.26834],[91.83479,22.27018],[91.83136,22.27222],[91.8151,22.27551],[91.81892,22.28109],[91.81893,22.28282],[91.81727,22.28528],[91.81425,22.28674],[91.80602,22.28753],[91.80223,22.28898],[91.79291,22.29061],[91.78742,22.29253],[91.78172,22.29698],[91.7803,22.30217],[91.78074,22.30939],[91.78343,22.31577],[91.78884,22.32196],[91.79472,22.32691],[91.80501,22.33379],[91.81842,22.33871],[91.82245,22.33947],[91.83716,22.34543],[91.85271,22.33796],[91.85838,22.33722],[91.86363,22.32992],[91.87076,22.33444],[91.87441,22.34107],[91.87885,22.34625],[91.88336,22.34858],[91.89554,22.34988],[91.90011,22.35138],[91.91682,22.35235],[91.92242,22.35397],[91.92399,22.35372],[91.92906,22.35657],[91.93228,22.35735],[91.94573,22.358],[91.95933,22.36482],[91.96583,22.36177],[91.97944,22.36009],[92.00636,22.36101],[92.01371,22.36233],[92.01124,22.3739],[92.00903,22.37838],[92.00865,22.38144],[91.99884,22.40549],[91.9975,22.41055],[91.99764,22.41321],[91.99331,22.41394],[91.99281,22.41551],[91.9934,22.41799],[91.99878,22.42678],[92.00733,22.43054],[92.01606,22.43745],[92.01871,22.44002]]]}},{"type":"Feature","properties":{"name":"Rangunia","district_id":"chattogram","pcode":"201570","sql_upazila_id":"chattogram-rangunia","sql_name_bn":"রাঙ্গুনিয়া"},"geometry":{"type":"Polygon","coordinates":[[[91.98702,22.50055],[91.99333,22.49921],[91.99629,22.4997],[92.00258,22.50806],[92.00986,22.51333],[92.01584,22.51282],[92.01991,22.51672],[92.02036,22.51828],[92.01965,22.52224],[92.02298,22.52272],[92.02239,22.52684],[92.02017,22.52966],[92.02203,22.53277],[92.02726,22.53723],[92.02735,22.54563],[92.02403,22.55057],[92.02399,22.55817],[92.01756,22.5611],[92.0168,22.56282],[92.01795,22.56953],[92.02078,22.57695],[92.01541,22.58887],[92.01063,22.59375],[92.01093,22.59824],[92.01399,22.60266],[92.019,22.61519],[92.02243,22.61575],[92.0253,22.61837],[92.02801,22.61934],[92.0335,22.61756],[92.03863,22.62714],[92.04537,22.63127],[92.04631,22.62867],[92.04546,22.62361],[92.04679,22.61969],[92.04893,22.6177],[92.05243,22.61829],[92.05652,22.62196],[92.06265,22.62112],[92.07131,22.62442],[92.07417,22.62359],[92.07401,22.62175],[92.07706,22.61917],[92.08388,22.62029],[92.08461,22.61861],[92.0844,22.61611],[92.08176,22.61116],[92.08099,22.60804],[92.07869,22.60496],[92.07917,22.60348],[92.08113,22.60151],[92.0829,22.60355],[92.08698,22.5978],[92.08929,22.59625],[92.09548,22.59485],[92.09798,22.59316],[92.10458,22.58593],[92.10678,22.58049],[92.10695,22.57734],[92.10112,22.57085],[92.10143,22.5683],[92.10755,22.56859],[92.10896,22.56781],[92.1097,22.56413],[92.10914,22.56153],[92.11083,22.55843],[92.10889,22.5576],[92.10749,22.55571],[92.10823,22.55301],[92.10983,22.55132],[92.11181,22.54476],[92.11778,22.54249],[92.12123,22.53634],[92.1234,22.5269],[92.12127,22.52345],[92.12275,22.51672],[92.12533,22.51047],[92.13088,22.50269],[92.1351,22.49354],[92.13426,22.49061],[92.13464,22.485],[92.1367,22.47882],[92.13487,22.47537],[92.13471,22.47278],[92.13646,22.47038],[92.13973,22.46883],[92.14173,22.4648],[92.14064,22.46179],[92.14223,22.45763],[92.14137,22.45403],[92.1384,22.4511],[92.13037,22.44868],[92.12709,22.44493],[92.11953,22.44405],[92.11821,22.44215],[92.11782,22.43934],[92.11935,22.43528],[92.1172,22.43258],[92.11329,22.43057],[92.10925,22.42692],[92.10292,22.42343],[92.10122,22.42166],[92.10437,22.41528],[92.10586,22.41432],[92.10698,22.41183],[92.11038,22.41174],[92.11302,22.40867],[92.11975,22.39584],[92.12241,22.39365],[92.12775,22.39138],[92.13515,22.39279],[92.14026,22.39236],[92.14168,22.39089],[92.1401,22.3859],[92.14125,22.38366],[92.14105,22.38089],[92.1349,22.38037],[92.13376,22.3777],[92.1365,22.37518],[92.14487,22.37381],[92.14722,22.37116],[92.14788,22.36246],[92.14538,22.35933],[92.14546,22.35772],[92.14709,22.35664],[92.15102,22.35668],[92.15222,22.35467],[92.15263,22.35154],[92.15355,22.33435],[92.15319,22.32733],[92.15217,22.32623],[92.14913,22.32593],[92.13892,22.32993],[92.13394,22.32966],[92.12664,22.32785],[92.12185,22.32546],[92.11508,22.32045],[92.1052,22.32098],[92.09865,22.32482],[92.09074,22.33318],[92.09017,22.33633],[92.08721,22.34082],[92.0846,22.34719],[92.07714,22.35934],[92.07469,22.36533],[92.07388,22.37057],[92.07134,22.37407],[92.0657,22.3862],[92.06334,22.38698],[92.06202,22.38651],[92.05641,22.38068],[92.04958,22.38042],[92.04599,22.38172],[92.03896,22.38914],[92.03419,22.39229],[92.03238,22.40252],[92.0306,22.40645],[92.02998,22.41057],[92.02809,22.41259],[92.02494,22.41375],[92.02391,22.41518],[92.02405,22.41761],[92.0212,22.41899],[92.01948,22.42104],[92.01934,22.42351],[92.02068,22.4262],[92.01995,22.43103],[92.02139,22.43393],[92.02139,22.43854],[92.01871,22.44002],[92.015,22.43913],[92.0048,22.43196],[91.99825,22.42884],[91.99103,22.42729],[91.98255,22.42803],[91.9647,22.43331],[91.9637,22.43935],[91.96483,22.45028],[91.9677,22.45215],[91.97673,22.4496],[91.9792,22.4531],[91.9829,22.45305],[91.98602,22.45486],[91.98436,22.46069],[91.97616,22.47378],[91.97821,22.47573],[91.981,22.47567],[91.98219,22.4771],[91.97756,22.48109],[91.97662,22.48268],[91.976,22.48754],[91.97864,22.4915],[91.97839,22.4958],[91.98011,22.49767],[91.98233,22.49778],[91.98702,22.50055]]]}},{"type":"Feature","properties":{"name":"Raozan","district_id":"chattogram","pcode":"201574","sql_upazila_id":"chattogram-raozan","sql_name_bn":"রাউজান"},"geometry":{"type":"Polygon","coordinates":[[[91.94607,22.66516],[91.94129,22.65716],[91.9446,22.64458],[91.94444,22.63922],[91.94363,22.63694],[91.9421,22.63564],[91.94657,22.62934],[91.9437,22.6276],[91.95081,22.61605],[91.9471,22.60973],[91.95003,22.60886],[91.95254,22.60657],[91.95508,22.60161],[91.95731,22.59393],[91.96025,22.59381],[91.96183,22.59088],[91.96126,22.58789],[91.96215,22.58363],[91.96404,22.57947],[91.96628,22.57673],[91.96581,22.57079],[91.96448,22.56828],[91.96856,22.56484],[91.97127,22.55824],[91.9743,22.53617],[91.97306,22.5263],[91.97679,22.52414],[91.97642,22.52111],[91.97795,22.51972],[91.97729,22.51575],[91.97479,22.51352],[91.97396,22.50849],[91.97132,22.50212],[91.97571,22.49961],[91.98122,22.50083],[91.98702,22.50055],[91.98233,22.49778],[91.98011,22.49767],[91.97839,22.4958],[91.97864,22.4915],[91.976,22.48754],[91.97662,22.48268],[91.97756,22.48109],[91.98219,22.4771],[91.981,22.47567],[91.97821,22.47573],[91.97616,22.47378],[91.98436,22.46069],[91.98602,22.45486],[91.9829,22.45305],[91.9792,22.4531],[91.97673,22.4496],[91.9677,22.45215],[91.96483,22.45028],[91.9637,22.43935],[91.9647,22.43331],[91.95686,22.43462],[91.94777,22.4381],[91.9407,22.4383],[91.91934,22.43569],[91.90394,22.43227],[91.8884,22.42595],[91.88346,22.41842],[91.88305,22.42147],[91.88133,22.42481],[91.87821,22.42783],[91.87767,22.42948],[91.87888,22.4395],[91.87615,22.44102],[91.87058,22.44243],[91.86503,22.44604],[91.86087,22.45064],[91.85427,22.46192],[91.85333,22.46758],[91.8543,22.46862],[91.85964,22.46954],[91.86718,22.46927],[91.86884,22.46773],[91.8658,22.46257],[91.86544,22.45867],[91.86689,22.45701],[91.86938,22.45909],[91.87238,22.47107],[91.87196,22.47184],[91.86316,22.4726],[91.85575,22.47224],[91.853,22.47383],[91.85292,22.47504],[91.85579,22.47779],[91.86217,22.48054],[91.86474,22.48102],[91.87212,22.48022],[91.87631,22.48742],[91.87709,22.49261],[91.8766,22.49394],[91.8726,22.49567],[91.87228,22.49754],[91.8732,22.50014],[91.87257,22.50086],[91.86776,22.50219],[91.86716,22.50319],[91.86825,22.50622],[91.87383,22.51076],[91.87108,22.51104],[91.86445,22.50799],[91.86018,22.50919],[91.85752,22.5084],[91.85204,22.50834],[91.8469,22.50581],[91.84326,22.50748],[91.84258,22.51155],[91.84628,22.51568],[91.84872,22.51647],[91.84561,22.51992],[91.84164,22.52136],[91.8416,22.52226],[91.84508,22.52571],[91.85344,22.52806],[91.84633,22.528],[91.83907,22.53376],[91.83864,22.53841],[91.84063,22.54038],[91.84244,22.54017],[91.84478,22.53677],[91.84565,22.53695],[91.84376,22.54686],[91.84326,22.54746],[91.84094,22.54693],[91.84048,22.54786],[91.8438,22.5503],[91.84448,22.55193],[91.84342,22.55531],[91.84474,22.55716],[91.84329,22.55808],[91.84299,22.56048],[91.84453,22.56503],[91.85369,22.56983],[91.85963,22.5755],[91.86228,22.5805],[91.86634,22.58247],[91.86752,22.58199],[91.86778,22.5806],[91.86549,22.57462],[91.86482,22.56673],[91.86669,22.5649],[91.86927,22.56498],[91.8748,22.56889],[91.87717,22.57574],[91.8772,22.57907],[91.88027,22.59088],[91.88294,22.59558],[91.89144,22.60433],[91.89464,22.61673],[91.90242,22.61354],[91.90355,22.61547],[91.90279,22.62439],[91.90398,22.6275],[91.90834,22.63007],[91.91451,22.63008],[91.91776,22.63452],[91.91243,22.63982],[91.9124,22.64232],[91.91331,22.64397],[91.91536,22.64511],[91.9162,22.64854],[91.92043,22.65431],[91.91588,22.65454],[91.9148,22.65609],[91.9105,22.65849],[91.91356,22.66314],[91.91751,22.66726],[91.9212,22.66801],[91.92329,22.67167],[91.92657,22.67299],[91.92853,22.67057],[91.92902,22.66523],[91.93123,22.66385],[91.93854,22.66382],[91.94607,22.66516]]]}},{"type":"Feature","properties":{"name":"Sandwip","district_id":"chattogram","pcode":"201578","sql_upazila_id":"chattogram-sandwip","sql_name_bn":"সন্দ্বীপ"},"geometry":{"type":"Polygon","coordinates":[[[91.4175,22.6],[91.42,22.60111],[91.42111,22.60056],[91.42445,22.595],[91.42722,22.59639],[91.42722,22.5975],[91.425,22.5975],[91.42416,22.59833],[91.42223,22.60167],[91.42361,22.60306],[91.4339,22.60861],[91.44278,22.61472],[91.44361,22.61417],[91.4475,22.61611],[91.44917,22.61639],[91.45055,22.61472],[91.4525,22.61472],[91.45972,22.61083],[91.46667,22.605],[91.46667,22.60306],[91.46861,22.60056],[91.47028,22.59945],[91.47444,22.59389],[91.47528,22.59389],[91.48,22.58945],[91.48944,22.57861],[91.50361,22.56111],[91.50694,22.55556],[91.51222,22.54972],[91.51334,22.54722],[91.51833,22.54222],[91.52695,22.52945],[91.53056,22.52638],[91.53472,22.51778],[91.53719,22.51462],[91.53722,22.51333],[91.54,22.51056],[91.54139,22.50834],[91.54139,22.50639],[91.54737,22.4975],[91.55278,22.48528],[91.56,22.47389],[91.56333,22.46611],[91.56528,22.46472],[91.56472,22.46333],[91.56611,22.46],[91.56583,22.45861],[91.56667,22.45778],[91.56639,22.45528],[91.56861,22.45389],[91.57056,22.45],[91.56805,22.44667],[91.57083,22.44417],[91.56973,22.44],[91.57027,22.43944],[91.57278,22.43972],[91.57472,22.43667],[91.57417,22.43444],[91.57528,22.43028],[91.57445,22.4275],[91.57472,22.42],[91.57389,22.4175],[91.57222,22.41639],[91.57195,22.41222],[91.56889,22.40833],[91.56611,22.40139],[91.55556,22.39611],[91.55,22.39556],[91.5475,22.39333],[91.54639,22.39418],[91.54444,22.3925],[91.54222,22.39305],[91.54083,22.39139],[91.53833,22.39083],[91.53139,22.38694],[91.52278,22.38722],[91.51917,22.38528],[91.51361,22.38556],[91.5125,22.38639],[91.51167,22.38556],[91.51,22.38583],[91.50916,22.38445],[91.50694,22.38472],[91.50195,22.39],[91.50083,22.38917],[91.49917,22.39028],[91.49416,22.39056],[91.4925,22.3925],[91.48944,22.39361],[91.48833,22.39278],[91.49028,22.39194],[91.49028,22.39083],[91.48389,22.39167],[91.48083,22.39528],[91.47806,22.39667],[91.47611,22.40083],[91.47305,22.40444],[91.47278,22.40612],[91.47195,22.40639],[91.47278,22.41111],[91.47166,22.41377],[91.46917,22.41722],[91.46333,22.42278],[91.45306,22.44056],[91.44167,22.455],[91.43914,22.46425],[91.43667,22.46778],[91.43667,22.46972],[91.4339,22.47417],[91.43222,22.48028],[91.425,22.49583],[91.42223,22.50361],[91.42278,22.50472],[91.42111,22.50694],[91.41805,22.51611],[91.41805,22.51917],[91.41639,22.52278],[91.41722,22.52444],[91.41889,22.52528],[91.41805,22.52667],[91.41666,22.53639],[91.41722,22.53945],[91.41417,22.54972],[91.41361,22.55305],[91.41444,22.55445],[91.41277,22.55806],[91.41833,22.56361],[91.4175,22.56389],[91.41361,22.56083],[91.41139,22.56306],[91.40916,22.56806],[91.40945,22.57028],[91.4075,22.57195],[91.4075,22.57417],[91.40611,22.57556],[91.40667,22.57861],[91.40833,22.58],[91.41084,22.58],[91.41333,22.57778],[91.41417,22.57833],[91.41111,22.58139],[91.40806,22.58194],[91.4075,22.58362],[91.40889,22.58861],[91.41111,22.59167],[91.41139,22.59361],[91.41389,22.59667],[91.41361,22.59722],[91.41722,22.59972],[91.4175,22.6]]]}},{"type":"Feature","properties":{"name":"Satkania","district_id":"chattogram","pcode":"201582","sql_upazila_id":"chattogram-satkania","sql_name_bn":"সাতকানিয়া"},"geometry":{"type":"Polygon","coordinates":[[[91.94026,22.21002],[91.95026,22.21041],[91.95596,22.20955],[91.95936,22.20897],[91.96333,22.20617],[91.97012,22.20524],[91.97794,22.1963],[91.98184,22.19457],[91.98372,22.19145],[91.98597,22.18662],[91.98634,22.18237],[91.98549,22.18078],[91.98569,22.1777],[91.99042,22.17654],[91.99183,22.17441],[91.99552,22.17193],[91.99801,22.16461],[92.00213,22.163],[92.00562,22.16226],[92.00954,22.16256],[92.02435,22.16385],[92.02791,22.16504],[92.02607,22.1687],[92.02578,22.17158],[92.0302,22.17554],[92.02999,22.18095],[92.02942,22.1827],[92.0247,22.18715],[92.03141,22.19227],[92.03495,22.19089],[92.03673,22.18869],[92.04859,22.18478],[92.04973,22.18184],[92.04725,22.16918],[92.04837,22.16115],[92.05278,22.15933],[92.05721,22.16032],[92.06167,22.16274],[92.0626,22.16459],[92.06269,22.17119],[92.06995,22.17522],[92.0729,22.17574],[92.07597,22.17335],[92.09042,22.17113],[92.0938,22.17727],[92.10055,22.17454],[92.10632,22.17402],[92.10659,22.17043],[92.11144,22.16039],[92.1163,22.15964],[92.11807,22.15209],[92.12068,22.14753],[92.11884,22.14472],[92.1245,22.14017],[92.12762,22.13953],[92.13032,22.13982],[92.12449,22.15346],[92.12719,22.15701],[92.12449,22.16287],[92.1236,22.16783],[92.12015,22.17328],[92.12051,22.17828],[92.12197,22.18153],[92.12591,22.18249],[92.12968,22.18525],[92.13197,22.18454],[92.13678,22.18126],[92.14186,22.18242],[92.14303,22.18472],[92.14081,22.19308],[92.14375,22.19557],[92.13699,22.20606],[92.13473,22.20819],[92.13619,22.21295],[92.1401,22.2157],[92.14138,22.21582],[92.14406,22.21247],[92.14851,22.21045],[92.14894,22.20817],[92.15115,22.20481],[92.15479,22.20508],[92.16565,22.20274],[92.15874,22.19486],[92.15724,22.19093],[92.16043,22.19033],[92.16392,22.18853],[92.16369,22.18114],[92.16598,22.17523],[92.17171,22.1736],[92.17138,22.16771],[92.16998,22.1626],[92.16335,22.15473],[92.16825,22.14768],[92.17469,22.14388],[92.17381,22.13646],[92.17152,22.13342],[92.1619,22.1293],[92.15783,22.12371],[92.1545,22.12383],[92.14794,22.12685],[92.1451,22.11889],[92.1574,22.11517],[92.1644,22.1142],[92.16615,22.11247],[92.16395,22.109],[92.15663,22.102],[92.15608,22.09967],[92.15908,22.09807],[92.16656,22.09832],[92.16751,22.09556],[92.17449,22.09413],[92.17632,22.09261],[92.17818,22.08815],[92.17788,22.08609],[92.17206,22.07843],[92.17124,22.07477],[92.16731,22.07084],[92.16291,22.06855],[92.15752,22.06815],[92.15498,22.0688],[92.15004,22.07293],[92.14563,22.07866],[92.13062,22.07887],[92.12325,22.08508],[92.1204,22.08557],[92.1169,22.08502],[92.11357,22.08317],[92.11037,22.07686],[92.11431,22.07292],[92.11429,22.07064],[92.11181,22.06988],[92.10932,22.06793],[92.10658,22.06731],[92.10318,22.06198],[92.10291,22.05872],[92.10014,22.05337],[92.09786,22.05181],[92.0954,22.05204],[92.09154,22.05022],[92.08877,22.0468],[92.08441,22.04513],[92.07876,22.04543],[92.0775,22.04364],[92.07844,22.03826],[92.08313,22.02344],[92.07525,22.02382],[92.07226,22.02713],[92.07127,22.03102],[92.06883,22.03418],[92.06269,22.0366],[92.06137,22.03946],[92.06138,22.0428],[92.05887,22.04571],[92.05585,22.04678],[92.05329,22.04667],[92.04817,22.04325],[92.03745,22.03995],[92.03558,22.03852],[92.035,22.03073],[92.03153,22.02868],[92.02304,22.0255],[92.00926,22.02382],[92.00324,22.02759],[92.00145,22.03411],[92.00096,22.0424],[91.99937,22.04534],[91.99687,22.04747],[91.99718,22.05134],[91.99633,22.05395],[91.99442,22.05669],[91.991,22.05707],[91.98874,22.05841],[91.98958,22.06832],[91.98615,22.07177],[91.98663,22.07524],[91.98507,22.07983],[91.98505,22.08757],[91.987,22.08906],[91.99016,22.09353],[91.992,22.09931],[91.98954,22.10132],[91.97868,22.10167],[91.9703,22.0988],[91.96008,22.09876],[91.9579,22.10031],[91.95487,22.11549],[91.95557,22.11926],[91.95361,22.12805],[91.95455,22.1308],[91.96937,22.13519],[91.97105,22.13991],[91.97328,22.13978],[91.97408,22.13529],[91.97885,22.13462],[91.98194,22.13173],[91.98676,22.12204],[91.99035,22.12061],[91.99647,22.11974],[91.99678,22.12197],[91.99431,22.12852],[91.99513,22.13177],[91.98906,22.14223],[91.98545,22.14317],[91.98526,22.14604],[91.98399,22.14894],[91.97548,22.14654],[91.9738,22.14739],[91.97223,22.1586],[91.97009,22.15996],[91.96674,22.16647],[91.96712,22.16873],[91.96503,22.17065],[91.95986,22.16774],[91.95406,22.16764],[91.95171,22.16898],[91.9505,22.17201],[91.95159,22.1771],[91.94861,22.1825],[91.94848,22.18506],[91.95547,22.18619],[91.95527,22.18798],[91.94656,22.19086],[91.93528,22.19255],[91.93369,22.19481],[91.9387,22.19802],[91.93991,22.20566],[91.94026,22.21002]]]}},{"type":"Feature","properties":{"name":"Sitakunda","district_id":"chattogram","pcode":"201586","sql_upazila_id":"chattogram-sitakunda","sql_name_bn":"সীতাকুন্ড"},"geometry":{"type":"Polygon","coordinates":[[[91.69536,22.62126],[91.70017,22.61731],[91.70287,22.61616],[91.70907,22.59979],[91.71158,22.58089],[91.71401,22.57878],[91.71744,22.58009],[91.71964,22.57975],[91.72028,22.57153],[91.72137,22.56921],[91.72359,22.56705],[91.7255,22.56192],[91.72753,22.55169],[91.72952,22.54701],[91.73259,22.54611],[91.73895,22.5469],[91.74125,22.54528],[91.74367,22.54155],[91.7449,22.53525],[91.74975,22.53166],[91.75256,22.52424],[91.75262,22.52152],[91.75721,22.51746],[91.75861,22.51192],[91.75852,22.50535],[91.75765,22.50208],[91.75888,22.50037],[91.76698,22.49702],[91.76649,22.4891],[91.76265,22.48601],[91.75621,22.48368],[91.75552,22.47773],[91.76811,22.46085],[91.77266,22.45041],[91.77213,22.44364],[91.77264,22.43926],[91.77677,22.43225],[91.77833,22.41948],[91.78476,22.41062],[91.78591,22.40624],[91.78174,22.39776],[91.77823,22.39695],[91.77076,22.39114],[91.77064,22.38878],[91.76889,22.38603],[91.75341,22.38134],[91.74889,22.37806],[91.74973,22.37889],[91.74917,22.38],[91.7475,22.38055],[91.74695,22.38417],[91.74389,22.38667],[91.74555,22.38833],[91.74555,22.38944],[91.74445,22.39194],[91.745,22.39611],[91.74361,22.39778],[91.74583,22.39917],[91.74306,22.40111],[91.74028,22.40639],[91.74111,22.40806],[91.74028,22.40889],[91.74028,22.41167],[91.73389,22.41778],[91.73306,22.42],[91.72916,22.42444],[91.72861,22.42722],[91.72972,22.4275],[91.73306,22.43167],[91.73194,22.43306],[91.73,22.4325],[91.72833,22.43361],[91.72611,22.43583],[91.72583,22.43778],[91.72389,22.43944],[91.72361,22.44333],[91.72195,22.44667],[91.72195,22.44833],[91.71806,22.45139],[91.71889,22.45528],[91.7175,22.45639],[91.71667,22.46056],[91.71361,22.46305],[91.71555,22.46472],[91.71611,22.46639],[91.7136,22.47],[91.71361,22.47167],[91.71139,22.47389],[91.71111,22.47639],[91.71222,22.47861],[91.70834,22.485],[91.70861,22.4875],[91.70722,22.48861],[91.70611,22.48833],[91.70361,22.49083],[91.70194,22.49444],[91.7,22.49611],[91.69429,22.50616],[91.69444,22.50945],[91.68833,22.51528],[91.68861,22.51694],[91.68694,22.51861],[91.6836,22.51972],[91.6825,22.52083],[91.68027,22.52778],[91.67333,22.53417],[91.67333,22.53555],[91.67194,22.53639],[91.67111,22.53945],[91.66834,22.54361],[91.66111,22.54917],[91.65806,22.55333],[91.65668,22.55362],[91.65639,22.55667],[91.655,22.55694],[91.65195,22.55944],[91.64917,22.56249],[91.64889,22.56389],[91.64639,22.56306],[91.64528,22.56417],[91.64584,22.56583],[91.64389,22.56694],[91.64278,22.56889],[91.64222,22.56944],[91.64056,22.56889],[91.63861,22.57083],[91.6375,22.5725],[91.63805,22.57417],[91.63611,22.57611],[91.635,22.57556],[91.63389,22.57611],[91.62917,22.58056],[91.62889,22.58167],[91.62666,22.58278],[91.62666,22.58417],[91.62473,22.58639],[91.62334,22.58667],[91.61861,22.59167],[91.61723,22.59194],[91.61444,22.59528],[91.61195,22.59611],[91.60333,22.60556],[91.60056,22.6075],[91.59535,22.61409],[91.59656,22.61473],[91.60274,22.62609],[91.61231,22.64066],[91.61644,22.63704],[91.61807,22.637],[91.62115,22.63924],[91.62189,22.63813],[91.62143,22.63442],[91.62254,22.62966],[91.62348,22.6283],[91.62565,22.62967],[91.63408,22.64007],[91.63986,22.64439],[91.63904,22.6466],[91.63704,22.64767],[91.63495,22.64573],[91.63356,22.64304],[91.632,22.64265],[91.63095,22.64614],[91.62831,22.64878],[91.63098,22.65347],[91.63311,22.65476],[91.64001,22.65533],[91.64422,22.65722],[91.64813,22.66051],[91.65049,22.65997],[91.65129,22.6621],[91.65108,22.66446],[91.65863,22.67281],[91.65869,22.67435],[91.66068,22.67698],[91.66817,22.68042],[91.67553,22.66953],[91.67599,22.66414],[91.67856,22.65432],[91.68617,22.64607],[91.68848,22.64186],[91.69083,22.63447],[91.6928,22.62433],[91.69536,22.62126]]]}}]}