{"type":"FeatureCollection","features":[{"type":"Feature","properties":{"name":"Alamdanga","district_id":"chuadanga","pcode":"401807","sql_upazila_id":"chuadanga-alamdanga","sql_name_bn":"আলমডাঙ্গা"},"geometry":{"type":"Polygon","coordinates":[[[88.86477,23.83644],[88.86884,23.83195],[88.87361,23.83196],[88.88147,23.83588],[88.88474,23.83543],[88.8948,23.83051],[88.90054,23.82928],[88.90263,23.82968],[88.90794,23.83563],[88.91284,23.83958],[88.91522,23.83762],[88.91763,23.83061],[88.92037,23.82811],[88.92381,23.82702],[88.9268,23.82441],[88.92839,23.81983],[88.92751,23.81522],[88.9229,23.80651],[88.92081,23.79724],[88.91632,23.78851],[88.91735,23.7862],[88.9183,23.78508],[88.92357,23.78553],[88.93262,23.79015],[88.93565,23.79342],[88.93815,23.79826],[88.94044,23.79859],[88.94618,23.79377],[88.94704,23.79069],[88.94475,23.78052],[88.94624,23.77715],[88.95082,23.77076],[88.96024,23.75458],[88.96335,23.75259],[88.96644,23.7522],[88.97045,23.75521],[88.97684,23.77033],[88.9825,23.77844],[88.98512,23.7795],[88.98918,23.77873],[88.99538,23.77268],[88.99873,23.77056],[89.00079,23.77101],[89.00264,23.77409],[89.00441,23.78027],[89.00805,23.7861],[89.01028,23.78643],[89.01165,23.7834],[89.00792,23.77225],[88.99622,23.75439],[88.99802,23.75187],[89.00916,23.74908],[89.01165,23.74671],[89.01431,23.73711],[89.01404,23.72218],[89.01549,23.71687],[89.0196,23.70871],[89.01299,23.692],[89.01398,23.67593],[89.0112,23.66899],[89.01237,23.66272],[89.01667,23.66119],[89.01867,23.65906],[89.01962,23.65628],[89.01501,23.64453],[89.01334,23.64155],[89.01116,23.64065],[89.01168,23.63846],[89.01456,23.63378],[89.01642,23.62759],[89.01502,23.62226],[89.00982,23.62479],[89.00667,23.62787],[89.00205,23.62557],[88.99116,23.61764],[88.98801,23.61735],[88.98594,23.61902],[88.98439,23.62211],[88.98209,23.62436],[88.97337,23.62351],[88.96759,23.6252],[88.95616,23.62507],[88.95167,23.62579],[88.94776,23.62518],[88.94569,23.62359],[88.94471,23.627],[88.94254,23.62931],[88.93974,23.62883],[88.93945,23.62604],[88.93748,23.62364],[88.93508,23.62406],[88.93106,23.63055],[88.92432,23.63375],[88.92381,23.63618],[88.92067,23.64023],[88.91914,23.64452],[88.92155,23.65131],[88.91538,23.66245],[88.91522,23.66715],[88.91197,23.66846],[88.91134,23.67111],[88.90839,23.67253],[88.91235,23.68596],[88.90563,23.69081],[88.90188,23.69175],[88.89491,23.68912],[88.89184,23.68979],[88.88746,23.69412],[88.88374,23.68984],[88.88049,23.68788],[88.87081,23.68529],[88.86458,23.68555],[88.86042,23.68483],[88.8576,23.68223],[88.86039,23.67957],[88.85844,23.67717],[88.85399,23.67743],[88.85249,23.68006],[88.8541,23.68361],[88.85303,23.69326],[88.84366,23.69134],[88.84452,23.68725],[88.84328,23.68666],[88.84055,23.6864],[88.83227,23.68948],[88.82555,23.69068],[88.82276,23.68997],[88.81918,23.68689],[88.81485,23.68622],[88.81379,23.68923],[88.81148,23.69131],[88.80371,23.70364],[88.80187,23.70473],[88.79818,23.70571],[88.7921,23.70408],[88.78641,23.70369],[88.78056,23.70497],[88.78818,23.71412],[88.78778,23.71573],[88.78889,23.71901],[88.79084,23.72089],[88.78902,23.72353],[88.78628,23.72551],[88.78559,23.72914],[88.78797,23.74188],[88.79293,23.7463],[88.79344,23.75011],[88.79234,23.75856],[88.79684,23.77622],[88.79908,23.77741],[88.80059,23.77518],[88.80389,23.77347],[88.81071,23.77445],[88.81745,23.77819],[88.82169,23.77649],[88.82362,23.77683],[88.82514,23.7793],[88.82845,23.79562],[88.83453,23.80733],[88.83759,23.81656],[88.84033,23.82139],[88.84705,23.82357],[88.85149,23.83024],[88.85262,23.83455],[88.85556,23.83646],[88.86477,23.83644]]]}},{"type":"Feature","properties":{"name":"Chuadanga S.","district_id":"chuadanga","pcode":"401823","sql_upazila_id":null,"sql_name_bn":null},"geometry":{"type":"Polygon","coordinates":[[[88.81485,23.68622],[88.81918,23.68689],[88.82276,23.68997],[88.82555,23.69068],[88.83227,23.68948],[88.84055,23.6864],[88.84328,23.68666],[88.84452,23.68725],[88.84366,23.69134],[88.85303,23.69326],[88.8541,23.68361],[88.85249,23.68006],[88.85399,23.67743],[88.85844,23.67717],[88.86039,23.67957],[88.8576,23.68223],[88.86042,23.68483],[88.86458,23.68555],[88.87081,23.68529],[88.88049,23.68788],[88.88374,23.68984],[88.88746,23.69412],[88.89184,23.68979],[88.89491,23.68912],[88.90188,23.69175],[88.90563,23.69081],[88.91235,23.68596],[88.90839,23.67253],[88.91134,23.67111],[88.91197,23.66846],[88.91522,23.66715],[88.91538,23.66245],[88.92155,23.65131],[88.91914,23.64452],[88.92067,23.64023],[88.92381,23.63618],[88.92432,23.63375],[88.93106,23.63055],[88.93508,23.62406],[88.93748,23.62364],[88.93945,23.62604],[88.93974,23.62883],[88.94254,23.62931],[88.94471,23.627],[88.94569,23.62359],[88.94776,23.62518],[88.95167,23.62579],[88.95616,23.62507],[88.96759,23.6252],[88.97337,23.62351],[88.98209,23.62436],[88.98439,23.62211],[88.98594,23.61902],[88.98801,23.61735],[88.99116,23.61764],[89.00205,23.62557],[89.00667,23.62787],[89.00982,23.62479],[89.01502,23.62226],[89.01151,23.61569],[89.0089,23.60461],[89.00519,23.59781],[89.00358,23.60085],[89.00108,23.59938],[88.9936,23.58905],[88.99003,23.58249],[88.98943,23.57964],[88.98987,23.57384],[88.98109,23.55989],[88.98059,23.55269],[88.9787,23.55064],[88.95978,23.5557],[88.95496,23.55539],[88.95097,23.55306],[88.94482,23.54698],[88.94141,23.53994],[88.94083,23.53532],[88.94308,23.52935],[88.94746,23.52571],[88.9499,23.52094],[88.95044,23.51663],[88.94953,23.50378],[88.94711,23.51027],[88.94429,23.51431],[88.94077,23.51066],[88.94083,23.50699],[88.94317,23.50331],[88.94403,23.50006],[88.94231,23.49721],[88.93823,23.49666],[88.92871,23.50231],[88.92593,23.50246],[88.92405,23.50372],[88.92229,23.50613],[88.92192,23.50889],[88.92278,23.51224],[88.9206,23.51826],[88.9185,23.51845],[88.91622,23.51148],[88.91428,23.50972],[88.90617,23.50781],[88.90135,23.50414],[88.89714,23.50325],[88.88388,23.50358],[88.87801,23.50619],[88.87209,23.50615],[88.87045,23.50471],[88.86706,23.50443],[88.86183,23.50586],[88.85988,23.5069],[88.85905,23.50858],[88.85623,23.50977],[88.85577,23.512],[88.8507,23.51865],[88.84669,23.51826],[88.84418,23.51646],[88.83392,23.51548],[88.82829,23.51035],[88.8288,23.50776],[88.8349,23.5],[88.83765,23.49464],[88.83521,23.49249],[88.83241,23.49105],[88.82913,23.49092],[88.82602,23.49302],[88.82295,23.49387],[88.81642,23.49105],[88.81104,23.49369],[88.81023,23.50024],[88.80746,23.50474],[88.80944,23.50885],[88.80933,23.51297],[88.80765,23.5195],[88.81034,23.52158],[88.81379,23.52135],[88.81486,23.52246],[88.81869,23.53362],[88.82174,23.53512],[88.82282,23.53359],[88.82504,23.53306],[88.8266,23.53438],[88.8288,23.53689],[88.82841,23.53919],[88.82935,23.54339],[88.83321,23.54601],[88.83361,23.54766],[88.82456,23.54882],[88.82368,23.55159],[88.82156,23.55355],[88.8203,23.55651],[88.82102,23.55872],[88.82499,23.56306],[88.82608,23.56548],[88.82602,23.56926],[88.82336,23.57633],[88.82415,23.5794],[88.82391,23.58284],[88.82887,23.58817],[88.83046,23.59458],[88.83531,23.59643],[88.83792,23.60464],[88.84096,23.60535],[88.84971,23.61169],[88.84956,23.61341],[88.84686,23.61556],[88.84418,23.61662],[88.841,23.6153],[88.83717,23.61857],[88.83305,23.6194],[88.83022,23.61691],[88.8297,23.61498],[88.82658,23.61308],[88.82405,23.60939],[88.82174,23.61181],[88.8261,23.62106],[88.82475,23.62534],[88.82592,23.62902],[88.82546,23.63075],[88.81797,23.6334],[88.8137,23.6328],[88.81181,23.63429],[88.80902,23.63329],[88.80876,23.62947],[88.80678,23.62902],[88.8018,23.63399],[88.79982,23.63772],[88.79735,23.63745],[88.79465,23.63543],[88.79251,23.63635],[88.79182,23.63907],[88.7944,23.64248],[88.80476,23.65187],[88.80824,23.65685],[88.81084,23.66792],[88.81152,23.6762],[88.81389,23.67709],[88.81445,23.68074],[88.81485,23.68622]]]}},{"type":"Feature","properties":{"name":"Damurhuda","district_id":"chuadanga","pcode":"401831","sql_upazila_id":"chuadanga-damurhuda","sql_name_bn":"দামুড়হুদা"},"geometry":{"type":"Polygon","coordinates":[[[88.81485,23.68622],[88.81389,23.67709],[88.81152,23.6762],[88.81084,23.66792],[88.80824,23.65685],[88.80476,23.65187],[88.7944,23.64248],[88.79182,23.63907],[88.79251,23.63635],[88.79379,23.63557],[88.79465,23.63543],[88.79735,23.63745],[88.79982,23.63772],[88.8018,23.63399],[88.80678,23.62902],[88.80876,23.62947],[88.80902,23.63329],[88.81181,23.63429],[88.8137,23.6328],[88.81797,23.6334],[88.82546,23.63075],[88.82592,23.62902],[88.82475,23.62534],[88.8261,23.62106],[88.82174,23.61181],[88.82405,23.60939],[88.82658,23.61308],[88.8297,23.61498],[88.83022,23.61691],[88.83305,23.6194],[88.83717,23.61857],[88.841,23.6153],[88.84418,23.61662],[88.84956,23.61341],[88.84971,23.61169],[88.84096,23.60535],[88.83792,23.60464],[88.83531,23.59643],[88.83046,23.59458],[88.82887,23.58817],[88.82391,23.58284],[88.82415,23.5794],[88.82336,23.57633],[88.82602,23.56926],[88.82608,23.56548],[88.82499,23.56306],[88.82102,23.55872],[88.8203,23.55651],[88.82156,23.55355],[88.82368,23.55159],[88.82456,23.54882],[88.83361,23.54766],[88.83321,23.54601],[88.82935,23.54339],[88.82841,23.53919],[88.8288,23.53689],[88.8266,23.53438],[88.82504,23.53306],[88.82282,23.53359],[88.82174,23.53512],[88.81869,23.53362],[88.81486,23.52246],[88.81379,23.52135],[88.81034,23.52158],[88.80765,23.5195],[88.80933,23.51297],[88.80944,23.50885],[88.80746,23.50474],[88.79118,23.49581],[88.7868,23.49567],[88.78263,23.49814],[88.77944,23.49767],[88.77074,23.49266],[88.77015,23.48925],[88.77177,23.48517],[88.76656,23.48232],[88.75962,23.48604],[88.75681,23.48537],[88.75621,23.47903],[88.75497,23.47811],[88.74957,23.47967],[88.74614,23.47943],[88.74292,23.48078],[88.73994,23.49073],[88.73085,23.49679],[88.72736,23.50832],[88.72517,23.50923],[88.71853,23.50739],[88.71647,23.50791],[88.71213,23.50987],[88.71088,23.51234],[88.70867,23.51391],[88.69862,23.51547],[88.6954,23.51748],[88.69242,23.52561],[88.68677,23.52922],[88.68624,23.53534],[88.68427,23.53897],[88.67723,23.54326],[88.67442,23.54591],[88.66162,23.54973],[88.66161,23.55062],[88.65919,23.55266],[88.65744,23.55603],[88.65546,23.55761],[88.65247,23.56551],[88.64845,23.58431],[88.64474,23.58747],[88.64181,23.5881],[88.63872,23.59331],[88.63931,23.59716],[88.64494,23.60217],[88.64492,23.60806],[88.64368,23.60849],[88.63779,23.60598],[88.62748,23.60547],[88.62424,23.60398],[88.64452,23.61511],[88.64705,23.61505],[88.64732,23.61664],[88.64313,23.62124],[88.64521,23.62399],[88.65314,23.6263],[88.65726,23.62886],[88.65748,23.63086],[88.65229,23.63085],[88.65129,23.6338],[88.65711,23.64295],[88.65491,23.64851],[88.65828,23.65052],[88.66121,23.6561],[88.66696,23.65683],[88.67058,23.65879],[88.67346,23.65702],[88.67961,23.65585],[88.68192,23.65349],[88.69006,23.65592],[88.6922,23.65866],[88.693,23.66241],[88.69559,23.66588],[88.69854,23.66532],[88.70123,23.66329],[88.70297,23.66432],[88.70525,23.67112],[88.73092,23.68082],[88.74799,23.69332],[88.75608,23.70073],[88.78056,23.70497],[88.78641,23.70369],[88.7921,23.70408],[88.79818,23.70571],[88.80371,23.70364],[88.81148,23.69131],[88.81379,23.68923],[88.81485,23.68622]]]}},{"type":"Feature","properties":{"name":"Jibannagar","district_id":"chuadanga","pcode":"401855","sql_upazila_id":"chuadanga-jibannagar","sql_name_bn":"জীবননগর"},"geometry":{"type":"MultiPolygon","coordinates":[[[[88.77202,23.48131],[88.77046,23.47978],[88.76656,23.48232],[88.77177,23.48517],[88.77213,23.48428],[88.77202,23.48131]]],[[[88.86183,23.50586],[88.86706,23.50443],[88.87045,23.50471],[88.87209,23.50615],[88.87801,23.50619],[88.88388,23.50358],[88.89714,23.50325],[88.90135,23.50414],[88.90617,23.50781],[88.91428,23.50972],[88.91622,23.51148],[88.9185,23.51845],[88.9206,23.51826],[88.92278,23.51224],[88.92192,23.50889],[88.92229,23.50613],[88.92405,23.50372],[88.92593,23.50246],[88.92871,23.50231],[88.93823,23.49666],[88.94231,23.49721],[88.94403,23.50006],[88.94317,23.50331],[88.94083,23.50699],[88.94077,23.51066],[88.94429,23.51431],[88.94711,23.51027],[88.94953,23.50378],[88.94815,23.49598],[88.94833,23.49168],[88.95051,23.48302],[88.94924,23.47763],[88.94627,23.47367],[88.94178,23.4709],[88.94048,23.46711],[88.94183,23.46283],[88.94024,23.46071],[88.93797,23.4613],[88.93401,23.46086],[88.93335,23.45808],[88.93587,23.45113],[88.92961,23.44882],[88.92599,23.44649],[88.92436,23.44173],[88.93752,23.44689],[88.94049,23.44685],[88.94211,23.44422],[88.94936,23.43974],[88.9502,23.4353],[88.94875,23.42973],[88.94151,23.43142],[88.93964,23.43074],[88.93901,23.4267],[88.94027,23.4211],[88.93996,23.4175],[88.93452,23.41695],[88.92638,23.42369],[88.92245,23.42468],[88.91887,23.42423],[88.91737,23.42318],[88.91783,23.42111],[88.92276,23.42101],[88.92629,23.41871],[88.92779,23.41574],[88.92474,23.41487],[88.92365,23.41193],[88.91804,23.41189],[88.91473,23.40909],[88.90113,23.41464],[88.89445,23.41022],[88.88788,23.41119],[88.8857,23.40972],[88.88328,23.40487],[88.88223,23.39833],[88.87972,23.3924],[88.87778,23.39069],[88.87095,23.38736],[88.86772,23.38273],[88.86598,23.38216],[88.86362,23.38372],[88.86349,23.38733],[88.86253,23.38867],[88.86059,23.38736],[88.85956,23.38466],[88.85799,23.38328],[88.85287,23.38666],[88.84954,23.38637],[88.84673,23.38732],[88.84245,23.3937],[88.83986,23.3931],[88.83641,23.38629],[88.83429,23.3847],[88.82732,23.39157],[88.82414,23.39339],[88.81595,23.39011],[88.81113,23.38569],[88.80509,23.38137],[88.80347,23.38097],[88.80026,23.38073],[88.79697,23.38621],[88.79043,23.38597],[88.78847,23.38294],[88.78613,23.37598],[88.78206,23.37165],[88.77991,23.37235],[88.78235,23.37816],[88.78208,23.38058],[88.78024,23.38138],[88.76115,23.37084],[88.76035,23.37124],[88.75868,23.37938],[88.75348,23.38744],[88.75293,23.38957],[88.75308,23.39772],[88.75821,23.40158],[88.76005,23.40589],[88.76043,23.40973],[88.75943,23.41018],[88.75841,23.41292],[88.75741,23.41901],[88.76036,23.42356],[88.76299,23.43781],[88.7653,23.44281],[88.76986,23.44352],[88.77304,23.43966],[88.77798,23.43587],[88.7809,23.4363],[88.78359,23.43971],[88.78996,23.44065],[88.79142,23.44224],[88.7914,23.44496],[88.78943,23.4488],[88.78841,23.46487],[88.79059,23.47054],[88.79792,23.47533],[88.79963,23.47716],[88.80015,23.48054],[88.79606,23.48149],[88.79613,23.48287],[88.79478,23.48307],[88.7953,23.48528],[88.79873,23.48879],[88.79935,23.49156],[88.79851,23.49489],[88.79641,23.49638],[88.79118,23.49581],[88.80746,23.50474],[88.81023,23.50024],[88.81104,23.49369],[88.81642,23.49105],[88.82295,23.49387],[88.82602,23.49302],[88.82913,23.49092],[88.83241,23.49105],[88.83765,23.49464],[88.8349,23.5],[88.8288,23.50776],[88.82829,23.51035],[88.83392,23.51548],[88.84418,23.51646],[88.84669,23.51826],[88.8507,23.51865],[88.85577,23.512],[88.85623,23.50977],[88.85905,23.50858],[88.85988,23.5069],[88.86183,23.50586]]]]}}]}