{"type":"FeatureCollection","features":[{"type":"Feature","properties":{"name":"Chakaria","district_id":"coxsbazar","pcode":"202216","sql_upazila_id":"coxsbazar-chakaria","sql_name_bn":"চকরিয়া"},"geometry":{"type":"MultiPolygon","coordinates":[[[[91.98778,21.65278],[91.98666,21.64861],[91.985,21.64806],[91.97945,21.65389],[91.97972,21.65472],[91.98417,21.65611],[91.99,21.65667],[91.99028,21.65556],[91.98833,21.65333],[91.98778,21.65278]]],[[[92.0669,21.93561],[92.06999,21.92818],[92.07222,21.92585],[92.07591,21.92564],[92.0781,21.92416],[92.0826,21.91874],[92.08547,21.91721],[92.08864,21.91304],[92.09058,21.9121],[92.09216,21.90791],[92.09307,21.90154],[92.09137,21.89101],[92.09531,21.87342],[92.09457,21.8713],[92.0963,21.86302],[92.09619,21.85533],[92.1,21.84737],[92.10302,21.8435],[92.10161,21.83612],[92.09716,21.83261],[92.0948,21.83245],[92.09267,21.82966],[92.08943,21.81716],[92.0898,21.8126],[92.09205,21.80905],[92.09831,21.80748],[92.10905,21.8075],[92.1106,21.80651],[92.11404,21.79671],[92.11442,21.79249],[92.11682,21.79153],[92.11922,21.79298],[92.12983,21.79257],[92.1368,21.79603],[92.14001,21.79655],[92.14337,21.79463],[92.14724,21.78958],[92.15136,21.77989],[92.15401,21.77754],[92.16457,21.77648],[92.16968,21.77418],[92.17272,21.77768],[92.17512,21.7792],[92.17918,21.78457],[92.18476,21.78933],[92.18732,21.78905],[92.18904,21.78771],[92.18867,21.78531],[92.18961,21.78053],[92.19254,21.78077],[92.19422,21.78704],[92.19419,21.79153],[92.18875,21.80061],[92.18537,21.81923],[92.17614,21.83772],[92.17695,21.8423],[92.18008,21.84358],[92.18968,21.84447],[92.19179,21.84302],[92.19172,21.83786],[92.18735,21.83246],[92.19188,21.82673],[92.19387,21.81954],[92.19743,21.8219],[92.20102,21.82238],[92.20397,21.82085],[92.20603,21.81735],[92.21137,21.81217],[92.21024,21.80045],[92.21556,21.78887],[92.21327,21.78449],[92.21139,21.78385],[92.20543,21.78656],[92.20269,21.78668],[92.2004,21.78287],[92.20022,21.7803],[92.20193,21.77513],[92.2002,21.77241],[92.19456,21.77474],[92.18713,21.77454],[92.18533,21.77695],[92.1822,21.77831],[92.1726,21.7671],[92.16941,21.76188],[92.16191,21.74276],[92.16265,21.74019],[92.16536,21.73776],[92.165,21.73378],[92.15919,21.73118],[92.14951,21.72958],[92.14216,21.73267],[92.12638,21.73469],[92.12319,21.73607],[92.12141,21.73532],[92.12203,21.73191],[92.12901,21.73067],[92.12782,21.72728],[92.12185,21.72789],[92.11782,21.72742],[92.11708,21.72414],[92.12452,21.71721],[92.12494,21.7133],[92.12319,21.71247],[92.11663,21.71393],[92.11618,21.71089],[92.11731,21.70883],[92.12332,21.70525],[92.12411,21.70352],[92.12225,21.70005],[92.11383,21.69162],[92.1021,21.68505],[92.09975,21.6829],[92.09979,21.68083],[92.10794,21.67746],[92.11077,21.67532],[92.11129,21.67203],[92.11043,21.66872],[92.10867,21.66606],[92.11194,21.66564],[92.11686,21.66669],[92.1178,21.66394],[92.11514,21.65772],[92.11203,21.65591],[92.11008,21.6532],[92.11174,21.65022],[92.12008,21.64756],[92.1153,21.64272],[92.10897,21.6401],[92.10858,21.63722],[92.11247,21.63621],[92.12135,21.6288],[92.12697,21.62712],[92.13312,21.62183],[92.14651,21.61568],[92.14939,21.6134],[92.15142,21.61028],[92.15193,21.60671],[92.15059,21.59955],[92.14443,21.59596],[92.1389,21.59398],[92.13056,21.58575],[92.12828,21.58237],[92.1231,21.57889],[92.1207,21.57827],[92.1181,21.57807],[92.11328,21.5816],[92.11213,21.57885],[92.11034,21.57743],[92.10753,21.57832],[92.1048,21.58293],[92.10003,21.58005],[92.09314,21.57995],[92.0927,21.57802],[92.08592,21.57803],[92.07618,21.57436],[92.07372,21.57473],[92.07146,21.57613],[92.06856,21.58323],[92.06945,21.58806],[92.07111,21.59024],[92.06986,21.59269],[92.06721,21.59461],[92.0608,21.59376],[92.05809,21.59415],[92.05672,21.60021],[92.0537,21.6005],[92.04809,21.59814],[92.04729,21.60107],[92.04393,21.60586],[92.0367,21.60744],[92.03445,21.60764],[92.03166,21.60615],[92.02947,21.59859],[92.02703,21.5964],[92.01963,21.59459],[92.01278,21.59745],[92.01028,21.59694],[92.01058,21.59778],[92.01334,21.59805],[92.01833,21.60222],[92.02,21.60778],[92.01667,21.61555],[92.01083,21.62167],[92.00972,21.62444],[92.01,21.62667],[92.01833,21.63694],[92.02583,21.64278],[92.03222,21.64583],[92.03611,21.65028],[92.03861,21.65083],[92.04028,21.65362],[92.0398,21.65661],[92.03778,21.65833],[92.03407,21.65874],[92.039,21.65632],[92.03922,21.65484],[92.03833,21.65306],[92.03139,21.64722],[92.02444,21.64361],[92.01861,21.63944],[92.00916,21.62778],[92.00945,21.62194],[92.01639,21.61168],[92.01874,21.60591],[92.01809,21.60395],[92.01389,21.60111],[92.0086,21.60111],[92.00981,21.60719],[92.00895,21.61216],[92.00695,21.61687],[91.99763,21.63106],[91.99563,21.6394],[91.99563,21.64612],[92,21.65667],[92.01417,21.65722],[92.02083,21.65972],[92.01972,21.66028],[92.01417,21.65861],[92.00305,21.65972],[92,21.65916],[91.99448,21.65957],[91.9796,21.65573],[91.97271,21.66253],[91.97071,21.66307],[91.96526,21.6671],[91.96154,21.67141],[91.96183,21.67436],[91.9667,21.67678],[91.9687,21.67678],[91.97873,21.6827],[91.98389,21.69481],[91.9836,21.69534],[91.98273,21.69427],[91.97901,21.68674],[91.97586,21.68297],[91.96469,21.67705],[91.96097,21.67598],[91.95724,21.68432],[91.95496,21.69427],[91.94836,21.71148],[91.94608,21.72628],[91.9455,21.73946],[91.94379,21.74241],[91.93863,21.74806],[91.93863,21.74981],[91.94858,21.75627],[91.95045,21.76023],[91.95001,21.76575],[91.94666,21.77361],[91.94666,21.77583],[91.95139,21.78083],[91.95306,21.78639],[91.95472,21.78806],[91.95722,21.78889],[91.96528,21.78861],[91.96639,21.78778],[91.96722,21.78861],[91.97389,21.78861],[91.97417,21.78972],[91.95722,21.79028],[91.95444,21.78972],[91.9525,21.78778],[91.95111,21.7825],[91.94695,21.77834],[91.94526,21.775],[91.94887,21.76474],[91.94836,21.75855],[91.94464,21.75479],[91.94235,21.75371],[91.93977,21.75398],[91.93634,21.74914],[91.93662,21.74403],[91.94006,21.74295],[91.94235,21.74026],[91.94321,21.73784],[91.94329,21.73056],[91.94089,21.73167],[91.9354,21.73031],[91.92424,21.72456],[91.92291,21.72235],[91.92018,21.72115],[91.91928,21.72154],[91.91655,21.71031],[91.91543,21.71077],[91.91543,21.71471],[91.91129,21.72621],[91.91046,21.73117],[91.91101,21.73676],[91.91767,21.75126],[91.91793,21.75488],[91.91714,21.75791],[91.89357,21.77252],[91.89174,21.77238],[91.89042,21.77098],[91.88597,21.7623],[91.88707,21.76877],[91.8885,21.77039],[91.88879,21.77469],[91.89165,21.77953],[91.89394,21.78599],[91.89796,21.79191],[91.9034,21.80267],[91.90999,21.81692],[91.91056,21.82284],[91.91285,21.82956],[91.91514,21.84274],[91.91629,21.85458],[91.916,21.86187],[91.92024,21.86288],[91.92071,21.87033],[91.92413,21.86742],[91.92614,21.86713],[91.92947,21.8685],[91.9302,21.87391],[91.92944,21.88278],[91.93294,21.88911],[91.93441,21.89014],[91.94552,21.88978],[91.94837,21.89104],[91.95046,21.89326],[91.95136,21.89856],[91.95378,21.89918],[91.95768,21.8968],[91.95894,21.8976],[91.96196,21.90376],[91.96381,21.90434],[91.96503,21.90405],[91.96615,21.90254],[91.96666,21.89557],[91.9686,21.89495],[91.97131,21.89545],[91.97556,21.89933],[91.97591,21.90095],[91.97435,21.90541],[91.97935,21.91654],[91.98098,21.91782],[91.98252,21.91824],[91.98867,21.91495],[91.99247,21.91532],[91.99689,21.91826],[92.00549,21.92158],[92.01013,21.9212],[92.01534,21.91838],[92.02226,21.91642],[92.03079,21.91621],[92.03622,21.91718],[92.03854,21.91695],[92.0412,21.91528],[92.04282,21.91605],[92.04308,21.91969],[92.04768,21.92365],[92.04685,21.93415],[92.04861,21.93516],[92.05579,21.92917],[92.05983,21.92901],[92.06165,21.93292],[92.06542,21.93484],[92.0669,21.93561]]]]}},{"type":"Feature","properties":{"name":"Cox Bazar S","district_id":"coxsbazar","pcode":"202224","sql_upazila_id":null,"sql_name_bn":null},"geometry":{"type":"Polygon","coordinates":[[[92.10003,21.58005],[92.10225,21.5762],[92.09716,21.56767],[92.09805,21.56557],[92.10337,21.56573],[92.1076,21.56422],[92.10832,21.56224],[92.10799,21.55996],[92.10293,21.55639],[92.09989,21.55578],[92.09265,21.55216],[92.09084,21.55049],[92.09151,21.5485],[92.0936,21.54619],[92.09899,21.54359],[92.10633,21.54165],[92.10999,21.54304],[92.11205,21.54182],[92.1142,21.54163],[92.11861,21.54319],[92.12127,21.54254],[92.12344,21.54058],[92.12592,21.53245],[92.12511,21.52474],[92.12817,21.52087],[92.12817,21.51717],[92.12667,21.51357],[92.1266,21.51138],[92.13055,21.50753],[92.13033,21.50454],[92.12874,21.50267],[92.12441,21.50031],[92.11943,21.50122],[92.11754,21.50452],[92.11821,21.50862],[92.11586,21.51047],[92.10994,21.51241],[92.10592,21.51232],[92.10035,21.50978],[92.09753,21.50937],[92.09038,21.51247],[92.08879,21.51396],[92.0747,21.51835],[92.07242,21.52049],[92.07055,21.51908],[92.06713,21.51923],[92.05895,21.51715],[92.05207,21.52061],[92.04564,21.51724],[92.04429,21.51462],[92.04544,21.51145],[92.04435,21.50916],[92.0461,21.50574],[92.05628,21.50447],[92.05881,21.50275],[92.06016,21.49995],[92.06126,21.49019],[92.06353,21.48486],[92.06755,21.48379],[92.0717,21.48397],[92.0768,21.48594],[92.07828,21.48509],[92.07757,21.47719],[92.07278,21.47617],[92.06217,21.47739],[92.06022,21.47573],[92.06123,21.47038],[92.05894,21.46889],[92.05713,21.46619],[92.06353,21.46347],[92.06384,21.46095],[92.06061,21.45671],[92.06138,21.45462],[92.06443,21.45175],[92.06324,21.44271],[92.06405,21.43685],[92.06981,21.42812],[92.07108,21.423],[92.07092,21.42006],[92.06713,21.41841],[92.05072,21.4152],[92.04911,21.41578],[92.04709,21.4184],[92.04582,21.42174],[92.04261,21.42142],[92.03484,21.41518],[92.02974,21.40946],[92.02342,21.39911],[92.02546,21.39095],[92.01565,21.38733],[92.01272,21.38697],[92.01008,21.38938],[92.00724,21.38993],[92.00283,21.388],[92.00222,21.38972],[91.99849,21.39302],[91.99449,21.39947],[91.98846,21.40594],[91.98589,21.41104],[91.96384,21.43552],[91.95839,21.43982],[91.95084,21.45278],[91.94952,21.46026],[91.9498,21.46322],[91.95123,21.46618],[91.95524,21.46564],[91.95581,21.4643],[91.95496,21.46268],[91.95553,21.46214],[91.95868,21.46564],[91.96498,21.4686],[91.96572,21.47217],[91.96844,21.47495],[91.96928,21.47398],[91.96899,21.47075],[91.96985,21.46968],[91.96784,21.45757],[91.96841,21.45327],[91.97014,21.45031],[91.97472,21.44681],[91.97558,21.44681],[91.97529,21.45058],[91.97787,21.45139],[91.97844,21.45058],[91.98131,21.45031],[91.98016,21.45219],[91.97729,21.453],[91.97157,21.45085],[91.97014,21.45139],[91.97099,21.45807],[91.97414,21.46668],[91.97386,21.47398],[91.97472,21.47479],[91.97729,21.47398],[91.97987,21.47479],[91.98016,21.478],[91.98789,21.48716],[91.98846,21.49012],[91.99248,21.4963],[91.99506,21.50303],[91.99963,21.50921],[92,21.51556],[92.00305,21.51583],[92.00611,21.51306],[92.00806,21.51],[92.00889,21.50778],[92.00694,21.50333],[92.0075,21.50083],[92.00916,21.49916],[92.01111,21.49916],[92.01305,21.50028],[92.00861,21.50167],[92.00861,21.50417],[92.01028,21.50861],[92.00777,21.51444],[92.00417,21.51805],[92,21.51861],[91.99849,21.53934],[91.99334,21.57511],[91.99449,21.5813],[92.00237,21.59348],[92.00516,21.59603],[92.00833,21.59667],[92.01527,21.5925],[92.01536,21.59355],[92.01036,21.59686],[92.01278,21.59745],[92.01963,21.59459],[92.02703,21.5964],[92.02947,21.59859],[92.03166,21.60615],[92.03445,21.60764],[92.04393,21.60586],[92.04729,21.60107],[92.04809,21.59814],[92.0537,21.6005],[92.05672,21.60021],[92.05809,21.59415],[92.0608,21.59376],[92.06721,21.59461],[92.06986,21.59269],[92.07111,21.59024],[92.06945,21.58806],[92.06856,21.58323],[92.07146,21.57613],[92.07372,21.57473],[92.07618,21.57436],[92.08592,21.57803],[92.0927,21.57802],[92.09314,21.57995],[92.09678,21.58001],[92.10003,21.58005]]]}},{"type":"Feature","properties":{"name":"Kutubdia","district_id":"coxsbazar","pcode":"202245","sql_upazila_id":"coxsbazar-kutubdia","sql_name_bn":"কুতুবদিয়া"},"geometry":{"type":"Polygon","coordinates":[[[91.84737,21.742],[91.84593,21.73931],[91.84325,21.73757],[91.84239,21.73946],[91.83981,21.7408],[91.8358,21.74672],[91.83408,21.75532],[91.83466,21.7599],[91.83981,21.76797],[91.8421,21.76931],[91.84382,21.77361],[91.84382,21.78976],[91.8421,21.80428],[91.84267,21.80751],[91.84525,21.81047],[91.84898,21.81719],[91.85126,21.82606],[91.84984,21.83736],[91.84612,21.84731],[91.84325,21.84866],[91.84267,21.85216],[91.84039,21.85592],[91.84039,21.85996],[91.84181,21.86426],[91.84181,21.87099],[91.83981,21.87179],[91.83924,21.87663],[91.84239,21.88013],[91.84411,21.88336],[91.84354,21.89815],[91.84525,21.90192],[91.85671,21.90918],[91.85786,21.91187],[91.86215,21.91671],[91.86874,21.92155],[91.87389,21.9237],[91.87905,21.92209],[91.88163,21.9194],[91.88937,21.90353],[91.89108,21.90138],[91.89509,21.88739],[91.89624,21.87502],[91.89566,21.86399],[91.88879,21.84409],[91.87762,21.8223],[91.87103,21.80347],[91.86816,21.79271],[91.86359,21.78088],[91.86129,21.77658],[91.85854,21.77373],[91.85538,21.76647],[91.85223,21.7576],[91.84966,21.74576],[91.84823,21.7428],[91.84737,21.742]]]}},{"type":"Feature","properties":{"name":"Maheshkhali","district_id":"coxsbazar","pcode":"202249","sql_upazila_id":null,"sql_name_bn":null},"geometry":{"type":"MultiPolygon","coordinates":[[[[91.91151,21.47158],[91.90979,21.4705],[91.90836,21.47077],[91.90807,21.47265],[91.91351,21.47561],[91.91351,21.474],[91.91179,21.47211],[91.91151,21.47158]]],[[[91.85049,21.52403],[91.84992,21.52349],[91.84821,21.5243],[91.84763,21.52537],[91.84821,21.52672],[91.84964,21.52672],[91.85078,21.52483],[91.85049,21.52403]]],[[[91.84476,21.52806],[91.84391,21.52806],[91.84476,21.53156],[91.84563,21.53102],[91.84534,21.52887],[91.84476,21.52806]]],[[[91.86282,21.57029],[91.86453,21.56975],[91.86568,21.57083],[91.86797,21.57083],[91.86969,21.5676],[91.8694,21.56652],[91.86481,21.56599],[91.86367,21.56034],[91.85938,21.5633],[91.85794,21.56518],[91.85823,21.57083],[91.85995,21.57244],[91.86081,21.57244],[91.86166,21.57083],[91.86282,21.57029]]],[[[91.99778,21.59972],[91.99555,21.5975],[91.99472,21.59778],[91.99277,21.59667],[91.99139,21.5975],[91.9925,21.60333],[91.99611,21.60778],[91.99834,21.60528],[91.99861,21.60167],[91.99778,21.6],[91.99778,21.59972]]],[[[91.9435,21.73112],[91.94579,21.71229],[91.94751,21.70476],[91.95123,21.69641],[91.95238,21.69104],[91.96069,21.66737],[91.96613,21.66038],[91.97157,21.65607],[91.97987,21.64774],[91.98273,21.6437],[91.98846,21.63052],[91.98818,21.61976],[91.98561,21.60954],[91.98532,21.60013],[91.98389,21.59394],[91.9836,21.57969],[91.98074,21.56005],[91.98045,21.55225],[91.98131,21.54472],[91.97958,21.53315],[91.97615,21.52912],[91.97787,21.52508],[91.97729,21.51621],[91.97558,21.50948],[91.97071,21.50572],[91.96584,21.50626],[91.95982,21.50572],[91.95381,21.50222],[91.95009,21.50141],[91.94464,21.50168],[91.94006,21.5033],[91.93233,21.50357],[91.93089,21.50464],[91.92632,21.50437],[91.92258,21.50195],[91.92001,21.50168],[91.92001,21.50384],[91.9157,21.50787],[91.91657,21.50491],[91.91886,21.50276],[91.91772,21.50195],[91.91571,21.50249],[91.91314,21.50733],[91.91257,21.50679],[91.91285,21.50303],[91.91199,21.50168],[91.91027,21.50276],[91.9097,21.50626],[91.90884,21.50572],[91.90798,21.50303],[91.90627,21.50275],[91.90511,21.50357],[91.90483,21.50706],[91.90598,21.51002],[91.90454,21.51432],[91.90168,21.51809],[91.90196,21.5197],[91.89967,21.52132],[91.89796,21.52051],[91.89309,21.52078],[91.89252,21.5197],[91.89796,21.51836],[91.90082,21.51594],[91.90196,21.51163],[91.90397,21.50841],[91.90282,21.50706],[91.90168,21.50841],[91.90168,21.51029],[91.90054,21.51137],[91.90168,21.50599],[91.90111,21.50464],[91.89681,21.50491],[91.89566,21.5041],[91.90168,21.50303],[91.91056,21.49469],[91.91056,21.49281],[91.90082,21.49066],[91.90884,21.48824],[91.90913,21.48581],[91.90798,21.48151],[91.91027,21.48447],[91.9117,21.48366],[91.91199,21.47936],[91.90913,21.47667],[91.90826,21.47479],[91.90655,21.47452],[91.90483,21.47586],[91.90111,21.47613],[91.89394,21.48017],[91.89252,21.48017],[91.89022,21.48232],[91.89022,21.485],[91.88793,21.48554],[91.88564,21.48904],[91.87934,21.49254],[91.87361,21.49899],[91.86989,21.49953],[91.86806,21.50083],[91.86584,21.50639],[91.8633,21.5076],[91.85871,21.51325],[91.85614,21.51513],[91.85384,21.52105],[91.85471,21.52186],[91.85814,21.52105],[91.86301,21.51728],[91.86473,21.51406],[91.86674,21.50653],[91.86874,21.50357],[91.8716,21.50303],[91.87017,21.50464],[91.86731,21.5111],[91.86617,21.51702],[91.86473,21.5189],[91.86473,21.52024],[91.86681,21.52164],[91.86359,21.52132],[91.85957,21.52239],[91.85471,21.52643],[91.85242,21.52697],[91.85155,21.52993],[91.8525,21.53194],[91.85786,21.5345],[91.85728,21.53961],[91.86015,21.54203],[91.86101,21.54418],[91.86272,21.54445],[91.86617,21.54257],[91.87218,21.54149],[91.87504,21.53799],[91.87562,21.54015],[91.87676,21.54068],[91.88077,21.53988],[91.88392,21.53988],[91.88535,21.54068],[91.88622,21.54176],[91.88622,21.54365],[91.88506,21.54526],[91.88593,21.54553],[91.89079,21.54364],[91.89366,21.54015],[91.89538,21.53988],[91.89709,21.54122],[91.89337,21.54257],[91.89079,21.54553],[91.88285,21.54754],[91.87619,21.55306],[91.87304,21.55472],[91.87304,21.55611],[91.87861,21.56028],[91.87778,21.56083],[91.87417,21.55806],[91.87278,21.55806],[91.8725,21.56056],[91.87332,21.56274],[91.87619,21.56704],[91.87876,21.56785],[91.88333,21.56778],[91.88889,21.565],[91.88917,21.56556],[91.88667,21.56806],[91.88695,21.56944],[91.89194,21.57296],[91.89767,21.57511],[91.89939,21.57726],[91.89452,21.57511],[91.89165,21.57484],[91.88793,21.57242],[91.88478,21.57162],[91.88077,21.57162],[91.87647,21.57269],[91.87332,21.57565],[91.87418,21.57915],[91.87275,21.58264],[91.87504,21.58426],[91.87418,21.5856],[91.87619,21.58802],[91.87733,21.59206],[91.87848,21.5926],[91.87991,21.59555],[91.87905,21.59717],[91.87762,21.59771],[91.87676,21.60174],[91.87905,21.61842],[91.88277,21.62057],[91.88506,21.6203],[91.8865,21.61922],[91.88622,21.62191],[91.88335,21.62379],[91.88335,21.62514],[91.88535,21.62487],[91.88605,21.62594],[91.88577,21.62703],[91.88421,21.62756],[91.88478,21.63079],[91.88593,21.63187],[91.88535,21.63294],[91.88879,21.63778],[91.88993,21.63833],[91.89051,21.64182],[91.89194,21.64209],[91.89252,21.64101],[91.89337,21.64181],[91.89452,21.64585],[91.89423,21.64747],[91.8928,21.64747],[91.8928,21.65096],[91.88965,21.65984],[91.87905,21.67786],[91.87992,21.68527],[91.88165,21.68836],[91.88392,21.68996],[91.8991,21.69481],[91.90655,21.69884],[91.9097,21.70207],[91.91543,21.71077],[91.91655,21.71031],[91.91928,21.72154],[91.92018,21.72115],[91.92291,21.72235],[91.92424,21.72456],[91.9354,21.73031],[91.94089,21.73167],[91.94329,21.73056],[91.94325,21.73364],[91.9435,21.73112]]],[[[91.91336,21.74223],[91.91058,21.73528],[91.91046,21.73117],[91.91331,21.71993],[91.91027,21.72332],[91.90655,21.73004],[91.90655,21.733],[91.9097,21.73811],[91.90655,21.73596],[91.90511,21.73192],[91.9054,21.72655],[91.91027,21.72009],[91.9117,21.71686],[91.91171,21.71121],[91.91027,21.70772],[91.90712,21.70341],[91.90054,21.69884],[91.88821,21.69507],[91.88449,21.69292],[91.88106,21.69023],[91.87819,21.6862],[91.87647,21.67894],[91.87676,21.67571],[91.88134,21.66522],[91.88707,21.65607],[91.88736,21.65339],[91.88593,21.65069],[91.88449,21.65123],[91.88506,21.6488],[91.88392,21.6472],[91.87962,21.64558],[91.87733,21.64612],[91.87504,21.64854],[91.87504,21.65096],[91.87218,21.65096],[91.86816,21.65796],[91.86645,21.6593],[91.86388,21.6593],[91.86186,21.66065],[91.86072,21.66307],[91.86101,21.6663],[91.85728,21.66603],[91.855,21.67517],[91.85557,21.68674],[91.85614,21.6897],[91.85843,21.69131],[91.86101,21.69884],[91.8653,21.7053],[91.8653,21.70718],[91.86645,21.70906],[91.86932,21.71363],[91.8716,21.71444],[91.87447,21.7174],[91.87562,21.72735],[91.87647,21.73058],[91.87791,21.73219],[91.87962,21.74134],[91.8802,21.74268],[91.88134,21.74188],[91.8822,21.74403],[91.88191,21.74726],[91.88449,21.75775],[91.88564,21.75936],[91.88744,21.76607],[91.89174,21.77238],[91.89357,21.77252],[91.91714,21.75791],[91.91793,21.75488],[91.91767,21.75126],[91.91423,21.74436],[91.91336,21.74223]]]]}},{"type":"Feature","properties":{"name":"Ramu","district_id":"coxsbazar","pcode":"202266","sql_upazila_id":"coxsbazar-ramu","sql_name_bn":"রামু"},"geometry":{"type":"Polygon","coordinates":[[[92.15059,21.59955],[92.15474,21.59631],[92.15449,21.59451],[92.16012,21.59361],[92.16533,21.59625],[92.17252,21.60281],[92.17893,21.59996],[92.18219,21.59591],[92.17752,21.58518],[92.18135,21.58133],[92.18311,21.57823],[92.18493,21.5717],[92.1868,21.56931],[92.19077,21.56089],[92.1907,21.55828],[92.18463,21.5493],[92.18157,21.54683],[92.17677,21.54594],[92.1735,21.54356],[92.17217,21.54086],[92.16443,21.53228],[92.16335,21.52974],[92.16523,21.52093],[92.16676,21.51699],[92.17184,21.51338],[92.17404,21.51006],[92.18011,21.4962],[92.18317,21.49477],[92.18589,21.49718],[92.18762,21.49721],[92.18917,21.49534],[92.19192,21.49435],[92.19471,21.49957],[92.19729,21.49836],[92.19997,21.49489],[92.20573,21.49395],[92.20898,21.49445],[92.21157,21.49307],[92.21452,21.48769],[92.21715,21.48649],[92.21871,21.4836],[92.22033,21.47409],[92.22171,21.47101],[92.23232,21.46921],[92.23603,21.4586],[92.23499,21.45585],[92.2355,21.45021],[92.23748,21.44864],[92.23553,21.44665],[92.23206,21.44509],[92.23216,21.43871],[92.2306,21.4379],[92.22604,21.43754],[92.22466,21.43579],[92.22541,21.43145],[92.2274,21.42997],[92.2282,21.42778],[92.22713,21.42476],[92.2273,21.42225],[92.22872,21.41902],[92.23261,21.41733],[92.23845,21.41699],[92.23963,21.41439],[92.23817,21.40661],[92.23877,21.40284],[92.24303,21.39985],[92.24305,21.39701],[92.24199,21.394],[92.23953,21.39322],[92.23623,21.39249],[92.22464,21.39323],[92.21839,21.39225],[92.21617,21.39174],[92.20996,21.38619],[92.20704,21.38575],[92.20476,21.38632],[92.19896,21.38402],[92.19531,21.39114],[92.19514,21.39393],[92.18967,21.40498],[92.18534,21.41757],[92.1839,21.41948],[92.1802,21.41863],[92.17632,21.42838],[92.17377,21.42478],[92.17209,21.42392],[92.16918,21.42348],[92.16308,21.42642],[92.15843,21.42506],[92.1569,21.42222],[92.15578,21.40735],[92.15306,21.4035],[92.15089,21.40193],[92.14659,21.39406],[92.14387,21.3939],[92.13778,21.39779],[92.13495,21.39729],[92.1304,21.39291],[92.13261,21.38845],[92.13127,21.38377],[92.13158,21.38012],[92.13374,21.3784],[92.13521,21.3752],[92.13714,21.36415],[92.14137,21.35266],[92.14177,21.34761],[92.13615,21.34391],[92.12841,21.34044],[92.12823,21.3361],[92.12408,21.33099],[92.12065,21.32817],[92.11719,21.32837],[92.11431,21.32418],[92.1097,21.32342],[92.10717,21.32186],[92.10811,21.31673],[92.10031,21.3085],[92.09741,21.30902],[92.08673,21.30268],[92.08755,21.29645],[92.08086,21.29251],[92.07965,21.29065],[92.07523,21.29168],[92.06961,21.28747],[92.06392,21.28686],[92.06131,21.28175],[92.04927,21.28538],[92.04856,21.29095],[92.04556,21.29345],[92.04514,21.29494],[92.04528,21.2975],[92.04777,21.29917],[92.04528,21.3025],[92.04222,21.30889],[92.0425,21.31195],[92.03944,21.31639],[92.03806,21.32083],[92.03694,21.32195],[92.03528,21.32222],[92.03445,21.32889],[92.03139,21.33278],[92.03111,21.33666],[92.02944,21.33945],[92.02834,21.34472],[92.02695,21.34667],[92.02722,21.34833],[92.0225,21.35611],[92.02194,21.36],[92.02084,21.36056],[92.01722,21.36833],[92.01361,21.37222],[92.01195,21.37611],[92.00283,21.388],[92.00724,21.38993],[92.01008,21.38938],[92.01272,21.38697],[92.01565,21.38733],[92.02546,21.39095],[92.02342,21.39911],[92.02974,21.40946],[92.03484,21.41518],[92.04261,21.42142],[92.04582,21.42174],[92.04709,21.4184],[92.04911,21.41578],[92.05072,21.4152],[92.06713,21.41841],[92.07092,21.42006],[92.07108,21.423],[92.06981,21.42812],[92.06405,21.43685],[92.06324,21.44271],[92.06443,21.45175],[92.06138,21.45462],[92.06061,21.45671],[92.06384,21.46095],[92.06353,21.46347],[92.05713,21.46619],[92.05894,21.46889],[92.06123,21.47038],[92.06022,21.47573],[92.06217,21.47739],[92.07278,21.47617],[92.07757,21.47719],[92.07828,21.48509],[92.0768,21.48594],[92.0717,21.48397],[92.06755,21.48379],[92.06353,21.48486],[92.06126,21.49019],[92.06016,21.49995],[92.05881,21.50275],[92.05628,21.50447],[92.0461,21.50574],[92.04435,21.50916],[92.04544,21.51145],[92.04429,21.51462],[92.04564,21.51724],[92.05207,21.52061],[92.05895,21.51715],[92.06713,21.51923],[92.07055,21.51908],[92.07242,21.52049],[92.0747,21.51835],[92.08879,21.51396],[92.09038,21.51247],[92.09753,21.50937],[92.10035,21.50978],[92.10592,21.51232],[92.10994,21.51241],[92.11586,21.51047],[92.11821,21.50862],[92.11754,21.50452],[92.11943,21.50122],[92.12441,21.50031],[92.12874,21.50267],[92.13033,21.50454],[92.13055,21.50753],[92.1266,21.51138],[92.12667,21.51357],[92.12817,21.51717],[92.12817,21.52087],[92.12511,21.52474],[92.12592,21.53245],[92.12344,21.54058],[92.12127,21.54254],[92.11861,21.54319],[92.1142,21.54163],[92.11205,21.54182],[92.10999,21.54304],[92.10633,21.54165],[92.09899,21.54359],[92.0936,21.54619],[92.09151,21.5485],[92.09084,21.55049],[92.09669,21.55429],[92.10525,21.55758],[92.10799,21.55996],[92.10832,21.56224],[92.1076,21.56422],[92.10337,21.56573],[92.09805,21.56557],[92.09716,21.56767],[92.10225,21.5762],[92.10003,21.58005],[92.1048,21.58293],[92.10753,21.57832],[92.11034,21.57743],[92.11213,21.57885],[92.11328,21.5816],[92.1181,21.57807],[92.1231,21.57889],[92.12828,21.58237],[92.13056,21.58575],[92.1389,21.59398],[92.14653,21.59704],[92.15059,21.59955]]]}},{"type":"Feature","properties":{"name":"Teknaf","district_id":"coxsbazar","pcode":"202290","sql_upazila_id":"coxsbazar-teknaf","sql_name_bn":"টেকনাফ"},"geometry":{"type":"MultiPolygon","coordinates":[[[[92.27417,20.92611],[92.28,20.92083],[92.27972,20.92],[92.28306,20.91528],[92.28584,20.90917],[92.28694,20.90417],[92.28361,20.90528],[92.27861,20.91028],[92.27472,20.91611],[92.27139,20.92306],[92.27222,20.92556],[92.27372,20.92611],[92.27417,20.92611]]],[[[92.28028,20.94139],[92.28528,20.93861],[92.2975,20.92945],[92.29945,20.92667],[92.29972,20.92333],[92.30083,20.92083],[92.3,20.91889],[92.2925,20.92221],[92.28445,20.93],[92.27972,20.93722],[92.27917,20.94056],[92.28,20.94111],[92.28028,20.94139]]],[[[92.22418,21.12555],[92.22417,21.13001],[92.22305,21.1325],[92.22305,21.12667],[92.22195,21.12277],[92.22334,21.11972],[92.21944,21.12028],[92.21915,21.11918],[92.22369,21.11727],[92.22513,21.11062],[92.22889,21.10167],[92.235,21.09306],[92.23944,21.08889],[92.25056,21.08306],[92.255,21.07944],[92.26417,21.06306],[92.26389,21.05972],[92.25806,21.05473],[92.25445,21.0486],[92.25139,21.03472],[92.25166,21.02361],[92.25278,21.01917],[92.25694,21.01249],[92.25861,21.00362],[92.25806,20.99972],[92.25977,20.98622],[92.26305,20.97889],[92.26278,20.97305],[92.26056,20.96222],[92.26196,20.9502],[92.27008,20.92017],[92.27222,20.9154],[92.28181,20.90255],[92.29012,20.89516],[92.29685,20.89162],[92.29975,20.88855],[92.32,20.84168],[92.32056,20.83639],[92.32195,20.83333],[92.32195,20.82667],[92.32306,20.81917],[92.32617,20.81306],[92.32706,20.80778],[92.32864,20.80594],[92.33,20.80083],[92.33417,20.79306],[92.3336,20.79139],[92.335,20.78971],[92.33583,20.78417],[92.33528,20.78056],[92.33611,20.77833],[92.33556,20.77778],[92.33889,20.76944],[92.33916,20.76694],[92.33806,20.76556],[92.33889,20.76389],[92.33861,20.7625],[92.34,20.76],[92.34222,20.75889],[92.34306,20.75694],[92.34194,20.75556],[92.34,20.755],[92.34333,20.75194],[92.3425,20.74889],[92.33778,20.74556],[92.33583,20.745],[92.33472,20.74611],[92.33361,20.74556],[92.3336,20.74417],[92.33694,20.74195],[92.33639,20.74111],[92.32833,20.74556],[92.32694,20.74779],[92.32389,20.74944],[92.315,20.75945],[92.31333,20.76028],[92.30417,20.77528],[92.30389,20.7775],[92.3025,20.77833],[92.29861,20.78778],[92.29945,20.78917],[92.29806,20.79055],[92.29472,20.79833],[92.29305,20.79944],[92.29443,20.80111],[92.29417,20.8025],[92.29139,20.80583],[92.29028,20.80944],[92.29083,20.81028],[92.28711,20.8189],[92.2861,20.81947],[92.28289,20.82655],[92.279,20.83206],[92.27666,20.83972],[92.27472,20.84222],[92.27306,20.8425],[92.27361,20.84472],[92.27139,20.84833],[92.26836,20.8508],[92.26667,20.85583],[92.26278,20.86056],[92.26139,20.86472],[92.25667,20.87139],[92.25555,20.875],[92.25361,20.87722],[92.25305,20.87917],[92.24917,20.88361],[92.24861,20.88583],[92.24389,20.89056],[92.23805,20.89917],[92.23213,20.90568],[92.22934,20.90753],[92.22781,20.90986],[92.22283,20.92062],[92.22195,20.92417],[92.22028,20.92583],[92.21833,20.93111],[92.21667,20.93139],[92.2142,20.93662],[92.21426,20.94067],[92.21275,20.94436],[92.20471,20.95508],[92.2023,20.9607],[92.20223,20.96242],[92.20323,20.9635],[92.20252,20.96593],[92.20059,20.97186],[92.19856,20.97536],[92.19506,20.98882],[92.19111,21],[92.19167,21.00028],[92.19111,21.00306],[92.18918,21.00667],[92.18945,21.00805],[92.18775,21.0119],[92.1875,21.01472],[92.18417,21.01861],[92.18445,21.02],[92.18193,21.0225],[92.17939,21.02346],[92.17834,21.02667],[92.17639,21.02805],[92.175,21.03222],[92.17167,21.03389],[92.16972,21.03833],[92.16833,21.03861],[92.16529,21.04279],[92.16194,21.045],[92.16028,21.04694],[92.16055,21.04806],[92.15361,21.05472],[92.15335,21.05779],[92.14861,21.06111],[92.14445,21.06722],[92.14083,21.06973],[92.14027,21.07167],[92.13528,21.07667],[92.13445,21.07917],[92.13272,21.08098],[92.13306,21.08556],[92.13222,21.08694],[92.13167,21.0875],[92.12917,21.08722],[92.12778,21.08945],[92.12527,21.09028],[92.12305,21.09306],[92.12055,21.09333],[92.11833,21.09472],[92.11584,21.09722],[92.1125,21.10278],[92.10111,21.11555],[92.10069,21.11758],[92.09911,21.11772],[92.09639,21.12028],[92.09278,21.12556],[92.08655,21.13197],[92.0924,21.13218],[92.0952,21.13363],[92.10787,21.14119],[92.10983,21.1436],[92.11523,21.14687],[92.13664,21.14889],[92.1401,21.1484],[92.15148,21.14352],[92.15528,21.13892],[92.1612,21.13767],[92.169,21.13132],[92.17519,21.12916],[92.18556,21.12916],[92.19032,21.12815],[92.19286,21.12982],[92.20311,21.12809],[92.20284,21.1322],[92.20152,21.13527],[92.18655,21.14077],[92.18304,21.14343],[92.18212,21.14612],[92.18398,21.14763],[92.19083,21.1481],[92.19247,21.15038],[92.18892,21.16322],[92.18766,21.17323],[92.18194,21.1882],[92.18128,21.19335],[92.18185,21.19604],[92.1832,21.19733],[92.19576,21.20003],[92.19675,21.19685],[92.20101,21.19725],[92.19672,21.18994],[92.19099,21.18338],[92.18928,21.1765],[92.19805,21.15457],[92.20095,21.15276],[92.20656,21.14322],[92.21474,21.1388],[92.22304,21.1376],[92.22703,21.13579],[92.22487,21.12702],[92.22418,21.12555]]]]}},{"type":"Feature","properties":{"name":"Ukhia","district_id":"coxsbazar","pcode":"202294","sql_upazila_id":null,"sql_name_bn":null},"geometry":{"type":"Polygon","coordinates":[[[92.14177,21.34761],[92.14214,21.34318],[92.14796,21.33635],[92.15022,21.32702],[92.15581,21.3145],[92.15656,21.30999],[92.16246,21.30268],[92.16909,21.2907],[92.17714,21.28162],[92.18191,21.27371],[92.18288,21.26904],[92.18273,21.26538],[92.18853,21.26282],[92.19227,21.26232],[92.19556,21.25978],[92.19612,21.25711],[92.19562,21.25266],[92.19378,21.24521],[92.19432,21.23919],[92.19352,21.23698],[92.19383,21.23482],[92.18891,21.23035],[92.18766,21.22786],[92.18631,21.2191],[92.18689,21.21675],[92.19071,21.2111],[92.19607,21.20924],[92.19474,21.20366],[92.19576,21.20003],[92.1832,21.19733],[92.18185,21.19604],[92.18128,21.19335],[92.18194,21.1882],[92.18766,21.17323],[92.18892,21.16322],[92.19247,21.15038],[92.19083,21.1481],[92.18398,21.14763],[92.18212,21.14612],[92.18304,21.14343],[92.18655,21.14077],[92.20152,21.13527],[92.20284,21.1322],[92.20311,21.12809],[92.19286,21.12982],[92.19032,21.12815],[92.18556,21.12916],[92.17519,21.12916],[92.169,21.13132],[92.1612,21.13767],[92.15528,21.13892],[92.15148,21.14352],[92.1401,21.1484],[92.13664,21.14889],[92.11523,21.14687],[92.10983,21.1436],[92.10787,21.14119],[92.0952,21.13363],[92.0924,21.13218],[92.08655,21.13197],[92.08556,21.13445],[92.08278,21.13694],[92.08148,21.14098],[92.07584,21.14639],[92.07361,21.1475],[92.06639,21.15583],[92.05972,21.16528],[92.05556,21.16917],[92.05583,21.17167],[92.04945,21.17917],[92.04861,21.18333],[92.04723,21.18472],[92.04889,21.18805],[92.04833,21.19611],[92.04861,21.20139],[92.04945,21.20306],[92.04889,21.21],[92.0475,21.21305],[92.04833,21.2225],[92.04777,21.22528],[92.04916,21.23056],[92.04777,21.23306],[92.04833,21.23472],[92.04723,21.23583],[92.04778,21.23861],[92.04723,21.24],[92.04806,21.24334],[92.04777,21.25083],[92.04833,21.25444],[92.04945,21.2564],[92.05,21.26805],[92.04916,21.27028],[92.04972,21.27389],[92.04861,21.27861],[92.04834,21.28587],[92.04556,21.29345],[92.04856,21.29095],[92.04927,21.28538],[92.06131,21.28175],[92.06392,21.28686],[92.06961,21.28747],[92.07523,21.29168],[92.07965,21.29065],[92.08086,21.29251],[92.08755,21.29645],[92.08673,21.30268],[92.09741,21.30902],[92.10031,21.3085],[92.10701,21.31486],[92.10811,21.31673],[92.10717,21.32186],[92.1097,21.32342],[92.11431,21.32418],[92.11719,21.32837],[92.12065,21.32817],[92.12408,21.33099],[92.12823,21.3361],[92.12841,21.34044],[92.1372,21.34459],[92.14177,21.34761]]]}}]}