{"type":"FeatureCollection","features":[{"type":"Feature","properties":{"name":"Barura","district_id":"cumilla","pcode":"201909","sql_upazila_id":"cumilla-barura","sql_name_bn":"বরুড়া"},"geometry":{"type":"Polygon","coordinates":[[[91.06657,23.45424],[91.07664,23.45031],[91.08362,23.44167],[91.08525,23.43837],[91.08636,23.43046],[91.08591,23.42864],[91.09271,23.42412],[91.10106,23.42276],[91.10294,23.42104],[91.10465,23.41077],[91.10796,23.41028],[91.11054,23.41095],[91.11197,23.41245],[91.11411,23.41245],[91.11716,23.41048],[91.12419,23.39961],[91.12543,23.39598],[91.12454,23.38498],[91.1299,23.36462],[91.13338,23.35841],[91.13684,23.35546],[91.14047,23.35011],[91.14006,23.34875],[91.13288,23.34598],[91.12501,23.34642],[91.11987,23.34451],[91.11946,23.33984],[91.121,23.33751],[91.12043,23.33359],[91.11881,23.33203],[91.11525,23.33047],[91.11204,23.33158],[91.10914,23.32915],[91.10767,23.32634],[91.10534,23.32612],[91.10377,23.32764],[91.10043,23.32894],[91.09937,23.32714],[91.09901,23.32406],[91.09957,23.32051],[91.09814,23.31883],[91.09622,23.31774],[91.08762,23.31666],[91.08482,23.31531],[91.08486,23.31291],[91.08779,23.30883],[91.0882,23.30648],[91.08661,23.30401],[91.08357,23.30267],[91.08182,23.30243],[91.07941,23.30352],[91.07749,23.30249],[91.07685,23.29841],[91.07819,23.29385],[91.07624,23.29167],[91.07374,23.28614],[91.06745,23.27969],[91.05719,23.27426],[91.05461,23.27199],[91.0523,23.26468],[91.05174,23.25579],[91.04991,23.24984],[91.04842,23.248],[91.03819,23.24154],[91.03418,23.24142],[91.03305,23.24693],[91.02594,23.24906],[91.01881,23.24918],[91.01466,23.25598],[91.01497,23.26151],[91.01365,23.2648],[91.01123,23.26727],[91.00598,23.26912],[91.00159,23.28003],[90.99751,23.28688],[90.99537,23.28831],[90.9926,23.28786],[90.98743,23.28456],[90.98383,23.28564],[90.98521,23.2896],[90.98489,23.29286],[90.98205,23.29757],[90.97823,23.29932],[90.97849,23.30914],[90.977,23.31477],[90.97511,23.31831],[90.96525,23.3245],[90.96326,23.32684],[90.95852,23.34592],[90.95923,23.34842],[90.96444,23.35256],[90.9685,23.3524],[90.97256,23.35389],[90.97619,23.35408],[90.97972,23.35108],[90.98174,23.35171],[90.98148,23.35697],[90.97929,23.3608],[90.97835,23.36602],[90.97736,23.36673],[90.97735,23.37176],[90.9756,23.37568],[90.96892,23.37792],[90.96873,23.38152],[90.96715,23.38305],[90.9681,23.39039],[90.96651,23.39186],[90.96394,23.39187],[90.96296,23.39446],[90.97318,23.39464],[90.97402,23.39571],[90.97266,23.39815],[90.97005,23.4005],[90.96965,23.40342],[90.97124,23.40772],[90.98421,23.41018],[90.98881,23.4052],[90.99061,23.40481],[90.99594,23.40701],[91.0053,23.40791],[91.00742,23.40939],[91.00949,23.41328],[91.00769,23.41767],[91.00533,23.43286],[91.00849,23.43546],[91.00957,23.43606],[91.01477,23.43581],[91.02164,23.4318],[91.02393,23.43459],[91.02634,23.43561],[91.02828,23.44087],[91.03008,23.44214],[91.04159,23.44366],[91.04353,23.43819],[91.04659,23.4361],[91.06212,23.43756],[91.0641,23.44082],[91.06348,23.44832],[91.06503,23.45291],[91.06657,23.45424]]]}},{"type":"Feature","properties":{"name":"Brahmanpara","district_id":"cumilla","pcode":"201915","sql_upazila_id":"cumilla-brahmanpara","sql_name_bn":"ব্রাহ্মণপাড়া"},"geometry":{"type":"Polygon","coordinates":[[[91.07389,23.73498],[91.07522,23.73564],[91.07394,23.72785],[91.07433,23.7247],[91.07581,23.72197],[91.0788,23.72515],[91.08015,23.72951],[91.08273,23.73133],[91.0866,23.73072],[91.0887,23.72962],[91.089,23.72761],[91.0869,23.72179],[91.08419,23.72106],[91.0833,23.7188],[91.08479,23.7167],[91.08772,23.71405],[91.08943,23.7147],[91.09268,23.71425],[91.09418,23.71942],[91.09779,23.72046],[91.10004,23.71995],[91.09957,23.7159],[91.10204,23.71264],[91.09878,23.71073],[91.0975,23.70825],[91.10207,23.70624],[91.10432,23.70789],[91.11106,23.70845],[91.11322,23.70022],[91.10993,23.69774],[91.10996,23.6949],[91.11366,23.69478],[91.11708,23.69566],[91.11927,23.6972],[91.12108,23.69521],[91.12055,23.69214],[91.12466,23.68277],[91.12498,23.67403],[91.12807,23.67057],[91.13126,23.67031],[91.13113,23.66483],[91.13952,23.66249],[91.14217,23.6631],[91.14094,23.66736],[91.14178,23.66984],[91.15338,23.67296],[91.16154,23.67131],[91.16036,23.66808],[91.16113,23.66509],[91.16377,23.66176],[91.16436,23.65879],[91.16441,23.64775],[91.16274,23.6435],[91.16273,23.63923],[91.16473,23.63541],[91.16259,23.62827],[91.16316,23.623],[91.16447,23.61936],[91.16459,23.61205],[91.16634,23.60829],[91.16659,23.60457],[91.16582,23.60225],[91.16657,23.59874],[91.16901,23.59513],[91.17303,23.59359],[91.18021,23.59443],[91.18208,23.59374],[91.17936,23.58799],[91.1796,23.58576],[91.18231,23.5846],[91.18589,23.58113],[91.17096,23.57932],[91.16627,23.57956],[91.14531,23.58259],[91.13432,23.58575],[91.12518,23.5844],[91.1229,23.58572],[91.12032,23.58905],[91.1193,23.59222],[91.12039,23.60001],[91.11961,23.60278],[91.11802,23.6039],[91.11347,23.60494],[91.10484,23.60552],[91.10111,23.60659],[91.09734,23.60624],[91.09287,23.60402],[91.09066,23.60174],[91.08748,23.59514],[91.08384,23.59118],[91.0813,23.59045],[91.07531,23.58948],[91.07346,23.60289],[91.07258,23.6048],[91.0701,23.59841],[91.06839,23.59606],[91.06963,23.59402],[91.06967,23.59157],[91.06478,23.59101],[91.06155,23.59241],[91.05943,23.59464],[91.05933,23.59716],[91.06104,23.59922],[91.06138,23.60201],[91.06384,23.60766],[91.06478,23.61496],[91.06393,23.6305],[91.06273,23.63373],[91.05918,23.63834],[91.05959,23.64456],[91.06142,23.65079],[91.06067,23.65607],[91.05778,23.65609],[91.05189,23.6523],[91.04891,23.65175],[91.04674,23.65416],[91.04909,23.66403],[91.05075,23.6669],[91.06523,23.66828],[91.06811,23.66786],[91.06962,23.66639],[91.07131,23.66817],[91.07069,23.67167],[91.06895,23.67435],[91.06676,23.6743],[91.06331,23.67856],[91.06333,23.68233],[91.05984,23.69379],[91.05392,23.706],[91.05904,23.71249],[91.06695,23.73095],[91.07291,23.73449],[91.07389,23.73498]]]}},{"type":"Feature","properties":{"name":"Burichang","district_id":"cumilla","pcode":"201918","sql_upazila_id":"cumilla-burichang","sql_name_bn":"বুড়িচং"},"geometry":{"type":"Polygon","coordinates":[[[91.18589,23.58113],[91.19363,23.57474],[91.19481,23.57088],[91.19889,23.56569],[91.19849,23.54908],[91.19945,23.54798],[91.20219,23.54743],[91.20573,23.54859],[91.20832,23.54709],[91.21075,23.54679],[91.21547,23.54952],[91.21754,23.54917],[91.21802,23.54836],[91.21484,23.54365],[91.21187,23.54127],[91.21136,23.53704],[91.20858,23.53337],[91.20676,23.52828],[91.20419,23.52423],[91.19723,23.52615],[91.19144,23.52568],[91.18798,23.52881],[91.18368,23.5295],[91.18216,23.52543],[91.18006,23.52446],[91.17336,23.52665],[91.16959,23.52646],[91.16811,23.52496],[91.16512,23.52025],[91.16551,23.51544],[91.1639,23.51246],[91.16145,23.51047],[91.1603,23.50445],[91.15639,23.49296],[91.15614,23.48788],[91.15502,23.48448],[91.15536,23.48168],[91.15331,23.48002],[91.15012,23.48223],[91.14331,23.48276],[91.14246,23.47672],[91.13618,23.47775],[91.13212,23.47644],[91.12869,23.47693],[91.1302,23.48266],[91.12981,23.4837],[91.12735,23.48337],[91.12681,23.48224],[91.12492,23.48343],[91.12234,23.48339],[91.1199,23.4818],[91.11765,23.48186],[91.11856,23.46859],[91.11995,23.46689],[91.11918,23.4648],[91.118,23.46484],[91.11395,23.46922],[91.11225,23.46904],[91.10993,23.46717],[91.1076,23.46694],[91.1073,23.46895],[91.10171,23.47019],[91.10028,23.47251],[91.10087,23.47501],[91.09552,23.47618],[91.08568,23.47593],[91.08412,23.47078],[91.07836,23.47088],[91.07643,23.46888],[91.07521,23.46497],[91.07189,23.46317],[91.06882,23.46497],[91.06653,23.4636],[91.06192,23.46299],[91.06004,23.46446],[91.05741,23.46842],[91.05163,23.47143],[91.04209,23.471],[91.03866,23.47139],[91.03671,23.47297],[91.03566,23.47528],[91.03835,23.48612],[91.03883,23.49113],[91.04412,23.49744],[91.0456,23.50038],[91.04409,23.50567],[91.04571,23.51454],[91.04536,23.51912],[91.04609,23.52195],[91.04686,23.52273],[91.05143,23.51855],[91.05303,23.51971],[91.05495,23.52457],[91.0544,23.53761],[91.05228,23.54143],[91.05673,23.54702],[91.05914,23.55695],[91.06572,23.57146],[91.06706,23.5777],[91.06967,23.58049],[91.07279,23.582],[91.07464,23.58453],[91.07531,23.58948],[91.08384,23.59118],[91.08748,23.59514],[91.09066,23.60174],[91.09287,23.60402],[91.09734,23.60624],[91.10111,23.60659],[91.11802,23.6039],[91.11961,23.60278],[91.12039,23.60001],[91.1193,23.59222],[91.12032,23.58905],[91.1229,23.58572],[91.12518,23.5844],[91.13432,23.58575],[91.14531,23.58259],[91.16095,23.57988],[91.17096,23.57932],[91.18365,23.58087],[91.18589,23.58113]]]}},{"type":"Feature","properties":{"name":"Chandhina","district_id":"cumilla","pcode":"201927","sql_upazila_id":null,"sql_name_bn":null},"geometry":{"type":"Polygon","coordinates":[[[90.88759,23.50299],[90.89272,23.50286],[90.89502,23.50399],[90.89619,23.50556],[90.89821,23.50191],[90.90056,23.50117],[90.90506,23.50077],[90.91124,23.50192],[90.91335,23.50118],[90.91643,23.50144],[90.91887,23.50372],[90.92082,23.50744],[90.93257,23.50788],[90.93948,23.50113],[90.94186,23.50501],[90.94917,23.50447],[90.95065,23.50181],[90.95467,23.5041],[90.95525,23.50626],[90.95719,23.50815],[90.96188,23.50797],[90.95966,23.50306],[90.95967,23.49991],[90.96359,23.49713],[90.97778,23.49247],[90.98088,23.49319],[90.98653,23.4919],[90.99691,23.49111],[90.99931,23.48974],[91.00029,23.48726],[91.00343,23.48574],[91.01479,23.48429],[91.02139,23.48469],[91.03229,23.47943],[91.03342,23.47934],[91.03735,23.48278],[91.03566,23.47528],[91.03671,23.47297],[91.03866,23.47139],[91.05163,23.47143],[91.05741,23.46842],[91.06004,23.46446],[91.06192,23.46299],[91.06653,23.4636],[91.06882,23.46497],[91.07189,23.46317],[91.07106,23.45725],[91.06676,23.45806],[91.06499,23.45748],[91.06657,23.45424],[91.06503,23.45291],[91.06348,23.44832],[91.0641,23.44082],[91.06212,23.43756],[91.04659,23.4361],[91.04353,23.43819],[91.04159,23.44366],[91.03008,23.44214],[91.02828,23.44087],[91.02634,23.43561],[91.02393,23.43459],[91.02164,23.4318],[91.01477,23.43581],[91.00957,23.43606],[91.00849,23.43546],[91.00533,23.43286],[91.00769,23.41767],[91.00949,23.41328],[91.00852,23.41051],[91.0053,23.40791],[90.99594,23.40701],[90.99061,23.40481],[90.98881,23.4052],[90.98421,23.41018],[90.97124,23.40772],[90.96965,23.40342],[90.97005,23.4005],[90.97266,23.39815],[90.97402,23.39571],[90.97318,23.39464],[90.96296,23.39446],[90.96394,23.39187],[90.96651,23.39186],[90.9681,23.39039],[90.96715,23.38305],[90.96873,23.38152],[90.96892,23.37792],[90.9756,23.37568],[90.97735,23.37176],[90.97736,23.36673],[90.97835,23.36602],[90.97929,23.3608],[90.98148,23.35697],[90.98174,23.35171],[90.97972,23.35108],[90.97619,23.35408],[90.97256,23.35389],[90.9685,23.3524],[90.96444,23.35256],[90.95923,23.34842],[90.95852,23.34592],[90.95373,23.34496],[90.94917,23.34126],[90.93969,23.34459],[90.9351,23.34745],[90.93443,23.35004],[90.93536,23.35321],[90.93307,23.35813],[90.93391,23.36444],[90.93362,23.37063],[90.93251,23.37316],[90.92825,23.3783],[90.923,23.38443],[90.91515,23.38765],[90.91025,23.39441],[90.9025,23.39313],[90.90241,23.39604],[90.89941,23.39806],[90.89954,23.40405],[90.89806,23.40632],[90.8963,23.40625],[90.89506,23.4048],[90.89319,23.40679],[90.89105,23.41033],[90.88906,23.42043],[90.88589,23.43067],[90.88532,23.44],[90.88186,23.447],[90.87925,23.44958],[90.8779,23.4523],[90.87124,23.45355],[90.86525,23.45234],[90.86304,23.4537],[90.8616,23.45774],[90.85361,23.46018],[90.8525,23.46283],[90.85119,23.4688],[90.85661,23.47516],[90.85577,23.47673],[90.85826,23.48186],[90.85843,23.49266],[90.86051,23.49506],[90.86699,23.49769],[90.86932,23.49997],[90.87296,23.50022],[90.87731,23.49914],[90.88523,23.49997],[90.88759,23.50299]]]}},{"type":"Feature","properties":{"name":"Chauddagram","district_id":"cumilla","pcode":"201931","sql_upazila_id":"cumilla-chauddagram","sql_name_bn":"চৌদ্দগ্রাম"},"geometry":{"type":"Polygon","coordinates":[[[91.31657,23.34777],[91.31496,23.34474],[91.30637,23.34418],[91.30251,23.34115],[91.29812,23.32717],[91.29726,23.32098],[91.29908,23.31767],[91.30447,23.31443],[91.31196,23.31541],[91.31592,23.31428],[91.31875,23.30962],[91.32155,23.30217],[91.32018,23.2989],[91.3125,23.29947],[91.30939,23.2967],[91.30642,23.29056],[91.31125,23.28574],[91.31536,23.28545],[91.32256,23.2821],[91.31879,23.2797],[91.31605,23.27669],[91.31647,23.27468],[91.32339,23.25872],[91.32375,23.2562],[91.32534,23.25375],[91.33231,23.25275],[91.33029,23.24704],[91.32574,23.24591],[91.32555,23.24067],[91.32872,23.23498],[91.3288,23.22875],[91.33089,23.21579],[91.32984,23.21091],[91.32953,23.19715],[91.33112,23.16884],[91.33034,23.15767],[91.33728,23.1544],[91.33934,23.15101],[91.34324,23.13132],[91.34515,23.12869],[91.34748,23.12748],[91.34814,23.12363],[91.3472,23.12001],[91.34746,23.11674],[91.35043,23.11614],[91.35266,23.11385],[91.35362,23.10016],[91.35629,23.09519],[91.36346,23.0867],[91.37001,23.07617],[91.37608,23.06873],[91.37163,23.0675],[91.36076,23.06737],[91.35282,23.06554],[91.34787,23.06677],[91.33605,23.06409],[91.32296,23.0567],[91.32011,23.05016],[91.3181,23.04828],[91.31424,23.04642],[91.3115,23.05235],[91.30434,23.05461],[91.30508,23.05602],[91.30898,23.05671],[91.31239,23.0594],[91.30964,23.05932],[91.30146,23.06115],[91.30336,23.06537],[91.29831,23.06386],[91.29657,23.06409],[91.29298,23.06824],[91.28788,23.06896],[91.28957,23.07251],[91.29183,23.0729],[91.29573,23.07187],[91.29876,23.07276],[91.29883,23.07458],[91.28724,23.0788],[91.28299,23.07875],[91.28303,23.0816],[91.28156,23.08227],[91.28009,23.08837],[91.28468,23.09092],[91.28234,23.09361],[91.27798,23.09591],[91.2802,23.09841],[91.28136,23.10803],[91.28328,23.11094],[91.28854,23.10959],[91.29064,23.11262],[91.29084,23.11455],[91.28947,23.11631],[91.28941,23.11819],[91.293,23.12066],[91.29252,23.1229],[91.28931,23.1259],[91.28544,23.12584],[91.28358,23.12087],[91.27952,23.12087],[91.27673,23.12358],[91.2788,23.13049],[91.27306,23.13065],[91.27408,23.13285],[91.27357,23.13475],[91.27009,23.13485],[91.26544,23.13258],[91.26453,23.13323],[91.26637,23.13746],[91.26937,23.14103],[91.27235,23.14209],[91.27374,23.14411],[91.27083,23.14859],[91.27245,23.15191],[91.27094,23.15355],[91.26606,23.15322],[91.27115,23.15926],[91.26884,23.16292],[91.26886,23.16669],[91.26982,23.16917],[91.26778,23.16797],[91.2651,23.16817],[91.26431,23.17036],[91.27281,23.17417],[91.27495,23.17622],[91.27362,23.17911],[91.26805,23.17744],[91.26638,23.17955],[91.26638,23.18126],[91.26806,23.18441],[91.26999,23.18601],[91.27328,23.18215],[91.27924,23.18586],[91.28218,23.18938],[91.28094,23.19318],[91.2781,23.19561],[91.27322,23.19232],[91.27099,23.19278],[91.26719,23.19163],[91.26392,23.19635],[91.26191,23.20297],[91.26204,23.20468],[91.26497,23.20631],[91.26845,23.20564],[91.27007,23.20394],[91.26997,23.20269],[91.268,23.20017],[91.27389,23.19864],[91.27534,23.20111],[91.2759,23.2044],[91.27305,23.20848],[91.26211,23.21193],[91.25796,23.20954],[91.25414,23.2145],[91.25361,23.21708],[91.25547,23.22036],[91.26904,23.22042],[91.27122,23.22184],[91.27242,23.22392],[91.26529,23.22543],[91.26496,23.22687],[91.26116,23.2291],[91.26086,23.23258],[91.26208,23.23512],[91.26566,23.2357],[91.26682,23.23676],[91.25988,23.23884],[91.25709,23.23732],[91.25568,23.23838],[91.25342,23.23805],[91.25336,23.23297],[91.24768,23.22792],[91.24184,23.22907],[91.24458,23.23213],[91.24484,23.23418],[91.24368,23.23644],[91.23619,23.2354],[91.2322,23.23578],[91.2307,23.23726],[91.2312,23.23936],[91.23444,23.24058],[91.23864,23.24075],[91.24207,23.23883],[91.24345,23.24073],[91.24247,23.2431],[91.23717,23.24713],[91.23159,23.24318],[91.22903,23.24319],[91.22557,23.2462],[91.22333,23.24632],[91.22175,23.24391],[91.21796,23.24139],[91.21449,23.24246],[91.21588,23.24442],[91.2148,23.24748],[91.21765,23.25191],[91.2207,23.25348],[91.22215,23.25549],[91.22204,23.25748],[91.22473,23.25936],[91.22495,23.26164],[91.21452,23.26754],[91.20991,23.26817],[91.21003,23.27342],[91.20914,23.27813],[91.21007,23.28142],[91.21814,23.28336],[91.21581,23.28982],[91.21256,23.29375],[91.21049,23.30378],[91.2069,23.30852],[91.20524,23.30936],[91.20399,23.31802],[91.20228,23.32109],[91.20465,23.32794],[91.21061,23.3336],[91.21091,23.33661],[91.20661,23.34262],[91.2063,23.34611],[91.19856,23.35221],[91.19849,23.35707],[91.20662,23.35512],[91.20974,23.35314],[91.2141,23.35251],[91.21734,23.35562],[91.21775,23.35835],[91.21545,23.36059],[91.21284,23.36095],[91.21124,23.36208],[91.21069,23.36386],[91.21136,23.3655],[91.21328,23.36647],[91.22483,23.36393],[91.23775,23.36464],[91.24548,23.36351],[91.2514,23.36112],[91.25408,23.35904],[91.26472,23.35554],[91.2748,23.3556],[91.27733,23.35444],[91.27923,23.35164],[91.28165,23.35129],[91.28635,23.35298],[91.29358,23.35232],[91.30316,23.3489],[91.30843,23.35258],[91.31123,23.35221],[91.31416,23.34977],[91.31657,23.34777]]]}},{"type":"Feature","properties":{"name":"Cumilla S.","district_id":"cumilla","pcode":"201933","sql_upazila_id":null,"sql_name_bn":null},"geometry":{"type":"Polygon","coordinates":[[[91.07189,23.46317],[91.07521,23.46497],[91.07643,23.46888],[91.07836,23.47088],[91.08412,23.47078],[91.08568,23.47593],[91.09552,23.47618],[91.10087,23.47501],[91.10028,23.47251],[91.10171,23.47019],[91.1073,23.46895],[91.1076,23.46694],[91.10993,23.46717],[91.11225,23.46904],[91.11395,23.46922],[91.118,23.46484],[91.11918,23.4648],[91.11995,23.46689],[91.11856,23.46859],[91.11765,23.48186],[91.1199,23.4818],[91.12234,23.48339],[91.12492,23.48343],[91.12681,23.48224],[91.12735,23.48337],[91.12981,23.4837],[91.1302,23.48266],[91.12869,23.47693],[91.13212,23.47644],[91.13618,23.47775],[91.14246,23.47672],[91.14331,23.48276],[91.15012,23.48223],[91.15331,23.48002],[91.15536,23.48168],[91.15502,23.48448],[91.15614,23.48788],[91.15639,23.49296],[91.1603,23.50445],[91.16145,23.51047],[91.1639,23.51246],[91.16551,23.51544],[91.16512,23.52025],[91.16959,23.52646],[91.17336,23.52665],[91.18006,23.52446],[91.18216,23.52543],[91.18368,23.5295],[91.18798,23.52881],[91.19144,23.52568],[91.19723,23.52615],[91.20419,23.52423],[91.20688,23.51777],[91.21096,23.51389],[91.21542,23.51239],[91.21796,23.51341],[91.22712,23.51401],[91.22348,23.50491],[91.22446,23.50237],[91.22652,23.5006],[91.22825,23.49975],[91.23683,23.50322],[91.23902,23.50311],[91.23772,23.50006],[91.23901,23.49574],[91.2374,23.49458],[91.24501,23.49168],[91.25107,23.49128],[91.25378,23.48972],[91.2565,23.48205],[91.25703,23.47067],[91.25592,23.46762],[91.2575,23.46455],[91.25986,23.44848],[91.26349,23.44118],[91.27078,23.43692],[91.27355,23.43376],[91.27373,23.42982],[91.27103,23.42635],[91.27245,23.42397],[91.27719,23.42012],[91.28053,23.41883],[91.28212,23.41615],[91.28329,23.41041],[91.2825,23.39713],[91.28344,23.38645],[91.2865,23.37799],[91.29135,23.37689],[91.29811,23.37875],[91.29829,23.37314],[91.29091,23.37181],[91.29206,23.36932],[91.29208,23.36607],[91.29479,23.36331],[91.29989,23.3623],[91.29667,23.35447],[91.29897,23.35203],[91.30927,23.35524],[91.31664,23.35994],[91.32128,23.36175],[91.32561,23.36231],[91.32536,23.35712],[91.31771,23.35328],[91.31657,23.34777],[91.31123,23.35221],[91.30843,23.35258],[91.30316,23.3489],[91.29358,23.35232],[91.28635,23.35298],[91.28165,23.35129],[91.27923,23.35164],[91.27733,23.35444],[91.2748,23.3556],[91.26472,23.35554],[91.25408,23.35904],[91.2514,23.36112],[91.24548,23.36351],[91.23775,23.36464],[91.22483,23.36393],[91.21328,23.36647],[91.21136,23.3655],[91.21069,23.36386],[91.21124,23.36208],[91.21284,23.36095],[91.21545,23.36059],[91.21775,23.35835],[91.21734,23.35562],[91.2141,23.35251],[91.20974,23.35314],[91.20662,23.35512],[91.19849,23.35707],[91.18754,23.36257],[91.18067,23.36122],[91.1773,23.35977],[91.17477,23.35733],[91.16717,23.35445],[91.16438,23.35505],[91.16025,23.35362],[91.15439,23.35618],[91.14424,23.3576],[91.13684,23.35546],[91.13338,23.35841],[91.1299,23.36462],[91.12769,23.37136],[91.12454,23.38498],[91.12543,23.39598],[91.12216,23.40298],[91.11716,23.41048],[91.11411,23.41245],[91.11197,23.41245],[91.11054,23.41095],[91.10796,23.41028],[91.10465,23.41077],[91.10294,23.42104],[91.10106,23.42276],[91.09271,23.42412],[91.08591,23.42864],[91.08636,23.43046],[91.08525,23.43837],[91.08362,23.44167],[91.07664,23.45031],[91.06657,23.45424],[91.06499,23.45748],[91.06676,23.45806],[91.07106,23.45725],[91.07188,23.46095],[91.07189,23.46317]]]}},{"type":"Feature","properties":{"name":"Daudkandi","district_id":"cumilla","pcode":"201936","sql_upazila_id":"cumilla-daudkandi","sql_name_bn":"দাউদকান্দি"},"geometry":{"type":"Polygon","coordinates":[[[90.85611,23.62933],[90.85358,23.62425],[90.85908,23.62171],[90.8607,23.61767],[90.86457,23.61666],[90.86425,23.61113],[90.86486,23.60888],[90.86002,23.60472],[90.85745,23.59697],[90.85819,23.59461],[90.86035,23.59335],[90.86089,23.5834],[90.86171,23.58155],[90.86612,23.58018],[90.86903,23.56178],[90.87005,23.56044],[90.87344,23.56052],[90.87373,23.55834],[90.87194,23.5569],[90.86653,23.54865],[90.86793,23.54735],[90.87111,23.54687],[90.87289,23.53232],[90.87479,23.52707],[90.87675,23.51663],[90.88062,23.50642],[90.88232,23.50495],[90.88759,23.50299],[90.88523,23.49997],[90.87731,23.49914],[90.87296,23.50022],[90.86932,23.49997],[90.86699,23.49769],[90.86051,23.49506],[90.85843,23.49266],[90.85826,23.48186],[90.85577,23.47673],[90.85661,23.47516],[90.85119,23.4688],[90.84825,23.47099],[90.84293,23.47118],[90.83482,23.4663],[90.83142,23.46182],[90.82249,23.46251],[90.81992,23.46057],[90.81917,23.45683],[90.81947,23.4487],[90.81865,23.44661],[90.81436,23.44563],[90.81189,23.4429],[90.80595,23.44687],[90.80265,23.44564],[90.79733,23.43424],[90.79436,23.43169],[90.78957,23.43272],[90.78702,23.43496],[90.78587,23.43801],[90.78017,23.44204],[90.77735,23.44336],[90.77031,23.44313],[90.76949,23.44093],[90.76958,23.43585],[90.76833,23.43194],[90.77083,23.42805],[90.76794,23.42578],[90.76617,23.42303],[90.76608,23.42046],[90.76312,23.41813],[90.75975,23.42027],[90.75616,23.41397],[90.75515,23.41747],[90.75345,23.41895],[90.74949,23.41859],[90.7476,23.42023],[90.73946,23.4242],[90.73605,23.42714],[90.73335,23.42293],[90.73409,23.42062],[90.7364,23.41834],[90.73799,23.41933],[90.74047,23.41864],[90.74181,23.41564],[90.74122,23.41251],[90.73706,23.40976],[90.73396,23.4108],[90.735,23.41403],[90.72939,23.42451],[90.72489,23.42289],[90.71531,23.42891],[90.71442,23.43264],[90.71158,23.43745],[90.71172,23.44196],[90.7065,23.44534],[90.70533,23.45599],[90.70844,23.45923],[90.70142,23.46722],[90.69646,23.46689],[90.69382,23.47049],[90.69351,23.47655],[90.69658,23.47859],[90.69154,23.4898],[90.69592,23.49351],[90.70634,23.49829],[90.71154,23.50404],[90.71281,23.50846],[90.71057,23.51514],[90.708,23.51898],[90.70287,23.5231],[90.69106,23.54223],[90.69033,23.5491],[90.68769,23.55488],[90.6854,23.55779],[90.67949,23.56176],[90.67617,23.56527],[90.66408,23.56966],[90.65883,23.57003],[90.65608,23.56662],[90.64977,23.56893],[90.64635,23.57398],[90.65073,23.57594],[90.65082,23.5825],[90.65498,23.58771],[90.65721,23.58868],[90.66031,23.58752],[90.66865,23.58749],[90.66874,23.5904],[90.66772,23.59385],[90.66609,23.59818],[90.66375,23.60132],[90.66022,23.61105],[90.65733,23.61461],[90.65218,23.61645],[90.65293,23.62259],[90.65559,23.63121],[90.65702,23.63306],[90.67005,23.63463],[90.6808,23.63757],[90.68744,23.64089],[90.68916,23.63383],[90.69124,23.63212],[90.69099,23.63018],[90.6924,23.62701],[90.69416,23.62525],[90.71024,23.62366],[90.71228,23.61898],[90.71457,23.61602],[90.72233,23.61337],[90.72546,23.61329],[90.72841,23.61345],[90.7308,23.61573],[90.73087,23.61802],[90.73203,23.6205],[90.736,23.62491],[90.73792,23.62865],[90.74165,23.63111],[90.75381,23.63087],[90.76477,23.62072],[90.77241,23.62018],[90.78619,23.62383],[90.78999,23.62649],[90.79495,23.63481],[90.79946,23.63836],[90.80197,23.63441],[90.80207,23.62784],[90.79841,23.62519],[90.80081,23.62187],[90.804,23.62145],[90.8075,23.62291],[90.80452,23.62601],[90.80561,23.62878],[90.80536,23.63061],[90.80826,23.63288],[90.81101,23.63287],[90.80959,23.62936],[90.81128,23.62555],[90.81364,23.62275],[90.81692,23.62137],[90.82041,23.62287],[90.82357,23.61782],[90.82486,23.61887],[90.82616,23.62203],[90.82998,23.62588],[90.83229,23.62548],[90.83589,23.62636],[90.83813,23.6255],[90.84029,23.63054],[90.84911,23.62956],[90.85046,23.62878],[90.85201,23.62996],[90.85611,23.62933]]]}},{"type":"Feature","properties":{"name":"Debidwar","district_id":"cumilla","pcode":"201940","sql_upazila_id":"cumilla-debidwar","sql_name_bn":"দেবিদ্বার"},"geometry":{"type":"Polygon","coordinates":[[[91.07531,23.58948],[91.07464,23.58453],[91.07279,23.582],[91.06967,23.58049],[91.06706,23.5777],[91.06572,23.57146],[91.05914,23.55695],[91.05673,23.54702],[91.05228,23.54143],[91.0544,23.53761],[91.05495,23.52457],[91.05303,23.51971],[91.05143,23.51855],[91.04686,23.52273],[91.04609,23.52195],[91.04536,23.51912],[91.04571,23.51454],[91.04409,23.50567],[91.0456,23.50038],[91.04412,23.49744],[91.03883,23.49113],[91.03735,23.48278],[91.03342,23.47934],[91.02762,23.48207],[91.02475,23.48254],[91.02139,23.48469],[91.01479,23.48429],[91.00343,23.48574],[91.00029,23.48726],[90.99931,23.48974],[90.99691,23.49111],[90.98653,23.4919],[90.98088,23.49319],[90.97778,23.49247],[90.96359,23.49713],[90.95967,23.49991],[90.95966,23.50306],[90.96188,23.50797],[90.95719,23.50815],[90.95525,23.50626],[90.95467,23.5041],[90.95065,23.50181],[90.94917,23.50447],[90.94186,23.50501],[90.93948,23.50113],[90.93257,23.50788],[90.92082,23.50744],[90.91765,23.50238],[90.91643,23.50144],[90.91335,23.50118],[90.91124,23.50192],[90.90506,23.50077],[90.90056,23.50117],[90.89821,23.50191],[90.89619,23.50556],[90.8987,23.51115],[90.90476,23.51265],[90.90605,23.51375],[90.90649,23.51918],[90.90734,23.52241],[90.90865,23.5241],[90.9099,23.53325],[90.91201,23.53457],[90.91736,23.54465],[90.92005,23.55949],[90.92195,23.56207],[90.92422,23.56446],[90.92762,23.56449],[90.93225,23.56266],[90.93877,23.56277],[90.9394,23.56481],[90.93799,23.57096],[90.93954,23.57252],[90.94595,23.57298],[90.94818,23.57395],[90.94809,23.57681],[90.94482,23.58415],[90.94666,23.59038],[90.94577,23.59766],[90.94951,23.60053],[90.95103,23.60283],[90.95107,23.60574],[90.95376,23.61127],[90.95928,23.61707],[90.96619,23.62134],[90.96817,23.62403],[90.96862,23.62624],[90.96677,23.6328],[90.96696,23.63457],[90.96827,23.63619],[90.97334,23.63612],[90.97499,23.63464],[90.97541,23.63229],[90.99003,23.62853],[90.99266,23.62841],[90.99376,23.63501],[90.99516,23.63549],[90.99603,23.63363],[90.99777,23.633],[90.99871,23.63493],[90.998,23.63792],[90.99854,23.64071],[90.99917,23.64269],[91.00079,23.64424],[91.00066,23.64619],[90.99734,23.64639],[90.99572,23.64843],[90.99552,23.64992],[90.99675,23.6528],[91.00001,23.65466],[91.0004,23.6587],[90.99633,23.66669],[90.99591,23.67036],[90.99654,23.67251],[91.00211,23.67768],[91.00622,23.67666],[91.01205,23.6857],[91.02094,23.69426],[91.02737,23.69328],[91.04499,23.69658],[91.05197,23.70222],[91.05392,23.706],[91.05984,23.69379],[91.06333,23.68233],[91.06331,23.67856],[91.06676,23.6743],[91.06895,23.67435],[91.07069,23.67167],[91.07131,23.66817],[91.06962,23.66639],[91.06811,23.66786],[91.06523,23.66828],[91.05075,23.6669],[91.04909,23.66403],[91.04674,23.65416],[91.04891,23.65175],[91.05189,23.6523],[91.05778,23.65609],[91.06067,23.65607],[91.06142,23.65079],[91.05959,23.64456],[91.05918,23.63834],[91.06273,23.63373],[91.06393,23.6305],[91.06478,23.61496],[91.06384,23.60766],[91.06138,23.60201],[91.06104,23.59922],[91.05933,23.59716],[91.05943,23.59464],[91.06155,23.59241],[91.06478,23.59101],[91.06967,23.59157],[91.06963,23.59402],[91.06839,23.59606],[91.0701,23.59841],[91.07258,23.6048],[91.07346,23.60289],[91.07481,23.59325],[91.07531,23.58948]]]}},{"type":"Feature","properties":{"name":"Homna","district_id":"cumilla","pcode":"201954","sql_upazila_id":"cumilla-homna","sql_name_bn":"হোমনা"},"geometry":{"type":"Polygon","coordinates":[[[90.74319,23.69099],[90.75648,23.697],[90.76008,23.69583],[90.76352,23.69711],[90.76499,23.69439],[90.76559,23.68963],[90.7736,23.68675],[90.77766,23.68636],[90.78039,23.68715],[90.78781,23.69159],[90.78724,23.69521],[90.77893,23.70815],[90.77802,23.71103],[90.78041,23.71674],[90.77495,23.72111],[90.77743,23.72595],[90.77664,23.73094],[90.77837,23.7337],[90.7836,23.73271],[90.78633,23.73355],[90.79057,23.73647],[90.79604,23.74256],[90.80112,23.74626],[90.8048,23.74537],[90.80781,23.74318],[90.81157,23.73727],[90.81718,23.73198],[90.82784,23.72954],[90.83266,23.7313],[90.83404,23.72727],[90.8372,23.72635],[90.84442,23.72615],[90.8456,23.72412],[90.84863,23.72427],[90.85819,23.71936],[90.86102,23.72145],[90.86842,23.72274],[90.87131,23.72107],[90.87917,23.71967],[90.88488,23.72312],[90.88341,23.71859],[90.88007,23.71645],[90.87675,23.71687],[90.86793,23.70973],[90.86833,23.70697],[90.87221,23.70624],[90.8737,23.70387],[90.87327,23.7004],[90.87489,23.69807],[90.87832,23.69559],[90.88217,23.68869],[90.8819,23.68635],[90.87892,23.68346],[90.87576,23.68286],[90.86923,23.67834],[90.86414,23.67275],[90.86324,23.66649],[90.86368,23.66437],[90.86721,23.6632],[90.87013,23.66604],[90.87012,23.66975],[90.87207,23.67353],[90.87634,23.6773],[90.8792,23.67843],[90.8791,23.67364],[90.87686,23.66661],[90.87772,23.66396],[90.87708,23.6618],[90.87151,23.65469],[90.86729,23.65406],[90.86434,23.64642],[90.86076,23.64235],[90.86224,23.63974],[90.85611,23.62933],[90.85201,23.62996],[90.85046,23.62878],[90.84911,23.62956],[90.84029,23.63054],[90.83813,23.6255],[90.83589,23.62636],[90.83229,23.62548],[90.82998,23.62588],[90.82616,23.62203],[90.82486,23.61887],[90.82357,23.61782],[90.82041,23.62287],[90.81692,23.62137],[90.81364,23.62275],[90.81128,23.62555],[90.80959,23.62936],[90.81101,23.63287],[90.80826,23.63288],[90.80536,23.63061],[90.80561,23.62878],[90.80452,23.62601],[90.8075,23.62291],[90.804,23.62145],[90.80081,23.62187],[90.79841,23.62519],[90.80207,23.62784],[90.80197,23.63441],[90.79946,23.63836],[90.79495,23.63481],[90.78999,23.62649],[90.78619,23.62383],[90.77241,23.62018],[90.76477,23.62072],[90.75381,23.63087],[90.74165,23.63111],[90.73792,23.62865],[90.736,23.62491],[90.73203,23.6205],[90.73087,23.61802],[90.7308,23.61573],[90.72841,23.61345],[90.72233,23.61337],[90.71457,23.61602],[90.71228,23.61898],[90.71024,23.62366],[90.69416,23.62525],[90.6924,23.62701],[90.69099,23.63018],[90.69124,23.63212],[90.68916,23.63383],[90.68744,23.64089],[90.6808,23.63757],[90.67005,23.63463],[90.65702,23.63306],[90.65559,23.63121],[90.65293,23.62259],[90.65218,23.61645],[90.64021,23.61502],[90.63323,23.61639],[90.62971,23.61917],[90.63123,23.62108],[90.64072,23.64908],[90.64555,23.65873],[90.6438,23.66826],[90.646,23.6733],[90.64911,23.67539],[90.65356,23.67676],[90.66372,23.67591],[90.67699,23.67957],[90.68146,23.67939],[90.68581,23.67745],[90.69351,23.66986],[90.70766,23.66366],[90.72242,23.66125],[90.72783,23.66203],[90.73257,23.66407],[90.73793,23.67474],[90.74297,23.68884],[90.74319,23.69099]]]}},{"type":"Feature","properties":{"name":"Laksam","district_id":"cumilla","pcode":"201972","sql_upazila_id":"cumilla-laksam","sql_name_bn":"লাকসাম"},"geometry":{"type":"Polygon","coordinates":[[[91.19849,23.35707],[91.19856,23.35221],[91.2063,23.34611],[91.20661,23.34262],[91.21091,23.33661],[91.21061,23.3336],[91.20465,23.32794],[91.20228,23.32109],[91.20399,23.31802],[91.20524,23.30936],[91.2069,23.30852],[91.21049,23.30378],[91.21256,23.29375],[91.21581,23.28982],[91.21814,23.28336],[91.21007,23.28142],[91.20914,23.27813],[91.21003,23.27342],[91.20991,23.26817],[91.21452,23.26754],[91.22495,23.26164],[91.22473,23.25936],[91.22204,23.25748],[91.22215,23.25549],[91.2207,23.25348],[91.21765,23.25191],[91.2148,23.24748],[91.21588,23.24442],[91.21449,23.24246],[91.21796,23.24139],[91.22175,23.24391],[91.22333,23.24632],[91.22557,23.2462],[91.22903,23.24319],[91.22211,23.24047],[91.21767,23.23677],[91.21323,23.22959],[91.21124,23.2212],[91.20699,23.21777],[91.20393,23.21626],[91.19955,23.2177],[91.1963,23.21767],[91.19342,23.21593],[91.18759,23.21729],[91.18382,23.19896],[91.17968,23.1933],[91.17948,23.18959],[91.17815,23.18717],[91.17233,23.17997],[91.16949,23.17936],[91.1671,23.17697],[91.16655,23.17373],[91.16236,23.17179],[91.15875,23.17058],[91.14182,23.16894],[91.14014,23.16727],[91.13977,23.16391],[91.14066,23.15903],[91.13956,23.15273],[91.13708,23.15114],[91.13107,23.14919],[91.13212,23.14516],[91.13174,23.14135],[91.12754,23.13558],[91.12659,23.13184],[91.12611,23.12706],[91.12722,23.12297],[91.13655,23.1113],[91.13879,23.10375],[91.1423,23.10035],[91.14671,23.09777],[91.14803,23.09476],[91.14783,23.09231],[91.14642,23.0895],[91.14982,23.08655],[91.15574,23.07938],[91.15073,23.07865],[91.14327,23.07586],[91.14206,23.07417],[91.11976,23.07257],[91.09847,23.0694],[91.0946,23.06813],[91.08974,23.06841],[91.08371,23.06733],[91.08249,23.07262],[91.07991,23.07616],[91.07479,23.07442],[91.06976,23.07532],[91.06821,23.0768],[91.04958,23.08344],[91.0461,23.08933],[91.04175,23.10798],[91.03974,23.11166],[91.03509,23.11131],[91.033,23.10986],[91.0328,23.10789],[91.03067,23.10542],[91.02856,23.10538],[91.02651,23.10646],[91.02577,23.10819],[91.0234,23.10912],[91.02203,23.11187],[91.01952,23.11264],[91.0159,23.11316],[91.0066,23.11196],[91.00394,23.11369],[91.00256,23.11617],[90.99901,23.11703],[90.99318,23.11457],[90.9912,23.11441],[90.98842,23.11597],[90.98927,23.12211],[90.98866,23.12405],[90.98734,23.12704],[90.98243,23.13189],[90.98581,23.13467],[90.99238,23.13672],[91.0018,23.13819],[91.00891,23.138],[91.01167,23.14015],[91.01315,23.14314],[91.0151,23.15091],[91.0045,23.16078],[91.0038,23.16401],[91.0094,23.17064],[91.00922,23.1727],[91.00452,23.17808],[91.01104,23.1847],[91.01019,23.18838],[91.01224,23.1901],[91.01887,23.19198],[91.01987,23.19412],[91.01603,23.19845],[91.01405,23.20261],[91.01645,23.20729],[91.01965,23.21108],[91.02368,23.21406],[91.02695,23.2146],[91.03152,23.22036],[91.02985,23.22457],[91.03043,23.2269],[91.02737,23.23429],[91.02838,23.24345],[91.01881,23.24918],[91.02594,23.24906],[91.03305,23.24693],[91.03418,23.24142],[91.03717,23.24105],[91.04842,23.248],[91.05093,23.25221],[91.0523,23.26468],[91.05461,23.27199],[91.05719,23.27426],[91.06745,23.27969],[91.07374,23.28614],[91.07624,23.29167],[91.07819,23.29385],[91.07685,23.29841],[91.07749,23.30249],[91.07941,23.30352],[91.08182,23.30243],[91.08357,23.30267],[91.08661,23.30401],[91.0882,23.30648],[91.08779,23.30883],[91.08486,23.31291],[91.08482,23.31531],[91.08762,23.31666],[91.09622,23.31774],[91.09814,23.31883],[91.09957,23.32051],[91.09901,23.32406],[91.09937,23.32714],[91.10043,23.32894],[91.10377,23.32764],[91.10534,23.32612],[91.10767,23.32634],[91.10914,23.32915],[91.11204,23.33158],[91.11525,23.33047],[91.11881,23.33203],[91.12043,23.33359],[91.121,23.33751],[91.11946,23.33984],[91.11987,23.34451],[91.12501,23.34642],[91.13288,23.34598],[91.14006,23.34875],[91.14047,23.35011],[91.13684,23.35546],[91.14424,23.3576],[91.15439,23.35618],[91.16025,23.35362],[91.16438,23.35505],[91.16717,23.35445],[91.17477,23.35733],[91.1773,23.35977],[91.18439,23.36209],[91.18754,23.36257],[91.19122,23.36053],[91.19849,23.35707]]]}},{"type":"Feature","properties":{"name":"Muradnagar","district_id":"cumilla","pcode":"201981","sql_upazila_id":"cumilla-muradnagar","sql_name_bn":"মুরাদনগর"},"geometry":{"type":"Polygon","coordinates":[[[91.03841,23.79427],[91.04044,23.78695],[91.03851,23.78381],[91.04003,23.7768],[91.04187,23.77578],[91.04629,23.78006],[91.04966,23.77757],[91.05038,23.77292],[91.05045,23.7695],[91.04363,23.76854],[91.04272,23.76769],[91.0426,23.76594],[91.04382,23.76476],[91.04678,23.76502],[91.05031,23.76367],[91.05349,23.76125],[91.05547,23.76382],[91.05684,23.76898],[91.05923,23.7672],[91.06062,23.76385],[91.05865,23.76134],[91.05869,23.75711],[91.06039,23.75729],[91.06503,23.76053],[91.06678,23.76037],[91.06739,23.75824],[91.06351,23.75309],[91.06313,23.75099],[91.05878,23.74865],[91.05727,23.74681],[91.05795,23.74473],[91.05885,23.74339],[91.06126,23.7423],[91.07126,23.74106],[91.0748,23.73982],[91.07525,23.73684],[91.07389,23.73498],[91.06695,23.73095],[91.05904,23.71249],[91.05392,23.706],[91.05197,23.70222],[91.04499,23.69658],[91.04334,23.69611],[91.02737,23.69328],[91.02094,23.69426],[91.01205,23.6857],[91.00622,23.67666],[91.00211,23.67768],[90.99654,23.67251],[90.99591,23.67036],[90.99633,23.66669],[91.0004,23.6587],[91.00001,23.65466],[90.99675,23.6528],[90.99552,23.64992],[90.99572,23.64843],[90.99734,23.64639],[91.00066,23.64619],[91.00079,23.64424],[90.99917,23.64269],[90.99854,23.64071],[90.998,23.63792],[90.99871,23.63493],[90.99777,23.633],[90.99603,23.63363],[90.99516,23.63549],[90.99376,23.63501],[90.99266,23.62841],[90.99003,23.62853],[90.97541,23.63229],[90.97499,23.63464],[90.97334,23.63612],[90.96827,23.63619],[90.96696,23.63457],[90.96677,23.6328],[90.96862,23.62624],[90.96817,23.62403],[90.96619,23.62134],[90.95928,23.61707],[90.95376,23.61127],[90.95107,23.60574],[90.95103,23.60283],[90.94951,23.60053],[90.94577,23.59766],[90.94666,23.59038],[90.94482,23.58415],[90.94809,23.57681],[90.94818,23.57395],[90.94595,23.57298],[90.93954,23.57252],[90.93799,23.57096],[90.9394,23.56481],[90.93877,23.56277],[90.93225,23.56266],[90.92762,23.56449],[90.92422,23.56446],[90.92005,23.55949],[90.91736,23.54465],[90.91201,23.53457],[90.9099,23.53325],[90.90865,23.5241],[90.90734,23.52241],[90.90649,23.51918],[90.90605,23.51375],[90.90476,23.51265],[90.8987,23.51115],[90.89619,23.50556],[90.89502,23.50399],[90.89272,23.50286],[90.88759,23.50299],[90.88232,23.50495],[90.88062,23.50642],[90.87569,23.52054],[90.87479,23.52707],[90.87289,23.53232],[90.87111,23.54687],[90.86793,23.54735],[90.86653,23.54865],[90.87194,23.5569],[90.87373,23.55834],[90.87344,23.56052],[90.87005,23.56044],[90.86903,23.56178],[90.86612,23.58018],[90.86171,23.58155],[90.86089,23.5834],[90.86035,23.59335],[90.85819,23.59461],[90.85745,23.59697],[90.86002,23.60472],[90.86486,23.60888],[90.86425,23.61113],[90.86457,23.61666],[90.8607,23.61767],[90.85908,23.62171],[90.85358,23.62425],[90.86224,23.63974],[90.86076,23.64235],[90.86434,23.64642],[90.86729,23.65406],[90.87151,23.65469],[90.87708,23.6618],[90.87772,23.66396],[90.87686,23.66661],[90.8791,23.67364],[90.8792,23.67843],[90.87634,23.6773],[90.87207,23.67353],[90.87012,23.66975],[90.87013,23.66604],[90.86865,23.66442],[90.86721,23.6632],[90.86368,23.66437],[90.86355,23.67009],[90.86512,23.67405],[90.86923,23.67834],[90.87576,23.68286],[90.87892,23.68346],[90.8819,23.68635],[90.88217,23.68869],[90.87832,23.69559],[90.87489,23.69807],[90.87327,23.7004],[90.8737,23.70387],[90.87221,23.70624],[90.86833,23.70697],[90.86793,23.70973],[90.87675,23.71687],[90.88007,23.71645],[90.88341,23.71859],[90.88488,23.72312],[90.8875,23.72648],[90.88763,23.72852],[90.88533,23.73116],[90.88534,23.73339],[90.88619,23.7364],[90.88623,23.74319],[90.88963,23.74557],[90.88892,23.75254],[90.8925,23.75822],[90.89781,23.75928],[90.90083,23.76092],[90.90303,23.76526],[90.90478,23.76665],[90.90768,23.76714],[90.91086,23.7666],[90.91367,23.76779],[90.91707,23.76621],[90.92086,23.76691],[90.93512,23.77254],[90.94478,23.77406],[90.94859,23.77539],[90.95769,23.77332],[90.96053,23.77376],[90.96196,23.7751],[90.96107,23.77849],[90.96324,23.77958],[90.9791,23.78424],[91.00256,23.78728],[91.0007,23.78996],[90.99799,23.79123],[90.99631,23.79333],[90.99748,23.79473],[91.0005,23.79492],[91.00589,23.79079],[91.01133,23.79036],[91.03486,23.79659],[91.03841,23.79427]]]}},{"type":"Feature","properties":{"name":"Nangalkot","district_id":"cumilla","pcode":"201987","sql_upazila_id":"cumilla-nangalkot","sql_name_bn":"নাঙ্গলকোট"},"geometry":{"type":"Polygon","coordinates":[[[91.22903,23.24319],[91.23159,23.24318],[91.23717,23.24713],[91.23975,23.24563],[91.24247,23.2431],[91.24345,23.24073],[91.24207,23.23883],[91.23864,23.24075],[91.23444,23.24058],[91.2312,23.23936],[91.2307,23.23726],[91.2322,23.23578],[91.23619,23.2354],[91.24368,23.23644],[91.24484,23.23418],[91.24458,23.23213],[91.24184,23.22907],[91.24768,23.22792],[91.25336,23.23297],[91.25342,23.23805],[91.25568,23.23838],[91.25709,23.23732],[91.25988,23.23884],[91.26682,23.23676],[91.26566,23.2357],[91.26208,23.23512],[91.26086,23.23258],[91.26116,23.2291],[91.26496,23.22687],[91.26529,23.22543],[91.27242,23.22392],[91.27122,23.22184],[91.26904,23.22042],[91.25547,23.22036],[91.25361,23.21708],[91.25414,23.2145],[91.25796,23.20954],[91.26211,23.21193],[91.27305,23.20848],[91.2759,23.2044],[91.27534,23.20111],[91.27389,23.19864],[91.268,23.20017],[91.26997,23.20269],[91.27007,23.20394],[91.26845,23.20564],[91.26497,23.20631],[91.26204,23.20468],[91.26191,23.20297],[91.26392,23.19635],[91.26719,23.19163],[91.27099,23.19278],[91.27322,23.19232],[91.2781,23.19561],[91.28094,23.19318],[91.28218,23.18938],[91.27924,23.18586],[91.27328,23.18215],[91.26999,23.18601],[91.26806,23.18441],[91.26638,23.18126],[91.26638,23.17955],[91.26805,23.17744],[91.27362,23.17911],[91.27495,23.17622],[91.27281,23.17417],[91.26431,23.17036],[91.2651,23.16817],[91.26778,23.16797],[91.26982,23.16917],[91.26886,23.16669],[91.26884,23.16292],[91.27115,23.15926],[91.26606,23.15322],[91.27094,23.15355],[91.27245,23.15191],[91.27083,23.14859],[91.27374,23.14411],[91.27235,23.14209],[91.26937,23.14103],[91.26637,23.13746],[91.26453,23.13323],[91.26544,23.13258],[91.27009,23.13485],[91.27357,23.13475],[91.27408,23.13285],[91.27306,23.13065],[91.2788,23.13049],[91.27673,23.12358],[91.27952,23.12087],[91.28358,23.12087],[91.28544,23.12584],[91.28931,23.1259],[91.29252,23.1229],[91.293,23.12066],[91.28941,23.11819],[91.28947,23.11631],[91.29084,23.11455],[91.29064,23.11262],[91.28854,23.10959],[91.28328,23.11094],[91.28136,23.10803],[91.2802,23.09841],[91.27798,23.09591],[91.28234,23.09361],[91.28468,23.09092],[91.28009,23.08837],[91.28156,23.08227],[91.28303,23.0816],[91.28299,23.07875],[91.28724,23.0788],[91.29883,23.07458],[91.29876,23.07276],[91.29573,23.07187],[91.29183,23.0729],[91.28957,23.07251],[91.28788,23.06896],[91.29298,23.06824],[91.29657,23.06409],[91.29831,23.06386],[91.30336,23.06537],[91.30146,23.06115],[91.30964,23.05932],[91.31239,23.0594],[91.30898,23.05671],[91.30508,23.05602],[91.30434,23.05461],[91.3115,23.05235],[91.31424,23.04642],[91.31201,23.04529],[91.30553,23.04474],[91.29491,23.04716],[91.28667,23.05293],[91.28203,23.05774],[91.27727,23.05053],[91.26543,23.04955],[91.23765,23.05384],[91.23403,23.0593],[91.22842,23.06134],[91.21882,23.05529],[91.21358,23.06211],[91.20638,23.06105],[91.19753,23.05728],[91.18793,23.05498],[91.17974,23.05806],[91.1765,23.06089],[91.16552,23.06735],[91.16234,23.07263],[91.15647,23.07605],[91.15574,23.07938],[91.14982,23.08655],[91.14642,23.0895],[91.14783,23.09231],[91.14803,23.09476],[91.14671,23.09777],[91.1423,23.10035],[91.13879,23.10375],[91.13655,23.1113],[91.12722,23.12297],[91.12611,23.12706],[91.12659,23.13184],[91.12754,23.13558],[91.13174,23.14135],[91.13212,23.14516],[91.13107,23.14919],[91.13708,23.15114],[91.13956,23.15273],[91.14066,23.15903],[91.13977,23.16391],[91.14014,23.16727],[91.14182,23.16894],[91.14472,23.16971],[91.15875,23.17058],[91.16655,23.17373],[91.1671,23.17697],[91.16949,23.17936],[91.17233,23.17997],[91.17948,23.18959],[91.17968,23.1933],[91.18382,23.19896],[91.18759,23.21729],[91.19342,23.21593],[91.1963,23.21767],[91.19955,23.2177],[91.20393,23.21626],[91.20699,23.21777],[91.21124,23.2212],[91.21323,23.22959],[91.21545,23.23398],[91.22211,23.24047],[91.22528,23.24153],[91.22903,23.24319]]]}}]}