{"type":"FeatureCollection","features":[{"type":"Feature","properties":{"name":"Adabor","district_id":"dhaka","pcode":"302602","sql_upazila_id":"dhaka-adabor","sql_name_bn":"আদাবর"},"geometry":{"type":"Polygon","coordinates":[[[90.35766,23.77656],[90.36203,23.77742],[90.36557,23.77493],[90.36104,23.77337],[90.35916,23.77056],[90.35846,23.76823],[90.3589,23.76242],[90.35576,23.7616],[90.35199,23.76276],[90.34954,23.76219],[90.34554,23.76847],[90.34416,23.76859],[90.34418,23.77049],[90.34231,23.77206],[90.34592,23.77292],[90.34618,23.77406],[90.34766,23.77436],[90.35079,23.77825],[90.35414,23.77595],[90.35721,23.77642],[90.35766,23.77656]]]}},{"type":"Feature","properties":{"name":"Badda","district_id":"dhaka","pcode":"302604","sql_upazila_id":"dhaka-badda","sql_name_bn":"বাড্ডা"},"geometry":{"type":"Polygon","coordinates":[[[90.48577,23.82133],[90.48779,23.81764],[90.48538,23.81706],[90.4836,23.81118],[90.48419,23.80786],[90.48183,23.80285],[90.48053,23.79236],[90.47556,23.78756],[90.47198,23.78533],[90.47093,23.78355],[90.47162,23.7818],[90.4692,23.78157],[90.46541,23.78343],[90.46276,23.78238],[90.46186,23.77979],[90.45951,23.77788],[90.45873,23.77567],[90.46148,23.77486],[90.46198,23.7736],[90.45662,23.77081],[90.45596,23.76848],[90.45418,23.76839],[90.45215,23.76603],[90.45228,23.76256],[90.45398,23.76306],[90.45402,23.76426],[90.45507,23.76319],[90.45448,23.76013],[90.44843,23.75974],[90.44645,23.75894],[90.44509,23.76011],[90.44575,23.76153],[90.44442,23.76329],[90.4416,23.76386],[90.44198,23.76622],[90.43695,23.76477],[90.43695,23.76342],[90.43481,23.76277],[90.42721,23.76706],[90.42604,23.76675],[90.4237,23.76892],[90.42086,23.76994],[90.41757,23.76983],[90.41838,23.77342],[90.42044,23.7772],[90.42069,23.78278],[90.42204,23.78879],[90.4261,23.78908],[90.42225,23.80667],[90.42347,23.80724],[90.42147,23.80812],[90.42125,23.81014],[90.42018,23.81056],[90.42109,23.81191],[90.41533,23.81102],[90.41514,23.81632],[90.41784,23.81636],[90.41735,23.81828],[90.41663,23.81836],[90.41726,23.82035],[90.41899,23.82163],[90.42165,23.82051],[90.42957,23.82157],[90.42911,23.82607],[90.43628,23.82748],[90.44197,23.82601],[90.44826,23.82808],[90.45386,23.82677],[90.45547,23.82762],[90.47343,23.82138],[90.47974,23.82302],[90.48571,23.82134],[90.48577,23.82133]]]}},{"type":"Feature","properties":{"name":"Bangshal","district_id":"dhaka","pcode":"302605","sql_upazila_id":"dhaka-bangshal","sql_name_bn":"বংশাল"},"geometry":{"type":"Polygon","coordinates":[[[90.41188,23.72294],[90.41153,23.71352],[90.40728,23.71434],[90.40492,23.71377],[90.40481,23.71449],[90.4041,23.71336],[90.40483,23.71268],[90.40417,23.71193],[90.40313,23.71222],[90.40204,23.70968],[90.39972,23.71077],[90.39916,23.713],[90.40098,23.71281],[90.40123,23.714],[90.39995,23.71502],[90.40024,23.71613],[90.39935,23.71643],[90.39831,23.71951],[90.40033,23.72393],[90.41169,23.72294],[90.41188,23.72294]]]}},{"type":"Feature","properties":{"name":"Biman Bandar","district_id":"dhaka","pcode":"302606","sql_upazila_id":null,"sql_name_bn":null},"geometry":{"type":"Polygon","coordinates":[[[90.4072,23.85792],[90.41612,23.8593],[90.41779,23.85778],[90.41873,23.85539],[90.4211,23.85382],[90.42083,23.85263],[90.4246,23.84986],[90.42354,23.84872],[90.42382,23.84733],[90.4219,23.84597],[90.42156,23.84472],[90.42255,23.84203],[90.42026,23.83887],[90.4141,23.8352],[90.41294,23.83348],[90.41119,23.83307],[90.41044,23.83408],[90.40664,23.83165],[90.402,23.83181],[90.39924,23.83314],[90.39983,23.8389],[90.39437,23.84152],[90.39313,23.84683],[90.3875,23.85323],[90.38545,23.85687],[90.39247,23.86126],[90.40037,23.86071],[90.40639,23.85367],[90.40611,23.85524],[90.40712,23.85665],[90.4072,23.85792]]]}},{"type":"Feature","properties":{"name":"Cantonment","district_id":"dhaka","pcode":"302608","sql_upazila_id":"dhaka-cantonment","sql_name_bn":"ক্যান্টনমেন্ট"},"geometry":{"type":"Polygon","coordinates":[[[90.39437,23.84152],[90.39983,23.8389],[90.40005,23.83679],[90.399,23.83418],[90.39934,23.83284],[90.40055,23.83221],[90.40664,23.83165],[90.41044,23.83408],[90.41119,23.83307],[90.4132,23.83363],[90.41266,23.82577],[90.41356,23.82358],[90.41463,23.82315],[90.4143,23.82155],[90.4159,23.81982],[90.41698,23.81974],[90.41663,23.81836],[90.41735,23.81828],[90.41784,23.81636],[90.41514,23.81632],[90.41533,23.81103],[90.41307,23.8102],[90.41551,23.80641],[90.41365,23.80608],[90.41229,23.80456],[90.40883,23.80421],[90.40864,23.80505],[90.4068,23.80506],[90.40673,23.80105],[90.40456,23.79971],[90.4024,23.80047],[90.40112,23.79868],[90.39782,23.77811],[90.3941,23.77641],[90.39412,23.77749],[90.39286,23.77813],[90.39294,23.78174],[90.39215,23.78239],[90.39089,23.77938],[90.38961,23.77968],[90.38826,23.78164],[90.38864,23.78419],[90.38752,23.78703],[90.38871,23.78765],[90.38744,23.78809],[90.38718,23.78933],[90.38765,23.79073],[90.3918,23.7905],[90.39437,23.80064],[90.39867,23.80586],[90.4003,23.81395],[90.40024,23.81718],[90.39154,23.81494],[90.39116,23.8163],[90.38607,23.81575],[90.38306,23.81674],[90.3823,23.81795],[90.38287,23.82084],[90.38577,23.82159],[90.38614,23.82306],[90.39087,23.8248],[90.39145,23.82661],[90.39348,23.82693],[90.38893,23.83208],[90.38893,23.83386],[90.38712,23.83689],[90.38774,23.83898],[90.38736,23.84435],[90.39435,23.84152],[90.39437,23.84152]]]}},{"type":"Feature","properties":{"name":"Chak Bazar","district_id":"dhaka","pcode":"302609","sql_upazila_id":null,"sql_name_bn":null},"geometry":{"type":"Polygon","coordinates":[[[90.39948,23.72404],[90.40033,23.72393],[90.40023,23.72323],[90.39828,23.71851],[90.40024,23.71613],[90.39995,23.71502],[90.40127,23.7133],[90.4001,23.71261],[90.39916,23.713],[90.39972,23.71077],[90.39138,23.71116],[90.39039,23.71199],[90.38775,23.71178],[90.38316,23.71328],[90.38657,23.71665],[90.38863,23.71645],[90.38962,23.71694],[90.39005,23.71893],[90.39114,23.71891],[90.39047,23.71995],[90.39137,23.72065],[90.38942,23.72335],[90.39023,23.72332],[90.39001,23.72415],[90.39397,23.72403],[90.39404,23.72459],[90.39747,23.72355],[90.39946,23.72404],[90.39948,23.72404]]]}},{"type":"Feature","properties":{"name":"Dakshinkhan","district_id":"dhaka","pcode":"302610","sql_upazila_id":"dhaka-dakshinkhan","sql_name_bn":"দক্ষিণখান"},"geometry":{"type":"Polygon","coordinates":[[[90.45392,23.84875],[90.45301,23.84587],[90.44707,23.84887],[90.44224,23.84662],[90.44032,23.84784],[90.43664,23.84761],[90.43415,23.84502],[90.42388,23.84758],[90.42354,23.84872],[90.4246,23.84986],[90.42083,23.85263],[90.4211,23.85382],[90.41873,23.85539],[90.41779,23.85778],[90.41612,23.8593],[90.4072,23.85792],[90.40649,23.88197],[90.41193,23.88279],[90.41632,23.88604],[90.41653,23.88462],[90.41521,23.88201],[90.41647,23.8807],[90.41836,23.88021],[90.41904,23.87793],[90.41866,23.87619],[90.41756,23.87653],[90.41513,23.87359],[90.41481,23.87136],[90.4138,23.8704],[90.41616,23.86836],[90.41559,23.87035],[90.41675,23.87059],[90.41823,23.8731],[90.41923,23.87295],[90.4198,23.86908],[90.41895,23.86734],[90.42239,23.86341],[90.42801,23.86482],[90.42868,23.86694],[90.42978,23.86775],[90.43302,23.86662],[90.43396,23.86526],[90.4355,23.86535],[90.43633,23.86636],[90.43721,23.86606],[90.43742,23.86519],[90.43428,23.86343],[90.43844,23.85699],[90.43933,23.86002],[90.44374,23.85971],[90.44801,23.85458],[90.44729,23.8523],[90.44899,23.84921],[90.45383,23.84882],[90.45392,23.84875]]]}},{"type":"Feature","properties":{"name":"Darus Salam","district_id":"dhaka","pcode":"302611","sql_upazila_id":"dhaka-darus-salam","sql_name_bn":"দারুস সালাম"},"geometry":{"type":"Polygon","coordinates":[[[90.34914,23.79628],[90.35021,23.79344],[90.3495,23.7899],[90.35008,23.78811],[90.34892,23.78301],[90.35181,23.78157],[90.35386,23.78512],[90.35518,23.78515],[90.3552,23.78413],[90.35743,23.78433],[90.35831,23.77887],[90.35771,23.77894],[90.35766,23.77656],[90.35414,23.77595],[90.35079,23.77825],[90.34766,23.77436],[90.34618,23.77406],[90.34592,23.77292],[90.34231,23.77206],[90.33897,23.77383],[90.3349,23.77447],[90.33459,23.77558],[90.33804,23.77898],[90.3355,23.78254],[90.33544,23.78481],[90.338,23.78643],[90.33959,23.79014],[90.34013,23.79588],[90.33954,23.79751],[90.34314,23.79867],[90.34574,23.79847],[90.34765,23.79586],[90.34912,23.79627],[90.34914,23.79628]]]}},{"type":"Feature","properties":{"name":"Demra","district_id":"dhaka","pcode":"302612","sql_upazila_id":"dhaka-demra","sql_name_bn":"ডেমরা"},"geometry":{"type":"Polygon","coordinates":[[[90.48247,23.76181],[90.48299,23.75883],[90.48619,23.7575],[90.48732,23.756],[90.48741,23.75432],[90.48578,23.75237],[90.48571,23.7492],[90.49246,23.74332],[90.48992,23.73761],[90.48993,23.73599],[90.49753,23.73062],[90.49825,23.72811],[90.50047,23.72597],[90.49955,23.72582],[90.49928,23.7225],[90.50185,23.71805],[90.50804,23.71469],[90.51279,23.70957],[90.50466,23.70574],[90.49902,23.70525],[90.49779,23.70149],[90.49147,23.70091],[90.48869,23.69906],[90.48966,23.6965],[90.48871,23.69564],[90.48572,23.696],[90.4826,23.69397],[90.47973,23.69366],[90.47781,23.6911],[90.4741,23.69022],[90.47009,23.68515],[90.46828,23.68522],[90.46739,23.69264],[90.46476,23.6994],[90.46611,23.69984],[90.46595,23.70221],[90.46783,23.70236],[90.47042,23.70682],[90.47643,23.70958],[90.47458,23.71688],[90.47439,23.72139],[90.47372,23.72256],[90.47117,23.72078],[90.46905,23.72055],[90.46819,23.71906],[90.46752,23.7204],[90.46479,23.71994],[90.46311,23.72589],[90.4615,23.72644],[90.46082,23.72551],[90.45937,23.72582],[90.45615,23.73312],[90.46435,23.73479],[90.46452,23.7355],[90.4641,23.73845],[90.4624,23.74047],[90.45983,23.74103],[90.46062,23.74623],[90.45973,23.7501],[90.46171,23.75123],[90.46205,23.75223],[90.46528,23.75342],[90.46734,23.75322],[90.46838,23.75395],[90.46923,23.75319],[90.47231,23.75401],[90.47235,23.7584],[90.47395,23.76147],[90.48034,23.76121],[90.48247,23.76181]]]}},{"type":"Feature","properties":{"name":"Dhamrai","district_id":"dhaka","pcode":"302614","sql_upazila_id":"dhaka-dhamrai","sql_name_bn":"ধামরাই"},"geometry":{"type":"Polygon","coordinates":[[[90.14755,24.03354],[90.14706,24.0254],[90.14945,24.02572],[90.14962,24.02465],[90.15101,24.02501],[90.15158,24.02411],[90.15539,24.02297],[90.156,24.02156],[90.15896,24.02148],[90.15967,24.01947],[90.16161,24.01958],[90.16209,24.01479],[90.16763,24.01087],[90.16635,24.00938],[90.16834,24.00727],[90.17084,24.0011],[90.17638,24.00033],[90.17805,24.00151],[90.18064,24.001],[90.1833,24.00168],[90.18543,24.00043],[90.18618,23.99829],[90.18544,23.99438],[90.18667,23.98838],[90.19075,23.98465],[90.19022,23.97769],[90.19263,23.97619],[90.19749,23.9759],[90.19962,23.97441],[90.19996,23.97268],[90.19815,23.96966],[90.19847,23.96803],[90.20318,23.9659],[90.20993,23.95684],[90.21392,23.95515],[90.21671,23.952],[90.22553,23.94754],[90.23085,23.94322],[90.23174,23.93609],[90.23081,23.93507],[90.22798,23.93457],[90.22809,23.93048],[90.22468,23.92829],[90.22478,23.91838],[90.22686,23.91575],[90.22847,23.90905],[90.22675,23.90039],[90.23015,23.89564],[90.22898,23.88475],[90.23096,23.88272],[90.23379,23.88262],[90.2343,23.88171],[90.23382,23.87545],[90.23198,23.87308],[90.23197,23.87133],[90.23699,23.86513],[90.23631,23.86336],[90.23719,23.86198],[90.23613,23.86005],[90.2384,23.8503],[90.23802,23.84701],[90.23866,23.84531],[90.24107,23.84546],[90.24373,23.84393],[90.24567,23.84034],[90.24576,23.8384],[90.24498,23.83874],[90.24033,23.83232],[90.23483,23.83274],[90.22823,23.835],[90.21868,23.84017],[90.21259,23.83945],[90.20638,23.83571],[90.20355,23.83798],[90.20383,23.8306],[90.19719,23.8303],[90.19731,23.82388],[90.19513,23.82223],[90.19052,23.82106],[90.18541,23.8183],[90.18425,23.81985],[90.181,23.82131],[90.17532,23.82212],[90.17461,23.82174],[90.17367,23.81793],[90.17194,23.81794],[90.17188,23.8278],[90.16629,23.82866],[90.16083,23.833],[90.15568,23.83298],[90.15431,23.82879],[90.15088,23.82795],[90.15093,23.83423],[90.14627,23.84448],[90.14103,23.85023],[90.13044,23.86455],[90.12756,23.86539],[90.12156,23.87354],[90.11798,23.8735],[90.11605,23.87558],[90.11281,23.88459],[90.11346,23.88702],[90.11288,23.88856],[90.10986,23.89144],[90.108,23.89578],[90.1056,23.89652],[90.10287,23.89975],[90.10002,23.90029],[90.09784,23.90201],[90.09312,23.90117],[90.09323,23.90488],[90.09134,23.90545],[90.08576,23.91138],[90.08038,23.91088],[90.07596,23.90638],[90.07241,23.90518],[90.07031,23.90583],[90.06833,23.90826],[90.06699,23.91139],[90.06664,23.91686],[90.06862,23.91954],[90.07401,23.92326],[90.07471,23.92592],[90.07367,23.92701],[90.06915,23.9267],[90.06688,23.92847],[90.06597,23.93348],[90.06765,23.94164],[90.06352,23.95095],[90.06481,23.95295],[90.06896,23.95401],[90.07372,23.95766],[90.07424,23.95984],[90.06642,23.96048],[90.06043,23.95769],[90.05584,23.95996],[90.05355,23.95973],[90.05061,23.96062],[90.0469,23.9625],[90.04094,23.96987],[90.03801,23.97172],[90.03863,23.97244],[90.04266,23.97248],[90.04433,23.97357],[90.04061,23.9756],[90.0394,23.9772],[90.03842,23.97984],[90.03884,23.98259],[90.04395,23.98655],[90.05018,23.989],[90.0521,23.99359],[90.05607,23.99697],[90.05643,23.99956],[90.05106,23.99927],[90.04795,23.99628],[90.04551,23.99584],[90.04338,23.99806],[90.04419,24.00317],[90.04334,24.00438],[90.03224,24.00607],[90.03013,24.00587],[90.03048,24.0037],[90.02624,24.0045],[90.02305,24.00754],[90.02398,24.01176],[90.02213,24.01482],[90.01982,24.01426],[90.01971,24.00969],[90.01555,24.01246],[90.01376,24.01258],[90.013,24.01165],[90.01378,24.00788],[90.01167,24.00792],[90.00757,24.01137],[90.00717,24.0149],[90.00457,24.0164],[90.00516,24.01774],[90.01389,24.01756],[90.01825,24.02174],[90.01743,24.02521],[90.01943,24.02606],[90.01791,24.03051],[90.01686,24.0314],[90.01215,24.03072],[90.01061,24.03232],[90.01038,24.0337],[90.01176,24.03824],[90.01202,24.04252],[90.01454,24.04253],[90.01653,24.04432],[90.01733,24.04426],[90.01743,24.03612],[90.02718,24.03394],[90.02722,24.03075],[90.02609,24.02962],[90.02197,24.02788],[90.02054,24.02916],[90.01964,24.02874],[90.02061,24.02358],[90.02203,24.02391],[90.02361,24.0213],[90.0247,24.02104],[90.03016,24.02262],[90.03492,24.02555],[90.03959,24.02688],[90.04074,24.02839],[90.06009,24.03041],[90.0636,24.02926],[90.06536,24.03146],[90.06473,24.0354],[90.06602,24.03747],[90.06774,24.03625],[90.0698,24.03237],[90.07449,24.03382],[90.07384,24.04065],[90.07494,24.04114],[90.08165,24.04067],[90.08445,24.03537],[90.08723,24.03592],[90.08984,24.03503],[90.09259,24.03125],[90.09406,24.02735],[90.09618,24.02699],[90.0972,24.02408],[90.10215,24.01904],[90.10633,24.01894],[90.10818,24.01757],[90.10967,24.01881],[90.10994,24.02653],[90.11557,24.02662],[90.12016,24.02536],[90.12064,24.02855],[90.1237,24.02868],[90.12457,24.03103],[90.12889,24.03324],[90.13534,24.03319],[90.13647,24.03409],[90.14118,24.03421],[90.14726,24.03351],[90.14755,24.03354]]]}},{"type":"Feature","properties":{"name":"Dhanmondi","district_id":"dhaka","pcode":"302616","sql_upazila_id":"dhaka-dhanmondi","sql_name_bn":"ধানমন্ডি"},"geometry":{"type":"Polygon","coordinates":[[[90.38321,23.74009],[90.38353,23.73847],[90.37845,23.73738],[90.37636,23.73829],[90.37046,23.73616],[90.37029,23.73249],[90.36854,23.73492],[90.36633,23.74358],[90.3637,23.74916],[90.36824,23.75085],[90.36729,23.75224],[90.37497,23.75693],[90.38209,23.74466],[90.38319,23.74005],[90.38321,23.74009]]]}},{"type":"Feature","properties":{"name":"Dohar","district_id":"dhaka","pcode":"302618","sql_upazila_id":"dhaka-dohar","sql_name_bn":"দোহার"},"geometry":{"type":"Polygon","coordinates":[[[90.20567,23.56894],[90.20505,23.5658],[90.20347,23.56426],[90.19598,23.56194],[90.19221,23.55938],[90.18576,23.56293],[90.18114,23.55579],[90.17716,23.55576],[90.17745,23.55147],[90.18045,23.54939],[90.18159,23.5414],[90.18096,23.53887],[90.17814,23.53664],[90.1781,23.53156],[90.17644,23.52682],[90.17431,23.52458],[90.17005,23.52736],[90.16467,23.52422],[90.15826,23.52215],[90.14792,23.54098],[90.13638,23.55395],[90.13499,23.5616],[90.12989,23.5651],[90.1256,23.56461],[90.11381,23.56536],[90.10576,23.56808],[90.10201,23.56858],[90.08967,23.56562],[90.08431,23.56241],[90.07814,23.56142],[90.07404,23.56549],[90.05714,23.57175],[90.04973,23.57398],[90.04649,23.57393],[90.05564,23.58408],[90.05272,23.58734],[90.04282,23.59522],[90.04054,23.5989],[90.03901,23.60939],[90.04761,23.61306],[90.0463,23.61793],[90.04327,23.62311],[90.04355,23.62662],[90.04476,23.62901],[90.03107,23.62988],[90.0161,23.63256],[90.0077,23.63494],[90.00716,23.64471],[90.00944,23.64664],[90.01473,23.64904],[90.01808,23.65217],[90.02061,23.65873],[90.02055,23.66521],[90.02313,23.66849],[90.02309,23.66637],[90.02434,23.66564],[90.02445,23.66427],[90.02733,23.66439],[90.02801,23.66644],[90.02921,23.66626],[90.02973,23.66426],[90.03135,23.66343],[90.03252,23.66094],[90.03263,23.65803],[90.03559,23.65794],[90.03579,23.6565],[90.03948,23.6571],[90.0411,23.65094],[90.04202,23.6501],[90.04453,23.65258],[90.04464,23.6559],[90.04603,23.65925],[90.05155,23.6584],[90.05301,23.65881],[90.05371,23.6581],[90.05368,23.65572],[90.05605,23.655],[90.05953,23.65509],[90.06764,23.65888],[90.06891,23.6553],[90.07133,23.65384],[90.07409,23.65425],[90.07531,23.65186],[90.08119,23.65254],[90.08616,23.65105],[90.08692,23.64882],[90.08552,23.64789],[90.087,23.64704],[90.0906,23.64771],[90.09209,23.64723],[90.09801,23.64977],[90.10026,23.64707],[90.10497,23.64545],[90.11095,23.64609],[90.11642,23.64524],[90.12273,23.6463],[90.12355,23.64395],[90.12143,23.63793],[90.12667,23.63628],[90.12814,23.64051],[90.13029,23.63948],[90.13099,23.64099],[90.13294,23.64094],[90.13333,23.64209],[90.13424,23.64212],[90.13391,23.64435],[90.13544,23.64404],[90.13505,23.64109],[90.13609,23.63938],[90.13473,23.6373],[90.13501,23.63636],[90.13812,23.63724],[90.13646,23.63815],[90.13834,23.63872],[90.13878,23.64078],[90.14096,23.63871],[90.14377,23.63821],[90.14402,23.63757],[90.14316,23.63694],[90.14387,23.63643],[90.14506,23.63651],[90.14642,23.63919],[90.14923,23.6364],[90.14664,23.63645],[90.14519,23.63402],[90.14827,23.63231],[90.14994,23.62999],[90.15153,23.62949],[90.15168,23.63053],[90.15419,23.62896],[90.15774,23.62932],[90.15983,23.62791],[90.1607,23.62613],[90.16096,23.62815],[90.15902,23.63016],[90.16281,23.62852],[90.16091,23.62468],[90.16443,23.6214],[90.16469,23.61968],[90.16747,23.61975],[90.1689,23.61873],[90.16945,23.61736],[90.16849,23.61723],[90.16813,23.6158],[90.17014,23.61081],[90.17021,23.60809],[90.17339,23.60565],[90.17626,23.60614],[90.18026,23.60053],[90.18021,23.59979],[90.17709,23.59764],[90.18211,23.59008],[90.18288,23.58509],[90.18104,23.58095],[90.19021,23.5806],[90.19204,23.57719],[90.19739,23.57725],[90.20121,23.57097],[90.20518,23.56914],[90.20567,23.56894]]]}},{"type":"Feature","properties":{"name":"Gendaria","district_id":"dhaka","pcode":"302624","sql_upazila_id":null,"sql_name_bn":null},"geometry":{"type":"Polygon","coordinates":[[[90.42603,23.71638],[90.42546,23.71519],[90.42643,23.71168],[90.42562,23.71098],[90.42503,23.71197],[90.42354,23.71214],[90.42314,23.71144],[90.42918,23.70172],[90.42652,23.70142],[90.42687,23.70058],[90.4259,23.70038],[90.42628,23.69918],[90.42573,23.70048],[90.42478,23.6993],[90.42351,23.70001],[90.42307,23.69867],[90.42379,23.69821],[90.42238,23.69805],[90.42029,23.69599],[90.41708,23.6997],[90.41944,23.70181],[90.41766,23.7024],[90.41815,23.70479],[90.41926,23.70516],[90.42062,23.70862],[90.41896,23.71045],[90.41804,23.7105],[90.41878,23.71432],[90.41986,23.71702],[90.42238,23.71605],[90.4243,23.71786],[90.42591,23.71658],[90.42603,23.71638]]]}},{"type":"Feature","properties":{"name":"Gulshan","district_id":"dhaka","pcode":"302626","sql_upazila_id":"dhaka-gulshan","sql_name_bn":"গুলশান"},"geometry":{"type":"Polygon","coordinates":[[[90.41757,23.76983],[90.41521,23.77026],[90.41395,23.77223],[90.40004,23.77334],[90.39782,23.77811],[90.40112,23.79868],[90.4024,23.80047],[90.40456,23.79971],[90.40673,23.80105],[90.4068,23.80506],[90.40864,23.80505],[90.40883,23.80421],[90.41229,23.80456],[90.41365,23.80608],[90.41546,23.80636],[90.41314,23.80926],[90.41307,23.8102],[90.41406,23.81089],[90.41712,23.81082],[90.41896,23.81206],[90.42044,23.81208],[90.42109,23.81191],[90.42018,23.81056],[90.42125,23.81014],[90.42147,23.80812],[90.42347,23.80724],[90.42225,23.80667],[90.4261,23.78908],[90.42204,23.78879],[90.42069,23.78278],[90.42044,23.7772],[90.4175,23.77053],[90.41757,23.76983]]]}},{"type":"Feature","properties":{"name":"Hazaribagh","district_id":"dhaka","pcode":"302628","sql_upazila_id":"dhaka-hazaribagh","sql_name_bn":"হাজারীবাগ"},"geometry":{"type":"Polygon","coordinates":[[[90.36386,23.74879],[90.36633,23.74358],[90.36854,23.73492],[90.37061,23.73199],[90.37558,23.72959],[90.37698,23.72692],[90.37696,23.72401],[90.37566,23.72172],[90.37446,23.72262],[90.37429,23.72191],[90.36512,23.72334],[90.36557,23.72459],[90.36064,23.72537],[90.36028,23.72777],[90.35793,23.72777],[90.35383,23.73851],[90.35251,23.7383],[90.34356,23.74722],[90.33787,23.7503],[90.33943,23.75203],[90.3465,23.75389],[90.34651,23.75462],[90.35149,23.75807],[90.35649,23.754],[90.35499,23.7539],[90.35486,23.75191],[90.35104,23.74621],[90.35277,23.74633],[90.35341,23.74553],[90.35462,23.74751],[90.35617,23.74539],[90.36354,23.7479],[90.36373,23.74878],[90.36386,23.74879]]]}},{"type":"Feature","properties":{"name":"Jatrabari","district_id":"dhaka","pcode":"302629","sql_upazila_id":"dhaka-jatrabari","sql_name_bn":"যাত্রাবাড়ী"},"geometry":{"type":"Polygon","coordinates":[[[90.46671,23.69484],[90.44957,23.70307],[90.44309,23.69822],[90.44189,23.70025],[90.43884,23.70071],[90.43827,23.70298],[90.43619,23.70236],[90.43347,23.70355],[90.43291,23.70514],[90.42596,23.7099],[90.42402,23.71016],[90.42314,23.71144],[90.42457,23.71214],[90.42562,23.71098],[90.42648,23.71177],[90.42546,23.71519],[90.42625,23.71677],[90.42773,23.71675],[90.42743,23.71747],[90.42809,23.71766],[90.42705,23.7185],[90.4274,23.72039],[90.42901,23.71948],[90.43122,23.71967],[90.43168,23.72237],[90.43234,23.72258],[90.44174,23.72258],[90.44368,23.72389],[90.445,23.72307],[90.44683,23.72328],[90.44813,23.72447],[90.44645,23.72643],[90.44738,23.72963],[90.44876,23.72962],[90.45225,23.73211],[90.45608,23.73319],[90.45937,23.72582],[90.46082,23.72551],[90.4615,23.72644],[90.46311,23.72589],[90.46479,23.71994],[90.46752,23.7204],[90.46862,23.71914],[90.46905,23.72055],[90.47117,23.72078],[90.47372,23.72256],[90.47643,23.70958],[90.47042,23.70682],[90.46783,23.70236],[90.46595,23.70221],[90.46636,23.70022],[90.46476,23.6994],[90.4667,23.69486],[90.46671,23.69484]]]}},{"type":"Feature","properties":{"name":"Kadamtali","district_id":"dhaka","pcode":"302632","sql_upazila_id":"dhaka-kadamtali","sql_name_bn":"কদমতলী"},"geometry":{"type":"Polygon","coordinates":[[[90.46671,23.69484],[90.46831,23.68881],[90.46828,23.68522],[90.46482,23.68275],[90.46193,23.68353],[90.45835,23.68035],[90.45861,23.67903],[90.45576,23.67712],[90.45386,23.67756],[90.45226,23.67461],[90.45262,23.67281],[90.44896,23.66811],[90.44543,23.66884],[90.43577,23.67932],[90.42668,23.6873],[90.42829,23.68953],[90.42981,23.6883],[90.43418,23.68928],[90.43632,23.68714],[90.4383,23.68764],[90.43752,23.69011],[90.43451,23.69362],[90.43579,23.69642],[90.43554,23.70024],[90.43815,23.70109],[90.44189,23.70025],[90.44309,23.69822],[90.44957,23.70307],[90.46456,23.69586],[90.46671,23.69484]]]}},{"type":"Feature","properties":{"name":"Kafrul","district_id":"dhaka","pcode":"302630","sql_upazila_id":"dhaka-kafrul","sql_name_bn":"কাফরুল"},"geometry":{"type":"Polygon","coordinates":[[[90.3941,23.77642],[90.38991,23.7753],[90.38899,23.76457],[90.38328,23.76546],[90.38232,23.77119],[90.37841,23.78398],[90.37296,23.78277],[90.37299,23.78452],[90.37207,23.78479],[90.36965,23.78346],[90.36955,23.78485],[90.37088,23.78525],[90.3725,23.78813],[90.37651,23.78865],[90.36855,23.8071],[90.37459,23.80617],[90.37766,23.81139],[90.38059,23.81219],[90.38298,23.8117],[90.38306,23.81674],[90.38806,23.81557],[90.39116,23.8163],[90.39154,23.81494],[90.40024,23.81718],[90.4003,23.81395],[90.39867,23.80586],[90.39437,23.80064],[90.3918,23.7905],[90.38765,23.79073],[90.38718,23.78933],[90.38744,23.78809],[90.38871,23.78765],[90.38752,23.78703],[90.38864,23.78419],[90.3884,23.78138],[90.38961,23.77968],[90.39089,23.77938],[90.39215,23.78239],[90.39294,23.78174],[90.39286,23.77813],[90.39412,23.77749],[90.3941,23.77649],[90.3941,23.77642]]]}},{"type":"Feature","properties":{"name":"Kalabagan","district_id":"dhaka","pcode":"302633","sql_upazila_id":"dhaka-kalabagan","sql_name_bn":"কলাবাগান"},"geometry":{"type":"Polygon","coordinates":[[[90.38737,23.75101],[90.39322,23.74998],[90.39184,23.74167],[90.38369,23.7415],[90.38319,23.74005],[90.38209,23.74466],[90.37823,23.75126],[90.38189,23.75314],[90.38393,23.75299],[90.38736,23.75099],[90.38737,23.75101]]]}},{"type":"Feature","properties":{"name":"Kamrangir Char","district_id":"dhaka","pcode":"302634","sql_upazila_id":"dhaka-kamrangirchar","sql_name_bn":"কামরাঙ্গীরচর"},"geometry":{"type":"Polygon","coordinates":[[[90.38316,23.71328],[90.38519,23.71229],[90.38643,23.70876],[90.38272,23.70782],[90.37051,23.70699],[90.36739,23.70741],[90.36391,23.70961],[90.36206,23.71239],[90.3603,23.72052],[90.36498,23.71696],[90.37167,23.71409],[90.37208,23.7111],[90.37352,23.71037],[90.37798,23.71077],[90.38059,23.71408],[90.38307,23.7133],[90.38316,23.71328]]]}},{"type":"Feature","properties":{"name":"Keraniganj","district_id":"dhaka","pcode":"302638","sql_upazila_id":"dhaka-keraniganj","sql_name_bn":"কেরাণীগঞ্জ"},"geometry":{"type":"Polygon","coordinates":[[[90.24112,23.77814],[90.24338,23.77803],[90.24584,23.77679],[90.25166,23.77056],[90.25673,23.76203],[90.25708,23.75797],[90.25616,23.75344],[90.25673,23.75144],[90.25968,23.74789],[90.26665,23.74447],[90.27027,23.74564],[90.27698,23.74622],[90.28228,23.7516],[90.28631,23.74982],[90.28785,23.75604],[90.28905,23.76653],[90.28937,23.76772],[90.29123,23.76843],[90.2911,23.77021],[90.30114,23.77347],[90.30925,23.77282],[90.31149,23.7734],[90.31345,23.76977],[90.31265,23.76694],[90.31287,23.76366],[90.31124,23.75906],[90.31211,23.75639],[90.31536,23.75276],[90.31671,23.74904],[90.31878,23.74674],[90.32498,23.74306],[90.32682,23.74283],[90.33086,23.74427],[90.33359,23.74283],[90.33668,23.7446],[90.33741,23.74609],[90.33949,23.74479],[90.34208,23.74835],[90.34356,23.74722],[90.35251,23.7383],[90.35383,23.73851],[90.35793,23.72777],[90.35862,23.72771],[90.3616,23.71345],[90.3632,23.71033],[90.36645,23.70776],[90.37051,23.70699],[90.38371,23.70804],[90.38643,23.70876],[90.38506,23.71159],[90.38508,23.71225],[90.38633,23.71262],[90.39167,23.71112],[90.39812,23.7113],[90.40235,23.70952],[90.41448,23.70219],[90.42556,23.69085],[90.42722,23.68867],[90.42668,23.6873],[90.43577,23.67932],[90.44543,23.66884],[90.44897,23.66813],[90.4484,23.66532],[90.46553,23.64653],[90.4728,23.63746],[90.47315,23.63471],[90.47215,23.63094],[90.47023,23.62925],[90.45425,23.62406],[90.45268,23.62374],[90.45049,23.62473],[90.44673,23.62387],[90.43679,23.61603],[90.43353,23.61032],[90.43019,23.60861],[90.42043,23.61999],[90.41405,23.62553],[90.40893,23.63139],[90.40058,23.63877],[90.39573,23.64158],[90.39196,23.64849],[90.39036,23.6499],[90.38567,23.65091],[90.37374,23.65144],[90.36826,23.65265],[90.36463,23.65047],[90.35682,23.64075],[90.35142,23.63775],[90.34755,23.63672],[90.33693,23.6391],[90.32816,23.64384],[90.31604,23.65462],[90.3094,23.65936],[90.29115,23.67001],[90.27982,23.67965],[90.27288,23.69321],[90.26406,23.70303],[90.25734,23.71216],[90.25551,23.71509],[90.25414,23.72183],[90.25107,23.72488],[90.24083,23.73134],[90.23791,23.73575],[90.22547,23.73819],[90.22211,23.74068],[90.21981,23.74399],[90.21856,23.74831],[90.21884,23.75023],[90.22406,23.7569],[90.22631,23.76441],[90.23659,23.77979],[90.23996,23.77796],[90.24109,23.77808],[90.24112,23.77814]]]}},{"type":"Feature","properties":{"name":"Khilgaon","district_id":"dhaka","pcode":"302636","sql_upazila_id":"dhaka-khilgaon","sql_name_bn":"খিলগাঁও"},"geometry":{"type":"Polygon","coordinates":[[[90.47162,23.7818],[90.47346,23.77998],[90.4765,23.77936],[90.47889,23.77758],[90.48244,23.77336],[90.48274,23.77086],[90.48156,23.7674],[90.48217,23.76271],[90.48295,23.76203],[90.47841,23.76085],[90.47395,23.76147],[90.47235,23.7584],[90.47231,23.75401],[90.46923,23.75319],[90.46796,23.75392],[90.46734,23.75322],[90.46528,23.75342],[90.46205,23.75223],[90.46171,23.75123],[90.45973,23.7501],[90.46062,23.74623],[90.46018,23.74273],[90.45853,23.74215],[90.45796,23.74102],[90.4547,23.74136],[90.45359,23.74249],[90.44728,23.74447],[90.4431,23.7445],[90.44152,23.74542],[90.44169,23.74711],[90.43957,23.74472],[90.43425,23.74284],[90.4338,23.74572],[90.43164,23.74545],[90.43112,23.74419],[90.42667,23.74394],[90.42585,23.74609],[90.42354,23.74807],[90.41601,23.74949],[90.41652,23.75161],[90.41824,23.7524],[90.42057,23.75234],[90.42495,23.75069],[90.42698,23.75748],[90.42933,23.76097],[90.43234,23.76013],[90.43363,23.76323],[90.43604,23.76284],[90.43709,23.76368],[90.43695,23.76477],[90.43961,23.76571],[90.44206,23.76616],[90.4416,23.76386],[90.44442,23.76329],[90.44575,23.76153],[90.44509,23.76011],[90.44645,23.75894],[90.44843,23.75974],[90.45448,23.76013],[90.45507,23.76319],[90.45402,23.76426],[90.45398,23.76306],[90.45228,23.76256],[90.45215,23.76603],[90.45418,23.76839],[90.45596,23.76848],[90.45662,23.77081],[90.46198,23.7736],[90.46148,23.77486],[90.45873,23.77567],[90.45951,23.77788],[90.46186,23.77979],[90.46276,23.78238],[90.46541,23.78343],[90.46761,23.78204],[90.47106,23.78173],[90.47162,23.7818]]]}},{"type":"Feature","properties":{"name":"Khilkhet","district_id":"dhaka","pcode":"302637","sql_upazila_id":"dhaka-khilkhet","sql_name_bn":"খিলক্ষেত"},"geometry":{"type":"Polygon","coordinates":[[[90.45392,23.84875],[90.45856,23.84668],[90.4612,23.84712],[90.46407,23.8463],[90.46552,23.84366],[90.46999,23.84701],[90.47166,23.84713],[90.47175,23.84249],[90.47557,23.8386],[90.47757,23.83457],[90.48046,23.83221],[90.48279,23.83249],[90.48394,23.83158],[90.48427,23.82814],[90.48661,23.8261],[90.48577,23.82133],[90.47974,23.82302],[90.47343,23.82138],[90.45547,23.82762],[90.45386,23.82677],[90.44826,23.82808],[90.44197,23.82601],[90.43628,23.82748],[90.42911,23.82607],[90.42957,23.82157],[90.42734,23.8209],[90.42165,23.82051],[90.41899,23.82163],[90.41621,23.81969],[90.4143,23.82155],[90.41463,23.82315],[90.41356,23.82358],[90.41266,23.82577],[90.41319,23.83364],[90.4141,23.8352],[90.42026,23.83887],[90.42183,23.84091],[90.42255,23.84203],[90.42166,23.84536],[90.4238,23.8476],[90.43418,23.84502],[90.43664,23.84761],[90.44032,23.84784],[90.44224,23.84662],[90.44707,23.84887],[90.45301,23.84587],[90.45354,23.84828],[90.45392,23.84875]]]}},{"type":"Feature","properties":{"name":"Kotwali","district_id":"dhaka","pcode":"302640","sql_upazila_id":"dhaka-kotwali","sql_name_bn":"কোতোয়ালী"},"geometry":{"type":"Polygon","coordinates":[[[90.41153,23.71352],[90.41191,23.70876],[90.41257,23.70867],[90.41187,23.70354],[90.40204,23.70968],[90.40313,23.71222],[90.40417,23.71193],[90.40483,23.71268],[90.4041,23.71336],[90.40481,23.71449],[90.40492,23.71377],[90.40776,23.71432],[90.41138,23.71348],[90.41153,23.71352]]]}},{"type":"Feature","properties":{"name":"Lalbagh","district_id":"dhaka","pcode":"302642","sql_upazila_id":"dhaka-lalbagh","sql_name_bn":"লালবাগ"},"geometry":{"type":"Polygon","coordinates":[[[90.39948,23.72404],[90.39747,23.72355],[90.39404,23.72459],[90.39397,23.72403],[90.39001,23.72415],[90.39023,23.72332],[90.38942,23.72335],[90.38985,23.7222],[90.39137,23.72056],[90.39059,23.72054],[90.39114,23.71891],[90.39005,23.71893],[90.38962,23.71694],[90.38657,23.71665],[90.38316,23.71328],[90.38059,23.71408],[90.37827,23.71093],[90.37448,23.71019],[90.37208,23.7111],[90.37167,23.71409],[90.36498,23.71696],[90.35993,23.72058],[90.35862,23.72771],[90.36028,23.72777],[90.36064,23.72537],[90.36557,23.72459],[90.36512,23.72334],[90.37429,23.72191],[90.37446,23.72262],[90.37566,23.72172],[90.37728,23.72601],[90.37558,23.72959],[90.37749,23.72961],[90.38208,23.73224],[90.38709,23.73264],[90.38744,23.72991],[90.39088,23.72643],[90.39445,23.72478],[90.39947,23.72404],[90.39948,23.72404]]]}},{"type":"Feature","properties":{"name":"Mirpur","district_id":"dhaka","pcode":"302648","sql_upazila_id":"dhaka-mirpur","sql_name_bn":"মিরপুর"},"geometry":{"type":"Polygon","coordinates":[[[90.36856,23.8071],[90.37651,23.78865],[90.3725,23.78813],[90.37088,23.78525],[90.36955,23.78485],[90.36993,23.78357],[90.366,23.78245],[90.36198,23.77714],[90.35766,23.77656],[90.35771,23.77894],[90.35831,23.77887],[90.35743,23.78433],[90.3552,23.78413],[90.35518,23.78515],[90.35386,23.78512],[90.35181,23.78157],[90.34892,23.78301],[90.35008,23.78811],[90.3495,23.7899],[90.35021,23.79344],[90.34913,23.7963],[90.35526,23.79986],[90.35157,23.80603],[90.36113,23.80943],[90.36098,23.81029],[90.36224,23.81053],[90.36763,23.81047],[90.36856,23.80712],[90.36856,23.8071]]]}},{"type":"Feature","properties":{"name":"Mohammadpur","district_id":"dhaka","pcode":"302650","sql_upazila_id":"dhaka-mohammadpur","sql_name_bn":"মোহাম্মদপুর"},"geometry":{"type":"Polygon","coordinates":[[[90.36557,23.77493],[90.36723,23.77316],[90.37106,23.76351],[90.37423,23.75816],[90.37808,23.75863],[90.37833,23.75768],[90.3804,23.75774],[90.38038,23.75848],[90.38182,23.75859],[90.38187,23.75786],[90.38271,23.75782],[90.38249,23.75304],[90.37823,23.75127],[90.37497,23.75693],[90.36729,23.75224],[90.36824,23.75085],[90.3637,23.74916],[90.36354,23.7479],[90.35617,23.74539],[90.35433,23.74751],[90.35322,23.74551],[90.35277,23.74633],[90.35103,23.74622],[90.35486,23.75191],[90.35499,23.7539],[90.35649,23.754],[90.35149,23.75807],[90.34651,23.75462],[90.3465,23.75389],[90.33943,23.75203],[90.33692,23.74947],[90.33279,23.74925],[90.3298,23.75035],[90.33046,23.75242],[90.33761,23.76037],[90.34,23.76539],[90.34416,23.76859],[90.34554,23.76847],[90.34954,23.76219],[90.35199,23.76276],[90.35576,23.7616],[90.3587,23.76236],[90.35846,23.76823],[90.35916,23.77056],[90.36104,23.77337],[90.365,23.77475],[90.36557,23.77493]]]}},{"type":"Feature","properties":{"name":"Motijheel","district_id":"dhaka","pcode":"302654","sql_upazila_id":"dhaka-motijheel","sql_name_bn":"মতিঝিল"},"geometry":{"type":"Polygon","coordinates":[[[90.42878,23.72234],[90.42168,23.72151],[90.4139,23.72262],[90.41365,23.72487],[90.41518,23.72585],[90.4152,23.73222],[90.41987,23.73994],[90.41249,23.74556],[90.41296,23.74994],[90.42286,23.74839],[90.42594,23.74594],[90.42689,23.74061],[90.4284,23.73856],[90.42878,23.72243],[90.42878,23.72234]]]}},{"type":"Feature","properties":{"name":"Nawabganj","district_id":"dhaka","pcode":"302662","sql_upazila_id":"dhaka-nawabganj","sql_name_bn":"নবাবগঞ্জ"},"geometry":{"type":"Polygon","coordinates":[[[90.25551,23.71509],[90.26354,23.70368],[90.27288,23.69321],[90.27944,23.68007],[90.28618,23.67386],[90.28226,23.67132],[90.27854,23.66664],[90.27351,23.66241],[90.26821,23.65307],[90.2661,23.65357],[90.26323,23.65622],[90.25395,23.65367],[90.24961,23.65448],[90.24675,23.64958],[90.24837,23.6455],[90.24752,23.64198],[90.2481,23.63681],[90.24729,23.63349],[90.24528,23.63234],[90.24219,23.6335],[90.24086,23.6331],[90.23719,23.62895],[90.23738,23.62367],[90.23651,23.62139],[90.23361,23.61995],[90.2262,23.61355],[90.22605,23.60939],[90.2249,23.60647],[90.22593,23.60143],[90.22294,23.59924],[90.22125,23.59555],[90.21709,23.59457],[90.21462,23.59179],[90.21123,23.59108],[90.21027,23.58966],[90.20877,23.58916],[90.20836,23.58564],[90.20613,23.57981],[90.20655,23.57152],[90.20567,23.56894],[90.20121,23.57097],[90.19739,23.57725],[90.19204,23.57719],[90.19021,23.5806],[90.18104,23.58095],[90.18288,23.58509],[90.18211,23.59008],[90.17709,23.59764],[90.1803,23.59993],[90.17907,23.60288],[90.17626,23.60614],[90.17339,23.60565],[90.17021,23.60809],[90.17014,23.61081],[90.16813,23.6158],[90.16849,23.61723],[90.16945,23.61736],[90.1689,23.61873],[90.16747,23.61975],[90.16469,23.61968],[90.16443,23.6214],[90.16091,23.62468],[90.16281,23.62852],[90.15902,23.63016],[90.16096,23.62815],[90.1607,23.62613],[90.1582,23.62914],[90.15419,23.62896],[90.15168,23.63053],[90.15153,23.62949],[90.15068,23.6297],[90.14912,23.63056],[90.14827,23.63231],[90.14534,23.63374],[90.14518,23.63484],[90.14664,23.63645],[90.14923,23.6364],[90.14737,23.63873],[90.14607,23.63913],[90.14506,23.63651],[90.14387,23.63643],[90.14316,23.63694],[90.14402,23.63757],[90.14377,23.63821],[90.14096,23.63871],[90.13878,23.64078],[90.13834,23.63872],[90.13646,23.63815],[90.13812,23.63724],[90.13501,23.63636],[90.13473,23.6373],[90.13609,23.63938],[90.13503,23.64134],[90.13581,23.64317],[90.13544,23.64404],[90.13391,23.64435],[90.13424,23.64212],[90.13333,23.64209],[90.13294,23.64094],[90.13099,23.64099],[90.13029,23.63948],[90.12814,23.64051],[90.12667,23.63628],[90.12268,23.63727],[90.1214,23.63843],[90.1234,23.64304],[90.12273,23.6463],[90.11642,23.64524],[90.11095,23.64609],[90.10497,23.64545],[90.10026,23.64707],[90.09801,23.64977],[90.09209,23.64723],[90.0906,23.64771],[90.087,23.64704],[90.08552,23.64789],[90.08692,23.64882],[90.08616,23.65105],[90.08119,23.65254],[90.07531,23.65186],[90.07409,23.65425],[90.07133,23.65384],[90.06891,23.6553],[90.06764,23.65888],[90.05953,23.65509],[90.05605,23.655],[90.05368,23.65572],[90.05371,23.6581],[90.05301,23.65881],[90.05155,23.6584],[90.04603,23.65925],[90.04464,23.6559],[90.04453,23.65258],[90.04202,23.6501],[90.0411,23.65094],[90.03948,23.6571],[90.03579,23.6565],[90.03559,23.65794],[90.03246,23.65815],[90.03252,23.66094],[90.03135,23.66343],[90.02973,23.66426],[90.02921,23.66626],[90.02801,23.66644],[90.02733,23.66439],[90.02445,23.66427],[90.02434,23.66564],[90.02309,23.66637],[90.02302,23.66849],[90.02055,23.66521],[90.02019,23.66733],[90.01822,23.67059],[90.02031,23.67337],[90.02222,23.67425],[90.0234,23.67274],[90.02516,23.67268],[90.02619,23.67174],[90.03053,23.6764],[90.02997,23.679],[90.0307,23.68054],[90.03304,23.68151],[90.03469,23.68115],[90.03515,23.6834],[90.03622,23.68195],[90.03711,23.68272],[90.03791,23.68494],[90.03473,23.68695],[90.03831,23.69032],[90.03667,23.69526],[90.03826,23.69553],[90.0411,23.69381],[90.04261,23.6947],[90.03993,23.69581],[90.03986,23.69899],[90.03676,23.70048],[90.04014,23.70102],[90.04062,23.70582],[90.04307,23.70713],[90.0434,23.70946],[90.04201,23.71282],[90.04535,23.71134],[90.05108,23.713],[90.05094,23.71438],[90.0527,23.71873],[90.05168,23.72005],[90.05228,23.72181],[90.05123,23.72576],[90.05598,23.72724],[90.05628,23.72627],[90.05756,23.72667],[90.0588,23.72501],[90.06234,23.72565],[90.06434,23.72521],[90.06931,23.72685],[90.06997,23.7262],[90.06936,23.72433],[90.07444,23.72308],[90.07587,23.71866],[90.07901,23.71967],[90.0796,23.71723],[90.08068,23.71691],[90.08124,23.71743],[90.08099,23.72007],[90.08201,23.72151],[90.08183,23.72547],[90.08426,23.72935],[90.09512,23.72901],[90.10084,23.73008],[90.10806,23.72808],[90.10756,23.72737],[90.10476,23.72707],[90.10517,23.71883],[90.1124,23.71697],[90.1147,23.71716],[90.11754,23.72079],[90.11674,23.72492],[90.12094,23.72608],[90.12203,23.72977],[90.12356,23.73198],[90.12382,23.73456],[90.12939,23.73468],[90.1313,23.73878],[90.1347,23.74068],[90.13693,23.74585],[90.13926,23.74649],[90.14235,23.74576],[90.14568,23.74816],[90.14891,23.74643],[90.15437,23.74767],[90.15687,23.74549],[90.1573,23.74149],[90.15875,23.73782],[90.15562,23.73322],[90.15899,23.72605],[90.16395,23.72536],[90.16957,23.72721],[90.17639,23.72625],[90.18022,23.72455],[90.18283,23.72197],[90.18577,23.72232],[90.1884,23.71656],[90.1892,23.71693],[90.1896,23.72058],[90.19091,23.72233],[90.1934,23.7218],[90.19801,23.72351],[90.20294,23.72239],[90.20364,23.72303],[90.20364,23.72533],[90.20532,23.72606],[90.20772,23.72537],[90.21194,23.72155],[90.21521,23.71462],[90.21819,23.71158],[90.22332,23.70964],[90.22633,23.70928],[90.23603,23.71325],[90.23673,23.71567],[90.24774,23.71476],[90.25548,23.71505],[90.25551,23.71509]]]}},{"type":"Feature","properties":{"name":"New Market","district_id":"dhaka","pcode":"302663","sql_upazila_id":"dhaka-new-market","sql_name_bn":"নিউ মার্কেট"},"geometry":{"type":"Polygon","coordinates":[[[90.39183,23.74167],[90.39101,23.73879],[90.38709,23.73264],[90.38208,23.73224],[90.3763,23.72934],[90.37029,23.73248],[90.37008,23.73573],[90.37076,23.73632],[90.37636,23.73829],[90.37845,23.73738],[90.38353,23.73847],[90.38369,23.7415],[90.39175,23.74167],[90.39183,23.74167]]]}},{"type":"Feature","properties":{"name":"Pallabi","district_id":"dhaka","pcode":"302664","sql_upazila_id":"dhaka-pallabi","sql_name_bn":"পল্লবী"},"geometry":{"type":"Polygon","coordinates":[[[90.38725,23.84172],[90.38774,23.83898],[90.38712,23.83689],[90.38893,23.83386],[90.38893,23.83208],[90.39348,23.82693],[90.39145,23.82661],[90.39087,23.8248],[90.38614,23.82306],[90.38577,23.82159],[90.38287,23.82084],[90.3823,23.81795],[90.38314,23.81738],[90.38298,23.8117],[90.38059,23.81219],[90.37766,23.81139],[90.37459,23.80617],[90.36856,23.8071],[90.36763,23.81047],[90.36098,23.81029],[90.36113,23.80943],[90.3545,23.80699],[90.35296,23.81101],[90.35671,23.81194],[90.35611,23.8144],[90.35298,23.81381],[90.35268,23.81696],[90.35125,23.81762],[90.35258,23.81894],[90.35271,23.82066],[90.35132,23.82099],[90.35212,23.8233],[90.35108,23.82442],[90.35086,23.82656],[90.3511,23.82787],[90.35398,23.8283],[90.3545,23.82916],[90.35392,23.83234],[90.35507,23.8362],[90.35492,23.84172],[90.35606,23.84264],[90.35538,23.84418],[90.35352,23.84472],[90.3534,23.84568],[90.3572,23.84831],[90.36348,23.84843],[90.36415,23.84659],[90.36291,23.84493],[90.36583,23.84437],[90.36518,23.84343],[90.36741,23.83904],[90.36667,23.83683],[90.3776,23.82977],[90.37765,23.82287],[90.38005,23.82352],[90.38217,23.82287],[90.38381,23.82479],[90.38144,23.83633],[90.38414,23.84282],[90.38689,23.84164],[90.38725,23.84172]]]}},{"type":"Feature","properties":{"name":"Paltan","district_id":"dhaka","pcode":"302665","sql_upazila_id":"dhaka-paltan","sql_name_bn":"পল্টন"},"geometry":{"type":"Polygon","coordinates":[[[90.4139,23.72262],[90.41191,23.72299],[90.41207,23.7275],[90.41056,23.72765],[90.4102,23.72975],[90.41037,23.73723],[90.40878,23.73751],[90.41428,23.74416],[90.41987,23.73994],[90.4152,23.73222],[90.41518,23.72585],[90.41365,23.72487],[90.41384,23.72285],[90.4139,23.72262]]]}},{"type":"Feature","properties":{"name":"Ramna","district_id":"dhaka","pcode":"302666","sql_upazila_id":"dhaka-ramna","sql_name_bn":"রমনা"},"geometry":{"type":"Polygon","coordinates":[[[90.41428,23.74416],[90.40878,23.73751],[90.41037,23.73723],[90.41032,23.73625],[90.40652,23.73599],[90.40424,23.73658],[90.40361,23.73858],[90.39855,23.74214],[90.39599,23.74148],[90.39618,23.74277],[90.39516,23.74442],[90.39642,23.74479],[90.39638,23.74638],[90.39468,23.74591],[90.39412,23.74761],[90.39568,23.74847],[90.39669,23.75039],[90.40151,23.75311],[90.40902,23.76113],[90.41366,23.75876],[90.41407,23.75648],[90.41635,23.75589],[90.4125,23.74913],[90.41249,23.74556],[90.41427,23.74416],[90.41428,23.74416]]]}},{"type":"Feature","properties":{"name":"Rampura","district_id":"dhaka","pcode":"302667","sql_upazila_id":"dhaka-rampura","sql_name_bn":"রামপুরা"},"geometry":{"type":"Polygon","coordinates":[[[90.43363,23.76323],[90.43234,23.76013],[90.42933,23.76097],[90.42698,23.75748],[90.42495,23.75069],[90.42057,23.75234],[90.41824,23.7524],[90.41652,23.75161],[90.41601,23.74949],[90.41296,23.74994],[90.41635,23.75589],[90.41407,23.75648],[90.41366,23.75876],[90.40902,23.76113],[90.41129,23.76452],[90.41537,23.76765],[90.41514,23.77024],[90.41587,23.77053],[90.4237,23.76892],[90.42604,23.76675],[90.42721,23.76706],[90.43102,23.76442],[90.43375,23.76376],[90.43361,23.76324],[90.43363,23.76323]]]}},{"type":"Feature","properties":{"name":"Sabujbagh","district_id":"dhaka","pcode":"302668","sql_upazila_id":"dhaka-sabujbagh","sql_name_bn":"সবুজবাগ"},"geometry":{"type":"Polygon","coordinates":[[[90.46018,23.74273],[90.46,23.7406],[90.4624,23.74047],[90.4641,23.73845],[90.46435,23.73479],[90.45438,23.73281],[90.44876,23.72962],[90.44738,23.72963],[90.44645,23.72643],[90.44813,23.72447],[90.44683,23.72328],[90.445,23.72307],[90.44368,23.72389],[90.44174,23.72258],[90.43614,23.72307],[90.43533,23.72221],[90.43214,23.72255],[90.43122,23.71967],[90.4284,23.71989],[90.4289,23.72068],[90.4284,23.73856],[90.42689,23.74061],[90.42663,23.74397],[90.42981,23.74387],[90.43143,23.7443],[90.43164,23.74545],[90.4338,23.74572],[90.43425,23.74284],[90.43957,23.74472],[90.44169,23.74711],[90.44196,23.74496],[90.44823,23.74423],[90.45359,23.74249],[90.4547,23.74136],[90.45712,23.74079],[90.45994,23.7426],[90.46018,23.74273]]]}},{"type":"Feature","properties":{"name":"Savar","district_id":"dhaka","pcode":"302672","sql_upazila_id":"dhaka-savar","sql_name_bn":"সাভার"},"geometry":{"type":"Polygon","coordinates":[[[90.26003,24.01483],[90.25945,24.01277],[90.26025,24.01002],[90.25633,24.00834],[90.25478,24.00503],[90.25346,24.00394],[90.25366,24.00184],[90.252,24.00027],[90.25439,23.99904],[90.25585,23.99488],[90.25007,23.99187],[90.25371,23.98362],[90.25614,23.98379],[90.25578,23.98096],[90.25731,23.9802],[90.26019,23.97552],[90.26202,23.9754],[90.26005,23.97122],[90.26231,23.97061],[90.26331,23.96937],[90.26601,23.97013],[90.26773,23.96863],[90.26965,23.96848],[90.26971,23.96685],[90.26865,23.96523],[90.27043,23.96281],[90.27171,23.96247],[90.27511,23.96537],[90.28132,23.96738],[90.28198,23.96706],[90.28202,23.96499],[90.28684,23.96437],[90.28719,23.96363],[90.29572,23.96174],[90.29781,23.96187],[90.30023,23.95463],[90.30017,23.94884],[90.30557,23.95],[90.30928,23.94943],[90.31442,23.94995],[90.31675,23.95106],[90.31916,23.95055],[90.31737,23.95752],[90.33042,23.95491],[90.33142,23.95384],[90.33072,23.95038],[90.33503,23.94788],[90.3364,23.9489],[90.33916,23.94872],[90.3397,23.95083],[90.33892,23.95313],[90.33629,23.95323],[90.33562,23.95405],[90.33715,23.95549],[90.34068,23.95574],[90.34551,23.94714],[90.34618,23.93675],[90.34807,23.93145],[90.34837,23.92751],[90.34777,23.91157],[90.3458,23.90802],[90.34628,23.90573],[90.34477,23.90424],[90.34449,23.90237],[90.34847,23.89622],[90.35016,23.88908],[90.34982,23.88325],[90.35028,23.88226],[90.35141,23.88259],[90.35188,23.88192],[90.35151,23.87879],[90.35416,23.87665],[90.35636,23.87209],[90.35314,23.86931],[90.35416,23.86646],[90.35369,23.86142],[90.35061,23.86026],[90.34855,23.85339],[90.34298,23.85388],[90.33972,23.8518],[90.33712,23.84792],[90.34101,23.84339],[90.34101,23.8423],[90.33768,23.83866],[90.33707,23.83214],[90.34025,23.82949],[90.343,23.82467],[90.34102,23.82174],[90.34051,23.81913],[90.34149,23.81749],[90.33963,23.81123],[90.34009,23.80816],[90.34291,23.80467],[90.34375,23.80103],[90.34313,23.79866],[90.33954,23.79751],[90.34013,23.79588],[90.33959,23.79014],[90.338,23.78643],[90.33544,23.78481],[90.3355,23.78254],[90.33804,23.77898],[90.33451,23.77524],[90.3349,23.77447],[90.33897,23.77383],[90.34195,23.77242],[90.34438,23.76958],[90.34388,23.76816],[90.34,23.76539],[90.33681,23.75924],[90.32985,23.75134],[90.3301,23.74998],[90.33176,23.7494],[90.33547,23.7492],[90.33808,23.75028],[90.34208,23.74835],[90.33949,23.74479],[90.33741,23.74609],[90.33668,23.7446],[90.33359,23.74283],[90.33086,23.74427],[90.32658,23.7428],[90.32339,23.74359],[90.31671,23.74904],[90.31568,23.75224],[90.31238,23.75597],[90.31124,23.75906],[90.31287,23.76366],[90.31265,23.76694],[90.31345,23.77028],[90.31277,23.77197],[90.31083,23.77361],[90.30925,23.77282],[90.30114,23.77347],[90.2911,23.77021],[90.29123,23.76843],[90.28937,23.76772],[90.28905,23.76653],[90.28785,23.75604],[90.28631,23.74982],[90.28228,23.7516],[90.27698,23.74622],[90.2658,23.74463],[90.25968,23.74789],[90.25657,23.75173],[90.25673,23.76203],[90.25166,23.77056],[90.24584,23.77679],[90.24338,23.77803],[90.24112,23.77814],[90.24336,23.79138],[90.24575,23.80018],[90.24589,23.80407],[90.24731,23.80655],[90.24761,23.81281],[90.24657,23.81612],[90.24567,23.84034],[90.24373,23.84393],[90.24107,23.84546],[90.23866,23.84531],[90.23805,23.8469],[90.2384,23.8503],[90.23613,23.86005],[90.23719,23.86198],[90.23631,23.86336],[90.23699,23.86513],[90.23197,23.87133],[90.23198,23.87308],[90.23382,23.87545],[90.2343,23.88171],[90.23379,23.88262],[90.23118,23.8826],[90.22908,23.88445],[90.23012,23.89586],[90.22675,23.90039],[90.22847,23.90905],[90.22686,23.91575],[90.22482,23.91817],[90.22522,23.92263],[90.2246,23.92784],[90.22809,23.93048],[90.22798,23.93457],[90.23166,23.93586],[90.23108,23.94264],[90.22941,23.94486],[90.22553,23.94754],[90.21721,23.95166],[90.21392,23.95515],[90.20993,23.95684],[90.20318,23.9659],[90.19847,23.96803],[90.19815,23.96966],[90.19996,23.97268],[90.19869,23.97533],[90.19263,23.97619],[90.19022,23.97769],[90.19075,23.98465],[90.18667,23.98838],[90.18544,23.99438],[90.18588,23.99963],[90.1833,24.00168],[90.18458,24.00232],[90.18091,24.00443],[90.18288,24.0071],[90.185,24.0067],[90.18609,24.00736],[90.18597,24.00831],[90.18407,24.00981],[90.18446,24.0106],[90.19178,24.01404],[90.1929,24.01344],[90.19435,24.00825],[90.19764,24.00765],[90.1989,24.00957],[90.20307,24.00964],[90.20431,24.00528],[90.20796,24.0066],[90.20829,24.00889],[90.20951,24.00989],[90.21256,24.00796],[90.21371,24.00569],[90.21596,24.00508],[90.21863,24.00764],[90.22103,24.00831],[90.22271,24.01024],[90.22421,24.00929],[90.22524,24.00995],[90.22831,24.00914],[90.23303,24.00979],[90.23986,24.00928],[90.24123,24.01228],[90.24095,24.01803],[90.2397,24.02284],[90.24117,24.02441],[90.24056,24.02752],[90.24116,24.02975],[90.23961,24.02895],[90.23868,24.02969],[90.24011,24.0321],[90.24327,24.0338],[90.24603,24.03332],[90.24878,24.03003],[90.25329,24.02721],[90.25139,24.02522],[90.2506,24.02295],[90.25228,24.01864],[90.25448,24.01681],[90.25599,24.01746],[90.25826,24.01675],[90.259,24.01486],[90.25985,24.01475],[90.26003,24.01483]]]}},{"type":"Feature","properties":{"name":"Shah Ali","district_id":"dhaka","pcode":"302674","sql_upazila_id":"dhaka-shah-ali","sql_name_bn":"শাহ আলী"},"geometry":{"type":"Polygon","coordinates":[[[90.35112,23.82788],[90.35103,23.8246],[90.35212,23.8233],[90.35132,23.82099],[90.35271,23.82066],[90.35258,23.81894],[90.35125,23.81762],[90.35268,23.81696],[90.35298,23.81381],[90.35611,23.8144],[90.35671,23.81194],[90.35296,23.81101],[90.3545,23.80699],[90.35157,23.80603],[90.35526,23.79986],[90.34765,23.79586],[90.34634,23.79825],[90.34314,23.79867],[90.34375,23.80103],[90.34332,23.80383],[90.34009,23.80816],[90.33965,23.81219],[90.34149,23.81749],[90.34051,23.81959],[90.34216,23.82377],[90.3449,23.82745],[90.34857,23.82696],[90.34842,23.82546],[90.34932,23.82508],[90.3501,23.82565],[90.3502,23.82788],[90.35112,23.82789],[90.35112,23.82788]]]}},{"type":"Feature","properties":{"name":"Shahbagh","district_id":"dhaka","pcode":"302675","sql_upazila_id":"dhaka-shahbagh","sql_name_bn":"শাহবাগ"},"geometry":{"type":"Polygon","coordinates":[[[90.41032,23.73625],[90.4102,23.72975],[90.41056,23.72765],[90.41207,23.7275],[90.41188,23.72294],[90.40362,23.72332],[90.39409,23.72489],[90.38973,23.72734],[90.3871,23.73087],[90.38741,23.73371],[90.39147,23.74013],[90.39322,23.74998],[90.39468,23.74591],[90.39638,23.74638],[90.39642,23.74479],[90.39516,23.74442],[90.39618,23.74277],[90.39599,23.74148],[90.39855,23.74214],[90.40361,23.73858],[90.40424,23.73658],[90.41007,23.73625],[90.41032,23.73625]]]}},{"type":"Feature","properties":{"name":"Sher-e-bangla Nagar","district_id":"dhaka","pcode":"302680","sql_upazila_id":"dhaka-sher-e-bangla-nagar","sql_name_bn":"শেরেবাংলা নগর"},"geometry":{"type":"Polygon","coordinates":[[[90.3833,23.76546],[90.38395,23.75811],[90.39008,23.75824],[90.38719,23.75066],[90.38402,23.75295],[90.38249,23.75304],[90.38271,23.75782],[90.38187,23.75786],[90.38182,23.75859],[90.38038,23.75848],[90.3804,23.75774],[90.37833,23.75768],[90.37808,23.75863],[90.37423,23.75816],[90.37106,23.76351],[90.36723,23.77316],[90.36208,23.77781],[90.364,23.77904],[90.366,23.78245],[90.37034,23.78354],[90.37207,23.78479],[90.37299,23.78452],[90.37296,23.78277],[90.37841,23.78398],[90.38232,23.77119],[90.38328,23.76546],[90.3833,23.76546]]]}},{"type":"Feature","properties":{"name":"Shyampur","district_id":"dhaka","pcode":"302676","sql_upazila_id":"dhaka-shyampur","sql_name_bn":"শ্যামপুর"},"geometry":{"type":"Polygon","coordinates":[[[90.43871,23.70109],[90.43554,23.70024],[90.43579,23.69642],[90.43451,23.69362],[90.43808,23.68912],[90.4383,23.68764],[90.43735,23.68713],[90.43632,23.68714],[90.43428,23.68927],[90.42981,23.6883],[90.42829,23.68953],[90.42722,23.68867],[90.42029,23.69599],[90.42238,23.69805],[90.42379,23.69821],[90.42307,23.69867],[90.42351,23.70001],[90.42478,23.6993],[90.42573,23.70048],[90.42628,23.69918],[90.4259,23.70038],[90.42687,23.70058],[90.42652,23.70142],[90.42918,23.70172],[90.42413,23.71019],[90.42596,23.7099],[90.42948,23.70773],[90.43313,23.70495],[90.4337,23.70343],[90.43619,23.70236],[90.43827,23.70298],[90.43871,23.70111],[90.43871,23.70109]]]}},{"type":"Feature","properties":{"name":"Sutrapur","district_id":"dhaka","pcode":"302688","sql_upazila_id":"dhaka-sutrapur","sql_name_bn":"সূত্রাপুর"},"geometry":{"type":"Polygon","coordinates":[[[90.42878,23.72234],[90.4289,23.72068],[90.4274,23.72039],[90.42705,23.7185],[90.42809,23.71766],[90.42743,23.71747],[90.42773,23.71675],[90.42603,23.71638],[90.4243,23.71786],[90.42238,23.71605],[90.41986,23.71702],[90.41804,23.7105],[90.41896,23.71045],[90.42062,23.70862],[90.41926,23.70516],[90.41815,23.70479],[90.41766,23.7024],[90.41944,23.70181],[90.41708,23.6997],[90.41187,23.70354],[90.41257,23.70816],[90.41191,23.70876],[90.41154,23.71259],[90.4119,23.72299],[90.42168,23.72151],[90.42878,23.72233],[90.42878,23.72234]]]}},{"type":"Feature","properties":{"name":"Tejgaon","district_id":"dhaka","pcode":"302690","sql_upazila_id":"dhaka-tejgaon","sql_name_bn":"তেজগাঁও"},"geometry":{"type":"Polygon","coordinates":[[[90.39786,23.7781],[90.39541,23.76309],[90.39609,23.76289],[90.39415,23.75384],[90.39523,23.75255],[90.39869,23.75165],[90.39412,23.74761],[90.39323,23.74998],[90.38713,23.75111],[90.39008,23.75824],[90.38395,23.75811],[90.3833,23.76546],[90.38899,23.76457],[90.38991,23.7753],[90.393,23.77578],[90.39782,23.77811],[90.39786,23.7781]]]}},{"type":"Feature","properties":{"name":"Tejgaon Ind. Area","district_id":"dhaka","pcode":"302692","sql_upazila_id":null,"sql_name_bn":null},"geometry":{"type":"Polygon","coordinates":[[[90.41521,23.77026],[90.41537,23.76765],[90.41129,23.76452],[90.4085,23.76046],[90.40151,23.75311],[90.39869,23.75165],[90.39523,23.75255],[90.39415,23.75384],[90.39416,23.75556],[90.39609,23.76289],[90.39541,23.76309],[90.39786,23.7781],[90.40004,23.77334],[90.41395,23.77223],[90.41508,23.77038],[90.41521,23.77026]]]}},{"type":"Feature","properties":{"name":"Turag","district_id":"dhaka","pcode":"302693","sql_upazila_id":"dhaka-turag","sql_name_bn":"তুরাগ"},"geometry":{"type":"Polygon","coordinates":[[[90.38476,23.8949],[90.38417,23.89542],[90.38284,23.89491],[90.38223,23.89304],[90.3828,23.89218],[90.38541,23.8928],[90.38559,23.88962],[90.38768,23.8896],[90.38698,23.88772],[90.38464,23.88721],[90.38716,23.88698],[90.38776,23.88548],[90.38786,23.88339],[90.38648,23.88177],[90.38717,23.87861],[90.37961,23.87528],[90.37942,23.86916],[90.38078,23.86822],[90.38214,23.86393],[90.38429,23.86293],[90.38412,23.86089],[90.38655,23.85758],[90.38545,23.85687],[90.3875,23.85323],[90.39313,23.84683],[90.39437,23.84152],[90.38831,23.84427],[90.38736,23.84435],[90.38725,23.84172],[90.38414,23.84282],[90.38139,23.83605],[90.38381,23.82479],[90.38217,23.82287],[90.38005,23.82352],[90.37765,23.82287],[90.3776,23.82977],[90.36667,23.83683],[90.36741,23.83904],[90.36518,23.84343],[90.36583,23.84437],[90.36291,23.84493],[90.36415,23.84659],[90.36348,23.84843],[90.35637,23.84805],[90.35329,23.8454],[90.35602,23.84322],[90.35492,23.84172],[90.35507,23.8362],[90.35392,23.83234],[90.35446,23.82906],[90.35398,23.8283],[90.3502,23.82788],[90.3501,23.82565],[90.34932,23.82508],[90.34842,23.82546],[90.34857,23.82696],[90.3449,23.82745],[90.343,23.82467],[90.34025,23.82949],[90.33707,23.83214],[90.33768,23.83866],[90.34101,23.8423],[90.34101,23.84339],[90.33712,23.84792],[90.33972,23.8518],[90.34298,23.85388],[90.34823,23.85303],[90.35061,23.86026],[90.35369,23.86142],[90.35416,23.86646],[90.35314,23.86931],[90.35636,23.87209],[90.35416,23.87665],[90.35151,23.87879],[90.35188,23.88191],[90.35427,23.88164],[90.35557,23.88321],[90.3555,23.88444],[90.35365,23.88586],[90.35539,23.8879],[90.36159,23.89184],[90.36143,23.8935],[90.36318,23.8943],[90.36457,23.89282],[90.36645,23.89316],[90.36941,23.89555],[90.37069,23.89578],[90.3728,23.8948],[90.37715,23.89804],[90.38429,23.89736],[90.38549,23.89681],[90.38507,23.89569],[90.38476,23.8949]]]}},{"type":"Feature","properties":{"name":"Uttar Khan","district_id":"dhaka","pcode":"302696","sql_upazila_id":"dhaka-uttarkhan","sql_name_bn":"উত্তরখান"},"geometry":{"type":"Polygon","coordinates":[[[90.46157,23.88337],[90.4596,23.87962],[90.46136,23.87674],[90.46299,23.87618],[90.47165,23.86608],[90.47086,23.85828],[90.46561,23.85376],[90.46373,23.84615],[90.4612,23.84712],[90.45856,23.84668],[90.45301,23.84907],[90.44899,23.84921],[90.44729,23.8523],[90.44801,23.85458],[90.44374,23.85971],[90.43933,23.86002],[90.43844,23.85699],[90.43428,23.86343],[90.43742,23.86519],[90.43721,23.86606],[90.43633,23.86636],[90.4355,23.86535],[90.43396,23.86526],[90.43302,23.86662],[90.42978,23.86775],[90.42868,23.86694],[90.42801,23.86482],[90.42239,23.86341],[90.41895,23.86734],[90.4198,23.86908],[90.41923,23.87295],[90.41823,23.8731],[90.41675,23.87059],[90.41559,23.87035],[90.41616,23.86836],[90.4138,23.8704],[90.41481,23.87136],[90.41513,23.87359],[90.41756,23.87653],[90.41866,23.87619],[90.41904,23.87793],[90.41836,23.88021],[90.41647,23.8807],[90.41521,23.88201],[90.41653,23.88462],[90.41632,23.88604],[90.41898,23.88582],[90.42235,23.88944],[90.42951,23.8935],[90.43206,23.89649],[90.43659,23.89914],[90.4382,23.90106],[90.44252,23.89855],[90.4447,23.89899],[90.44617,23.89843],[90.4485,23.89578],[90.4578,23.89645],[90.46075,23.8932],[90.45989,23.89217],[90.4612,23.88979],[90.45967,23.88481],[90.46156,23.88339],[90.46157,23.88337]]]}},{"type":"Feature","properties":{"name":"Uttara","district_id":"dhaka","pcode":"302695","sql_upazila_id":null,"sql_name_bn":null},"geometry":{"type":"Polygon","coordinates":[[[90.38476,23.8949],[90.38409,23.89419],[90.38579,23.89339],[90.39049,23.89365],[90.3903,23.8905],[90.39127,23.88903],[90.39373,23.88836],[90.39379,23.88661],[90.39239,23.88359],[90.39572,23.88016],[90.40162,23.88205],[90.40652,23.88201],[90.4073,23.85968],[90.40712,23.85665],[90.40611,23.85524],[90.40639,23.85367],[90.40037,23.86071],[90.39247,23.86126],[90.38655,23.85758],[90.38412,23.86089],[90.38429,23.86293],[90.38214,23.86393],[90.38078,23.86822],[90.37942,23.86916],[90.37927,23.87454],[90.38018,23.87559],[90.38717,23.87861],[90.38648,23.88177],[90.38805,23.88424],[90.38716,23.88698],[90.38464,23.88721],[90.38698,23.88772],[90.38761,23.88971],[90.38559,23.88962],[90.38541,23.8928],[90.38235,23.89237],[90.38213,23.89379],[90.38417,23.89542],[90.38476,23.8949]]]}}]}