{"type":"FeatureCollection","features":[{"type":"Feature","properties":{"name":"Biral","district_id":"dinajpur","pcode":"552717","sql_upazila_id":null,"sql_name_bn":null},"geometry":{"type":"Polygon","coordinates":[[[88.53103,25.7651],[88.53466,25.76323],[88.53698,25.76307],[88.54279,25.76531],[88.55656,25.76256],[88.56213,25.76053],[88.58424,25.7469],[88.59119,25.74812],[88.59112,25.74704],[88.59338,25.74607],[88.59876,25.74769],[88.60113,25.7469],[88.60282,25.74417],[88.61183,25.7398],[88.61784,25.73993],[88.6199,25.74073],[88.62177,25.74382],[88.62721,25.74172],[88.63235,25.74179],[88.6361,25.73901],[88.64617,25.73886],[88.6455,25.72803],[88.64438,25.72654],[88.63937,25.72452],[88.6384,25.71722],[88.63272,25.70968],[88.62918,25.69831],[88.62925,25.69718],[88.63219,25.69559],[88.6347,25.69092],[88.63483,25.68675],[88.63315,25.68606],[88.6319,25.68298],[88.63416,25.68002],[88.63411,25.67745],[88.63336,25.67591],[88.63199,25.67545],[88.62717,25.67629],[88.62599,25.67389],[88.62618,25.6711],[88.62907,25.66763],[88.63263,25.6665],[88.63389,25.66438],[88.63364,25.65794],[88.63147,25.65486],[88.6256,25.6541],[88.62379,25.65204],[88.62398,25.64942],[88.62823,25.64806],[88.63067,25.64835],[88.63062,25.64607],[88.62663,25.64013],[88.62401,25.6383],[88.6207,25.63441],[88.62021,25.6323],[88.62085,25.62631],[88.62618,25.61451],[88.62127,25.6056],[88.61891,25.59841],[88.61605,25.5931],[88.61501,25.58699],[88.60926,25.58726],[88.607,25.58851],[88.60576,25.58725],[88.6044,25.58068],[88.60661,25.57106],[88.60463,25.56454],[88.60326,25.56311],[88.60126,25.56293],[88.59831,25.56544],[88.59082,25.56656],[88.58945,25.56507],[88.58847,25.55896],[88.5888,25.55343],[88.58936,25.55058],[88.59312,25.54597],[88.5937,25.54095],[88.58998,25.53],[88.58469,25.5229],[88.58309,25.51308],[88.5801,25.50994],[88.57273,25.51209],[88.57117,25.51168],[88.57018,25.51002],[88.55963,25.51135],[88.55737,25.51274],[88.55669,25.51568],[88.55505,25.51756],[88.55331,25.51772],[88.55144,25.51607],[88.54778,25.50795],[88.54541,25.50618],[88.54292,25.50662],[88.54179,25.50845],[88.54134,25.51375],[88.54195,25.51637],[88.53963,25.51888],[88.54091,25.53086],[88.5361,25.53062],[88.53429,25.53147],[88.53371,25.54008],[88.5312,25.54149],[88.52991,25.54116],[88.52623,25.53298],[88.5233,25.53308],[88.52136,25.53456],[88.52165,25.54136],[88.5199,25.54369],[88.51527,25.544],[88.51041,25.54228],[88.50759,25.54541],[88.50259,25.54824],[88.5007,25.55109],[88.49902,25.55587],[88.49663,25.55775],[88.49587,25.55951],[88.4963,25.56202],[88.5002,25.57333],[88.50074,25.57847],[88.50005,25.58126],[88.47731,25.58175],[88.47256,25.58105],[88.47075,25.58275],[88.47012,25.58646],[88.46404,25.59026],[88.45847,25.59628],[88.4511,25.59477],[88.44735,25.5955],[88.4464,25.59698],[88.44702,25.59909],[88.44908,25.60029],[88.45057,25.60252],[88.44835,25.61312],[88.45021,25.6157],[88.4505,25.62055],[88.45193,25.62267],[88.45754,25.62543],[88.45816,25.62788],[88.45727,25.63382],[88.45809,25.64614],[88.45768,25.6564],[88.45673,25.6605],[88.45428,25.66243],[88.45684,25.66467],[88.45757,25.66958],[88.45913,25.67015],[88.46382,25.66954],[88.46493,25.67365],[88.46636,25.67537],[88.47467,25.67632],[88.47604,25.67758],[88.47472,25.68003],[88.47547,25.68111],[88.47828,25.68163],[88.48029,25.67987],[88.48129,25.67765],[88.48292,25.67766],[88.48428,25.67926],[88.48228,25.68285],[88.48389,25.68371],[88.48647,25.68241],[88.48752,25.68549],[88.49101,25.6883],[88.49094,25.68938],[88.48806,25.69148],[88.48648,25.69627],[88.48657,25.70637],[88.48544,25.70893],[88.48536,25.71258],[88.48829,25.71738],[88.49197,25.71945],[88.50046,25.72175],[88.50057,25.72689],[88.49956,25.72957],[88.5003,25.73442],[88.49803,25.73772],[88.49928,25.74052],[88.50058,25.74218],[88.50596,25.74174],[88.50876,25.74295],[88.5104,25.74261],[88.51109,25.74079],[88.5124,25.74],[88.5144,25.74115],[88.5207,25.74847],[88.52194,25.75229],[88.52297,25.76251],[88.52453,25.76491],[88.52584,25.76526],[88.53103,25.7651]]]}},{"type":"Feature","properties":{"name":"Birampur","district_id":"dinajpur","pcode":"552710","sql_upazila_id":"dinajpur-birampur","sql_name_bn":"বিরামপুর"},"geometry":{"type":"Polygon","coordinates":[[[88.98533,25.49017],[88.99274,25.48418],[88.99648,25.48247],[89.00753,25.48036],[89.01077,25.47751],[89.01997,25.45013],[89.02172,25.44625],[89.02558,25.44403],[89.02615,25.44192],[89.02507,25.43403],[89.02737,25.42845],[89.02718,25.42263],[89.02074,25.41197],[89.02068,25.40974],[89.015,25.4021],[89.014,25.39976],[89.01486,25.39765],[89.01929,25.39702],[89.0294,25.39902],[89.03407,25.39913],[89.04411,25.40204],[89.04842,25.40227],[89.05945,25.40152],[89.064,25.40032],[89.06631,25.39798],[89.06643,25.39291],[89.06442,25.38829],[89.06417,25.38344],[89.06304,25.38099],[89.05692,25.37426],[89.05348,25.36758],[89.04469,25.35857],[89.0418,25.34962],[89.03856,25.34534],[89.03687,25.33884],[89.0379,25.3296],[89.03591,25.32777],[89.03187,25.3264],[89.02881,25.3268],[89.02532,25.32852],[89.01704,25.32846],[89.00682,25.3305],[89.00072,25.33542],[88.99392,25.3345],[88.98694,25.33576],[88.98357,25.33558],[88.98303,25.33477],[88.96906,25.33177],[88.96692,25.32881],[88.96801,25.32783],[88.96803,25.32488],[88.97023,25.32097],[88.96593,25.31798],[88.96268,25.31797],[88.95834,25.3199],[88.9551,25.31989],[88.95401,25.32085],[88.94537,25.31981],[88.93887,25.32076],[88.93457,25.31875],[88.9324,25.31874],[88.91587,25.31392],[88.90979,25.32431],[88.90936,25.33099],[88.90818,25.33372],[88.90649,25.33555],[88.90505,25.33595],[88.89913,25.33429],[88.89347,25.33422],[88.89122,25.33325],[88.88941,25.33103],[88.89066,25.3235],[88.88954,25.32235],[88.88717,25.32321],[88.88256,25.32714],[88.87863,25.33273],[88.87222,25.33825],[88.87103,25.34059],[88.87176,25.34807],[88.86095,25.35231],[88.85943,25.35364],[88.85875,25.35758],[88.85681,25.35912],[88.84995,25.35928],[88.84366,25.36241],[88.8421,25.37159],[88.84347,25.37895],[88.84097,25.38328],[88.84932,25.38888],[88.85213,25.38877],[88.85699,25.38678],[88.86198,25.38747],[88.86872,25.38662],[88.87389,25.38891],[88.88025,25.38783],[88.88168,25.39297],[88.88367,25.39554],[88.88548,25.39628],[88.89708,25.39663],[88.90862,25.39995],[88.91959,25.39944],[88.92764,25.40219],[88.93094,25.40191],[88.93554,25.3958],[88.93867,25.39347],[88.93935,25.39227],[88.93792,25.38918],[88.9411,25.38417],[88.94415,25.3828],[88.94877,25.39359],[88.95084,25.39633],[88.95432,25.39872],[88.95513,25.40169],[88.95914,25.40118],[88.96106,25.4022],[88.96312,25.40386],[88.96368,25.40626],[88.96581,25.40876],[88.96736,25.40934],[88.97153,25.40866],[88.97385,25.40979],[88.97366,25.41151],[88.97142,25.41401],[88.97304,25.41573],[88.98065,25.41898],[88.98183,25.42024],[88.9799,25.42349],[88.98129,25.43746],[88.97922,25.44231],[88.98011,25.44391],[88.98329,25.44568],[88.98579,25.44556],[88.98704,25.44642],[88.98829,25.45075],[88.98642,25.45264],[88.98754,25.45754],[88.98624,25.46079],[88.98431,25.46273],[88.98119,25.46484],[88.97258,25.46786],[88.97059,25.46997],[88.97208,25.4726],[88.97552,25.4754],[88.97502,25.47693],[88.9729,25.47676],[88.97159,25.47824],[88.97221,25.47922],[88.98108,25.48287],[88.98257,25.4876],[88.98533,25.49017]]]}},{"type":"Feature","properties":{"name":"Birganj","district_id":"dinajpur","pcode":"552712","sql_upazila_id":"dinajpur-birganj","sql_name_bn":"বীরগঞ্জ"},"geometry":{"type":"Polygon","coordinates":[[[88.71544,26.00775],[88.71532,25.99942],[88.7137,25.99742],[88.70663,25.99393],[88.70562,25.9917],[88.70757,25.99062],[88.71246,25.99023],[88.71902,25.99195],[88.72222,25.99122],[88.72336,25.98967],[88.72405,25.98615],[88.72462,25.9801],[88.72151,25.96692],[88.72102,25.96606],[88.71387,25.96462],[88.71099,25.96279],[88.715,25.96154],[88.71902,25.95625],[88.71809,25.94797],[88.72055,25.9388],[88.72037,25.93731],[88.71648,25.93354],[88.71625,25.92681],[88.71963,25.9246],[88.72727,25.92232],[88.73055,25.91583],[88.73143,25.90596],[88.73081,25.90008],[88.72975,25.89563],[88.72501,25.88461],[88.72321,25.87708],[88.72384,25.87337],[88.72842,25.86443],[88.72749,25.85724],[88.72806,25.85405],[88.73144,25.8504],[88.73558,25.84271],[88.73309,25.83255],[88.73347,25.8277],[88.7286,25.82228],[88.7234,25.82238],[88.71858,25.82699],[88.71538,25.82755],[88.71326,25.82686],[88.71214,25.82452],[88.71015,25.82292],[88.70708,25.82286],[88.70125,25.82507],[88.69917,25.82923],[88.6981,25.83379],[88.69397,25.83544],[88.69279,25.83445],[88.69199,25.82863],[88.68817,25.82687],[88.68835,25.82544],[88.69224,25.82494],[88.6955,25.82352],[88.6975,25.82124],[88.69788,25.81874],[88.69188,25.81296],[88.69126,25.8105],[88.69001,25.80907],[88.68901,25.80913],[88.68732,25.81312],[88.68587,25.81448],[88.68349,25.81533],[88.67768,25.81481],[88.67629,25.81743],[88.67716,25.82176],[88.67666,25.82678],[88.67539,25.82895],[88.67113,25.83202],[88.67081,25.83647],[88.66856,25.8396],[88.6668,25.83994],[88.66149,25.83815],[88.65668,25.83318],[88.64812,25.83236],[88.64674,25.82933],[88.64461,25.82807],[88.64035,25.82926],[88.63733,25.83119],[88.6329,25.83106],[88.62902,25.8322],[88.62646,25.83168],[88.62345,25.82996],[88.61908,25.82464],[88.61708,25.82384],[88.61257,25.82622],[88.60693,25.8274],[88.60222,25.83902],[88.59882,25.84438],[88.59168,25.84721],[88.58052,25.85488],[88.57721,25.85602],[88.57476,25.85583],[88.57333,25.8544],[88.57125,25.85553],[88.57125,25.85713],[88.56817,25.8582],[88.56554,25.86225],[88.56508,25.86943],[88.56294,25.87615],[88.56118,25.87792],[88.55479,25.87904],[88.55321,25.8832],[88.55171,25.88359],[88.54921,25.88199],[88.54464,25.88083],[88.54058,25.8778],[88.53777,25.87721],[88.52254,25.88121],[88.52036,25.88012],[88.51735,25.87668],[88.51379,25.87696],[88.51015,25.8818],[88.50575,25.88389],[88.50405,25.88833],[88.50384,25.89564],[88.50252,25.89843],[88.498,25.89904],[88.49686,25.90137],[88.49705,25.90394],[88.50143,25.90436],[88.50948,25.91164],[88.51123,25.91409],[88.51054,25.9158],[88.50584,25.91378],[88.50446,25.91429],[88.50532,25.922],[88.50444,25.92325],[88.49905,25.92358],[88.49673,25.9255],[88.49803,25.92693],[88.49979,25.92745],[88.51094,25.92612],[88.5116,25.9348],[88.51522,25.93977],[88.51866,25.94178],[88.5211,25.94447],[88.52421,25.95001],[88.52664,25.95196],[88.53661,25.95154],[88.53867,25.95241],[88.54097,25.95817],[88.54089,25.96302],[88.53335,25.97383],[88.53226,25.97753],[88.53212,25.98512],[88.5338,25.99003],[88.53535,25.99203],[88.53698,25.99323],[88.54306,25.99508],[88.5423,25.99896],[88.5463,26.00194],[88.54623,26.00422],[88.54447,26.00512],[88.54446,26.007],[88.54864,26.0166],[88.55083,26.01752],[88.55477,26.01731],[88.55816,26.01954],[88.55909,26.02303],[88.55782,26.02696],[88.55844,26.0281],[88.56879,26.02557],[88.57513,26.02182],[88.57934,26.02075],[88.59219,26.02073],[88.5947,26.02193],[88.597,26.02616],[88.59925,26.02839],[88.60157,26.03017],[88.60852,26.0331],[88.6112,26.03898],[88.61125,26.04366],[88.6103,26.04742],[88.61167,26.05256],[88.61336,26.05456],[88.61937,26.05708],[88.6215,26.05966],[88.62564,26.0584],[88.63619,26.04863],[88.64611,26.04415],[88.661,26.02451],[88.66478,26.01841],[88.66779,26.01608],[88.67713,26.01428],[88.69217,26.01604],[88.69996,26.01439],[88.70121,26.01131],[88.70402,26.00852],[88.7103,26.00614],[88.71544,26.00775]]]}},{"type":"Feature","properties":{"name":"Bochaganj","district_id":"dinajpur","pcode":"552721","sql_upazila_id":"dinajpur-bochaganj","sql_name_bn":"বোচাগঞ্জ"},"geometry":{"type":"Polygon","coordinates":[[[88.51379,25.87696],[88.51305,25.87434],[88.50847,25.87341],[88.50655,25.87192],[88.50605,25.87042],[88.507,25.86599],[88.50501,25.86136],[88.50502,25.85868],[88.50917,25.85299],[88.50957,25.84512],[88.51083,25.84221],[88.5166,25.83944],[88.51732,25.83071],[88.51614,25.82769],[88.50594,25.82531],[88.5059,25.81931],[88.50715,25.81898],[88.51302,25.82226],[88.51566,25.82198],[88.50961,25.81386],[88.50974,25.8126],[88.51193,25.81203],[88.51289,25.80817],[88.51176,25.80594],[88.50907,25.80598],[88.50826,25.80524],[88.50639,25.80221],[88.5069,25.80005],[88.51254,25.79865],[88.51279,25.79607],[88.51192,25.79482],[88.50704,25.79388],[88.50605,25.79114],[88.51028,25.77752],[88.51555,25.77526],[88.52182,25.77129],[88.52363,25.77164],[88.52588,25.77353],[88.52926,25.77234],[88.53103,25.7651],[88.52453,25.76491],[88.52297,25.76251],[88.52194,25.75229],[88.5207,25.74847],[88.51347,25.74029],[88.5124,25.74],[88.51109,25.74079],[88.5104,25.74261],[88.50876,25.74295],[88.50596,25.74174],[88.50058,25.74218],[88.49928,25.74052],[88.49803,25.73772],[88.5003,25.73442],[88.49956,25.72957],[88.50057,25.72689],[88.50046,25.72175],[88.49197,25.71945],[88.48829,25.71738],[88.48536,25.71258],[88.48544,25.70893],[88.48657,25.70637],[88.48648,25.69627],[88.48806,25.69148],[88.49094,25.68938],[88.49101,25.6883],[88.48752,25.68549],[88.48647,25.68241],[88.48389,25.68371],[88.48228,25.68285],[88.48428,25.67926],[88.48292,25.67766],[88.48129,25.67765],[88.48029,25.67987],[88.47828,25.68163],[88.47547,25.68111],[88.47472,25.68003],[88.47604,25.67758],[88.47467,25.67632],[88.46636,25.67537],[88.46493,25.67365],[88.46382,25.66954],[88.45913,25.67015],[88.45757,25.66958],[88.45684,25.66467],[88.45428,25.66243],[88.45178,25.66351],[88.44309,25.66467],[88.42878,25.6649],[88.42951,25.66969],[88.4312,25.67073],[88.43408,25.66988],[88.43569,25.67086],[88.43262,25.6749],[88.43417,25.67901],[88.43266,25.68083],[88.42971,25.68207],[88.42915,25.68395],[88.42963,25.68675],[88.432,25.6891],[88.43513,25.6882],[88.43901,25.68548],[88.44115,25.68258],[88.4429,25.68298],[88.44395,25.68732],[88.44243,25.69085],[88.44093,25.69239],[88.43629,25.69294],[88.43523,25.69459],[88.43576,25.70138],[88.44082,25.70488],[88.43949,25.70761],[88.43835,25.70816],[88.42787,25.70682],[88.4248,25.7071],[88.42386,25.70881],[88.42416,25.71166],[88.4264,25.71378],[88.43327,25.71489],[88.4349,25.71638],[88.43545,25.7186],[88.43338,25.71945],[88.43231,25.72116],[88.43367,25.7263],[88.43235,25.72743],[88.42342,25.72443],[88.42017,25.72425],[88.41835,25.72675],[88.4165,25.73455],[88.41512,25.735],[88.41324,25.73369],[88.40935,25.72591],[88.40643,25.72293],[88.40485,25.72367],[88.40071,25.72764],[88.39911,25.73756],[88.39458,25.74388],[88.38731,25.74698],[88.3841,25.7517],[88.38377,25.75541],[88.38551,25.75804],[88.38714,25.75827],[88.39478,25.75637],[88.39497,25.75723],[88.3922,25.75915],[88.39157,25.76063],[88.3925,25.76206],[88.39625,25.76254],[88.397,25.76419],[88.38928,25.76889],[88.38702,25.77155],[88.38988,25.7774],[88.39475,25.77856],[88.39543,25.77936],[88.39487,25.78067],[88.38903,25.78441],[88.38626,25.78833],[88.38232,25.79031],[88.38379,25.79545],[88.38746,25.80037],[88.39159,25.80119],[88.39089,25.80296],[88.39406,25.80793],[88.39449,25.81033],[88.39418,25.81198],[88.39067,25.81208],[88.38703,25.81326],[88.3857,25.81668],[88.38493,25.82352],[88.38955,25.82491],[88.39055,25.82588],[88.39071,25.83216],[88.38952,25.83484],[88.38572,25.83893],[88.38647,25.84104],[88.39411,25.84182],[88.3981,25.84429],[88.40298,25.84368],[88.40435,25.84676],[88.40538,25.8543],[88.4018,25.85822],[88.40015,25.86443],[88.40076,25.86654],[88.40295,25.86752],[88.41261,25.86505],[88.41324,25.86152],[88.41431,25.86032],[88.41695,25.85966],[88.42378,25.8554],[88.4256,25.85598],[88.42684,25.85861],[88.42244,25.8631],[88.42287,25.86435],[88.428,25.86546],[88.42987,25.8674],[88.43319,25.86525],[88.43564,25.86555],[88.44351,25.86957],[88.44527,25.86946],[88.44559,25.86456],[88.44704,25.86251],[88.44893,25.86126],[88.45644,25.85906],[88.46107,25.85949],[88.46201,25.86086],[88.46349,25.86576],[88.4626,25.86794],[88.46349,25.87039],[88.46579,25.87068],[88.46844,25.8695],[88.46925,25.86813],[88.46908,25.86237],[88.47034,25.86089],[88.47684,25.86091],[88.48366,25.86448],[88.48566,25.8658],[88.48594,25.87469],[88.48435,25.88068],[88.48426,25.88849],[88.48153,25.89533],[88.48203,25.89927],[88.48335,25.90133],[88.4859,25.90265],[88.49705,25.90394],[88.49686,25.90137],[88.498,25.89904],[88.50252,25.89843],[88.50384,25.89564],[88.50405,25.88833],[88.50575,25.88389],[88.51015,25.8818],[88.51222,25.87873],[88.51379,25.87696]]]}},{"type":"Feature","properties":{"name":"Chirirbandar","district_id":"dinajpur","pcode":"552730","sql_upazila_id":"dinajpur-chirirbandar","sql_name_bn":"চিরিরবন্দর"},"geometry":{"type":"Polygon","coordinates":[[[88.85757,25.78094],[88.85733,25.77433],[88.85614,25.76868],[88.8569,25.76435],[88.86384,25.7546],[88.87316,25.75176],[88.87516,25.74976],[88.87691,25.74064],[88.87479,25.73704],[88.86672,25.73008],[88.8641,25.72905],[88.85647,25.72881],[88.85003,25.72589],[88.84615,25.72127],[88.83791,25.70825],[88.83827,25.70363],[88.84266,25.69748],[88.84373,25.69467],[88.8436,25.69234],[88.84142,25.6912],[88.83491,25.69142],[88.83122,25.68999],[88.83135,25.68777],[88.83554,25.68093],[88.83548,25.67904],[88.83035,25.6751],[88.83036,25.67213],[88.82936,25.67002],[88.8263,25.66808],[88.82586,25.66283],[88.82455,25.65901],[88.82274,25.65621],[88.82062,25.65529],[88.81856,25.6529],[88.81912,25.64993],[88.82169,25.64857],[88.82112,25.64708],[88.81818,25.64485],[88.81774,25.64234],[88.81844,25.63657],[88.8255,25.63528],[88.8252,25.6294],[88.81969,25.62706],[88.81902,25.62243],[88.81927,25.61257],[88.82058,25.60989],[88.82333,25.60858],[88.82783,25.60482],[88.82933,25.59838],[88.82921,25.59449],[88.82497,25.58805],[88.82491,25.58514],[88.83041,25.57647],[88.83279,25.56233],[88.83341,25.5536],[88.83479,25.54951],[88.8391,25.54267],[88.84079,25.53468],[88.84209,25.53428],[88.84528,25.53559],[88.84673,25.53531],[88.85021,25.53212],[88.85009,25.5295],[88.84591,25.52989],[88.84235,25.5316],[88.83948,25.5304],[88.83761,25.52714],[88.83143,25.52668],[88.82468,25.5273],[88.82281,25.52906],[88.82206,25.53106],[88.82,25.53134],[88.80682,25.52739],[88.80546,25.52636],[88.80459,25.52128],[88.79741,25.52151],[88.79192,25.51812],[88.78562,25.51275],[88.78013,25.51303],[88.77763,25.51508],[88.77295,25.51615],[88.76901,25.52031],[88.76558,25.5223],[88.76286,25.52132],[88.76215,25.51921],[88.76115,25.52127],[88.76345,25.52772],[88.76363,25.53393],[88.76144,25.54283],[88.75919,25.54374],[88.75462,25.54966],[88.74375,25.55957],[88.74599,25.56185],[88.74606,25.56317],[88.73981,25.566],[88.7403,25.56852],[88.74155,25.57006],[88.74667,25.5731],[88.74654,25.57811],[88.74329,25.58084],[88.73885,25.57844],[88.73386,25.57803],[88.73086,25.57951],[88.72629,25.58657],[88.72454,25.58776],[88.71754,25.58798],[88.71104,25.58939],[88.70868,25.59035],[88.70524,25.59417],[88.70593,25.59965],[88.70766,25.60483],[88.70477,25.60745],[88.70208,25.61293],[88.70201,25.61641],[88.70338,25.61887],[88.70819,25.62332],[88.70924,25.62887],[88.71217,25.63326],[88.71391,25.64085],[88.71053,25.64934],[88.71133,25.65145],[88.71507,25.65448],[88.71663,25.66093],[88.72462,25.66723],[88.72912,25.6686],[88.73167,25.67101],[88.73198,25.67352],[88.73072,25.68207],[88.72815,25.69039],[88.72896,25.69279],[88.73233,25.69753],[88.73502,25.69999],[88.735,25.7106],[88.73575,25.7126],[88.73743,25.7134],[88.74244,25.71369],[88.74474,25.71609],[88.74487,25.71763],[88.74142,25.72151],[88.7408,25.72527],[88.7436,25.73788],[88.74259,25.74107],[88.73564,25.74602],[88.73588,25.75726],[88.73849,25.76947],[88.73749,25.77273],[88.73535,25.775],[88.72803,25.77899],[88.72277,25.78382],[88.73434,25.78498],[88.73878,25.78653],[88.7436,25.78454],[88.74948,25.78496],[88.74986,25.78296],[88.74892,25.78056],[88.75099,25.77936],[88.76056,25.77955],[88.7715,25.78294],[88.77275,25.78288],[88.77413,25.78049],[88.77626,25.77941],[88.77982,25.78181],[88.78051,25.78381],[88.77957,25.78758],[88.78188,25.78815],[88.78632,25.78735],[88.7892,25.7877],[88.79495,25.79342],[88.79871,25.79439],[88.80277,25.79434],[88.80496,25.79565],[88.80696,25.79583],[88.81235,25.79144],[88.8196,25.79088],[88.8231,25.79186],[88.82479,25.79339],[88.82562,25.79608],[88.83172,25.80037],[88.83343,25.80054],[88.8353,25.803],[88.83929,25.80232],[88.84193,25.80569],[88.84493,25.80724],[88.84097,25.80111],[88.84229,25.79653],[88.84318,25.79455],[88.84929,25.79075],[88.8515,25.78394],[88.85611,25.78211],[88.85757,25.78094]]]}},{"type":"Feature","properties":{"name":"Dinajpur S.","district_id":"dinajpur","pcode":"552764","sql_upazila_id":null,"sql_name_bn":null},"geometry":{"type":"Polygon","coordinates":[[[88.72277,25.78382],[88.72803,25.77899],[88.73535,25.775],[88.73749,25.77273],[88.73849,25.76947],[88.73588,25.75726],[88.73564,25.74602],[88.74259,25.74107],[88.7436,25.73788],[88.7408,25.72527],[88.74142,25.72151],[88.74487,25.71763],[88.74474,25.71609],[88.74244,25.71369],[88.73743,25.7134],[88.73575,25.7126],[88.735,25.7106],[88.73502,25.69999],[88.73233,25.69753],[88.72896,25.69279],[88.72815,25.69039],[88.73072,25.68207],[88.73198,25.67352],[88.73167,25.67101],[88.72912,25.6686],[88.72462,25.66723],[88.71663,25.66093],[88.71507,25.65448],[88.71133,25.65145],[88.71053,25.64934],[88.71391,25.64085],[88.71217,25.63326],[88.70924,25.62887],[88.70819,25.62332],[88.70338,25.61887],[88.70201,25.61641],[88.70208,25.61293],[88.70477,25.60745],[88.70766,25.60483],[88.70593,25.59965],[88.70524,25.59417],[88.70868,25.59035],[88.71104,25.58939],[88.71754,25.58798],[88.72454,25.58776],[88.72629,25.58657],[88.73086,25.57951],[88.73386,25.57803],[88.73885,25.57844],[88.74329,25.58084],[88.74654,25.57811],[88.74667,25.5731],[88.74155,25.57006],[88.7403,25.56852],[88.73981,25.566],[88.74606,25.56317],[88.74599,25.56185],[88.74375,25.55957],[88.75462,25.54966],[88.75919,25.54374],[88.76144,25.54283],[88.76363,25.53393],[88.76345,25.52772],[88.76115,25.52127],[88.76215,25.51921],[88.7619,25.51277],[88.76278,25.50838],[88.77277,25.49915],[88.77103,25.49464],[88.7691,25.4923],[88.76112,25.49046],[88.75381,25.49227],[88.75057,25.49193],[88.7449,25.48598],[88.74191,25.48683],[88.74483,25.49477],[88.74113,25.50121],[88.73882,25.50217],[88.73396,25.50101],[88.73016,25.50141],[88.72591,25.50072],[88.71656,25.49511],[88.71481,25.49477],[88.71112,25.49704],[88.71025,25.49612],[88.70926,25.4919],[88.71009,25.4793],[88.70704,25.47518],[88.70019,25.47026],[88.69482,25.46996],[88.68327,25.47205],[88.67747,25.47004],[88.66973,25.47156],[88.66505,25.4707],[88.66348,25.4768],[88.66193,25.47884],[88.65974,25.47975],[88.65194,25.477],[88.64982,25.477],[88.64776,25.47835],[88.64645,25.48035],[88.64512,25.48924],[88.64561,25.49004],[88.64948,25.49034],[88.65073,25.49154],[88.64796,25.49495],[88.64367,25.49677],[88.63761,25.49675],[88.63231,25.49485],[88.62457,25.49529],[88.62264,25.49882],[88.61394,25.5057],[88.61182,25.50569],[88.61007,25.50666],[88.61037,25.50887],[88.60943,25.51316],[88.60637,25.51355],[88.60287,25.5116],[88.59802,25.50394],[88.5916,25.50558],[88.57806,25.50548],[88.57337,25.50649],[88.57018,25.51002],[88.57117,25.51168],[88.57273,25.51209],[88.5801,25.50994],[88.58309,25.51308],[88.58469,25.5229],[88.58998,25.53],[88.5937,25.54095],[88.59312,25.54597],[88.58936,25.55058],[88.5888,25.55343],[88.58847,25.55896],[88.58945,25.56507],[88.59082,25.56656],[88.59831,25.56544],[88.60126,25.56293],[88.60326,25.56311],[88.60463,25.56454],[88.60661,25.57106],[88.6044,25.58068],[88.60576,25.58725],[88.607,25.58851],[88.60926,25.58726],[88.61501,25.58699],[88.61605,25.5931],[88.61891,25.59841],[88.62127,25.6056],[88.62563,25.61274],[88.62618,25.61451],[88.62085,25.62631],[88.62021,25.6323],[88.6207,25.63441],[88.62401,25.6383],[88.62663,25.64013],[88.63062,25.64607],[88.63067,25.64835],[88.62823,25.64806],[88.62398,25.64942],[88.62379,25.65204],[88.6256,25.6541],[88.63147,25.65486],[88.63309,25.65646],[88.63389,25.66438],[88.63263,25.6665],[88.62782,25.66865],[88.62618,25.6711],[88.62599,25.67389],[88.62717,25.67629],[88.63199,25.67545],[88.63336,25.67591],[88.63416,25.68002],[88.6319,25.68298],[88.63315,25.68606],[88.63503,25.68744],[88.63358,25.69348],[88.63219,25.69559],[88.62925,25.69718],[88.62918,25.69831],[88.63272,25.70968],[88.6384,25.71722],[88.63937,25.72452],[88.64438,25.72654],[88.6455,25.72803],[88.64617,25.73886],[88.65167,25.73814],[88.65523,25.74055],[88.65879,25.74454],[88.66121,25.7458],[88.66516,25.74615],[88.67317,25.74475],[88.67536,25.74492],[88.67799,25.7463],[88.68141,25.75241],[88.68935,25.75996],[88.69472,25.76008],[88.69853,25.76255],[88.70034,25.76586],[88.70133,25.7702],[88.70358,25.77317],[88.70439,25.77574],[88.70294,25.78201],[88.70631,25.78561],[88.70888,25.78607],[88.71013,25.78716],[88.71069,25.79138],[88.71669,25.78985],[88.72002,25.78644],[88.72277,25.78382]]]}},{"type":"Feature","properties":{"name":"Ghoraghat","district_id":"dinajpur","pcode":"552743","sql_upazila_id":"dinajpur-ghoraghat","sql_name_bn":"ঘোড়াঘাট"},"geometry":{"type":"Polygon","coordinates":[[[89.28706,25.30198],[89.28143,25.30061],[89.27708,25.30092],[89.27013,25.30329],[89.26829,25.30244],[89.26833,25.30097],[89.27006,25.29794],[89.27459,25.29642],[89.27353,25.29443],[89.27039,25.29264],[89.25957,25.29028],[89.25791,25.28909],[89.25769,25.2875],[89.26434,25.28539],[89.26557,25.28373],[89.26527,25.28116],[89.27136,25.27802],[89.27513,25.27234],[89.27645,25.26919],[89.27608,25.26607],[89.27757,25.26446],[89.28449,25.26176],[89.28973,25.25857],[89.29164,25.25532],[89.29302,25.24789],[89.29527,25.24199],[89.30457,25.22878],[89.29667,25.22597],[89.29044,25.22784],[89.28427,25.233],[89.27309,25.23531],[89.27082,25.2351],[89.27036,25.23398],[89.27167,25.23207],[89.275,25.23052],[89.27535,25.2283],[89.2737,25.22758],[89.26885,25.22881],[89.26129,25.22934],[89.25285,25.22823],[89.24128,25.23075],[89.23543,25.23388],[89.23112,25.23478],[89.21801,25.23345],[89.20593,25.23119],[89.20509,25.23509],[89.20637,25.23696],[89.20557,25.23919],[89.19781,25.2403],[89.19608,25.24231],[89.19701,25.2479],[89.19616,25.24967],[89.19386,25.25084],[89.19228,25.25114],[89.19096,25.25006],[89.18915,25.24563],[89.18265,25.24193],[89.17664,25.24369],[89.1729,25.24647],[89.16952,25.24701],[89.16879,25.24925],[89.16592,25.25036],[89.16618,25.25178],[89.16406,25.253],[89.1603,25.25349],[89.15994,25.25464],[89.16352,25.2554],[89.16286,25.25718],[89.15985,25.25766],[89.15635,25.25947],[89.15506,25.26153],[89.1487,25.26093],[89.14494,25.25721],[89.14421,25.26075],[89.14583,25.26377],[89.14552,25.26503],[89.14235,25.26845],[89.14279,25.27022],[89.1469,25.27295],[89.1385,25.27496],[89.14137,25.27712],[89.14827,25.27792],[89.15078,25.27917],[89.15041,25.28065],[89.14699,25.28139],[89.14687,25.28254],[89.14893,25.2859],[89.14713,25.29058],[89.1472,25.29258],[89.149,25.29389],[89.15031,25.29794],[89.14952,25.29965],[89.14709,25.30045],[89.1436,25.29943],[89.14185,25.30068],[89.15215,25.30769],[89.15304,25.31271],[89.16302,25.31806],[89.16021,25.31983],[89.15997,25.3208],[89.16583,25.32251],[89.16714,25.32461],[89.16722,25.32969],[89.16915,25.33089],[89.17496,25.33196],[89.17714,25.3331],[89.17957,25.33715],[89.18463,25.3384],[89.1862,25.34016],[89.19033,25.34912],[89.19283,25.35061],[89.19669,25.35145],[89.1983,25.34979],[89.20092,25.34945],[89.202,25.35423],[89.19964,25.35755],[89.19958,25.35892],[89.20931,25.36432],[89.20869,25.36626],[89.21238,25.36882],[89.21381,25.3678],[89.21924,25.3675],[89.2269,25.37011],[89.22834,25.3692],[89.2307,25.3643],[89.23251,25.36378],[89.23412,25.36395],[89.23438,25.36571],[89.23334,25.37079],[89.23589,25.37005],[89.23818,25.36605],[89.23824,25.36194],[89.23779,25.35972],[89.23405,25.35887],[89.23286,25.35767],[89.23472,25.3539],[89.23758,25.35122],[89.23932,25.35122],[89.24251,25.35241],[89.24519,25.35549],[89.24731,25.356],[89.24812,25.35469],[89.24524,25.34927],[89.24149,25.34808],[89.24018,25.34665],[89.24098,25.34443],[89.24408,25.34225],[89.24397,25.3414],[89.2431,25.34066],[89.2406,25.3406],[89.23698,25.34204],[89.23257,25.34256],[89.22576,25.3388],[89.22355,25.33424],[89.22455,25.32911],[89.22748,25.33093],[89.23193,25.33793],[89.23349,25.33885],[89.23705,25.33918],[89.24107,25.3337],[89.2427,25.33347],[89.24818,25.33574],[89.2508,25.33346],[89.25004,25.32998],[89.24536,25.3281],[89.24,25.32759],[89.23888,25.32612],[89.23862,25.32372],[89.24203,25.31921],[89.24819,25.31601],[89.25237,25.3168],[89.25616,25.31594],[89.26184,25.31827],[89.26503,25.3214],[89.26865,25.32071],[89.26095,25.30977],[89.26138,25.30834],[89.27148,25.31266],[89.27726,25.30706],[89.28349,25.30596],[89.28591,25.30431],[89.28706,25.30198]]]}},{"type":"Feature","properties":{"name":"Hakimpur","district_id":"dinajpur","pcode":"552747","sql_upazila_id":"dinajpur-hakimpur","sql_name_bn":"হাকিমপুর"},"geometry":{"type":"Polygon","coordinates":[[[89.0379,25.3296],[89.0409,25.32983],[89.04159,25.3288],[89.04158,25.32424],[89.04594,25.32024],[89.04967,25.32001],[89.05517,25.32161],[89.05672,25.32087],[89.05759,25.31836],[89.06419,25.31654],[89.06506,25.31157],[89.06673,25.31054],[89.06898,25.31168],[89.07339,25.30717],[89.07539,25.30751],[89.08012,25.30614],[89.07776,25.30403],[89.07787,25.30175],[89.08124,25.30209],[89.0848,25.30449],[89.08866,25.30471],[89.09818,25.30294],[89.10915,25.30407],[89.1109,25.30356],[89.11326,25.30059],[89.12062,25.30109],[89.12235,25.30047],[89.12279,25.29807],[89.12491,25.29739],[89.13693,25.2988],[89.14185,25.30068],[89.1436,25.29943],[89.14709,25.30045],[89.14952,25.29965],[89.15026,25.29651],[89.149,25.29389],[89.1472,25.29258],[89.14713,25.29058],[89.14893,25.2859],[89.14687,25.28254],[89.14699,25.28139],[89.15041,25.28065],[89.15078,25.27917],[89.14827,25.27792],[89.14137,25.27712],[89.1385,25.27496],[89.1469,25.27295],[89.14279,25.27022],[89.14235,25.26845],[89.14552,25.26503],[89.14583,25.26377],[89.14421,25.26075],[89.14494,25.25721],[89.14382,25.25636],[89.14599,25.25225],[89.14212,25.24929],[89.13589,25.2473],[89.13421,25.24798],[89.13017,25.2542],[89.12781,25.255],[89.12656,25.25346],[89.12599,25.25078],[89.12649,25.24525],[89.12592,25.2428],[89.12436,25.24149],[89.12249,25.24177],[89.12038,25.24491],[89.11658,25.2452],[89.1139,25.244],[89.11172,25.2415],[89.10829,25.24224],[89.10344,25.24099],[89.10138,25.24207],[89.09958,25.24435],[89.09915,25.24886],[89.09231,25.25257],[89.08758,25.25645],[89.07938,25.2669],[89.07732,25.26832],[89.07496,25.26849],[89.07072,25.2669],[89.07065,25.26302],[89.06922,25.26057],[89.0651,25.25959],[89.06287,25.25988],[89.06156,25.26388],[89.05974,25.26491],[89.05197,25.26531],[89.04874,25.26708],[89.0412,25.2693],[89.03958,25.27039],[89.0389,25.27341],[89.03635,25.27541],[89.03461,25.27581],[89.03105,25.27632],[89.03062,25.26988],[89.02737,25.26908],[89.02544,25.26948],[89.02229,25.26495],[89.02013,25.26396],[89.01096,25.26845],[89.00863,25.2704],[89.00703,25.27533],[89.00761,25.2766],[89.00745,25.28223],[89.01125,25.29238],[89.01101,25.29557],[89.00977,25.29653],[89.00782,25.29725],[88.99809,25.29596],[88.98928,25.29575],[88.9866,25.29868],[88.9866,25.30387],[88.98443,25.30558],[88.98106,25.30546],[88.97601,25.3021],[88.96798,25.30712],[88.96243,25.3078],[88.95621,25.3078],[88.95184,25.30363],[88.94835,25.30157],[88.9448,25.3018],[88.94244,25.30351],[88.93918,25.30973],[88.93701,25.31115],[88.9349,25.31035],[88.93091,25.30436],[88.92884,25.30329],[88.92561,25.30356],[88.91907,25.30857],[88.91587,25.31392],[88.9324,25.31874],[88.93457,25.31875],[88.93887,25.32076],[88.94537,25.31981],[88.95401,25.32085],[88.9551,25.31989],[88.95834,25.3199],[88.96268,25.31797],[88.96593,25.31798],[88.97023,25.32097],[88.96803,25.32488],[88.96801,25.32783],[88.96692,25.32881],[88.96906,25.33177],[88.98303,25.33477],[88.98357,25.33558],[88.98694,25.33576],[88.99392,25.3345],[89.00072,25.33542],[89.00682,25.3305],[89.01704,25.32846],[89.02532,25.32852],[89.02881,25.3268],[89.03187,25.3264],[89.03591,25.32777],[89.0379,25.3296]]]}},{"type":"Feature","properties":{"name":"Kaharole","district_id":"dinajpur","pcode":"552756","sql_upazila_id":null,"sql_name_bn":null},"geometry":{"type":"Polygon","coordinates":[[[88.72722,25.82204],[88.72347,25.81662],[88.71829,25.80628],[88.71305,25.79903],[88.71013,25.78716],[88.70888,25.78607],[88.70631,25.78561],[88.70294,25.78201],[88.70439,25.77574],[88.70358,25.77317],[88.70133,25.7702],[88.70034,25.76586],[88.69853,25.76255],[88.69472,25.76008],[88.68935,25.75996],[88.68141,25.75241],[88.67799,25.7463],[88.67536,25.74492],[88.67317,25.74475],[88.66516,25.74615],[88.66121,25.7458],[88.65879,25.74454],[88.65523,25.74055],[88.65167,25.73814],[88.6361,25.73901],[88.63235,25.74179],[88.62721,25.74172],[88.62177,25.74382],[88.6199,25.74073],[88.61784,25.73993],[88.61183,25.7398],[88.60282,25.74417],[88.60113,25.7469],[88.59876,25.74769],[88.59338,25.74607],[88.59112,25.74704],[88.59119,25.74812],[88.58424,25.7469],[88.56213,25.76053],[88.55656,25.76256],[88.54279,25.76531],[88.53698,25.76307],[88.53466,25.76323],[88.53103,25.7651],[88.52926,25.77234],[88.52588,25.77353],[88.52363,25.77164],[88.52182,25.77129],[88.51555,25.77526],[88.51028,25.77752],[88.50605,25.79114],[88.50704,25.79388],[88.51192,25.79482],[88.51279,25.79607],[88.51254,25.79865],[88.5069,25.80005],[88.50639,25.80221],[88.50826,25.80524],[88.50907,25.80598],[88.51176,25.80594],[88.51289,25.80817],[88.51193,25.81203],[88.50974,25.8126],[88.50961,25.81386],[88.51566,25.82198],[88.51302,25.82226],[88.50715,25.81898],[88.5059,25.81931],[88.50594,25.82531],[88.51614,25.82769],[88.51743,25.83345],[88.5166,25.83944],[88.51083,25.84221],[88.50957,25.84512],[88.50917,25.85299],[88.50502,25.85868],[88.50501,25.86136],[88.507,25.86599],[88.50605,25.87042],[88.50655,25.87192],[88.50847,25.87341],[88.51305,25.87434],[88.51379,25.87696],[88.51735,25.87668],[88.52036,25.88012],[88.52254,25.88121],[88.53777,25.87721],[88.54058,25.8778],[88.54464,25.88083],[88.54921,25.88199],[88.55171,25.88359],[88.55321,25.8832],[88.55479,25.87904],[88.56118,25.87792],[88.56294,25.87615],[88.56508,25.86943],[88.56554,25.86225],[88.56817,25.8582],[88.57125,25.85713],[88.57125,25.85553],[88.57333,25.8544],[88.57476,25.85583],[88.57721,25.85602],[88.58052,25.85488],[88.59168,25.84721],[88.59882,25.84438],[88.60222,25.83902],[88.60693,25.8274],[88.60913,25.82661],[88.61257,25.82622],[88.61708,25.82384],[88.61908,25.82464],[88.62345,25.82996],[88.62902,25.8322],[88.6329,25.83106],[88.63733,25.83119],[88.64035,25.82926],[88.64461,25.82807],[88.64674,25.82933],[88.64812,25.83236],[88.65668,25.83318],[88.66149,25.83815],[88.6668,25.83994],[88.66856,25.8396],[88.67081,25.83647],[88.67113,25.83202],[88.67539,25.82895],[88.67666,25.82678],[88.67716,25.82176],[88.67629,25.81743],[88.67768,25.81481],[88.68349,25.81533],[88.68587,25.81448],[88.68732,25.81312],[88.68901,25.80913],[88.69001,25.80907],[88.69126,25.8105],[88.69188,25.81296],[88.69788,25.81874],[88.6975,25.82124],[88.6955,25.82352],[88.69224,25.82494],[88.68835,25.82544],[88.68817,25.82687],[88.69199,25.82863],[88.69279,25.83445],[88.69397,25.83544],[88.6981,25.83379],[88.69917,25.82923],[88.70125,25.82507],[88.70708,25.82286],[88.71015,25.82292],[88.71214,25.82452],[88.71326,25.82686],[88.71538,25.82755],[88.71858,25.82699],[88.7234,25.82238],[88.72722,25.82204]]]}},{"type":"Feature","properties":{"name":"Khansama","district_id":"dinajpur","pcode":"552760","sql_upazila_id":"dinajpur-khansama","sql_name_bn":"খানসামা"},"geometry":{"type":"Polygon","coordinates":[[[88.71544,26.00775],[88.72102,26.00873],[88.72559,26.01336],[88.72903,26.0185],[88.73084,26.01959],[88.74044,26.01727],[88.73843,26.01407],[88.73788,26.00808],[88.74052,26.00158],[88.74767,25.98909],[88.74457,25.96953],[88.75467,25.95472],[88.75236,25.94656],[88.74916,25.94421],[88.74916,25.9412],[88.75388,25.93686],[88.75676,25.93681],[88.75901,25.94092],[88.76132,25.94115],[88.76953,25.93917],[88.77786,25.93941],[88.79472,25.93208],[88.80043,25.92866],[88.80356,25.92485],[88.80512,25.92138],[88.80338,25.91196],[88.80389,25.90449],[88.80627,25.89941],[88.81272,25.8907],[88.81391,25.88796],[88.8205,25.8712],[88.82201,25.86212],[88.82952,25.85729],[88.83021,25.85456],[88.82815,25.84571],[88.82571,25.84086],[88.82596,25.83744],[88.82816,25.83071],[88.82677,25.82341],[88.82766,25.8185],[88.82935,25.8156],[88.83661,25.81703],[88.84374,25.81459],[88.84487,25.81259],[88.84493,25.80724],[88.84193,25.80569],[88.83929,25.80232],[88.8353,25.803],[88.83343,25.80054],[88.83172,25.80037],[88.82562,25.79608],[88.82479,25.79339],[88.8231,25.79186],[88.8196,25.79088],[88.81235,25.79144],[88.80696,25.79583],[88.80496,25.79565],[88.80277,25.79434],[88.79871,25.79439],[88.79495,25.79342],[88.7892,25.7877],[88.78632,25.78735],[88.78188,25.78815],[88.77957,25.78758],[88.78051,25.78381],[88.77982,25.78181],[88.77626,25.77941],[88.77413,25.78049],[88.77275,25.78288],[88.7715,25.78294],[88.76056,25.77955],[88.75099,25.77936],[88.74892,25.78056],[88.74986,25.78296],[88.74948,25.78496],[88.7436,25.78454],[88.73878,25.78653],[88.73434,25.78498],[88.72277,25.78382],[88.71669,25.78985],[88.71069,25.79138],[88.71305,25.79903],[88.71829,25.80628],[88.72347,25.81662],[88.72722,25.82204],[88.7286,25.82228],[88.73273,25.82617],[88.73347,25.8277],[88.73309,25.83255],[88.73558,25.84271],[88.73144,25.8504],[88.72806,25.85405],[88.72749,25.85724],[88.72842,25.86443],[88.72384,25.87337],[88.72321,25.87708],[88.72501,25.88461],[88.72975,25.89563],[88.73081,25.90008],[88.73143,25.90596],[88.73055,25.91583],[88.72727,25.92232],[88.71963,25.9246],[88.71625,25.92681],[88.71648,25.93354],[88.72037,25.93731],[88.72055,25.9388],[88.71809,25.94797],[88.71902,25.95625],[88.715,25.96154],[88.71099,25.96279],[88.71387,25.96462],[88.72102,25.96606],[88.72151,25.96692],[88.72462,25.9801],[88.72336,25.98967],[88.72222,25.99122],[88.71902,25.99195],[88.71246,25.99023],[88.70757,25.99062],[88.70562,25.9917],[88.70663,25.99393],[88.7085,25.99535],[88.7137,25.99742],[88.71532,25.99942],[88.71538,26.00273],[88.71544,26.00775]]]}},{"type":"Feature","properties":{"name":"Nawabganj","district_id":"dinajpur","pcode":"552769","sql_upazila_id":"dinajpur-nawabganj","sql_name_bn":"নবাবগঞ্জ"},"geometry":{"type":"Polygon","coordinates":[[[89.0929,25.55541],[89.09176,25.54982],[89.09257,25.548],[89.09793,25.54451],[89.09924,25.53938],[89.10267,25.53478],[89.10193,25.53223],[89.10394,25.52216],[89.1085,25.51999],[89.1081,25.51896],[89.10501,25.51826],[89.10398,25.5173],[89.10558,25.51614],[89.11076,25.51607],[89.10999,25.51448],[89.1059,25.51385],[89.10663,25.51133],[89.10906,25.51039],[89.10837,25.50743],[89.10493,25.50484],[89.10267,25.50453],[89.10373,25.50093],[89.1036,25.49711],[89.10548,25.49322],[89.10448,25.4888],[89.10899,25.48744],[89.11233,25.48224],[89.11594,25.47844],[89.11543,25.47727],[89.10709,25.47877],[89.10657,25.47713],[89.10706,25.47536],[89.11384,25.47376],[89.11478,25.47245],[89.11456,25.4661],[89.11645,25.46501],[89.11765,25.46556],[89.11866,25.46743],[89.11912,25.47281],[89.12038,25.47433],[89.12171,25.47477],[89.1224,25.47419],[89.12276,25.46886],[89.12459,25.46652],[89.12994,25.46331],[89.12849,25.46235],[89.12028,25.46095],[89.11711,25.45854],[89.11717,25.45701],[89.11824,25.45621],[89.12058,25.45636],[89.12386,25.45395],[89.12601,25.45376],[89.12846,25.45017],[89.13201,25.45213],[89.13924,25.44979],[89.13967,25.44718],[89.13728,25.44538],[89.13808,25.44396],[89.14314,25.44061],[89.1497,25.434],[89.15315,25.42458],[89.15322,25.41682],[89.15227,25.41558],[89.14923,25.4143],[89.14786,25.41192],[89.14958,25.41087],[89.15417,25.41184],[89.15578,25.41114],[89.15058,25.40578],[89.15212,25.4049],[89.16105,25.40502],[89.16241,25.40432],[89.16404,25.39984],[89.16577,25.39914],[89.16789,25.39934],[89.17032,25.40512],[89.17208,25.40601],[89.1763,25.40561],[89.17715,25.40155],[89.17519,25.40009],[89.1756,25.39866],[89.17923,25.39651],[89.1822,25.39578],[89.18747,25.39719],[89.18901,25.39649],[89.19003,25.39039],[89.19114,25.38929],[89.19205,25.39099],[89.19323,25.39132],[89.19972,25.3914],[89.20387,25.39363],[89.20556,25.39332],[89.20957,25.38605],[89.20971,25.38229],[89.21151,25.38096],[89.21456,25.38019],[89.21709,25.37765],[89.22134,25.37715],[89.22057,25.37608],[89.21467,25.37427],[89.2129,25.3726],[89.21238,25.36882],[89.20869,25.36626],[89.20931,25.36432],[89.19958,25.35892],[89.19964,25.35755],[89.202,25.35423],[89.20092,25.34945],[89.1983,25.34979],[89.19669,25.35145],[89.19283,25.35061],[89.19033,25.34912],[89.1862,25.34016],[89.18463,25.3384],[89.17957,25.33715],[89.17714,25.3331],[89.17496,25.33196],[89.16915,25.33089],[89.16722,25.32969],[89.16714,25.32461],[89.16583,25.32251],[89.15997,25.3208],[89.16021,25.31983],[89.16302,25.31806],[89.15304,25.31271],[89.15215,25.30769],[89.14185,25.30068],[89.13693,25.2988],[89.12491,25.29739],[89.12279,25.29807],[89.12235,25.30047],[89.12062,25.30109],[89.11326,25.30059],[89.1109,25.30356],[89.10915,25.30407],[89.09818,25.30294],[89.08866,25.30471],[89.0848,25.30449],[89.08124,25.30209],[89.07787,25.30175],[89.07776,25.30403],[89.08012,25.30614],[89.07539,25.30751],[89.07339,25.30717],[89.06898,25.31168],[89.06673,25.31054],[89.06506,25.31157],[89.06419,25.31654],[89.05759,25.31836],[89.05672,25.32087],[89.05517,25.32161],[89.04967,25.32001],[89.04594,25.32024],[89.04158,25.32424],[89.04159,25.3288],[89.0409,25.32983],[89.0379,25.3296],[89.03729,25.33212],[89.03687,25.33884],[89.03856,25.34534],[89.0418,25.34962],[89.04469,25.35857],[89.05348,25.36758],[89.05692,25.37426],[89.06304,25.38099],[89.06417,25.38344],[89.06442,25.38829],[89.06643,25.39291],[89.06631,25.39798],[89.064,25.40032],[89.05945,25.40152],[89.04842,25.40227],[89.04411,25.40204],[89.03407,25.39913],[89.0294,25.39902],[89.01929,25.39702],[89.01486,25.39765],[89.014,25.39976],[89.015,25.4021],[89.02068,25.40974],[89.02074,25.41197],[89.02718,25.42263],[89.02737,25.42845],[89.02507,25.43403],[89.02615,25.44192],[89.02558,25.44403],[89.02172,25.44625],[89.01997,25.45013],[89.01077,25.47751],[89.00753,25.48036],[88.99648,25.48247],[88.99274,25.48418],[88.98533,25.49017],[88.98364,25.49565],[88.98489,25.49685],[88.9892,25.49833],[88.98734,25.50278],[88.98841,25.505],[88.98996,25.50614],[88.99027,25.50785],[88.98834,25.51213],[88.98946,25.51618],[88.98822,25.52075],[88.98835,25.5232],[88.99253,25.52696],[88.98623,25.52799],[88.98486,25.52987],[88.98692,25.53928],[88.99167,25.5382],[88.99586,25.54076],[88.99786,25.54071],[89.00041,25.53826],[89.00391,25.53661],[89.01046,25.53598],[89.01376,25.53626],[89.01402,25.53718],[89.01277,25.53929],[89.01714,25.5394],[89.02277,25.541],[89.0385,25.53934],[89.04562,25.54282],[89.0498,25.54305],[89.05061,25.54231],[89.05067,25.5406],[89.0486,25.53643],[89.0526,25.5354],[89.05646,25.53141],[89.06001,25.53055],[89.06332,25.53249],[89.06327,25.53574],[89.0654,25.53825],[89.06435,25.54738],[89.0666,25.54977],[89.07022,25.55086],[89.07541,25.55542],[89.07741,25.55519],[89.08166,25.55804],[89.08901,25.5549],[89.0929,25.55541]]]}},{"type":"Feature","properties":{"name":"Parbatipur","district_id":"dinajpur","pcode":"552777","sql_upazila_id":"dinajpur-parbatipur","sql_name_bn":"পার্বতীপুর"},"geometry":{"type":"Polygon","coordinates":[[[88.94117,25.74008],[88.9417,25.73245],[88.94111,25.73092],[88.93086,25.72822],[88.92844,25.72681],[88.92724,25.72386],[88.92807,25.70994],[88.93476,25.70105],[88.9373,25.69454],[88.93707,25.69259],[88.93468,25.68846],[88.93766,25.68666],[88.94504,25.68478],[88.94939,25.68188],[88.9529,25.68184],[88.95358,25.68571],[88.95542,25.68688],[88.95856,25.68691],[88.95979,25.68547],[88.96045,25.67914],[88.96203,25.67611],[88.96734,25.67532],[88.96971,25.67432],[88.97119,25.67271],[88.97159,25.66947],[88.96821,25.6654],[88.96899,25.66273],[88.97389,25.65858],[88.97633,25.65821],[88.98705,25.66344],[88.99034,25.66159],[88.99265,25.65514],[88.99606,25.65282],[88.9953,25.65147],[88.98931,25.64914],[88.98866,25.64614],[88.98874,25.64254],[88.99342,25.6404],[88.99458,25.63794],[88.99467,25.63567],[88.9929,25.63358],[88.99192,25.63024],[88.99187,25.62598],[88.99322,25.62306],[89.00292,25.61649],[89.00662,25.60541],[89.00867,25.60301],[89.0116,25.60279],[89.02023,25.60595],[89.02361,25.60614],[89.0333,25.60354],[89.03599,25.60243],[89.03778,25.60014],[89.03875,25.59661],[89.03953,25.58654],[89.04114,25.58436],[89.04301,25.584],[89.05092,25.59028],[89.0545,25.5911],[89.05676,25.59136],[89.06184,25.59028],[89.06767,25.58794],[89.07193,25.58814],[89.07462,25.58578],[89.07461,25.58306],[89.07906,25.58148],[89.09225,25.5715],[89.09476,25.57045],[89.10072,25.57186],[89.10153,25.57066],[89.10111,25.56789],[89.09498,25.56055],[89.0929,25.55541],[89.08901,25.5549],[89.08166,25.55804],[89.07741,25.55519],[89.07541,25.55542],[89.07022,25.55086],[89.0666,25.54977],[89.06435,25.54738],[89.0654,25.53825],[89.06327,25.53574],[89.06332,25.53249],[89.06001,25.53055],[89.05646,25.53141],[89.0526,25.5354],[89.0486,25.53643],[89.05067,25.5406],[89.05061,25.54231],[89.0498,25.54305],[89.04562,25.54282],[89.0385,25.53934],[89.02277,25.541],[89.01714,25.5394],[89.01277,25.53929],[89.01402,25.53718],[89.01376,25.53626],[89.01046,25.53598],[89.00391,25.53661],[89.00041,25.53826],[88.99786,25.54071],[88.99586,25.54076],[88.99167,25.5382],[88.98692,25.53928],[88.98486,25.52987],[88.98623,25.52799],[88.99253,25.52696],[88.98835,25.5232],[88.98822,25.52075],[88.98946,25.51618],[88.98834,25.51213],[88.99027,25.50785],[88.98996,25.50614],[88.98841,25.505],[88.98596,25.50523],[88.97866,25.51116],[88.97455,25.51219],[88.96955,25.51161],[88.9645,25.51487],[88.96156,25.5123],[88.95769,25.50436],[88.955,25.50134],[88.94171,25.50099],[88.93771,25.49871],[88.93204,25.50013],[88.92879,25.50207],[88.92736,25.50424],[88.92499,25.50429],[88.9238,25.50286],[88.92262,25.49836],[88.91806,25.50121],[88.91981,25.50514],[88.91912,25.50651],[88.91637,25.50817],[88.90664,25.50958],[88.90308,25.50867],[88.8969,25.50336],[88.89497,25.50438],[88.89253,25.50741],[88.88904,25.50889],[88.88667,25.51099],[88.8866,25.51356],[88.89029,25.51858],[88.88079,25.51812],[88.87325,25.51925],[88.87025,25.51908],[88.86794,25.51714],[88.86639,25.50789],[88.86445,25.50727],[88.86282,25.50812],[88.86295,25.51279],[88.86214,25.51411],[88.85783,25.51102],[88.8564,25.51108],[88.85347,25.51376],[88.84772,25.51654],[88.84186,25.52099],[88.83649,25.52035],[88.83492,25.52235],[88.83948,25.5304],[88.84235,25.5316],[88.84591,25.52989],[88.85009,25.5295],[88.85021,25.53212],[88.84673,25.53531],[88.84528,25.53559],[88.84209,25.53428],[88.84079,25.53468],[88.8391,25.54267],[88.83479,25.54951],[88.83341,25.5536],[88.83279,25.56233],[88.83041,25.57647],[88.82491,25.58514],[88.82497,25.58805],[88.82921,25.59449],[88.82933,25.59838],[88.82783,25.60482],[88.82333,25.60858],[88.82058,25.60989],[88.81927,25.61257],[88.81902,25.62243],[88.81969,25.62706],[88.8252,25.6294],[88.8255,25.63528],[88.81844,25.63657],[88.81776,25.63869],[88.81818,25.64485],[88.82112,25.64708],[88.82169,25.64857],[88.81912,25.64993],[88.81856,25.6529],[88.82062,25.65529],[88.82274,25.65621],[88.82455,25.65901],[88.82586,25.66283],[88.8263,25.66808],[88.82936,25.67002],[88.83036,25.67213],[88.83035,25.6751],[88.83548,25.67904],[88.83554,25.68093],[88.83135,25.68777],[88.83122,25.68999],[88.83491,25.69142],[88.84142,25.6912],[88.8436,25.69234],[88.84373,25.69467],[88.84266,25.69748],[88.83827,25.70363],[88.83791,25.70825],[88.84615,25.72127],[88.85003,25.72589],[88.85647,25.72881],[88.8641,25.72905],[88.86672,25.73008],[88.87479,25.73704],[88.87691,25.74064],[88.87516,25.74976],[88.87316,25.75176],[88.86384,25.7546],[88.8569,25.76435],[88.85614,25.76868],[88.85733,25.77433],[88.85757,25.78094],[88.86077,25.77783],[88.86285,25.77699],[88.87629,25.7766],[88.88081,25.77548],[88.88339,25.77373],[88.88559,25.77062],[88.88862,25.75886],[88.89082,25.75426],[88.88745,25.74674],[88.88789,25.74283],[88.88941,25.74196],[88.89714,25.7393],[88.90478,25.7417],[88.91214,25.74092],[88.9184,25.74486],[88.92106,25.74467],[88.92527,25.73992],[88.92915,25.74194],[88.93424,25.73974],[88.93861,25.74164],[88.94062,25.74162],[88.94117,25.74008]]]}},{"type":"Feature","properties":{"name":"Phulbari","district_id":"dinajpur","pcode":"552738","sql_upazila_id":null,"sql_name_bn":null},"geometry":{"type":"Polygon","coordinates":[[[88.80459,25.52128],[88.80546,25.52636],[88.80682,25.52739],[88.82,25.53134],[88.82206,25.53106],[88.82281,25.52906],[88.82468,25.5273],[88.83143,25.52668],[88.83761,25.52714],[88.83492,25.52235],[88.83649,25.52035],[88.84186,25.52099],[88.84772,25.51654],[88.85347,25.51376],[88.8564,25.51108],[88.85783,25.51102],[88.86214,25.51411],[88.86295,25.51279],[88.86282,25.50812],[88.86445,25.50727],[88.86639,25.50789],[88.86725,25.51126],[88.86707,25.51497],[88.86794,25.51714],[88.87025,25.51908],[88.88079,25.51812],[88.89029,25.51858],[88.8866,25.51356],[88.88667,25.51099],[88.88904,25.50889],[88.89253,25.50741],[88.89497,25.50438],[88.8969,25.50336],[88.90308,25.50867],[88.90664,25.50958],[88.91637,25.50817],[88.91912,25.50651],[88.91981,25.50514],[88.91806,25.50121],[88.92262,25.49836],[88.9238,25.50286],[88.92499,25.50429],[88.92736,25.50424],[88.92879,25.50207],[88.93204,25.50013],[88.93771,25.49871],[88.94171,25.50099],[88.955,25.50134],[88.95769,25.50436],[88.96156,25.5123],[88.9645,25.51487],[88.96955,25.51161],[88.97455,25.51219],[88.97866,25.51116],[88.98596,25.50523],[88.98841,25.505],[88.98734,25.50278],[88.9892,25.49833],[88.98489,25.49685],[88.98364,25.49565],[88.98533,25.49017],[88.98257,25.4876],[88.98108,25.48287],[88.97221,25.47922],[88.97159,25.47824],[88.9729,25.47676],[88.97502,25.47693],[88.97552,25.4754],[88.97208,25.4726],[88.97059,25.46997],[88.97258,25.46786],[88.98119,25.46484],[88.98431,25.46273],[88.98624,25.46079],[88.98754,25.45754],[88.98642,25.45264],[88.98829,25.45075],[88.98704,25.44642],[88.98579,25.44556],[88.98329,25.44568],[88.98011,25.44391],[88.97922,25.44231],[88.98129,25.43746],[88.9799,25.42349],[88.98183,25.42024],[88.98065,25.41898],[88.97304,25.41573],[88.97142,25.41401],[88.97366,25.41151],[88.97385,25.40979],[88.97153,25.40866],[88.96736,25.40934],[88.96581,25.40876],[88.96368,25.40626],[88.96312,25.40386],[88.96106,25.4022],[88.95914,25.40118],[88.95513,25.40169],[88.95432,25.39872],[88.95084,25.39633],[88.94877,25.39359],[88.94415,25.3828],[88.9411,25.38417],[88.93792,25.38918],[88.93935,25.39227],[88.93867,25.39347],[88.93554,25.3958],[88.93094,25.40191],[88.92764,25.40219],[88.91959,25.39944],[88.90862,25.39995],[88.89708,25.39663],[88.88548,25.39628],[88.88367,25.39554],[88.88168,25.39297],[88.88025,25.38783],[88.87389,25.38891],[88.86872,25.38662],[88.86198,25.38747],[88.85699,25.38678],[88.85213,25.38877],[88.84932,25.38888],[88.84097,25.38328],[88.84047,25.38522],[88.84458,25.38991],[88.84496,25.39202],[88.84389,25.39333],[88.84184,25.39446],[88.83878,25.39823],[88.83105,25.39725],[88.82781,25.39787],[88.82675,25.39901],[88.82594,25.40403],[88.82362,25.40609],[88.82014,25.40653],[88.81689,25.40818],[88.82044,25.41195],[88.82811,25.41128],[88.83098,25.41311],[88.83261,25.41452],[88.83398,25.41938],[88.83179,25.42315],[88.83696,25.42509],[88.8374,25.42635],[88.83553,25.43136],[88.8344,25.43342],[88.83047,25.43415],[88.82872,25.44089],[88.83247,25.44728],[88.83895,25.44928],[88.84212,25.45339],[88.84157,25.45584],[88.83732,25.46017],[88.83683,25.46234],[88.83938,25.46691],[88.83907,25.46959],[88.83626,25.47398],[88.83192,25.4854],[88.82764,25.48805],[88.81903,25.48565],[88.81716,25.48565],[88.81455,25.48712],[88.81185,25.49545],[88.81115,25.50714],[88.80928,25.51153],[88.81108,25.51735],[88.81039,25.51975],[88.8069,25.52105],[88.80459,25.52128]]]}}]}