{"type":"FeatureCollection","features":[{"type":"Feature","properties":{"name":"Alfadanga","district_id":"faridpur","pcode":"302903","sql_upazila_id":"faridpur-alfadanga","sql_name_bn":"আলফাডাঙ্গা"},"geometry":{"type":"Polygon","coordinates":[[[89.73648,23.28823],[89.74046,23.28572],[89.74504,23.28441],[89.74866,23.28191],[89.75046,23.27846],[89.75064,23.27568],[89.74937,23.27151],[89.74421,23.26507],[89.7431,23.25934],[89.74039,23.25799],[89.73503,23.25706],[89.732,23.25474],[89.7317,23.25216],[89.7369,23.24533],[89.73498,23.24231],[89.72103,23.23814],[89.7192,23.2366],[89.72065,23.22873],[89.71949,23.2265],[89.71653,23.22452],[89.71191,23.22335],[89.70825,23.22081],[89.7059,23.21537],[89.70309,23.21167],[89.69908,23.20964],[89.69548,23.20927],[89.68733,23.20263],[89.68707,23.20093],[89.6819,23.20501],[89.6785,23.21807],[89.67838,23.22129],[89.67976,23.22805],[89.68337,23.23514],[89.68267,23.23704],[89.67924,23.23977],[89.66686,23.23913],[89.64999,23.23424],[89.63745,23.23172],[89.62364,23.23063],[89.62181,23.23249],[89.62144,23.23593],[89.62344,23.24258],[89.63101,23.25468],[89.63818,23.26225],[89.64269,23.27025],[89.63838,23.28149],[89.63733,23.28647],[89.64777,23.29446],[89.6504,23.29823],[89.64756,23.30577],[89.64666,23.3133],[89.64441,23.31574],[89.63884,23.31711],[89.63889,23.3194],[89.64585,23.3229],[89.65054,23.32372],[89.65787,23.3267],[89.6603,23.32999],[89.66356,23.33118],[89.66756,23.32913],[89.67,23.32963],[89.6708,23.32646],[89.67557,23.33158],[89.67819,23.33242],[89.68311,23.33829],[89.68638,23.34027],[89.68903,23.33956],[89.69104,23.33735],[89.68983,23.32979],[89.69188,23.32655],[89.6954,23.32497],[89.70329,23.31875],[89.71203,23.3143],[89.71592,23.31019],[89.71593,23.30749],[89.71404,23.30602],[89.70484,23.30645],[89.7019,23.30538],[89.70087,23.30338],[89.7002,23.29841],[89.7017,23.29545],[89.71139,23.29203],[89.71821,23.28812],[89.72002,23.28902],[89.72413,23.29512],[89.72657,23.2959],[89.72921,23.2945],[89.73291,23.28987],[89.73648,23.28823]]]}},{"type":"Feature","properties":{"name":"Bhanga","district_id":"faridpur","pcode":"302910","sql_upazila_id":"faridpur-bhanga","sql_name_bn":"ভাঙ্গা"},"geometry":{"type":"Polygon","coordinates":[[[90.09924,23.38152],[90.09364,23.37366],[90.09286,23.36144],[90.08994,23.35653],[90.08932,23.3539],[90.08984,23.35183],[90.09431,23.35189],[90.09726,23.35023],[90.09834,23.34615],[90.10268,23.34541],[90.10352,23.34408],[90.10296,23.34133],[90.10577,23.33669],[90.10579,23.33544],[90.10402,23.3338],[90.10196,23.33336],[90.10009,23.33068],[90.09759,23.33003],[90.09586,23.32782],[90.09665,23.31907],[90.09418,23.31192],[90.09175,23.30914],[90.08791,23.30729],[90.08171,23.30806],[90.08056,23.30927],[90.07851,23.30924],[90.07592,23.30755],[90.07262,23.30713],[90.06955,23.30861],[90.06281,23.32156],[90.04964,23.33554],[90.04339,23.34176],[90.04081,23.34334],[90.03601,23.34294],[90.03477,23.34043],[90.03854,23.33143],[90.03919,23.32447],[90.03868,23.32074],[90.03614,23.31618],[90.03019,23.3089],[90.02888,23.30599],[90.02684,23.28752],[90.02254,23.28958],[90.0192,23.29864],[90.00985,23.30322],[90.00979,23.30598],[90.01749,23.31106],[90.02005,23.31419],[90.02763,23.32484],[90.02634,23.32772],[90.02209,23.32961],[90.01953,23.32936],[90.01884,23.32351],[90.01464,23.32212],[90.00979,23.322],[90.00089,23.32727],[89.99385,23.3296],[89.98969,23.33251],[89.98401,23.33424],[89.98402,23.34297],[89.97791,23.35079],[89.97515,23.35226],[89.96494,23.35439],[89.95989,23.35973],[89.95743,23.36056],[89.95421,23.35887],[89.95264,23.3551],[89.94511,23.36081],[89.94424,23.36329],[89.94418,23.36926],[89.94127,23.3693],[89.9393,23.36806],[89.93691,23.36418],[89.93297,23.35411],[89.93076,23.35316],[89.92893,23.35767],[89.92807,23.3637],[89.92402,23.36627],[89.92295,23.36852],[89.92033,23.37619],[89.91899,23.38556],[89.92005,23.389],[89.92119,23.38979],[89.9287,23.3865],[89.93046,23.38716],[89.93747,23.38651],[89.93925,23.38787],[89.9403,23.3905],[89.93967,23.39309],[89.92673,23.40121],[89.92448,23.40405],[89.92405,23.40676],[89.92487,23.41002],[89.92648,23.41253],[89.9293,23.41319],[89.93351,23.41239],[89.93597,23.41363],[89.93626,23.41552],[89.93383,23.42158],[89.93365,23.42451],[89.93591,23.43057],[89.93914,23.43324],[89.9455,23.43655],[89.94862,23.43692],[89.95507,23.43317],[89.95806,23.43331],[89.96132,23.437],[89.96101,23.43971],[89.95918,23.44381],[89.95285,23.45053],[89.95416,23.45357],[89.96198,23.45549],[89.96751,23.46278],[89.96945,23.46362],[89.97556,23.46102],[89.98763,23.46651],[89.99146,23.46744],[89.99522,23.46615],[90.00607,23.45837],[90.0095,23.45334],[90.0163,23.45119],[90.01932,23.45253],[90.02985,23.44483],[90.03332,23.44439],[90.03947,23.44684],[90.04156,23.45049],[90.04272,23.45765],[90.05026,23.46095],[90.05214,23.45599],[90.05461,23.45234],[90.05315,23.45121],[90.04867,23.45109],[90.04727,23.45025],[90.05034,23.4455],[90.05195,23.44526],[90.05927,23.44913],[90.06643,23.4468],[90.06744,23.44473],[90.06542,23.42787],[90.06489,23.42598],[90.062,23.42222],[90.0628,23.41917],[90.0657,23.41839],[90.0662,23.41534],[90.06539,23.40794],[90.0647,23.40514],[90.06049,23.40025],[90.05753,23.39109],[90.05898,23.38918],[90.07403,23.38584],[90.0818,23.38586],[90.08923,23.38451],[90.09924,23.38152]]]}},{"type":"Feature","properties":{"name":"Boalmari","district_id":"faridpur","pcode":"302918","sql_upazila_id":"faridpur-boalmari","sql_name_bn":"বোয়ালমারী"},"geometry":{"type":"Polygon","coordinates":[[[89.72623,23.53617],[89.73235,23.5399],[89.73453,23.53993],[89.75063,23.53231],[89.75187,23.52943],[89.7515,23.52375],[89.75247,23.51949],[89.75577,23.51601],[89.75546,23.50688],[89.75641,23.50504],[89.76106,23.50126],[89.75384,23.49225],[89.74978,23.48253],[89.74634,23.48182],[89.74512,23.48315],[89.74431,23.48597],[89.74154,23.48754],[89.7405,23.48578],[89.74013,23.48244],[89.73596,23.47377],[89.73563,23.47009],[89.73689,23.4675],[89.73892,23.45731],[89.73888,23.44633],[89.74075,23.44409],[89.74635,23.44311],[89.74845,23.43976],[89.74181,23.4346],[89.74106,23.42841],[89.73232,23.42056],[89.73235,23.41919],[89.73743,23.41845],[89.7384,23.41712],[89.73746,23.41064],[89.73783,23.40777],[89.73971,23.40522],[89.74606,23.39976],[89.75813,23.39315],[89.76068,23.39055],[89.76161,23.38749],[89.76572,23.38119],[89.7639,23.37771],[89.76578,23.37545],[89.76927,23.37296],[89.77452,23.37089],[89.77733,23.37155],[89.78049,23.37082],[89.78075,23.36565],[89.77778,23.36034],[89.77865,23.35722],[89.78401,23.35201],[89.78442,23.34472],[89.78743,23.34285],[89.78967,23.34024],[89.78949,23.33462],[89.79219,23.33292],[89.79448,23.32337],[89.79212,23.32069],[89.79304,23.31684],[89.78998,23.31027],[89.78382,23.31038],[89.78126,23.30967],[89.78181,23.30633],[89.77959,23.30428],[89.78062,23.30043],[89.77207,23.30149],[89.7701,23.29961],[89.76817,23.29664],[89.76579,23.2954],[89.7641,23.28911],[89.76167,23.2889],[89.75928,23.29048],[89.75481,23.29706],[89.75125,23.29888],[89.74943,23.29786],[89.75015,23.29079],[89.74838,23.28967],[89.74574,23.29101],[89.74074,23.29858],[89.73631,23.30109],[89.73185,23.30177],[89.73649,23.29449],[89.73592,23.29139],[89.73648,23.28823],[89.73291,23.28987],[89.72921,23.2945],[89.72657,23.2959],[89.72413,23.29512],[89.72002,23.28902],[89.71821,23.28812],[89.71139,23.29203],[89.7017,23.29545],[89.7002,23.29841],[89.70087,23.30338],[89.7019,23.30538],[89.70484,23.30645],[89.71404,23.30602],[89.71593,23.30749],[89.71592,23.31019],[89.71203,23.3143],[89.70329,23.31875],[89.6954,23.32497],[89.69188,23.32655],[89.68983,23.32979],[89.69104,23.33735],[89.68903,23.33956],[89.68638,23.34027],[89.68311,23.33829],[89.67819,23.33242],[89.67557,23.33158],[89.6708,23.32646],[89.67,23.32963],[89.66756,23.32913],[89.66356,23.33118],[89.6603,23.32999],[89.65787,23.3267],[89.65054,23.32372],[89.64585,23.3229],[89.63889,23.3194],[89.63884,23.31711],[89.64441,23.31574],[89.64666,23.3133],[89.64756,23.30577],[89.6504,23.29823],[89.64777,23.29446],[89.63733,23.28647],[89.63697,23.28816],[89.62962,23.29783],[89.6166,23.30474],[89.61276,23.30907],[89.60841,23.32538],[89.60124,23.33791],[89.60044,23.34309],[89.60178,23.35557],[89.60031,23.36656],[89.59909,23.37165],[89.59451,23.37949],[89.5939,23.38232],[89.59438,23.3843],[89.59785,23.38532],[89.60278,23.38502],[89.60785,23.38305],[89.61197,23.38031],[89.61578,23.3793],[89.61834,23.38109],[89.61945,23.38351],[89.60964,23.40187],[89.60621,23.41574],[89.60475,23.43531],[89.60699,23.4587],[89.61775,23.46526],[89.61994,23.46577],[89.62372,23.46499],[89.62623,23.46589],[89.62708,23.46788],[89.62626,23.47059],[89.62817,23.47615],[89.62579,23.47835],[89.62326,23.47935],[89.62324,23.48153],[89.62923,23.49429],[89.6312,23.4968],[89.63667,23.49353],[89.64017,23.49413],[89.64389,23.49003],[89.64602,23.49356],[89.64512,23.49546],[89.64792,23.49814],[89.65002,23.49749],[89.65289,23.49493],[89.6571,23.49633],[89.66201,23.49629],[89.67375,23.48865],[89.67738,23.48942],[89.67966,23.49101],[89.68063,23.49336],[89.67605,23.49765],[89.67543,23.50076],[89.67674,23.50436],[89.67615,23.50551],[89.67235,23.50561],[89.66957,23.50667],[89.66905,23.50885],[89.67381,23.51656],[89.67723,23.51923],[89.68096,23.52184],[89.69191,23.52105],[89.69461,23.52154],[89.7002,23.52441],[89.70978,23.52392],[89.71112,23.52552],[89.71155,23.52815],[89.71857,23.53061],[89.72018,23.52716],[89.72987,23.52884],[89.73035,23.53073],[89.72623,23.53617]]]}},{"type":"Feature","properties":{"name":"Char Bhadrasan","district_id":"faridpur","pcode":"302921","sql_upazila_id":"faridpur-charbhadrasan","sql_name_bn":"চরভদ্রাসন"},"geometry":{"type":"Polygon","coordinates":[[[89.92999,23.64809],[89.94098,23.64321],[89.94917,23.64101],[89.96379,23.63528],[89.98775,23.63054],[89.99641,23.62971],[90.04174,23.63083],[90.05322,23.62834],[90.05576,23.61635],[90.05574,23.6132],[90.05431,23.61066],[90.04914,23.6074],[90.04702,23.60465],[90.04694,23.60155],[90.05031,23.5976],[90.06057,23.58903],[90.06248,23.58642],[90.06308,23.58314],[90.05961,23.5783],[90.0603,23.576],[90.07188,23.573],[90.07714,23.57055],[90.08208,23.5698],[90.0855,23.56704],[90.08533,23.56511],[90.09279,23.55882],[90.09155,23.55636],[90.08894,23.55433],[90.08424,23.55277],[90.07987,23.55248],[90.06451,23.55376],[90.04485,23.55743],[90.02661,23.55845],[90.02211,23.55788],[90.01852,23.55637],[90.01206,23.55949],[90.0054,23.55721],[89.98901,23.56814],[89.98546,23.56801],[89.98137,23.56605],[89.97895,23.56389],[89.97739,23.56104],[89.97011,23.55583],[89.964,23.55022],[89.94718,23.53944],[89.9429,23.53725],[89.93977,23.53688],[89.93539,23.53871],[89.93371,23.54126],[89.93239,23.54644],[89.93235,23.5504],[89.93043,23.55364],[89.92713,23.55655],[89.92225,23.55844],[89.92057,23.56116],[89.91953,23.57604],[89.91841,23.57881],[89.91044,23.58476],[89.90566,23.59446],[89.90446,23.60211],[89.9015,23.60335],[89.89986,23.60509],[89.9006,23.61933],[89.90222,23.62189],[89.912,23.63],[89.91972,23.63485],[89.92883,23.64365],[89.92999,23.64809]]]}},{"type":"Feature","properties":{"name":"Faridpur S.","district_id":"faridpur","pcode":"302947","sql_upazila_id":null,"sql_name_bn":null},"geometry":{"type":"Polygon","coordinates":[[[89.86955,23.71881],[89.87237,23.71543],[89.87549,23.70855],[89.87911,23.70447],[89.88225,23.70309],[89.89211,23.68779],[89.89832,23.6804],[89.90841,23.66904],[89.92085,23.65734],[89.92365,23.65238],[89.92999,23.64809],[89.92883,23.64365],[89.92639,23.64092],[89.91972,23.63485],[89.912,23.63],[89.90222,23.62189],[89.9006,23.61933],[89.89986,23.60509],[89.9015,23.60335],[89.90446,23.60211],[89.90566,23.59446],[89.91044,23.58476],[89.91841,23.57881],[89.91953,23.57604],[89.92057,23.56116],[89.91094,23.55983],[89.90642,23.5581],[89.89844,23.55204],[89.88812,23.53917],[89.87398,23.53042],[89.87194,23.52843],[89.87063,23.52517],[89.87099,23.52189],[89.87376,23.51773],[89.87311,23.51601],[89.86751,23.51636],[89.86432,23.51289],[89.86146,23.51114],[89.85297,23.51216],[89.84785,23.506],[89.84434,23.50489],[89.84056,23.50591],[89.83411,23.51005],[89.83053,23.51129],[89.81979,23.50721],[89.81104,23.50852],[89.80737,23.50607],[89.80301,23.50865],[89.79774,23.50991],[89.79454,23.51195],[89.79181,23.51209],[89.78831,23.50558],[89.78487,23.50194],[89.78362,23.49896],[89.78335,23.49489],[89.78047,23.4913],[89.77732,23.4926],[89.77219,23.49741],[89.76106,23.50126],[89.75641,23.50504],[89.75507,23.50976],[89.75577,23.51601],[89.75247,23.51949],[89.7515,23.52375],[89.75187,23.52943],[89.75063,23.53231],[89.73453,23.53993],[89.73235,23.5399],[89.72623,23.53617],[89.72435,23.53607],[89.71425,23.5476],[89.69545,23.54835],[89.69312,23.55004],[89.69328,23.55216],[89.6955,23.55719],[89.69843,23.56026],[89.70284,23.56866],[89.70717,23.57299],[89.7093,23.57641],[89.70917,23.57917],[89.70605,23.58535],[89.70879,23.58808],[89.71208,23.58782],[89.71348,23.58878],[89.71497,23.59503],[89.71896,23.59487],[89.72324,23.58524],[89.72551,23.58315],[89.72907,23.58093],[89.73299,23.58021],[89.73837,23.58136],[89.74129,23.58105],[89.744,23.58262],[89.74255,23.58757],[89.74863,23.58901],[89.75668,23.59594],[89.7568,23.59864],[89.75468,23.60165],[89.7443,23.60881],[89.73819,23.61473],[89.7325,23.61674],[89.73095,23.62048],[89.72929,23.63032],[89.73335,23.63712],[89.73449,23.64164],[89.73318,23.64694],[89.73176,23.66252],[89.72583,23.66826],[89.72457,23.67063],[89.73283,23.67543],[89.7359,23.67586],[89.73775,23.67498],[89.74004,23.66812],[89.74248,23.66529],[89.74861,23.66626],[89.75214,23.66473],[89.7585,23.66489],[89.76038,23.66821],[89.76081,23.67119],[89.76035,23.67309],[89.75674,23.67594],[89.75919,23.67724],[89.76356,23.67726],[89.77222,23.67947],[89.78029,23.67801],[89.79244,23.68105],[89.79372,23.68522],[89.79747,23.6853],[89.79855,23.68638],[89.79684,23.69071],[89.79665,23.69421],[89.79757,23.70787],[89.79875,23.71056],[89.81244,23.72036],[89.81545,23.7213],[89.82637,23.71263],[89.84206,23.70799],[89.84821,23.70408],[89.85007,23.70383],[89.84965,23.71021],[89.85037,23.71215],[89.85421,23.71372],[89.86317,23.71552],[89.86955,23.71881]]]}},{"type":"Feature","properties":{"name":"Madhukhali","district_id":"faridpur","pcode":"302956","sql_upazila_id":"faridpur-madhukhali","sql_name_bn":"মধুখালী"},"geometry":{"type":"Polygon","coordinates":[[[89.67119,23.60853],[89.67668,23.59699],[89.67707,23.59435],[89.67456,23.58449],[89.6774,23.58291],[89.68537,23.58273],[89.70001,23.58885],[89.70605,23.58535],[89.70917,23.57917],[89.7093,23.57641],[89.70717,23.57299],[89.70284,23.56866],[89.69843,23.56026],[89.6955,23.55719],[89.69328,23.55216],[89.69312,23.55004],[89.69545,23.54835],[89.71425,23.5476],[89.72435,23.53607],[89.72623,23.53617],[89.73035,23.53073],[89.72987,23.52884],[89.72018,23.52716],[89.71857,23.53061],[89.71155,23.52815],[89.71112,23.52552],[89.70978,23.52392],[89.7002,23.52441],[89.69461,23.52154],[89.69191,23.52105],[89.68096,23.52184],[89.67723,23.51923],[89.67381,23.51656],[89.66905,23.50885],[89.66957,23.50667],[89.67235,23.50561],[89.67615,23.50551],[89.67674,23.50436],[89.67543,23.50076],[89.67605,23.49765],[89.68063,23.49336],[89.67966,23.49101],[89.67738,23.48942],[89.67375,23.48865],[89.66201,23.49629],[89.6571,23.49633],[89.65289,23.49493],[89.65002,23.49749],[89.64792,23.49814],[89.64512,23.49546],[89.64602,23.49356],[89.64389,23.49003],[89.64017,23.49413],[89.63667,23.49353],[89.6312,23.4968],[89.62923,23.49429],[89.62324,23.48153],[89.62326,23.47935],[89.62579,23.47835],[89.62817,23.47615],[89.62626,23.47059],[89.62708,23.46788],[89.62623,23.46589],[89.62372,23.46499],[89.61994,23.46577],[89.61775,23.46526],[89.60699,23.4587],[89.60684,23.4638],[89.59938,23.47187],[89.57682,23.48596],[89.56815,23.4895],[89.56304,23.49284],[89.55102,23.49845],[89.54581,23.49985],[89.53726,23.50418],[89.52783,23.507],[89.52251,23.50658],[89.51592,23.50459],[89.50457,23.49901],[89.49711,23.49649],[89.49114,23.497],[89.48935,23.49976],[89.49358,23.50979],[89.49854,23.51355],[89.50798,23.51875],[89.50496,23.52099],[89.51955,23.52635],[89.53416,23.52824],[89.53769,23.53062],[89.53811,23.53286],[89.53716,23.53499],[89.53518,23.53627],[89.51891,23.53899],[89.51502,23.54086],[89.50812,23.54786],[89.50614,23.55224],[89.50552,23.56569],[89.50307,23.57443],[89.51127,23.58291],[89.516,23.58593],[89.51931,23.58659],[89.52286,23.58599],[89.53388,23.57613],[89.54333,23.57163],[89.54651,23.56925],[89.5519,23.56726],[89.55533,23.567],[89.55759,23.56806],[89.55866,23.57179],[89.5591,23.57512],[89.55814,23.57731],[89.5504,23.57939],[89.549,23.58141],[89.55011,23.58404],[89.55492,23.58779],[89.57049,23.59363],[89.57089,23.59518],[89.5677,23.60077],[89.5701,23.60259],[89.57981,23.602],[89.59256,23.59762],[89.59686,23.59714],[89.59938,23.59815],[89.59924,23.60131],[89.59676,23.60862],[89.59769,23.61132],[89.60049,23.61129],[89.60477,23.6097],[89.61085,23.60511],[89.61565,23.59892],[89.62257,23.59318],[89.62481,23.59252],[89.63365,23.5925],[89.63987,23.58849],[89.64082,23.58899],[89.64254,23.59403],[89.64925,23.59322],[89.65212,23.59372],[89.65517,23.59667],[89.65958,23.60818],[89.66199,23.60976],[89.66716,23.61006],[89.67119,23.60853]]]}},{"type":"Feature","properties":{"name":"Nagarkanda","district_id":"faridpur","pcode":"302962","sql_upazila_id":"faridpur-nagarkanda","sql_name_bn":"নগরকান্দা"},"geometry":{"type":"Polygon","coordinates":[[[89.93539,23.53871],[89.93113,23.53474],[89.92877,23.52954],[89.92963,23.5146],[89.92759,23.51278],[89.92799,23.50824],[89.92715,23.50406],[89.92431,23.49948],[89.92211,23.49332],[89.9361,23.46675],[89.93993,23.46303],[89.94229,23.46293],[89.95918,23.44381],[89.96101,23.43971],[89.96132,23.437],[89.95806,23.43331],[89.95507,23.43317],[89.94862,23.43692],[89.9455,23.43655],[89.93914,23.43324],[89.93591,23.43057],[89.93365,23.42451],[89.93383,23.42158],[89.93626,23.41552],[89.93597,23.41363],[89.93351,23.41239],[89.9293,23.41319],[89.92648,23.41253],[89.92487,23.41002],[89.92405,23.40676],[89.92448,23.40405],[89.92673,23.40121],[89.93967,23.39309],[89.9403,23.3905],[89.93925,23.38787],[89.93747,23.38651],[89.93046,23.38716],[89.9287,23.3865],[89.92119,23.38979],[89.92005,23.389],[89.91899,23.38556],[89.91936,23.38068],[89.92402,23.36627],[89.92807,23.3637],[89.92893,23.35767],[89.93076,23.35316],[89.93297,23.35411],[89.93691,23.36418],[89.9393,23.36806],[89.94127,23.3693],[89.94418,23.36926],[89.94424,23.36329],[89.94511,23.36081],[89.95264,23.3551],[89.95178,23.34225],[89.95365,23.33941],[89.95565,23.33991],[89.95709,23.34299],[89.95893,23.34458],[89.96705,23.33765],[89.96635,23.33169],[89.96455,23.3289],[89.95726,23.32576],[89.95552,23.32033],[89.9539,23.32011],[89.94693,23.32242],[89.93316,23.32115],[89.93146,23.32019],[89.92982,23.31062],[89.92591,23.30848],[89.92199,23.30824],[89.91789,23.30869],[89.90736,23.31322],[89.90739,23.31483],[89.91169,23.32054],[89.91379,23.32803],[89.91877,23.33119],[89.91827,23.33389],[89.91711,23.33494],[89.91457,23.33548],[89.912,23.33712],[89.90774,23.34159],[89.90565,23.34258],[89.90234,23.34205],[89.88293,23.33324],[89.88052,23.33143],[89.87694,23.32366],[89.87433,23.3211],[89.86934,23.32593],[89.86736,23.32899],[89.86649,23.33238],[89.86699,23.33536],[89.86581,23.33836],[89.85819,23.33936],[89.85445,23.33918],[89.85132,23.338],[89.84784,23.33248],[89.84469,23.33037],[89.84159,23.33121],[89.83521,23.33478],[89.83377,23.33755],[89.83292,23.34416],[89.82997,23.34597],[89.82803,23.34536],[89.82573,23.34274],[89.82391,23.3384],[89.82059,23.3347],[89.81653,23.33095],[89.8113,23.32795],[89.80742,23.32358],[89.80613,23.31894],[89.8035,23.31524],[89.797,23.31025],[89.78998,23.31027],[89.79304,23.31684],[89.79212,23.32069],[89.79448,23.32337],[89.79219,23.33292],[89.78949,23.33462],[89.78967,23.34024],[89.78743,23.34285],[89.78442,23.34472],[89.78401,23.35201],[89.77865,23.35722],[89.77778,23.36034],[89.78075,23.36565],[89.78049,23.37082],[89.77733,23.37155],[89.77452,23.37089],[89.76927,23.37296],[89.76578,23.37545],[89.7639,23.37771],[89.76572,23.38119],[89.76161,23.38749],[89.76068,23.39055],[89.75813,23.39315],[89.74606,23.39976],[89.73971,23.40522],[89.73783,23.40777],[89.73746,23.41064],[89.7384,23.41712],[89.73743,23.41845],[89.73235,23.41919],[89.73232,23.42056],[89.74106,23.42841],[89.74181,23.4346],[89.74845,23.43976],[89.74635,23.44311],[89.74075,23.44409],[89.73888,23.44633],[89.73892,23.45731],[89.73689,23.4675],[89.73563,23.47009],[89.73596,23.47377],[89.74013,23.48244],[89.7405,23.48578],[89.74154,23.48754],[89.74431,23.48597],[89.74512,23.48315],[89.74634,23.48182],[89.74978,23.48253],[89.75384,23.49225],[89.76106,23.50126],[89.77219,23.49741],[89.77732,23.4926],[89.78047,23.4913],[89.78335,23.49489],[89.78362,23.49896],[89.78487,23.50194],[89.78831,23.50558],[89.79181,23.51209],[89.79454,23.51195],[89.79774,23.50991],[89.80301,23.50865],[89.80737,23.50607],[89.81104,23.50852],[89.81979,23.50721],[89.83053,23.51129],[89.83411,23.51005],[89.84056,23.50591],[89.84434,23.50489],[89.84785,23.506],[89.85297,23.51216],[89.86146,23.51114],[89.86432,23.51289],[89.86751,23.51636],[89.87311,23.51601],[89.87376,23.51773],[89.87099,23.52189],[89.87063,23.52517],[89.87194,23.52843],[89.88018,23.53478],[89.88812,23.53917],[89.89844,23.55204],[89.90642,23.5581],[89.91094,23.55983],[89.92057,23.56116],[89.92225,23.55844],[89.92713,23.55655],[89.93043,23.55364],[89.93235,23.5504],[89.93239,23.54644],[89.93371,23.54126],[89.93539,23.53871]]]}},{"type":"Feature","properties":{"name":"Sadarpur","district_id":"faridpur","pcode":"302984","sql_upazila_id":"faridpur-sadarpur","sql_name_bn":"সদরপুর"},"geometry":{"type":"Polygon","coordinates":[[[90.0855,23.56704],[90.08682,23.56598],[90.09201,23.56969],[90.09458,23.56849],[90.09691,23.57021],[90.10031,23.57419],[90.10178,23.57833],[90.101,23.58378],[90.10257,23.58449],[90.11144,23.57755],[90.11393,23.57326],[90.11485,23.57067],[90.1148,23.56604],[90.11763,23.56083],[90.12338,23.55544],[90.13191,23.54501],[90.13535,23.54379],[90.14204,23.54598],[90.14717,23.53815],[90.16688,23.52632],[90.1701,23.52853],[90.18054,23.52961],[90.18773,23.50693],[90.18157,23.4997],[90.17822,23.49796],[90.17573,23.49753],[90.1735,23.4982],[90.17028,23.49658],[90.16842,23.49378],[90.16509,23.48033],[90.16328,23.47725],[90.15942,23.47454],[90.15611,23.47447],[90.15274,23.47675],[90.15143,23.47906],[90.14745,23.48153],[90.14545,23.4819],[90.13999,23.47474],[90.12987,23.46779],[90.12197,23.46582],[90.11619,23.46612],[90.11433,23.46402],[90.10938,23.45201],[90.10947,23.44812],[90.11409,23.44077],[90.11376,23.43744],[90.10071,23.42721],[90.09636,23.42255],[90.09719,23.42122],[90.10406,23.422],[90.10941,23.42165],[90.11353,23.41976],[90.1122,23.41684],[90.10311,23.41075],[90.10135,23.40722],[90.10042,23.3919],[90.10487,23.38799],[90.10503,23.38673],[90.09924,23.38152],[90.08923,23.38451],[90.0818,23.38586],[90.07403,23.38584],[90.05898,23.38918],[90.05753,23.39109],[90.06049,23.40025],[90.0647,23.40514],[90.06539,23.40794],[90.0662,23.41534],[90.0657,23.41839],[90.0628,23.41917],[90.062,23.42222],[90.06489,23.42598],[90.06542,23.42787],[90.06744,23.44473],[90.06643,23.4468],[90.05927,23.44913],[90.05195,23.44526],[90.05034,23.4455],[90.04727,23.45025],[90.04867,23.45109],[90.05315,23.45121],[90.05461,23.45234],[90.05214,23.45599],[90.05026,23.46095],[90.04272,23.45765],[90.04156,23.45049],[90.03947,23.44684],[90.03332,23.44439],[90.02985,23.44483],[90.01932,23.45253],[90.0163,23.45119],[90.0095,23.45334],[90.00607,23.45837],[89.99522,23.46615],[89.99146,23.46744],[89.98763,23.46651],[89.97556,23.46102],[89.96945,23.46362],[89.96751,23.46278],[89.96198,23.45549],[89.95416,23.45357],[89.95285,23.45053],[89.94229,23.46293],[89.93993,23.46303],[89.9361,23.46675],[89.92211,23.49332],[89.92431,23.49948],[89.92715,23.50406],[89.92799,23.50824],[89.92759,23.51278],[89.92963,23.5146],[89.92877,23.52954],[89.93113,23.53474],[89.93539,23.53871],[89.93977,23.53688],[89.9429,23.53725],[89.95843,23.54615],[89.97739,23.56104],[89.97895,23.56389],[89.98137,23.56605],[89.98546,23.56801],[89.98901,23.56814],[90.0054,23.55721],[90.01206,23.55949],[90.01852,23.55637],[90.02211,23.55788],[90.02661,23.55845],[90.04485,23.55743],[90.06451,23.55376],[90.07987,23.55248],[90.08424,23.55277],[90.08894,23.55433],[90.09155,23.55636],[90.09279,23.55882],[90.08533,23.56511],[90.0855,23.56704]]]}}]}