{"type":"FeatureCollection","features":[{"type":"Feature","properties":{"name":"Chhagalnaiya","district_id":"feni","pcode":"203014","sql_upazila_id":"feni-chhagalnaiya","sql_name_bn":"ছাগলনাইয়া"},"geometry":{"type":"Polygon","coordinates":[[[91.47424,23.18884],[91.47891,23.18631],[91.4815,23.18587],[91.48386,23.18805],[91.49055,23.187],[91.49192,23.18765],[91.50636,23.18662],[91.5069,23.1835],[91.51093,23.18204],[91.50855,23.17951],[91.50541,23.17881],[91.50049,23.17633],[91.49826,23.17331],[91.4983,23.16974],[91.50134,23.16931],[91.50379,23.16579],[91.50098,23.16102],[91.49828,23.15894],[91.49743,23.15331],[91.4983,23.15081],[91.4996,23.15051],[91.50672,23.14989],[91.51029,23.15059],[91.50277,23.14513],[91.50263,23.14327],[91.50397,23.14159],[91.50633,23.14122],[91.50904,23.13796],[91.51569,23.13656],[91.52042,23.13921],[91.52172,23.1391],[91.5118,23.13201],[91.50954,23.12971],[91.50891,23.12721],[91.51175,23.12545],[91.51486,23.12492],[91.52077,23.11973],[91.52352,23.11425],[91.52221,23.11238],[91.51913,23.11266],[91.51713,23.11043],[91.5155,23.10556],[91.51756,23.10316],[91.52133,23.10237],[91.52243,23.10112],[91.52649,23.10041],[91.52607,23.09707],[91.52484,23.09514],[91.52516,23.09341],[91.52636,23.09225],[91.53319,23.09154],[91.53528,23.08705],[91.53411,23.08426],[91.53262,23.08375],[91.53109,23.08121],[91.53126,23.07933],[91.53372,23.0749],[91.53453,23.07055],[91.53636,23.06862],[91.53929,23.06206],[91.53745,23.05947],[91.53629,23.05974],[91.53094,23.05726],[91.52858,23.05364],[91.5414,23.05042],[91.53736,23.04386],[91.53573,23.03877],[91.53853,23.03571],[91.53851,23.03472],[91.5542,23.03378],[91.55405,23.03222],[91.54408,23.01787],[91.5464,23.01736],[91.54549,23.01488],[91.55328,23.01576],[91.54731,23.00179],[91.54684,22.99943],[91.54889,22.99476],[91.55278,22.99254],[91.55913,22.9928],[91.55989,22.99212],[91.5626,22.98968],[91.5628,22.97645],[91.56776,22.97229],[91.58073,22.96596],[91.58331,22.96382],[91.58339,22.96262],[91.58114,22.95869],[91.57307,22.95301],[91.57323,22.94802],[91.5723,22.9463],[91.5641,22.95374],[91.56198,22.95179],[91.55888,22.951],[91.55224,22.95613],[91.54979,22.95526],[91.54961,22.95096],[91.5484,22.94846],[91.54354,22.94282],[91.54157,22.94284],[91.53555,22.94635],[91.53297,22.94645],[91.53097,22.94438],[91.52993,22.94153],[91.53263,22.93973],[91.53455,22.94017],[91.53607,22.93934],[91.54174,22.93514],[91.54308,22.93306],[91.54323,22.92942],[91.53785,22.92319],[91.53676,22.92068],[91.53796,22.91979],[91.53808,22.9169],[91.53652,22.91358],[91.53448,22.91053],[91.53246,22.9092],[91.52319,22.90587],[91.51559,22.90062],[91.51288,22.90111],[91.51297,22.90027],[91.5109,22.89971],[91.50179,22.90452],[91.50249,22.91045],[91.50989,22.91475],[91.51396,22.91935],[91.51424,22.9259],[91.51819,22.93078],[91.51283,22.93523],[91.51438,22.93681],[91.51386,22.93915],[91.50983,22.94433],[91.5066,22.95119],[91.50708,22.95394],[91.50906,22.95675],[91.50927,22.95912],[91.51244,22.96284],[91.51311,22.96853],[91.51193,22.97152],[91.51333,22.97215],[91.51278,22.98354],[91.51335,22.98606],[91.51144,22.9876],[91.51097,22.9896],[91.50832,22.99106],[91.49914,22.99123],[91.49462,22.99384],[91.4946,22.9978],[91.49957,23.00157],[91.50063,23.00775],[91.49974,23.01022],[91.49803,23.01204],[91.4936,23.00915],[91.49123,23.00997],[91.48928,23.01227],[91.48577,23.01233],[91.47971,23.01652],[91.46893,23.01364],[91.46678,23.0108],[91.4537,23.01116],[91.45336,23.01626],[91.45137,23.01566],[91.44973,23.01335],[91.44718,23.01302],[91.44637,23.01585],[91.44691,23.01979],[91.44753,23.02146],[91.45164,23.02544],[91.45199,23.02921],[91.45379,23.03407],[91.4453,23.03014],[91.44302,23.03181],[91.4412,23.02792],[91.43845,23.02876],[91.43626,23.03076],[91.4361,23.03303],[91.4395,23.03607],[91.44244,23.03562],[91.44466,23.03736],[91.4446,23.04012],[91.44267,23.04251],[91.44089,23.0397],[91.43709,23.03775],[91.4347,23.03795],[91.43388,23.03889],[91.43835,23.04285],[91.43483,23.047],[91.437,23.04895],[91.43072,23.05464],[91.4251,23.05663],[91.41989,23.06141],[91.41815,23.06405],[91.418,23.06914],[91.42194,23.07634],[91.42126,23.07736],[91.42252,23.07924],[91.42165,23.08069],[91.41847,23.08002],[91.41487,23.08094],[91.41226,23.08337],[91.41285,23.09116],[91.41216,23.09167],[91.41298,23.09357],[91.41241,23.09478],[91.40801,23.09473],[91.40903,23.10446],[91.41,23.10681],[91.40749,23.11318],[91.40381,23.11798],[91.40311,23.12914],[91.40119,23.13519],[91.39775,23.14156],[91.39584,23.14752],[91.39147,23.15258],[91.39085,23.15762],[91.39294,23.16765],[91.3903,23.1761],[91.39493,23.17464],[91.40626,23.17839],[91.40865,23.17639],[91.41347,23.16874],[91.41,23.16851],[91.40735,23.16432],[91.41225,23.16341],[91.41918,23.16507],[91.4239,23.16886],[91.42963,23.17147],[91.44358,23.17429],[91.44634,23.17679],[91.4484,23.18044],[91.4495,23.18753],[91.45374,23.19009],[91.45837,23.18833],[91.46136,23.18465],[91.46365,23.18315],[91.46483,23.18328],[91.47348,23.18946],[91.47424,23.18884]]]}},{"type":"Feature","properties":{"name":"Daganbhuiyan","district_id":"feni","pcode":"203025","sql_upazila_id":"feni-daganbhuiyan","sql_name_bn":"দাগনভূঞা"},"geometry":{"type":"Polygon","coordinates":[[[91.31424,23.04642],[91.31141,23.04007],[91.31007,23.03899],[91.30981,23.0373],[91.31175,23.03627],[91.31786,23.03944],[91.32099,23.03752],[91.32388,23.03871],[91.32657,23.03658],[91.32331,23.03528],[91.31974,23.0323],[91.32051,23.02865],[91.32004,23.02727],[91.30821,23.01881],[91.30745,23.01669],[91.3106,23.01373],[91.31306,23.01365],[91.31451,23.01445],[91.31596,23.01824],[91.32011,23.01866],[91.32037,23.02198],[91.3222,23.02469],[91.32361,23.02447],[91.3277,23.02024],[91.33385,23.02007],[91.33834,23.02251],[91.33961,23.02037],[91.33864,23.01617],[91.33544,23.01487],[91.33297,23.01485],[91.33187,23.01664],[91.32954,23.01701],[91.32542,23.01422],[91.32524,23.01111],[91.3259,23.00917],[91.32772,23.00859],[91.33121,23.0092],[91.33522,23.00481],[91.34473,23.00373],[91.34801,23.00083],[91.34875,22.99911],[91.34795,22.99761],[91.34564,22.99724],[91.34016,23.00033],[91.33757,23.00031],[91.33405,22.99716],[91.3334,22.9948],[91.33695,22.99112],[91.33614,22.98939],[91.34235,22.98441],[91.34362,22.98222],[91.34394,22.97943],[91.35287,22.98375],[91.354,22.98574],[91.35141,22.98889],[91.35101,22.99111],[91.35332,22.99487],[91.357,22.99751],[91.36024,22.99376],[91.36399,22.99216],[91.36614,22.98704],[91.3714,22.98905],[91.3727,22.98765],[91.37383,22.98206],[91.37175,22.97796],[91.36552,22.97938],[91.36469,22.9772],[91.36533,22.97463],[91.37177,22.97241],[91.37357,22.97104],[91.37543,22.96701],[91.37239,22.96475],[91.36639,22.96724],[91.36308,22.9677],[91.35867,22.9669],[91.35957,22.96347],[91.35811,22.95781],[91.35841,22.95616],[91.36187,22.95468],[91.36328,22.95129],[91.36314,22.94937],[91.36484,22.94727],[91.36727,22.94497],[91.37039,22.94446],[91.37052,22.93841],[91.36874,22.93723],[91.36509,22.93833],[91.36096,22.94282],[91.3583,22.94442],[91.35583,22.94427],[91.35548,22.93546],[91.35098,22.93347],[91.348,22.93024],[91.34562,22.92932],[91.34344,22.93047],[91.34343,22.9346],[91.33949,22.93628],[91.33725,22.93583],[91.33377,22.93037],[91.33541,22.9294],[91.34159,22.92867],[91.34326,22.92748],[91.34394,22.92598],[91.34355,22.92085],[91.33784,22.92123],[91.33194,22.91415],[91.33065,22.91114],[91.3337,22.91081],[91.34075,22.91504],[91.34489,22.915],[91.34277,22.90981],[91.33916,22.90523],[91.33537,22.90294],[91.33147,22.9021],[91.32823,22.89839],[91.32542,22.89912],[91.32023,22.89705],[91.31396,22.90061],[91.30671,22.89347],[91.2997,22.89214],[91.29362,22.8927],[91.28539,22.89628],[91.28281,22.89519],[91.28104,22.89237],[91.27937,22.88702],[91.27291,22.8878],[91.27092,22.88108],[91.269,22.87929],[91.26687,22.87999],[91.26378,22.88287],[91.26225,22.88785],[91.26063,22.88887],[91.25774,22.88903],[91.25324,22.89213],[91.25116,22.89391],[91.24957,22.89758],[91.2516,22.90169],[91.25169,22.90429],[91.26281,22.90513],[91.2643,22.90689],[91.26529,22.90996],[91.26296,22.91508],[91.26143,22.92158],[91.26156,22.92475],[91.26354,22.9279],[91.26375,22.94124],[91.26469,22.94613],[91.26209,22.9538],[91.25636,22.95836],[91.26296,22.99455],[91.26101,23.00281],[91.26095,23.01057],[91.26319,23.01433],[91.26805,23.01829],[91.26821,23.02423],[91.26698,23.02596],[91.26496,23.03238],[91.26714,23.03461],[91.26558,23.03716],[91.25999,23.04075],[91.25852,23.04279],[91.26228,23.05013],[91.26543,23.04955],[91.27727,23.05053],[91.28203,23.05774],[91.28667,23.05293],[91.29491,23.04716],[91.30553,23.04474],[91.31201,23.04529],[91.31424,23.04642]]]}},{"type":"Feature","properties":{"name":"Feni S.","district_id":"feni","pcode":"203029","sql_upazila_id":null,"sql_name_bn":null},"geometry":{"type":"Polygon","coordinates":[[[91.37608,23.06873],[91.37768,23.06405],[91.40228,23.0518],[91.41766,23.05561],[91.422,23.05925],[91.4251,23.05663],[91.43072,23.05464],[91.437,23.04895],[91.43483,23.047],[91.43835,23.04285],[91.43388,23.03889],[91.4347,23.03795],[91.43709,23.03775],[91.44089,23.0397],[91.44267,23.04251],[91.4446,23.04012],[91.44466,23.03736],[91.44244,23.03562],[91.4395,23.03607],[91.4361,23.03303],[91.43626,23.03076],[91.43845,23.02876],[91.4412,23.02792],[91.44302,23.03181],[91.4453,23.03014],[91.45379,23.03407],[91.45199,23.02921],[91.45164,23.02544],[91.44753,23.02146],[91.44691,23.01979],[91.44637,23.01585],[91.44718,23.01302],[91.44973,23.01335],[91.45137,23.01566],[91.45336,23.01626],[91.4537,23.01116],[91.46678,23.0108],[91.46893,23.01364],[91.47971,23.01652],[91.48577,23.01233],[91.48928,23.01227],[91.49123,23.00997],[91.4936,23.00915],[91.49803,23.01204],[91.49974,23.01022],[91.50063,23.00775],[91.49957,23.00157],[91.4946,22.9978],[91.49462,22.99384],[91.49914,22.99123],[91.50832,22.99106],[91.51097,22.9896],[91.51144,22.9876],[91.51335,22.98606],[91.51278,22.98354],[91.51333,22.97215],[91.51193,22.97152],[91.51311,22.96853],[91.51244,22.96284],[91.50927,22.95912],[91.50906,22.95675],[91.50708,22.95394],[91.5066,22.95119],[91.50983,22.94433],[91.51386,22.93915],[91.51438,22.93681],[91.51283,22.93523],[91.51819,22.93078],[91.51424,22.9259],[91.51396,22.91935],[91.50989,22.91475],[91.50249,22.91045],[91.50179,22.90452],[91.4952,22.90524],[91.4879,22.90319],[91.47797,22.8987],[91.4774,22.90427],[91.4734,22.90578],[91.4733,22.90652],[91.47555,22.90847],[91.47211,22.91318],[91.47279,22.91633],[91.47012,22.92032],[91.4631,22.92353],[91.46175,22.92352],[91.46162,22.92048],[91.45764,22.92106],[91.45647,22.92253],[91.45398,22.92353],[91.45116,22.92686],[91.45125,22.92895],[91.44857,22.92973],[91.44337,22.92767],[91.44231,22.92578],[91.44342,22.9215],[91.4431,22.9197],[91.43761,22.91674],[91.43815,22.91315],[91.43443,22.9118],[91.43565,22.90951],[91.43581,22.90578],[91.43241,22.90551],[91.42986,22.90357],[91.42931,22.90205],[91.42622,22.90325],[91.42354,22.90561],[91.4229,22.90954],[91.42175,22.9115],[91.41287,22.91755],[91.40973,22.91727],[91.41032,22.91527],[91.41325,22.91318],[91.41277,22.91218],[91.41138,22.91104],[91.40753,22.91039],[91.40609,22.91118],[91.40491,22.91423],[91.40274,22.91391],[91.40073,22.91591],[91.40075,22.91941],[91.39719,22.92571],[91.39773,22.93157],[91.3991,22.93452],[91.39856,22.93833],[91.39674,22.94038],[91.39433,22.94047],[91.39301,22.93825],[91.39005,22.93832],[91.38847,22.94023],[91.38833,22.94601],[91.38624,22.95055],[91.3744,22.95512],[91.3726,22.9549],[91.37216,22.94972],[91.37039,22.94446],[91.36727,22.94497],[91.36314,22.94937],[91.36328,22.95129],[91.36187,22.95468],[91.35841,22.95616],[91.35811,22.95781],[91.35957,22.96347],[91.35867,22.9669],[91.36308,22.9677],[91.36639,22.96724],[91.37239,22.96475],[91.37543,22.96701],[91.37357,22.97104],[91.37177,22.97241],[91.36533,22.97463],[91.36469,22.9772],[91.36552,22.97938],[91.37175,22.97796],[91.37383,22.98206],[91.3727,22.98765],[91.3714,22.98905],[91.36614,22.98704],[91.36399,22.99216],[91.36024,22.99376],[91.357,22.99751],[91.35332,22.99487],[91.35101,22.99111],[91.35141,22.98889],[91.354,22.98574],[91.35287,22.98375],[91.34394,22.97943],[91.34362,22.98222],[91.34235,22.98441],[91.33614,22.98939],[91.33695,22.99112],[91.3334,22.9948],[91.33405,22.99716],[91.33757,23.00031],[91.34016,23.00033],[91.34564,22.99724],[91.34795,22.99761],[91.34875,22.99911],[91.34801,23.00083],[91.34473,23.00373],[91.33522,23.00481],[91.33121,23.0092],[91.32772,23.00859],[91.3259,23.00917],[91.32524,23.01111],[91.32542,23.01422],[91.32954,23.01701],[91.33187,23.01664],[91.33297,23.01485],[91.33544,23.01487],[91.33864,23.01617],[91.33961,23.02037],[91.33834,23.02251],[91.33385,23.02007],[91.3277,23.02024],[91.32361,23.02447],[91.3222,23.02469],[91.32037,23.02198],[91.32011,23.01866],[91.31596,23.01824],[91.31451,23.01445],[91.31306,23.01365],[91.3106,23.01373],[91.30745,23.01669],[91.30821,23.01881],[91.32004,23.02727],[91.32051,23.02865],[91.31974,23.0323],[91.32331,23.03528],[91.32657,23.03658],[91.32388,23.03871],[91.32099,23.03752],[91.31786,23.03944],[91.31175,23.03627],[91.30981,23.0373],[91.31007,23.03899],[91.31141,23.04007],[91.31424,23.04642],[91.3181,23.04828],[91.32011,23.05016],[91.32296,23.0567],[91.33242,23.06259],[91.34328,23.0661],[91.34787,23.06677],[91.35282,23.06554],[91.36076,23.06737],[91.37163,23.0675],[91.37491,23.06841],[91.37608,23.06873]]]}},{"type":"Feature","properties":{"name":"Parshuram","district_id":"feni","pcode":"203051","sql_upazila_id":"feni-parshuram","sql_name_bn":"পরশুরাম"},"geometry":{"type":"Polygon","coordinates":[[[91.3903,23.1761],[91.38884,23.17946],[91.39049,23.18819],[91.39339,23.19341],[91.39317,23.20088],[91.39388,23.20335],[91.39304,23.20483],[91.39292,23.20864],[91.39701,23.21348],[91.39697,23.21862],[91.39582,23.22344],[91.40401,23.22616],[91.40647,23.23116],[91.40304,23.23771],[91.40726,23.24283],[91.41567,23.24488],[91.41316,23.24881],[91.40771,23.25356],[91.40779,23.26088],[91.40909,23.25947],[91.41012,23.25598],[91.41222,23.25438],[91.41462,23.25434],[91.41499,23.25499],[91.41811,23.2543],[91.41771,23.26857],[91.41901,23.28022],[91.42369,23.27584],[91.42448,23.27322],[91.42322,23.27111],[91.42203,23.26306],[91.42178,23.25724],[91.42368,23.25502],[91.42634,23.25833],[91.43661,23.25842],[91.45779,23.2559],[91.45972,23.25471],[91.45898,23.25263],[91.45469,23.24883],[91.45213,23.24842],[91.45168,23.24346],[91.45372,23.24197],[91.45575,23.24166],[91.45826,23.24259],[91.4606,23.24239],[91.46674,23.23848],[91.46802,23.23498],[91.47061,23.23249],[91.4748,23.22562],[91.4745,23.22431],[91.46577,23.22256],[91.45998,23.21978],[91.45789,23.21708],[91.45862,23.21542],[91.46429,23.21221],[91.47858,23.21598],[91.48244,23.21622],[91.48598,23.21224],[91.48684,23.2091],[91.48779,23.20821],[91.48792,23.2051],[91.48952,23.20221],[91.48918,23.20001],[91.48598,23.19578],[91.47868,23.19549],[91.47742,23.1948],[91.47424,23.18884],[91.47348,23.18946],[91.46483,23.18328],[91.46365,23.18315],[91.46136,23.18465],[91.45837,23.18833],[91.45374,23.19009],[91.4495,23.18753],[91.4484,23.18044],[91.44634,23.17679],[91.44358,23.17429],[91.42963,23.17147],[91.4239,23.16886],[91.41918,23.16507],[91.41225,23.16341],[91.40735,23.16432],[91.41,23.16851],[91.41347,23.16874],[91.40865,23.17639],[91.40626,23.17839],[91.39493,23.17464],[91.3903,23.1761]]]}},{"type":"Feature","properties":{"name":"Sonagazi","district_id":"feni","pcode":"203094","sql_upazila_id":"feni-sonagazi","sql_name_bn":"সোনাগাজী"},"geometry":{"type":"MultiPolygon","coordinates":[[[[91.43195,22.78889],[91.43611,22.78583],[91.43833,22.78111],[91.43472,22.77667],[91.42944,22.78167],[91.42472,22.78472],[91.42361,22.79111],[91.42528,22.79333],[91.42666,22.79382],[91.43023,22.79171],[91.43222,22.78917],[91.43195,22.78889]]],[[[91.39005,22.93832],[91.39301,22.93825],[91.39433,22.94047],[91.39674,22.94038],[91.39856,22.93833],[91.3991,22.93452],[91.39773,22.93157],[91.39719,22.92571],[91.40075,22.91941],[91.40073,22.91591],[91.40274,22.91391],[91.40491,22.91423],[91.40609,22.91118],[91.40753,22.91039],[91.41138,22.91104],[91.41277,22.91218],[91.41325,22.91318],[91.41032,22.91527],[91.40973,22.91727],[91.41287,22.91755],[91.42175,22.9115],[91.4229,22.90954],[91.42354,22.90561],[91.42622,22.90325],[91.42931,22.90205],[91.42986,22.90357],[91.43241,22.90551],[91.43581,22.90578],[91.43565,22.90951],[91.43443,22.9118],[91.43815,22.91315],[91.43761,22.91674],[91.4431,22.9197],[91.44342,22.9215],[91.44231,22.92578],[91.44337,22.92767],[91.44857,22.92973],[91.45125,22.92895],[91.45116,22.92686],[91.45398,22.92353],[91.45647,22.92253],[91.45764,22.92106],[91.46162,22.92048],[91.46175,22.92352],[91.4631,22.92353],[91.47012,22.92032],[91.47279,22.91633],[91.47211,22.91318],[91.47555,22.90847],[91.4733,22.90652],[91.4734,22.90578],[91.4774,22.90427],[91.47812,22.90068],[91.47797,22.8987],[91.46471,22.88642],[91.46207,22.87844],[91.46465,22.8728],[91.47067,22.86738],[91.47018,22.85947],[91.46832,22.8561],[91.45854,22.85505],[91.44473,22.85556],[91.43434,22.85416],[91.43144,22.84965],[91.42858,22.83972],[91.42583,22.83861],[91.42361,22.83555],[91.42306,22.83278],[91.42471,22.82472],[91.41722,22.81944],[91.41028,22.81139],[91.40945,22.80556],[91.41194,22.80056],[91.41417,22.79861],[91.41917,22.79889],[91.42389,22.79722],[91.42416,22.795],[91.4225,22.79222],[91.42194,22.78667],[91.42278,22.78417],[91.42583,22.78028],[91.42667,22.78028],[91.43,22.77667],[91.43166,22.77333],[91.42973,22.76222],[91.42528,22.75639],[91.42306,22.75167],[91.4189,22.74806],[91.41277,22.75028],[91.4075,22.75556],[91.40806,22.75639],[91.40722,22.75667],[91.4075,22.75778],[91.40667,22.75889],[91.40667,22.76389],[91.40556,22.76528],[91.40578,22.76866],[91.40472,22.76805],[91.40278,22.76972],[91.40195,22.77167],[91.39917,22.77278],[91.3925,22.78083],[91.3886,22.78278],[91.38528,22.78306],[91.38084,22.785],[91.3775,22.78306],[91.3725,22.77833],[91.36889,22.77667],[91.36486,22.77639],[91.36245,22.77268],[91.36141,22.77226],[91.33694,22.78253],[91.3259,22.79114],[91.32213,22.79546],[91.31285,22.80208],[91.31292,22.80688],[91.31512,22.81093],[91.317,22.81194],[91.32979,22.81124],[91.33279,22.8126],[91.34032,22.80831],[91.341,22.80992],[91.34069,22.81299],[91.33981,22.81398],[91.33849,22.82127],[91.34116,22.83079],[91.33886,22.83319],[91.33572,22.83479],[91.33642,22.83854],[91.3402,22.84219],[91.3464,22.84315],[91.3483,22.84461],[91.35503,22.8447],[91.35465,22.84618],[91.35109,22.84948],[91.35126,22.85219],[91.35249,22.85225],[91.35377,22.85475],[91.35609,22.85574],[91.35529,22.85736],[91.35312,22.85862],[91.35,22.85749],[91.34783,22.85916],[91.3479,22.86057],[91.34671,22.86169],[91.34038,22.86497],[91.33842,22.8668],[91.33758,22.86887],[91.33317,22.87101],[91.33139,22.87384],[91.33406,22.87641],[91.33676,22.87755],[91.33964,22.87711],[91.34608,22.8797],[91.34843,22.8873],[91.35423,22.88613],[91.35654,22.88842],[91.35448,22.89279],[91.34978,22.89788],[91.34668,22.90592],[91.34302,22.90968],[91.34489,22.915],[91.34075,22.91504],[91.3337,22.91081],[91.33065,22.91114],[91.33194,22.91415],[91.33784,22.92123],[91.34355,22.92085],[91.34394,22.92598],[91.34326,22.92748],[91.34159,22.92867],[91.33541,22.9294],[91.33377,22.93037],[91.33584,22.93443],[91.33725,22.93583],[91.33949,22.93628],[91.34343,22.9346],[91.34344,22.93047],[91.34562,22.92932],[91.348,22.93024],[91.35098,22.93347],[91.35548,22.93546],[91.35583,22.94427],[91.3583,22.94442],[91.36096,22.94282],[91.36509,22.93833],[91.36874,22.93723],[91.37052,22.93841],[91.37039,22.94446],[91.37216,22.94972],[91.3726,22.9549],[91.3744,22.95512],[91.38624,22.95055],[91.38833,22.94601],[91.38847,22.94023],[91.38917,22.93925],[91.39005,22.93832]]]]}}]}