{"type":"FeatureCollection","features":[{"type":"Feature","properties":{"name":"Gaibandha S.","district_id":"gaibandha","pcode":"553224","sql_upazila_id":null,"sql_name_bn":null},"geometry":{"type":"Polygon","coordinates":[[[89.70296,25.40465],[89.69972,25.40169],[89.69907,25.39994],[89.70124,25.39866],[89.7038,25.39446],[89.70847,25.3965],[89.71331,25.39386],[89.72462,25.39608],[89.73559,25.39677],[89.73943,25.39808],[89.74243,25.39802],[89.7441,25.39703],[89.74364,25.39164],[89.74569,25.39064],[89.7537,25.39034],[89.75359,25.38795],[89.74456,25.37564],[89.74667,25.37425],[89.7461,25.37051],[89.72563,25.35576],[89.72701,25.35205],[89.73432,25.34016],[89.7352,25.33657],[89.73097,25.33476],[89.72744,25.34431],[89.72488,25.34543],[89.72104,25.34333],[89.71886,25.34438],[89.71796,25.36463],[89.71661,25.36675],[89.71199,25.36768],[89.70784,25.36996],[89.70599,25.37198],[89.70504,25.37478],[89.7001,25.37883],[89.70329,25.38231],[89.70499,25.38285],[89.70445,25.38473],[89.70113,25.38501],[89.69662,25.38474],[89.69341,25.38331],[89.6925,25.37349],[89.69396,25.36363],[89.69274,25.36201],[89.68961,25.36165],[89.681,25.36354],[89.67977,25.36118],[89.68137,25.3554],[89.68005,25.35106],[89.6683,25.33276],[89.66545,25.33121],[89.66096,25.33184],[89.65931,25.33067],[89.65839,25.32746],[89.66058,25.32389],[89.65859,25.32113],[89.65601,25.32031],[89.64444,25.3243],[89.64318,25.3279],[89.63957,25.33324],[89.62763,25.33393],[89.62189,25.33549],[89.61604,25.33302],[89.60741,25.33309],[89.60339,25.32849],[89.59905,25.32741],[89.59468,25.32776],[89.58948,25.32698],[89.5865,25.3289],[89.58318,25.32861],[89.575,25.31764],[89.57585,25.31621],[89.57573,25.31217],[89.57733,25.3109],[89.57459,25.30792],[89.57349,25.30527],[89.57738,25.30618],[89.58032,25.30585],[89.58098,25.30374],[89.57992,25.30035],[89.57813,25.29798],[89.57314,25.29476],[89.57184,25.29154],[89.57321,25.29112],[89.57713,25.29356],[89.5776,25.2918],[89.57629,25.28772],[89.57676,25.2859],[89.57369,25.28196],[89.57317,25.27981],[89.57652,25.27777],[89.57712,25.27662],[89.5759,25.27494],[89.57307,25.27402],[89.57109,25.27523],[89.56618,25.26934],[89.56707,25.26625],[89.56832,25.26641],[89.57015,25.26354],[89.57043,25.26086],[89.56934,25.25485],[89.56281,25.24943],[89.56248,25.24819],[89.56403,25.24788],[89.56825,25.2494],[89.56902,25.24678],[89.571,25.245],[89.57016,25.24388],[89.56678,25.24312],[89.56636,25.24029],[89.56685,25.23943],[89.57206,25.24077],[89.57227,25.23895],[89.57081,25.2371],[89.5633,25.23249],[89.5569,25.22695],[89.55457,25.22597],[89.55075,25.22573],[89.54214,25.2271],[89.54012,25.22599],[89.5358,25.22071],[89.53378,25.21977],[89.53062,25.22141],[89.52818,25.22139],[89.52557,25.21847],[89.51984,25.22057],[89.5165,25.21909],[89.51977,25.23291],[89.51869,25.23594],[89.51403,25.24203],[89.51335,25.24704],[89.51588,25.24883],[89.52064,25.24883],[89.52134,25.25034],[89.51862,25.25197],[89.52027,25.25411],[89.52554,25.25449],[89.52737,25.25606],[89.52682,25.2568],[89.52289,25.2577],[89.52336,25.25975],[89.52569,25.26068],[89.52634,25.26249],[89.52522,25.26706],[89.52294,25.26976],[89.51498,25.27254],[89.50967,25.27301],[89.50809,25.27167],[89.50513,25.26603],[89.49914,25.27509],[89.49633,25.27553],[89.48521,25.27171],[89.48319,25.27396],[89.4793,25.27276],[89.47409,25.27471],[89.47323,25.27535],[89.47376,25.2775],[89.47639,25.28179],[89.47585,25.2831],[89.47362,25.28354],[89.47215,25.28492],[89.47398,25.29017],[89.47752,25.29315],[89.47945,25.29312],[89.48002,25.29413],[89.47414,25.29661],[89.46995,25.29486],[89.46775,25.2962],[89.46708,25.29745],[89.46815,25.29841],[89.47062,25.29803],[89.47245,25.29959],[89.47448,25.30211],[89.47438,25.30394],[89.46696,25.31008],[89.46365,25.30883],[89.46004,25.31151],[89.45603,25.31215],[89.44963,25.30772],[89.44304,25.30801],[89.43577,25.30581],[89.4301,25.30629],[89.43195,25.30972],[89.43148,25.3141],[89.4339,25.32605],[89.43739,25.32787],[89.43845,25.3313],[89.43465,25.33724],[89.4363,25.34492],[89.43427,25.34955],[89.43497,25.35056],[89.43753,25.35035],[89.44208,25.34797],[89.44461,25.3523],[89.4463,25.3521],[89.44735,25.35141],[89.44764,25.35004],[89.44643,25.34546],[89.44729,25.34392],[89.44953,25.34338],[89.46053,25.34469],[89.46775,25.34215],[89.47081,25.34244],[89.47263,25.3439],[89.47649,25.34293],[89.47789,25.34484],[89.47531,25.34818],[89.47441,25.35131],[89.47028,25.35109],[89.46982,25.35399],[89.47651,25.35401],[89.47715,25.35531],[89.47635,25.35662],[89.47361,25.35695],[89.47281,25.35838],[89.47515,25.36028],[89.47684,25.36066],[89.479,25.36312],[89.47739,25.36451],[89.47733,25.369],[89.47646,25.36925],[89.47273,25.36667],[89.47174,25.36714],[89.47387,25.37217],[89.46969,25.37291],[89.47291,25.37508],[89.47541,25.37505],[89.48508,25.36838],[89.48816,25.36913],[89.48997,25.36871],[89.49114,25.36744],[89.49481,25.37029],[89.49839,25.37524],[89.50492,25.38112],[89.50558,25.38344],[89.5046,25.38505],[89.50244,25.38689],[89.49808,25.38837],[89.49894,25.39183],[89.498,25.39616],[89.4986,25.39883],[89.50314,25.40439],[89.50564,25.40436],[89.51223,25.40938],[89.51817,25.40913],[89.52093,25.41716],[89.51236,25.4224],[89.51522,25.42924],[89.51299,25.43868],[89.5187,25.43627],[89.52471,25.43544],[89.53117,25.43979],[89.53899,25.43974],[89.5414,25.43737],[89.54494,25.43545],[89.55439,25.43918],[89.56198,25.43935],[89.56071,25.44267],[89.56168,25.44396],[89.56963,25.44431],[89.57205,25.44285],[89.57378,25.44061],[89.57586,25.43756],[89.57705,25.43391],[89.58131,25.43072],[89.58422,25.43159],[89.58814,25.43426],[89.5915,25.43251],[89.59265,25.43022],[89.595,25.42831],[89.59918,25.41927],[89.60365,25.42],[89.60725,25.41824],[89.61053,25.42018],[89.61189,25.41936],[89.61258,25.41504],[89.61552,25.41117],[89.62231,25.41262],[89.62473,25.41111],[89.62488,25.40872],[89.62094,25.40878],[89.61935,25.40795],[89.62287,25.4042],[89.62711,25.40306],[89.63105,25.40686],[89.63274,25.40684],[89.63835,25.40141],[89.64146,25.3996],[89.64767,25.40031],[89.66644,25.39605],[89.67115,25.39649],[89.67364,25.39884],[89.67772,25.40025],[89.67939,25.40285],[89.68066,25.40345],[89.68858,25.40578],[89.6951,25.40574],[89.70296,25.40465]]]}},{"type":"Feature","properties":{"name":"Gobindaganj","district_id":"gaibandha","pcode":"553230","sql_upazila_id":"gaibandha-gobindaganj","sql_name_bn":"গোবিন্দগঞ্জ"},"geometry":{"type":"Polygon","coordinates":[[[89.30457,25.22878],[89.30807,25.22993],[89.31846,25.22869],[89.32121,25.22739],[89.322,25.22606],[89.3196,25.22319],[89.32229,25.22122],[89.32544,25.22202],[89.32667,25.22166],[89.32693,25.21966],[89.33187,25.21946],[89.33753,25.21385],[89.34142,25.21232],[89.34315,25.21229],[89.34785,25.21455],[89.34838,25.21625],[89.34546,25.22022],[89.34641,25.22197],[89.3499,25.22197],[89.35946,25.21627],[89.36127,25.21636],[89.36253,25.21725],[89.36233,25.21987],[89.35796,25.22391],[89.35586,25.22991],[89.35875,25.23146],[89.36281,25.2322],[89.36038,25.23672],[89.35564,25.24043],[89.35638,25.24434],[89.35159,25.24554],[89.34873,25.25014],[89.34778,25.25333],[89.34954,25.25472],[89.35171,25.25395],[89.35304,25.25132],[89.35612,25.24878],[89.36337,25.24879],[89.36499,25.24945],[89.3676,25.24811],[89.36725,25.24168],[89.36797,25.24003],[89.3701,25.2404],[89.37165,25.23975],[89.37218,25.23753],[89.3754,25.23538],[89.37579,25.23242],[89.37444,25.22914],[89.37646,25.22729],[89.38144,25.2258],[89.3818,25.22921],[89.38388,25.2306],[89.39163,25.23067],[89.39452,25.23558],[89.39853,25.23632],[89.40106,25.23862],[89.40269,25.23866],[89.40572,25.23606],[89.40707,25.23047],[89.40918,25.22987],[89.41179,25.23262],[89.41985,25.23285],[89.42572,25.23187],[89.42704,25.23276],[89.42608,25.23527],[89.42324,25.2377],[89.42296,25.23964],[89.42867,25.24508],[89.42686,25.24914],[89.42702,25.25051],[89.42873,25.25156],[89.43476,25.24659],[89.43566,25.24788],[89.43403,25.25116],[89.4356,25.25147],[89.44007,25.24618],[89.44706,25.24273],[89.4594,25.24313],[89.46661,25.2399],[89.47803,25.2431],[89.4809,25.24237],[89.48262,25.24076],[89.48331,25.23689],[89.48026,25.22971],[89.47485,25.23171],[89.47276,25.2297],[89.47274,25.22822],[89.48055,25.22437],[89.48438,25.22425],[89.48875,25.22823],[89.49107,25.22871],[89.49248,25.22664],[89.492,25.22426],[89.49054,25.22275],[89.49208,25.22074],[89.49328,25.21703],[89.49312,25.21515],[89.48872,25.21243],[89.48778,25.20897],[89.48875,25.20669],[89.49272,25.20498],[89.49567,25.20528],[89.49805,25.2065],[89.49961,25.20585],[89.49863,25.20291],[89.50274,25.20144],[89.5048,25.19697],[89.50841,25.1954],[89.50768,25.19257],[89.50377,25.19028],[89.50479,25.18346],[89.5032,25.18189],[89.49786,25.17941],[89.49673,25.17533],[89.49476,25.17303],[89.49384,25.17037],[89.49448,25.16297],[89.49003,25.15308],[89.49039,25.15194],[89.49458,25.15262],[89.49495,25.15188],[89.49367,25.14951],[89.48763,25.14312],[89.48734,25.1405],[89.48881,25.13798],[89.49192,25.13697],[89.49787,25.13803],[89.50166,25.13718],[89.50314,25.13596],[89.5041,25.13265],[89.50265,25.13154],[89.49707,25.13054],[89.49593,25.12958],[89.50206,25.12592],[89.50954,25.11683],[89.50993,25.10944],[89.5146,25.10357],[89.51487,25.10113],[89.51389,25.09769],[89.50737,25.09254],[89.507,25.08839],[89.50623,25.08743],[89.50424,25.08786],[89.50209,25.08999],[89.5007,25.08933],[89.49993,25.08644],[89.50137,25.08421],[89.50397,25.08235],[89.50124,25.07512],[89.50253,25.07311],[89.50713,25.07247],[89.50862,25.07154],[89.50999,25.0713],[89.51462,25.07294],[89.51593,25.07247],[89.5161,25.07076],[89.51136,25.06662],[89.51086,25.06242],[89.51375,25.06062],[89.52069,25.06029],[89.52124,25.05932],[89.52075,25.05586],[89.52204,25.05482],[89.52554,25.05494],[89.52638,25.05231],[89.52952,25.04959],[89.52986,25.04754],[89.52787,25.03967],[89.522,25.04044],[89.50765,25.04473],[89.50512,25.04744],[89.49655,25.05096],[89.49361,25.05481],[89.49213,25.06001],[89.49027,25.0614],[89.48537,25.0593],[89.47878,25.0615],[89.4762,25.06045],[89.47665,25.05613],[89.47594,25.05477],[89.47337,25.05373],[89.46737,25.05404],[89.4632,25.055],[89.46913,25.05919],[89.46834,25.06028],[89.46285,25.0608],[89.45876,25.06342],[89.4557,25.06283],[89.45752,25.05906],[89.45715,25.05617],[89.45572,25.05567],[89.45348,25.05627],[89.45126,25.05829],[89.45091,25.06022],[89.45132,25.06272],[89.4557,25.068],[89.45718,25.07094],[89.45583,25.07266],[89.45077,25.07205],[89.44727,25.06755],[89.44501,25.06741],[89.44538,25.0707],[89.4429,25.0721],[89.43427,25.07108],[89.43206,25.07008],[89.42998,25.06369],[89.42792,25.06366],[89.42558,25.0654],[89.42611,25.07244],[89.42471,25.07541],[89.41567,25.08127],[89.41459,25.08077],[89.41405,25.07663],[89.41161,25.07644],[89.40358,25.07847],[89.40144,25.07708],[89.40209,25.0748],[89.40437,25.07215],[89.40526,25.06879],[89.40356,25.06813],[89.39441,25.06984],[89.39258,25.06857],[89.3927,25.05929],[89.39183,25.05464],[89.39035,25.05142],[89.38804,25.05162],[89.38644,25.0538],[89.38552,25.05927],[89.38097,25.06359],[89.37253,25.06819],[89.36401,25.07058],[89.36266,25.0723],[89.35955,25.07796],[89.36001,25.08444],[89.36173,25.08726],[89.36468,25.0879],[89.3662,25.08952],[89.36527,25.09068],[89.36108,25.08994],[89.35828,25.09043],[89.35046,25.09883],[89.3471,25.10046],[89.34509,25.0998],[89.33319,25.10155],[89.3361,25.10452],[89.34455,25.11055],[89.34521,25.1135],[89.3345,25.12091],[89.33114,25.12158],[89.32732,25.12123],[89.31947,25.11741],[89.30789,25.12056],[89.30589,25.12036],[89.29659,25.1165],[89.29036,25.11254],[89.28325,25.10029],[89.27801,25.09473],[89.27318,25.09764],[89.26675,25.09839],[89.26618,25.10227],[89.26073,25.10131],[89.25777,25.10368],[89.25492,25.10087],[89.25175,25.10267],[89.24998,25.10536],[89.24872,25.1097],[89.24808,25.118],[89.23507,25.13663],[89.23384,25.13914],[89.23304,25.14495],[89.22958,25.14767],[89.22398,25.14546],[89.22075,25.14669],[89.21782,25.15201],[89.22138,25.15759],[89.22141,25.16004],[89.21714,25.16793],[89.21534,25.16898],[89.21153,25.16953],[89.21143,25.17124],[89.2103,25.17154],[89.20505,25.1708],[89.20291,25.17526],[89.19873,25.17542],[89.19736,25.17859],[89.19794,25.18722],[89.19639,25.18855],[89.18556,25.19048],[89.18501,25.19214],[89.18731,25.19491],[89.19262,25.19902],[89.19353,25.20164],[89.19193,25.20999],[89.19501,25.2159],[89.19501,25.22229],[89.20593,25.23119],[89.21801,25.23345],[89.23112,25.23478],[89.23543,25.23388],[89.24128,25.23075],[89.25285,25.22823],[89.26129,25.22934],[89.26885,25.22881],[89.2737,25.22758],[89.27535,25.2283],[89.275,25.23052],[89.27167,25.23207],[89.27036,25.23398],[89.27082,25.2351],[89.27309,25.23531],[89.28427,25.233],[89.29044,25.22784],[89.29667,25.22597],[89.29863,25.22646],[89.30457,25.22878]]]}},{"type":"Feature","properties":{"name":"Palashbari","district_id":"gaibandha","pcode":"553267","sql_upazila_id":"gaibandha-palashbari","sql_name_bn":"পলাশবাড়ী"},"geometry":{"type":"Polygon","coordinates":[[[89.34728,25.3081],[89.3511,25.30447],[89.3524,25.3016],[89.35279,25.2948],[89.35559,25.29271],[89.35929,25.29659],[89.36403,25.29799],[89.36574,25.29984],[89.36353,25.30353],[89.36777,25.30647],[89.37126,25.30464],[89.38432,25.30188],[89.38728,25.30389],[89.39252,25.30297],[89.39455,25.30425],[89.39378,25.30751],[89.39438,25.30937],[89.39614,25.30992],[89.40141,25.30719],[89.40607,25.3063],[89.41208,25.30101],[89.42109,25.2987],[89.42544,25.30156],[89.4301,25.30629],[89.43577,25.30581],[89.44304,25.30801],[89.44963,25.30772],[89.45603,25.31215],[89.46004,25.31151],[89.46365,25.30883],[89.46696,25.31008],[89.46782,25.30967],[89.47359,25.30498],[89.47448,25.30211],[89.47062,25.29803],[89.46815,25.29841],[89.46708,25.29745],[89.46775,25.2962],[89.46995,25.29486],[89.47414,25.29661],[89.48002,25.29413],[89.47945,25.29312],[89.47752,25.29315],[89.47398,25.29017],[89.47215,25.28492],[89.47362,25.28354],[89.47585,25.2831],[89.47639,25.28179],[89.47376,25.2775],[89.47323,25.27535],[89.47409,25.27471],[89.4793,25.27276],[89.48319,25.27396],[89.48521,25.27171],[89.49633,25.27553],[89.49914,25.27509],[89.50513,25.26603],[89.50809,25.27167],[89.50967,25.27301],[89.51878,25.27158],[89.52294,25.26976],[89.52522,25.26706],[89.52634,25.26249],[89.52569,25.26068],[89.52336,25.25975],[89.52289,25.2577],[89.52682,25.2568],[89.52737,25.25606],[89.52554,25.25449],[89.52027,25.25411],[89.51862,25.25197],[89.52134,25.25034],[89.52064,25.24883],[89.51588,25.24883],[89.51335,25.24704],[89.51403,25.24203],[89.51869,25.23594],[89.51977,25.23291],[89.5165,25.21909],[89.51984,25.22057],[89.52557,25.21847],[89.52637,25.21329],[89.52412,25.20962],[89.52687,25.20458],[89.52693,25.19277],[89.52231,25.19294],[89.52046,25.19035],[89.51788,25.18891],[89.5146,25.19168],[89.51438,25.19345],[89.51302,25.19517],[89.50841,25.1954],[89.5048,25.19697],[89.50274,25.20144],[89.49863,25.20291],[89.49961,25.20585],[89.49805,25.2065],[89.49567,25.20528],[89.49272,25.20498],[89.48875,25.20669],[89.48778,25.20897],[89.48872,25.21243],[89.49312,25.21515],[89.49328,25.21703],[89.49208,25.22074],[89.49054,25.22275],[89.492,25.22426],[89.49248,25.22664],[89.49107,25.22871],[89.48875,25.22823],[89.48438,25.22425],[89.48055,25.22437],[89.47274,25.22822],[89.47276,25.2297],[89.47485,25.23171],[89.48026,25.22971],[89.48331,25.23689],[89.48262,25.24076],[89.4809,25.24237],[89.47803,25.2431],[89.46661,25.2399],[89.4594,25.24313],[89.44706,25.24273],[89.44007,25.24618],[89.4356,25.25147],[89.43403,25.25116],[89.43566,25.24788],[89.43476,25.24659],[89.42873,25.25156],[89.42702,25.25051],[89.42686,25.24914],[89.42867,25.24508],[89.42296,25.23964],[89.42324,25.2377],[89.42608,25.23527],[89.42704,25.23276],[89.42572,25.23187],[89.41985,25.23285],[89.41179,25.23262],[89.40918,25.22987],[89.40707,25.23047],[89.40572,25.23606],[89.40269,25.23866],[89.40106,25.23862],[89.39853,25.23632],[89.39452,25.23558],[89.39163,25.23067],[89.38388,25.2306],[89.3818,25.22921],[89.38144,25.2258],[89.37646,25.22729],[89.37444,25.22914],[89.37579,25.23242],[89.3754,25.23538],[89.37218,25.23753],[89.37165,25.23975],[89.3701,25.2404],[89.36797,25.24003],[89.36725,25.24168],[89.3676,25.24811],[89.36499,25.24945],[89.36337,25.24879],[89.35612,25.24878],[89.35304,25.25132],[89.35171,25.25395],[89.34954,25.25472],[89.34778,25.25333],[89.34873,25.25014],[89.35159,25.24554],[89.35638,25.24434],[89.35564,25.24043],[89.36038,25.23672],[89.36281,25.2322],[89.35875,25.23146],[89.35586,25.22991],[89.35796,25.22391],[89.36233,25.21987],[89.36253,25.21725],[89.35946,25.21627],[89.3499,25.22197],[89.34641,25.22197],[89.34546,25.22022],[89.34838,25.21625],[89.34785,25.21455],[89.34315,25.21229],[89.34142,25.21232],[89.33753,25.21385],[89.33187,25.21946],[89.32693,25.21966],[89.32667,25.22166],[89.32544,25.22202],[89.32229,25.22122],[89.3196,25.22319],[89.322,25.22606],[89.32121,25.22739],[89.31846,25.22869],[89.30807,25.22993],[89.30457,25.22878],[89.29527,25.24199],[89.29302,25.24789],[89.29164,25.25532],[89.28973,25.25857],[89.28449,25.26176],[89.27757,25.26446],[89.27608,25.26607],[89.27645,25.26919],[89.27513,25.27234],[89.27136,25.27802],[89.26527,25.28116],[89.26557,25.28373],[89.26434,25.28539],[89.25769,25.2875],[89.25791,25.28909],[89.25957,25.29028],[89.27039,25.29264],[89.27353,25.29443],[89.27459,25.29642],[89.27006,25.29794],[89.26833,25.30097],[89.26829,25.30244],[89.27013,25.30329],[89.27708,25.30092],[89.28143,25.30061],[89.28706,25.30198],[89.29244,25.30213],[89.29829,25.30079],[89.3075,25.30098],[89.31921,25.30395],[89.33727,25.30366],[89.34425,25.30661],[89.34728,25.3081]]]}},{"type":"Feature","properties":{"name":"Phulchhari","district_id":"gaibandha","pcode":"553221","sql_upazila_id":null,"sql_name_bn":null},"geometry":{"type":"Polygon","coordinates":[[[89.7352,25.33657],[89.73902,25.32855],[89.74075,25.32154],[89.74476,25.31329],[89.74706,25.29779],[89.74814,25.29522],[89.75676,25.28684],[89.757,25.28274],[89.75875,25.27925],[89.75307,25.26842],[89.75056,25.26073],[89.75056,25.2576],[89.75689,25.24341],[89.75156,25.239],[89.74662,25.23152],[89.74436,25.23076],[89.73653,25.23031],[89.71648,25.23153],[89.71085,25.23105],[89.70657,25.22958],[89.70353,25.22718],[89.69736,25.21681],[89.69483,25.20777],[89.69157,25.20298],[89.68615,25.19777],[89.67737,25.18381],[89.6792,25.17685],[89.67686,25.16796],[89.66197,25.15171],[89.65435,25.13999],[89.6528,25.12517],[89.65331,25.11857],[89.65599,25.10989],[89.6519,25.10842],[89.6481,25.10903],[89.63047,25.10782],[89.62644,25.10993],[89.62516,25.11188],[89.62309,25.11123],[89.62217,25.0963],[89.61897,25.09191],[89.61672,25.09166],[89.61022,25.09931],[89.60918,25.10473],[89.60989,25.10989],[89.60934,25.1149],[89.60955,25.11633],[89.61479,25.11976],[89.61935,25.12783],[89.61967,25.13186],[89.6179,25.13461],[89.61814,25.13785],[89.61971,25.14237],[89.61967,25.14778],[89.61716,25.15053],[89.61528,25.15091],[89.61371,25.14991],[89.60959,25.14229],[89.60572,25.14263],[89.60361,25.15142],[89.60652,25.16218],[89.60984,25.1623],[89.61213,25.16096],[89.61327,25.16179],[89.61383,25.16605],[89.61324,25.17197],[89.60609,25.1748],[89.60269,25.18076],[89.59624,25.18427],[89.59305,25.18369],[89.58819,25.18472],[89.588,25.18831],[89.58994,25.1922],[89.58451,25.2012],[89.58327,25.20594],[89.57889,25.21374],[89.57613,25.21338],[89.57522,25.21503],[89.57532,25.2172],[89.57391,25.2196],[89.57172,25.21901],[89.56973,25.21949],[89.56913,25.22132],[89.57004,25.22375],[89.57269,25.22468],[89.5746,25.22357],[89.576,25.22503],[89.57534,25.22697],[89.57581,25.23305],[89.5733,25.23308],[89.57104,25.23192],[89.5698,25.23239],[89.56747,25.23533],[89.57081,25.2371],[89.57227,25.23895],[89.57206,25.24077],[89.56685,25.23943],[89.56678,25.24312],[89.57016,25.24388],[89.571,25.245],[89.56902,25.24678],[89.56825,25.2494],[89.56403,25.24788],[89.56248,25.24819],[89.56281,25.24943],[89.56934,25.25485],[89.57043,25.26086],[89.57015,25.26354],[89.56832,25.26641],[89.56707,25.26625],[89.56618,25.26934],[89.57109,25.27523],[89.57307,25.27402],[89.5759,25.27494],[89.57712,25.27662],[89.57652,25.27777],[89.57317,25.27981],[89.57369,25.28196],[89.57676,25.2859],[89.57629,25.28772],[89.5776,25.2918],[89.57713,25.29356],[89.57321,25.29112],[89.57184,25.29154],[89.57314,25.29476],[89.57813,25.29798],[89.57992,25.30035],[89.58098,25.30374],[89.58032,25.30585],[89.57738,25.30618],[89.57349,25.30527],[89.57459,25.30792],[89.57733,25.3109],[89.57573,25.31217],[89.57585,25.31621],[89.575,25.31764],[89.57552,25.31888],[89.58318,25.32861],[89.5865,25.3289],[89.58948,25.32698],[89.59468,25.32776],[89.59905,25.32741],[89.60339,25.32849],[89.60741,25.33309],[89.61604,25.33302],[89.62189,25.33549],[89.62763,25.33393],[89.63957,25.33324],[89.64318,25.3279],[89.64444,25.3243],[89.65601,25.32031],[89.65859,25.32113],[89.66058,25.32389],[89.65839,25.32746],[89.65931,25.33067],[89.66096,25.33184],[89.66545,25.33121],[89.6683,25.33276],[89.68005,25.35106],[89.68137,25.3554],[89.67977,25.36118],[89.681,25.36354],[89.68961,25.36165],[89.69274,25.36201],[89.69396,25.36363],[89.6925,25.37349],[89.69286,25.38036],[89.69341,25.38331],[89.69662,25.38474],[89.70445,25.38473],[89.70499,25.38285],[89.70329,25.38231],[89.7001,25.37883],[89.70504,25.37478],[89.70599,25.37198],[89.70784,25.36996],[89.71199,25.36768],[89.71661,25.36675],[89.71796,25.36463],[89.71833,25.36099],[89.71886,25.34438],[89.72104,25.34333],[89.72488,25.34543],[89.72744,25.34431],[89.73097,25.33476],[89.7352,25.33657]]]}},{"type":"Feature","properties":{"name":"Sadullapur","district_id":"gaibandha","pcode":"553282","sql_upazila_id":"gaibandha-sadullapur","sql_name_bn":"সাদুল্লাপুর"},"geometry":{"type":"Polygon","coordinates":[[[89.4119,25.46591],[89.41608,25.46528],[89.41848,25.46377],[89.42229,25.46541],[89.42538,25.46985],[89.428,25.47553],[89.42992,25.47625],[89.43585,25.4756],[89.43913,25.4865],[89.44067,25.48757],[89.44362,25.48708],[89.44604,25.4891],[89.44831,25.49294],[89.45356,25.49287],[89.45647,25.49196],[89.46655,25.49218],[89.47151,25.49368],[89.47948,25.49353],[89.48178,25.49447],[89.48313,25.49836],[89.48699,25.4992],[89.49144,25.50674],[89.49272,25.5049],[89.49325,25.50211],[89.49835,25.50186],[89.50052,25.50063],[89.50086,25.49892],[89.49845,25.49572],[89.49417,25.49271],[89.49402,25.49084],[89.50022,25.48796],[89.50403,25.48894],[89.5059,25.48424],[89.5005,25.47852],[89.49741,25.4768],[89.49086,25.47634],[89.48997,25.47504],[89.49038,25.4698],[89.48941,25.468],[89.48404,25.46751],[89.48179,25.46037],[89.4839,25.45658],[89.48748,25.45443],[89.4923,25.45509],[89.49951,25.4489],[89.50022,25.4465],[89.4991,25.44271],[89.50446,25.44178],[89.5085,25.43979],[89.50979,25.43807],[89.51299,25.43868],[89.51522,25.42924],[89.51236,25.4224],[89.52093,25.41716],[89.51959,25.41206],[89.51817,25.40913],[89.51223,25.40938],[89.50564,25.40436],[89.50314,25.40439],[89.4986,25.39883],[89.498,25.39616],[89.49894,25.39183],[89.49808,25.38837],[89.50244,25.38689],[89.50558,25.38344],[89.50492,25.38112],[89.49839,25.37524],[89.49252,25.36805],[89.49114,25.36744],[89.48997,25.36871],[89.48816,25.36913],[89.48508,25.36838],[89.47541,25.37505],[89.47291,25.37508],[89.46969,25.37291],[89.47387,25.37217],[89.47174,25.36714],[89.47273,25.36667],[89.47646,25.36925],[89.47733,25.369],[89.47739,25.36451],[89.479,25.36312],[89.47684,25.36066],[89.47515,25.36028],[89.47281,25.35838],[89.47361,25.35695],[89.47635,25.35662],[89.47715,25.35531],[89.47651,25.35401],[89.46982,25.35399],[89.47028,25.35109],[89.47441,25.35131],[89.47531,25.34818],[89.47789,25.34484],[89.47649,25.34293],[89.47263,25.3439],[89.47081,25.34244],[89.46775,25.34215],[89.46053,25.34469],[89.44953,25.34338],[89.44729,25.34392],[89.44643,25.34546],[89.44764,25.35004],[89.44735,25.35141],[89.4463,25.3521],[89.44461,25.3523],[89.44208,25.34797],[89.43753,25.35035],[89.43497,25.35056],[89.43427,25.34955],[89.4363,25.34492],[89.43465,25.33724],[89.43845,25.3313],[89.43739,25.32787],[89.4339,25.32605],[89.43148,25.3141],[89.43195,25.30972],[89.4301,25.30629],[89.42544,25.30156],[89.42109,25.2987],[89.41901,25.29895],[89.41739,25.30016],[89.41208,25.30101],[89.40607,25.3063],[89.40141,25.30719],[89.39614,25.30992],[89.39438,25.30937],[89.39378,25.30751],[89.39455,25.30425],[89.39252,25.30297],[89.38728,25.30389],[89.38432,25.30188],[89.37126,25.30464],[89.36777,25.30647],[89.36353,25.30353],[89.36574,25.29984],[89.36403,25.29799],[89.35929,25.29659],[89.35559,25.29271],[89.35279,25.2948],[89.3524,25.3016],[89.3511,25.30447],[89.34728,25.3081],[89.34939,25.31188],[89.34692,25.31967],[89.34466,25.32044],[89.34138,25.31674],[89.33861,25.31518],[89.33652,25.31514],[89.33552,25.31646],[89.33736,25.32312],[89.33994,25.32773],[89.34338,25.32843],[89.34683,25.32787],[89.35188,25.33278],[89.35201,25.33662],[89.34406,25.33928],[89.34282,25.34292],[89.34812,25.35175],[89.34789,25.3555],[89.34577,25.36347],[89.34599,25.36682],[89.34933,25.37001],[89.35254,25.37127],[89.35523,25.37135],[89.35474,25.37749],[89.35938,25.38402],[89.36659,25.38972],[89.37136,25.40342],[89.3783,25.40724],[89.3808,25.41047],[89.38049,25.41422],[89.38383,25.41885],[89.3811,25.42123],[89.38293,25.42467],[89.38672,25.42843],[89.38425,25.43143],[89.38175,25.4318],[89.38452,25.44089],[89.38739,25.4445],[89.39277,25.44256],[89.39495,25.44368],[89.39977,25.45351],[89.40276,25.46539],[89.40461,25.46685],[89.40622,25.4649],[89.40842,25.46425],[89.4119,25.46591]]]}},{"type":"Feature","properties":{"name":"Sughatta","district_id":"gaibandha","pcode":"553288","sql_upazila_id":null,"sql_name_bn":null},"geometry":{"type":"Polygon","coordinates":[[[89.56747,25.23533],[89.5698,25.23239],[89.57104,25.23192],[89.5733,25.23308],[89.57581,25.23305],[89.57534,25.22697],[89.576,25.22503],[89.5746,25.22357],[89.57269,25.22468],[89.57004,25.22375],[89.56913,25.22132],[89.56973,25.21949],[89.57172,25.21901],[89.57391,25.2196],[89.57532,25.2172],[89.57522,25.21503],[89.57613,25.21338],[89.57889,25.21374],[89.58327,25.20594],[89.58451,25.2012],[89.58994,25.1922],[89.588,25.18831],[89.58819,25.18472],[89.59305,25.18369],[89.59624,25.18427],[89.60269,25.18076],[89.60609,25.1748],[89.61324,25.17197],[89.61383,25.16605],[89.61327,25.16179],[89.61213,25.16096],[89.60984,25.1623],[89.60652,25.16218],[89.60361,25.15142],[89.60572,25.14263],[89.60959,25.14229],[89.61371,25.14991],[89.61528,25.15091],[89.61716,25.15053],[89.61967,25.14778],[89.62007,25.14538],[89.6179,25.13461],[89.61967,25.13186],[89.61935,25.12783],[89.61479,25.11976],[89.60955,25.11633],[89.60989,25.10989],[89.60918,25.10473],[89.61022,25.09931],[89.6153,25.09276],[89.61672,25.09166],[89.61897,25.09191],[89.62217,25.0963],[89.62309,25.11123],[89.62516,25.11188],[89.62644,25.10993],[89.63047,25.10782],[89.6481,25.10903],[89.6519,25.10842],[89.65599,25.10989],[89.65538,25.10728],[89.64856,25.09869],[89.64379,25.08899],[89.64317,25.08621],[89.64536,25.08242],[89.65021,25.07707],[89.65367,25.07467],[89.65575,25.07624],[89.6572,25.07627],[89.65823,25.07467],[89.65666,25.06651],[89.66064,25.05399],[89.66064,25.05025],[89.65764,25.04575],[89.64721,25.04159],[89.64389,25.03726],[89.64156,25.03593],[89.63615,25.03777],[89.61802,25.0476],[89.61442,25.04878],[89.60912,25.0492],[89.60348,25.04791],[89.59711,25.04351],[89.57804,25.04209],[89.57386,25.038],[89.57223,25.03768],[89.56982,25.03862],[89.56461,25.03728],[89.55888,25.0381],[89.55506,25.03764],[89.54224,25.04049],[89.53767,25.03948],[89.52787,25.03967],[89.52986,25.04754],[89.52952,25.04959],[89.52638,25.05231],[89.52554,25.05494],[89.52204,25.05482],[89.52075,25.05586],[89.52124,25.05932],[89.52069,25.06029],[89.51375,25.06062],[89.51086,25.06242],[89.51136,25.06662],[89.5161,25.07076],[89.51593,25.07247],[89.51462,25.07294],[89.50999,25.0713],[89.50439,25.07308],[89.50358,25.07269],[89.50154,25.07426],[89.50126,25.07636],[89.5033,25.07923],[89.50397,25.08235],[89.50137,25.08421],[89.49993,25.08644],[89.5007,25.08933],[89.50209,25.08999],[89.50424,25.08786],[89.50623,25.08743],[89.507,25.08839],[89.50737,25.09254],[89.51389,25.09769],[89.51487,25.10113],[89.5146,25.10357],[89.50993,25.10944],[89.50954,25.11683],[89.50206,25.12592],[89.49593,25.12958],[89.49707,25.13054],[89.50265,25.13154],[89.5041,25.13265],[89.50314,25.13596],[89.50166,25.13718],[89.49787,25.13803],[89.49192,25.13697],[89.48881,25.13798],[89.48734,25.1405],[89.48763,25.14312],[89.49367,25.14951],[89.49495,25.15188],[89.49458,25.15262],[89.49039,25.15194],[89.49003,25.15308],[89.49448,25.16297],[89.49384,25.17037],[89.49476,25.17303],[89.49673,25.17533],[89.49786,25.17941],[89.5032,25.18189],[89.50479,25.18346],[89.50377,25.19028],[89.50768,25.19257],[89.50841,25.1954],[89.51302,25.19517],[89.51438,25.19345],[89.5146,25.19168],[89.51788,25.18891],[89.52046,25.19035],[89.52231,25.19294],[89.52693,25.19277],[89.52687,25.20458],[89.52412,25.20962],[89.52637,25.21329],[89.52557,25.21847],[89.52818,25.22139],[89.53062,25.22141],[89.53378,25.21977],[89.5358,25.22071],[89.54012,25.22599],[89.54214,25.2271],[89.55075,25.22573],[89.55457,25.22597],[89.5569,25.22695],[89.5633,25.23249],[89.56747,25.23533]]]}},{"type":"Feature","properties":{"name":"Sundarganj","district_id":"gaibandha","pcode":"553291","sql_upazila_id":"gaibandha-sundarganj","sql_name_bn":"সুন্দরগঞ্জ"},"geometry":{"type":"Polygon","coordinates":[[[89.41344,25.56223],[89.41275,25.56787],[89.41608,25.57529],[89.41644,25.58422],[89.41773,25.5868],[89.41986,25.58864],[89.43027,25.58774],[89.43845,25.59068],[89.44032,25.59002],[89.4437,25.58493],[89.44569,25.5837],[89.44737,25.58407],[89.45201,25.58837],[89.45853,25.59026],[89.46648,25.59594],[89.47018,25.59713],[89.473,25.59704],[89.47572,25.59478],[89.47791,25.58992],[89.48377,25.58655],[89.48622,25.58367],[89.48907,25.57658],[89.49187,25.57473],[89.49511,25.57383],[89.49725,25.57465],[89.49855,25.5777],[89.4969,25.58124],[89.5015,25.58238],[89.50165,25.5843],[89.49286,25.59204],[89.49187,25.5937],[89.49149,25.59729],[89.4938,25.60544],[89.4976,25.61317],[89.49892,25.61321],[89.50428,25.61064],[89.50562,25.61154],[89.50588,25.61272],[89.5025,25.618],[89.50255,25.62038],[89.50443,25.62036],[89.5099,25.61722],[89.51551,25.61764],[89.52254,25.62301],[89.52442,25.6227],[89.52607,25.62415],[89.52396,25.626],[89.52533,25.62916],[89.53444,25.64177],[89.53808,25.64314],[89.5447,25.64139],[89.55228,25.63617],[89.55547,25.62782],[89.55229,25.61656],[89.55427,25.61033],[89.55363,25.6096],[89.54823,25.60939],[89.5469,25.60424],[89.54542,25.60187],[89.54283,25.60106],[89.54053,25.60257],[89.53828,25.60266],[89.53812,25.60062],[89.54282,25.59174],[89.54978,25.58806],[89.56966,25.58476],[89.57353,25.58283],[89.58038,25.57176],[89.58373,25.56944],[89.58744,25.56541],[89.59104,25.55944],[89.59358,25.55742],[89.59915,25.55694],[89.60236,25.55792],[89.60529,25.56009],[89.61212,25.56801],[89.61833,25.56803],[89.63297,25.56151],[89.64088,25.55508],[89.64373,25.54856],[89.6525,25.54433],[89.66479,25.54063],[89.66989,25.53464],[89.67395,25.53338],[89.68635,25.53257],[89.69661,25.53498],[89.69842,25.53455],[89.70155,25.53053],[89.69855,25.52739],[89.69691,25.52684],[89.69599,25.52424],[89.68816,25.52061],[89.68615,25.51785],[89.68587,25.5149],[89.68767,25.50976],[89.6897,25.50756],[89.68827,25.50475],[89.69996,25.49906],[89.70183,25.49471],[89.70071,25.4916],[89.69748,25.48936],[89.68813,25.48861],[89.67818,25.48915],[89.67577,25.48811],[89.6743,25.4862],[89.67376,25.48342],[89.67483,25.47971],[89.68167,25.47671],[89.68721,25.47071],[89.68698,25.46805],[89.68503,25.46353],[89.68649,25.46146],[89.69173,25.46337],[89.69773,25.46294],[89.69845,25.46446],[89.70398,25.46574],[89.70773,25.46506],[89.70957,25.46276],[89.71021,25.45962],[89.70381,25.43636],[89.69793,25.42553],[89.69273,25.42135],[89.6908,25.4187],[89.69128,25.41739],[89.70071,25.41912],[89.70313,25.41818],[89.70595,25.41131],[89.70558,25.40745],[89.70296,25.40465],[89.68858,25.40578],[89.68066,25.40345],[89.67939,25.40285],[89.67772,25.40025],[89.67364,25.39884],[89.67001,25.39622],[89.66644,25.39605],[89.64767,25.40031],[89.64146,25.3996],[89.63835,25.40141],[89.63274,25.40684],[89.63105,25.40686],[89.62711,25.40306],[89.62287,25.4042],[89.61935,25.40795],[89.62094,25.40878],[89.62488,25.40872],[89.62473,25.41111],[89.62231,25.41262],[89.61552,25.41117],[89.61258,25.41504],[89.61189,25.41936],[89.61053,25.42018],[89.60725,25.41824],[89.60365,25.42],[89.59918,25.41927],[89.595,25.42831],[89.59265,25.43022],[89.5915,25.43251],[89.58814,25.43426],[89.58422,25.43159],[89.58131,25.43072],[89.57705,25.43391],[89.57586,25.43756],[89.57378,25.44061],[89.57205,25.44285],[89.56963,25.44431],[89.56168,25.44396],[89.56071,25.44267],[89.56198,25.43935],[89.55439,25.43918],[89.54494,25.43545],[89.5414,25.43737],[89.53899,25.43974],[89.53117,25.43979],[89.52889,25.43868],[89.52673,25.43621],[89.52233,25.43537],[89.51299,25.43868],[89.50979,25.43807],[89.5085,25.43979],[89.50446,25.44178],[89.4991,25.44271],[89.50022,25.4465],[89.49951,25.4489],[89.4923,25.45509],[89.48748,25.45443],[89.4839,25.45658],[89.48179,25.46037],[89.48404,25.46751],[89.48941,25.468],[89.49038,25.4698],[89.48997,25.47504],[89.49086,25.47634],[89.49741,25.4768],[89.5005,25.47852],[89.5059,25.48424],[89.50403,25.48894],[89.50022,25.48796],[89.49402,25.49084],[89.49417,25.49271],[89.49845,25.49572],[89.50086,25.49892],[89.50052,25.50063],[89.49835,25.50186],[89.49325,25.50211],[89.49272,25.5049],[89.49144,25.50674],[89.48699,25.4992],[89.48313,25.49836],[89.48178,25.49447],[89.47948,25.49353],[89.47151,25.49368],[89.46655,25.49218],[89.45647,25.49196],[89.45356,25.49287],[89.44831,25.49294],[89.44508,25.49508],[89.44395,25.49668],[89.44323,25.50083],[89.44726,25.50491],[89.44286,25.5096],[89.443,25.51159],[89.446,25.51568],[89.44505,25.51892],[89.44337,25.52114],[89.44048,25.51852],[89.43816,25.52002],[89.43791,25.52161],[89.43961,25.52267],[89.43818,25.52489],[89.44185,25.5278],[89.44281,25.53017],[89.44135,25.5328],[89.4401,25.53379],[89.437,25.53048],[89.4346,25.52915],[89.43247,25.52911],[89.43043,25.53091],[89.43102,25.53585],[89.42972,25.53599],[89.42692,25.53375],[89.42538,25.52865],[89.42387,25.52764],[89.4216,25.52744],[89.41881,25.52913],[89.41779,25.53376],[89.41624,25.53504],[89.41039,25.53123],[89.40769,25.53161],[89.4043,25.53484],[89.40345,25.53811],[89.40391,25.54101],[89.40488,25.54209],[89.40646,25.54224],[89.40993,25.53797],[89.41111,25.53938],[89.41435,25.53906],[89.41519,25.53996],[89.41477,25.54259],[89.41243,25.54405],[89.41026,25.547],[89.4165,25.548],[89.41715,25.5489],[89.41667,25.55177],[89.41296,25.55347],[89.41529,25.55669],[89.41471,25.55915],[89.41344,25.56223]]]}}]}