{"type":"FeatureCollection","features":[{"type":"Feature","properties":{"name":"Gazipur S.","district_id":"gazipur","pcode":"303330","sql_upazila_id":null,"sql_name_bn":null},"geometry":{"type":"Polygon","coordinates":[[[90.34094,24.04213],[90.34173,24.05],[90.33962,24.05697],[90.34095,24.06026],[90.34082,24.06363],[90.34255,24.06393],[90.34187,24.06601],[90.33998,24.06731],[90.33904,24.07128],[90.3434,24.07358],[90.34476,24.07989],[90.34301,24.08194],[90.34017,24.08286],[90.34039,24.08852],[90.33776,24.09196],[90.33945,24.09449],[90.33894,24.09845],[90.34124,24.10314],[90.34116,24.11074],[90.34321,24.11287],[90.3461,24.12],[90.35124,24.1237],[90.35105,24.13007],[90.3537,24.13097],[90.35389,24.13554],[90.35542,24.13676],[90.3558,24.13893],[90.35551,24.14403],[90.35914,24.1512],[90.35821,24.15792],[90.3636,24.16116],[90.36489,24.16274],[90.36756,24.16238],[90.37102,24.15903],[90.37417,24.16016],[90.38077,24.15771],[90.38564,24.16022],[90.38877,24.16077],[90.39141,24.15934],[90.3937,24.15654],[90.39606,24.15179],[90.40166,24.15194],[90.40493,24.15483],[90.40576,24.15762],[90.40948,24.16347],[90.40926,24.16674],[90.4112,24.16886],[90.41424,24.17033],[90.41709,24.17426],[90.41901,24.17565],[90.42377,24.1769],[90.43088,24.17678],[90.43771,24.17181],[90.44897,24.17102],[90.45891,24.1654],[90.46297,24.15557],[90.46169,24.14766],[90.45984,24.14421],[90.45911,24.14075],[90.46064,24.13744],[90.46654,24.13455],[90.46519,24.1311],[90.46326,24.12926],[90.45732,24.12849],[90.45377,24.11588],[90.45506,24.11323],[90.46078,24.10845],[90.46133,24.10597],[90.45872,24.10198],[90.44815,24.10071],[90.44633,24.09805],[90.44657,24.09565],[90.45039,24.09189],[90.44794,24.08743],[90.44629,24.08622],[90.44098,24.08583],[90.43597,24.0867],[90.42641,24.09037],[90.42486,24.08819],[90.42464,24.08509],[90.42525,24.07193],[90.42616,24.06865],[90.42783,24.06626],[90.43333,24.06286],[90.43656,24.0581],[90.4397,24.05893],[90.44121,24.06164],[90.4424,24.0619],[90.4444,24.0599],[90.44455,24.05664],[90.44838,24.04705],[90.44904,24.03983],[90.4483,24.03402],[90.44424,24.03143],[90.44154,24.02841],[90.43927,24.0231],[90.43893,24.01772],[90.4438,24.00776],[90.44848,24.00393],[90.45252,24.00383],[90.45393,24.00282],[90.45332,24.00112],[90.45146,23.99945],[90.45229,23.99783],[90.45152,23.99309],[90.45161,23.98533],[90.45341,23.98328],[90.45638,23.98275],[90.4619,23.97987],[90.46499,23.97276],[90.46054,23.96755],[90.45867,23.96336],[90.46072,23.96103],[90.46485,23.95984],[90.47002,23.96205],[90.47242,23.96937],[90.47584,23.96921],[90.47744,23.9665],[90.47717,23.96364],[90.47827,23.96059],[90.48268,23.96088],[90.48392,23.95856],[90.47798,23.95099],[90.47814,23.94841],[90.48348,23.9481],[90.48618,23.94678],[90.49129,23.94259],[90.49269,23.93895],[90.49054,23.93203],[90.49251,23.92083],[90.49065,23.91699],[90.48492,23.91067],[90.48333,23.90105],[90.47983,23.89839],[90.47476,23.89709],[90.46899,23.88934],[90.46078,23.88508],[90.46155,23.8901],[90.46114,23.89503],[90.45868,23.89829],[90.45125,23.89916],[90.44142,23.90358],[90.4388,23.9037],[90.41963,23.88794],[90.41144,23.88408],[90.40577,23.8861],[90.39932,23.88254],[90.39539,23.88378],[90.39529,23.88688],[90.3936,23.89109],[90.38998,23.89507],[90.38844,23.90162],[90.37888,23.90031],[90.37627,23.89809],[90.37099,23.89633],[90.3631,23.89658],[90.36056,23.89464],[90.35519,23.88728],[90.3527,23.8938],[90.35249,23.90158],[90.34917,23.90555],[90.35127,23.92019],[90.35437,23.92406],[90.35424,23.9303],[90.3495,23.93219],[90.34871,23.93719],[90.34907,23.94312],[90.35182,23.94574],[90.35091,23.95103],[90.34811,23.95544],[90.34352,23.95572],[90.33858,23.9635],[90.34097,23.9667],[90.34119,23.97659],[90.33791,23.9773],[90.33974,23.98034],[90.3313,23.98335],[90.33284,23.98726],[90.33343,23.99267],[90.33672,23.99465],[90.3396,23.99939],[90.34848,24.00089],[90.35197,24.00332],[90.3502,24.00439],[90.34868,24.01221],[90.34556,24.01411],[90.34487,24.01636],[90.34389,24.02342],[90.3474,24.02602],[90.34845,24.03257],[90.3481,24.03533],[90.34422,24.03708],[90.34094,24.04213]]]}},{"type":"Feature","properties":{"name":"Kaliakair","district_id":"gazipur","pcode":"303332","sql_upazila_id":"gazipur-kaliakair","sql_name_bn":"কালিয়াকৈর"},"geometry":{"type":"Polygon","coordinates":[[[90.24207,24.17928],[90.24641,24.18562],[90.25169,24.18738],[90.25307,24.18935],[90.25242,24.19777],[90.25462,24.2],[90.2606,24.2025],[90.26202,24.20412],[90.26436,24.20973],[90.2692,24.21139],[90.26984,24.21624],[90.27226,24.21818],[90.28149,24.22048],[90.28967,24.22519],[90.29137,24.22768],[90.29205,24.24333],[90.29664,24.251],[90.30177,24.24716],[90.30424,24.24419],[90.30294,24.24233],[90.30468,24.23977],[90.30975,24.23611],[90.31715,24.22644],[90.32464,24.20967],[90.32432,24.20659],[90.32272,24.20326],[90.32444,24.20225],[90.32864,24.20295],[90.32935,24.20156],[90.32769,24.20039],[90.32724,24.19766],[90.33379,24.19539],[90.33608,24.1927],[90.33328,24.18859],[90.3343,24.18703],[90.33768,24.18534],[90.33992,24.17214],[90.34647,24.17227],[90.35112,24.16489],[90.35821,24.15792],[90.35914,24.1512],[90.35551,24.14403],[90.3558,24.13893],[90.35542,24.13676],[90.35389,24.13554],[90.3537,24.13097],[90.35105,24.13007],[90.35124,24.1237],[90.3461,24.12],[90.34321,24.11287],[90.34116,24.11074],[90.34124,24.10314],[90.33894,24.09845],[90.33945,24.09449],[90.33776,24.09196],[90.34039,24.08852],[90.34017,24.08286],[90.34301,24.08194],[90.34476,24.07989],[90.3434,24.07358],[90.33904,24.07128],[90.33998,24.06731],[90.34187,24.06601],[90.34255,24.06393],[90.34082,24.06363],[90.34095,24.06026],[90.33962,24.05697],[90.34173,24.05],[90.34094,24.04213],[90.32797,24.03278],[90.32196,24.03801],[90.31741,24.03818],[90.29892,24.02695],[90.2971,24.02219],[90.29047,24.01434],[90.28589,24.01091],[90.27591,24.01697],[90.2681,24.01602],[90.25843,24.01721],[90.25472,24.02045],[90.25087,24.03197],[90.24812,24.03415],[90.24505,24.03331],[90.24284,24.0297],[90.24242,24.02594],[90.24481,24.01336],[90.24113,24.01064],[90.23027,24.01198],[90.22415,24.0115],[90.22092,24.0074],[90.2184,24.00603],[90.21729,24.00867],[90.21805,24.01141],[90.21211,24.01063],[90.21168,24.0083],[90.2083,24.00769],[90.2067,24.01076],[90.19852,24.00963],[90.19668,24.01528],[90.19459,24.01636],[90.19199,24.01464],[90.19035,24.01165],[90.19028,24.00902],[90.18771,24.00588],[90.17393,24.00499],[90.17175,24.00784],[90.17096,24.01278],[90.16933,24.0147],[90.16367,24.01729],[90.16209,24.02299],[90.15405,24.02747],[90.1515,24.02752],[90.15154,24.03575],[90.15297,24.03806],[90.1531,24.04292],[90.1564,24.04754],[90.1551,24.05004],[90.15571,24.0519],[90.15849,24.05368],[90.16465,24.0557],[90.16399,24.0632],[90.16479,24.06524],[90.16965,24.06776],[90.17673,24.07405],[90.18309,24.08324],[90.184,24.08659],[90.18367,24.09077],[90.18213,24.09378],[90.17873,24.09678],[90.1784,24.09844],[90.17902,24.10992],[90.18408,24.11049],[90.18685,24.10911],[90.18926,24.10631],[90.1877,24.10149],[90.1928,24.09914],[90.19692,24.0994],[90.19878,24.10364],[90.20523,24.10257],[90.20795,24.0973],[90.21689,24.1011],[90.2197,24.09858],[90.22916,24.10242],[90.22956,24.10584],[90.23173,24.10773],[90.23259,24.11172],[90.23205,24.11464],[90.23293,24.1176],[90.22091,24.12657],[90.22012,24.12938],[90.22318,24.13653],[90.22292,24.14499],[90.22639,24.14897],[90.22784,24.15203],[90.23135,24.1663],[90.23985,24.17599],[90.24207,24.17928]]]}},{"type":"Feature","properties":{"name":"Kaliganj","district_id":"gazipur","pcode":"303334","sql_upazila_id":"gazipur-kaliganj","sql_name_bn":"কালীগঞ্জ"},"geometry":{"type":"Polygon","coordinates":[[[90.65143,24.03626],[90.65726,24.02576],[90.65813,24.02156],[90.65808,24.01573],[90.65668,24.01313],[90.64718,24.00727],[90.64313,24.00566],[90.63857,24.00698],[90.63504,23.99975],[90.6346,23.99547],[90.64093,23.99302],[90.63901,23.98712],[90.63584,23.98319],[90.62958,23.98399],[90.62388,23.97482],[90.62614,23.97179],[90.62083,23.96461],[90.61481,23.96322],[90.61264,23.95344],[90.62039,23.95055],[90.6211,23.94556],[90.61974,23.9413],[90.61446,23.93984],[90.61406,23.93682],[90.61105,23.93221],[90.61005,23.92549],[90.59269,23.91976],[90.58331,23.91806],[90.57745,23.91781],[90.57312,23.92272],[90.56057,23.91698],[90.55299,23.9253],[90.54855,23.92673],[90.54484,23.92957],[90.54208,23.93719],[90.53611,23.94146],[90.52628,23.94531],[90.52437,23.94822],[90.52538,23.95076],[90.52364,23.95681],[90.52069,23.95832],[90.51687,23.9575],[90.51503,23.95629],[90.5143,23.95047],[90.51555,23.94238],[90.51523,23.93798],[90.51143,23.93785],[90.50781,23.93977],[90.50397,23.94004],[90.49831,23.94007],[90.49269,23.93895],[90.49129,23.94259],[90.48618,23.94678],[90.48348,23.9481],[90.47814,23.94841],[90.47798,23.95099],[90.48392,23.95856],[90.48268,23.96088],[90.47827,23.96059],[90.47717,23.96364],[90.47744,23.9665],[90.47584,23.96921],[90.47411,23.96967],[90.47242,23.96937],[90.47002,23.96205],[90.46806,23.96107],[90.46485,23.95984],[90.46072,23.96103],[90.45867,23.96336],[90.46054,23.96755],[90.46499,23.97276],[90.4619,23.97987],[90.45638,23.98275],[90.45341,23.98328],[90.45161,23.98533],[90.45152,23.99309],[90.45229,23.99783],[90.45146,23.99945],[90.45332,24.00112],[90.45393,24.00282],[90.45252,24.00383],[90.44848,24.00393],[90.4438,24.00776],[90.43893,24.01772],[90.43927,24.0231],[90.44154,24.02841],[90.44424,24.03143],[90.4483,24.03402],[90.45677,24.02763],[90.45755,24.02429],[90.46007,24.02114],[90.4649,24.02056],[90.46629,24.02316],[90.46881,24.02208],[90.47056,24.01802],[90.47444,24.01655],[90.48803,24.01495],[90.48996,24.01725],[90.49147,24.02184],[90.49237,24.02914],[90.4963,24.0315],[90.49828,24.03511],[90.50265,24.03963],[90.50822,24.04063],[90.51322,24.03908],[90.5147,24.04287],[90.51992,24.04251],[90.52145,24.04356],[90.52357,24.04151],[90.52332,24.03568],[90.52427,24.03434],[90.52696,24.03433],[90.53049,24.03561],[90.53305,24.03812],[90.53783,24.03966],[90.54341,24.03694],[90.54546,24.03883],[90.54471,24.04068],[90.54633,24.04247],[90.55277,24.04168],[90.5548,24.04277],[90.55824,24.03908],[90.55962,24.03555],[90.56137,24.03368],[90.5637,24.03225],[90.56728,24.03153],[90.57125,24.02891],[90.573,24.03104],[90.57323,24.03275],[90.57799,24.03337],[90.58076,24.03455],[90.58455,24.03846],[90.58862,24.04081],[90.59596,24.03879],[90.60459,24.03794],[90.60887,24.04178],[90.61496,24.04494],[90.62,24.04492],[90.62356,24.04317],[90.63,24.04185],[90.63881,24.043],[90.64364,24.04207],[90.64704,24.03924],[90.65143,24.03626]]]}},{"type":"Feature","properties":{"name":"Kapasia","district_id":"gazipur","pcode":"303336","sql_upazila_id":"gazipur-kapasia","sql_name_bn":"কাপাসিয়া"},"geometry":{"type":"Polygon","coordinates":[[[90.65386,24.26106],[90.65615,24.25479],[90.65834,24.25156],[90.66873,24.24726],[90.6837,24.24291],[90.68179,24.23168],[90.67796,24.23081],[90.67503,24.227],[90.67485,24.22346],[90.67123,24.21732],[90.67303,24.20726],[90.67949,24.20017],[90.68926,24.19346],[90.69096,24.19049],[90.68796,24.18788],[90.68668,24.17916],[90.68975,24.17565],[90.68784,24.16661],[90.6841,24.16425],[90.6841,24.16036],[90.68494,24.1553],[90.68729,24.15307],[90.6924,24.14493],[90.69134,24.13884],[90.6869,24.12649],[90.68181,24.11924],[90.67636,24.11842],[90.67635,24.11413],[90.67824,24.11076],[90.68109,24.11023],[90.68431,24.11312],[90.68796,24.11267],[90.69397,24.1156],[90.70049,24.1128],[90.6994,24.10425],[90.69976,24.09961],[90.6948,24.09642],[90.69102,24.09538],[90.68626,24.10214],[90.67614,24.09972],[90.67474,24.09644],[90.66328,24.09463],[90.66169,24.09765],[90.6569,24.09582],[90.65224,24.09606],[90.65098,24.09775],[90.64599,24.0996],[90.64526,24.1039],[90.64208,24.10365],[90.64098,24.10082],[90.63808,24.09958],[90.63812,24.08894],[90.64236,24.08722],[90.64073,24.07869],[90.63339,24.07099],[90.64854,24.05521],[90.65176,24.04494],[90.65143,24.03626],[90.64364,24.04207],[90.63881,24.043],[90.63,24.04185],[90.62356,24.04317],[90.62,24.04492],[90.61496,24.04494],[90.60887,24.04178],[90.60459,24.03794],[90.59596,24.03879],[90.58862,24.04081],[90.58455,24.03846],[90.58076,24.03455],[90.57799,24.03337],[90.57323,24.03275],[90.573,24.03104],[90.57125,24.02891],[90.56728,24.03153],[90.5637,24.03225],[90.56137,24.03368],[90.55962,24.03555],[90.55824,24.03908],[90.5548,24.04277],[90.55277,24.04168],[90.54633,24.04247],[90.54471,24.04068],[90.54546,24.03883],[90.54341,24.03694],[90.53783,24.03966],[90.53305,24.03812],[90.53049,24.03561],[90.52696,24.03433],[90.52427,24.03434],[90.52332,24.03568],[90.52357,24.04151],[90.52145,24.04356],[90.51992,24.04251],[90.5147,24.04287],[90.51322,24.03908],[90.50822,24.04063],[90.50265,24.03963],[90.49937,24.04229],[90.49715,24.05578],[90.50241,24.0608],[90.50291,24.06296],[90.50097,24.06478],[90.49852,24.06427],[90.49769,24.06766],[90.49833,24.07439],[90.50238,24.08076],[90.50292,24.08417],[90.50523,24.08669],[90.51023,24.08502],[90.51759,24.08529],[90.52097,24.08801],[90.51984,24.09158],[90.51761,24.09427],[90.51492,24.10206],[90.52193,24.10949],[90.52021,24.11805],[90.51762,24.12543],[90.5192,24.12865],[90.52271,24.12891],[90.54208,24.13482],[90.5448,24.13836],[90.54755,24.14486],[90.54722,24.14813],[90.54427,24.1517],[90.54927,24.15631],[90.5527,24.1644],[90.54789,24.17242],[90.55035,24.1755],[90.54507,24.18027],[90.54356,24.1838],[90.53944,24.18596],[90.54035,24.19532],[90.5444,24.19716],[90.54681,24.20682],[90.54153,24.20981],[90.5468,24.21671],[90.55206,24.22144],[90.55076,24.22405],[90.5473,24.22728],[90.54137,24.22899],[90.53762,24.23691],[90.53803,24.24027],[90.53639,24.23974],[90.52876,24.24308],[90.52718,24.24449],[90.52379,24.24395],[90.52225,24.24891],[90.52464,24.25531],[90.53,24.25529],[90.53208,24.25804],[90.53494,24.25979],[90.5374,24.2627],[90.53542,24.26762],[90.54121,24.27124],[90.54744,24.27177],[90.54689,24.2685],[90.548,24.26646],[90.55865,24.25803],[90.56523,24.25695],[90.56741,24.25528],[90.57246,24.24834],[90.57502,24.2474],[90.58012,24.24798],[90.58663,24.25058],[90.59579,24.25866],[90.603,24.26164],[90.60896,24.26575],[90.6215,24.26901],[90.62691,24.26981],[90.63435,24.26819],[90.64598,24.26195],[90.65386,24.26106]]]}},{"type":"Feature","properties":{"name":"Sreepur","district_id":"gazipur","pcode":"303386","sql_upazila_id":"gazipur-sreepur","sql_name_bn":"শ্রীপুর"},"geometry":{"type":"Polygon","coordinates":[[[90.29159,24.27855],[90.3001,24.28535],[90.32208,24.29924],[90.32903,24.29993],[90.34103,24.29638],[90.34434,24.29619],[90.34916,24.29687],[90.35345,24.3006],[90.35535,24.30124],[90.3584,24.29911],[90.35952,24.29679],[90.36035,24.28888],[90.3646,24.2846],[90.36825,24.2836],[90.37189,24.28414],[90.37669,24.28654],[90.38086,24.29033],[90.38298,24.29033],[90.38553,24.28993],[90.39362,24.28275],[90.39761,24.28272],[90.40613,24.29023],[90.41226,24.29929],[90.41953,24.30689],[90.42217,24.30751],[90.42575,24.30622],[90.42679,24.31391],[90.4263,24.32925],[90.42729,24.33106],[90.43169,24.33415],[90.43922,24.3376],[90.44233,24.33764],[90.44758,24.33931],[90.45483,24.33902],[90.45892,24.33723],[90.47298,24.32697],[90.47708,24.32128],[90.4792,24.31972],[90.48405,24.31813],[90.48847,24.3127],[90.51243,24.31053],[90.51891,24.30791],[90.52555,24.30201],[90.53026,24.30215],[90.53177,24.30089],[90.53184,24.29894],[90.52954,24.29477],[90.52379,24.28887],[90.52313,24.28751],[90.52345,24.2859],[90.52676,24.28424],[90.53577,24.28177],[90.53962,24.27792],[90.54694,24.27464],[90.54744,24.27177],[90.54121,24.27124],[90.53542,24.26762],[90.5374,24.2627],[90.53,24.25529],[90.52464,24.25531],[90.52225,24.24891],[90.52379,24.24395],[90.52718,24.24449],[90.52876,24.24308],[90.53639,24.23974],[90.53803,24.24027],[90.53762,24.23691],[90.54137,24.22899],[90.5473,24.22728],[90.55076,24.22405],[90.55206,24.22144],[90.5468,24.21671],[90.54153,24.20981],[90.54681,24.20682],[90.5444,24.19716],[90.54035,24.19532],[90.53944,24.18596],[90.54356,24.1838],[90.54507,24.18027],[90.55035,24.1755],[90.54789,24.17242],[90.5527,24.1644],[90.54927,24.15631],[90.54427,24.1517],[90.54722,24.14813],[90.54755,24.14486],[90.5448,24.13836],[90.54208,24.13482],[90.52271,24.12891],[90.5192,24.12865],[90.51762,24.12543],[90.52021,24.11805],[90.52193,24.10949],[90.51492,24.10206],[90.51761,24.09427],[90.51984,24.09158],[90.52097,24.08801],[90.51759,24.08529],[90.51023,24.08502],[90.50523,24.08669],[90.50292,24.08417],[90.50238,24.08076],[90.49833,24.07439],[90.49769,24.06766],[90.49852,24.06427],[90.50097,24.06478],[90.50291,24.06296],[90.50241,24.0608],[90.49715,24.05578],[90.49937,24.04229],[90.50265,24.03963],[90.49828,24.03511],[90.4963,24.0315],[90.49237,24.02914],[90.49147,24.02184],[90.48996,24.01725],[90.48803,24.01495],[90.47444,24.01655],[90.47056,24.01802],[90.46881,24.02208],[90.46629,24.02316],[90.4649,24.02056],[90.46007,24.02114],[90.45755,24.02429],[90.45677,24.02763],[90.4483,24.03402],[90.44904,24.03983],[90.44838,24.04705],[90.44455,24.05664],[90.4444,24.0599],[90.4424,24.0619],[90.44121,24.06164],[90.4397,24.05893],[90.43656,24.0581],[90.43333,24.06286],[90.42783,24.06626],[90.42616,24.06865],[90.42525,24.07193],[90.42464,24.08509],[90.42486,24.08819],[90.42641,24.09037],[90.43597,24.0867],[90.44098,24.08583],[90.44629,24.08622],[90.44794,24.08743],[90.45039,24.09189],[90.44657,24.09565],[90.44633,24.09805],[90.44815,24.10071],[90.45872,24.10198],[90.46133,24.10597],[90.46078,24.10845],[90.45506,24.11323],[90.45377,24.11588],[90.45732,24.12849],[90.46326,24.12926],[90.46519,24.1311],[90.46654,24.13455],[90.46064,24.13744],[90.45911,24.14075],[90.45984,24.14421],[90.46169,24.14766],[90.46297,24.15557],[90.45891,24.1654],[90.44897,24.17102],[90.43771,24.17181],[90.43088,24.17678],[90.42377,24.1769],[90.41901,24.17565],[90.41709,24.17426],[90.41424,24.17033],[90.4112,24.16886],[90.40926,24.16674],[90.40948,24.16347],[90.40576,24.15762],[90.40493,24.15483],[90.40166,24.15194],[90.39606,24.15179],[90.3937,24.15654],[90.39141,24.15934],[90.38877,24.16077],[90.38564,24.16022],[90.38077,24.15771],[90.37417,24.16016],[90.37102,24.15903],[90.36756,24.16238],[90.36489,24.16274],[90.3636,24.16116],[90.35821,24.15792],[90.35112,24.16489],[90.34647,24.17227],[90.33992,24.17214],[90.33768,24.18534],[90.3343,24.18703],[90.33328,24.18859],[90.33608,24.1927],[90.33379,24.19539],[90.32724,24.19766],[90.32769,24.20039],[90.32935,24.20156],[90.32864,24.20295],[90.32444,24.20225],[90.32272,24.20326],[90.32432,24.20659],[90.32464,24.20967],[90.31715,24.22644],[90.30975,24.23611],[90.30468,24.23977],[90.30294,24.24233],[90.30424,24.24419],[90.30177,24.24716],[90.29664,24.251],[90.29959,24.25396],[90.30118,24.25724],[90.30102,24.26039],[90.29916,24.26541],[90.30054,24.27001],[90.29949,24.2725],[90.29639,24.27549],[90.29159,24.27855]]]}}]}