{"type":"FeatureCollection","features":[{"type":"Feature","properties":{"name":"Gopalganj S.","district_id":"gopalganj","pcode":"303532","sql_upazila_id":null,"sql_name_bn":null},"geometry":{"type":"Polygon","coordinates":[[[89.94276,23.13892],[89.94517,23.13544],[89.94323,23.12938],[89.94349,23.12404],[89.93942,23.12006],[89.93811,23.11416],[89.95581,23.11156],[89.95733,23.11297],[89.95929,23.11192],[89.96415,23.11255],[89.97096,23.10673],[89.9696,23.09303],[89.96996,23.08964],[89.96812,23.08196],[89.96879,23.0788],[89.96569,23.0708],[89.96721,23.06377],[89.96725,23.052],[89.96671,23.04994],[89.96463,23.04842],[89.96236,23.03312],[89.96377,23.01839],[89.95784,23.0114],[89.95403,23.0103],[89.94599,23.0112],[89.94268,23.01014],[89.93935,23.00811],[89.93707,23.00297],[89.93499,23.00185],[89.92774,23.00204],[89.9249,23.00001],[89.92241,22.98827],[89.9173,22.98735],[89.91329,22.98802],[89.90696,22.99337],[89.90075,22.99315],[89.89856,22.99479],[89.89514,22.99471],[89.89261,22.99215],[89.89147,22.98861],[89.88661,22.98441],[89.88519,22.98155],[89.8856,22.97512],[89.88725,22.97395],[89.89915,22.97124],[89.9005,22.9699],[89.90212,22.96495],[89.90452,22.96412],[89.90729,22.96036],[89.906,22.95831],[89.89934,22.95683],[89.89382,22.95115],[89.89089,22.9498],[89.88625,22.95106],[89.88228,22.95345],[89.87893,22.959],[89.87564,22.95921],[89.86807,22.95304],[89.86223,22.95224],[89.85261,22.95176],[89.84494,22.95552],[89.84185,22.95337],[89.84149,22.93655],[89.83885,22.93182],[89.83872,22.92584],[89.83405,22.93061],[89.82559,22.934],[89.81632,22.93534],[89.80903,22.93508],[89.80596,22.93562],[89.80416,22.93722],[89.80833,22.95102],[89.81287,22.95987],[89.81517,22.96045],[89.81592,22.96243],[89.81554,22.96387],[89.81352,22.96657],[89.80865,22.97027],[89.80183,22.97126],[89.79102,22.9689],[89.789,22.96965],[89.78871,22.97218],[89.79173,22.9794],[89.7925,22.98504],[89.78766,22.98821],[89.76691,22.99368],[89.7607,22.99661],[89.75548,23.00134],[89.75364,23.00393],[89.75275,23.00774],[89.7508,23.02843],[89.75015,23.03205],[89.74867,23.03435],[89.74609,23.03668],[89.73101,23.04037],[89.72719,23.04292],[89.7258,23.04665],[89.726,23.04961],[89.72958,23.05559],[89.73483,23.05899],[89.73593,23.06136],[89.73514,23.06396],[89.73169,23.06632],[89.72257,23.07048],[89.72541,23.07912],[89.71503,23.08117],[89.71017,23.08333],[89.69634,23.09065],[89.68865,23.09669],[89.67569,23.11254],[89.6742,23.11554],[89.6729,23.12158],[89.67533,23.12856],[89.67776,23.13187],[89.68047,23.1342],[89.68304,23.13492],[89.68545,23.1345],[89.6871,23.13305],[89.68762,23.13057],[89.6852,23.12267],[89.68534,23.11997],[89.69099,23.11429],[89.69286,23.11112],[89.69927,23.10859],[89.70304,23.1143],[89.71101,23.11864],[89.72985,23.12334],[89.73721,23.1216],[89.74054,23.12387],[89.74269,23.12884],[89.75195,23.12875],[89.75378,23.12781],[89.75381,23.12585],[89.75526,23.12441],[89.75968,23.12753],[89.76671,23.12832],[89.77147,23.12747],[89.7767,23.13109],[89.78004,23.13048],[89.78436,23.13245],[89.78625,23.13024],[89.78635,23.12605],[89.78895,23.11724],[89.78883,23.11174],[89.78587,23.10332],[89.78465,23.09248],[89.78296,23.08928],[89.77602,23.0839],[89.77615,23.08092],[89.778,23.07768],[89.7804,23.07622],[89.78314,23.07631],[89.78438,23.07986],[89.78577,23.08099],[89.79481,23.08285],[89.79596,23.07894],[89.79787,23.07817],[89.80452,23.07845],[89.80648,23.07752],[89.80813,23.0818],[89.80976,23.08281],[89.81189,23.08371],[89.81612,23.08131],[89.81824,23.08163],[89.8242,23.08777],[89.82746,23.08912],[89.82931,23.09151],[89.82797,23.10203],[89.82917,23.10529],[89.83411,23.10685],[89.83569,23.10568],[89.83485,23.10374],[89.83866,23.10232],[89.84013,23.10374],[89.84029,23.10592],[89.84321,23.10758],[89.84438,23.11971],[89.85017,23.12092],[89.85524,23.12563],[89.8582,23.12468],[89.85937,23.12099],[89.86064,23.11983],[89.86355,23.11928],[89.86536,23.12012],[89.87948,23.12095],[89.88734,23.1258],[89.90868,23.12821],[89.91129,23.131],[89.91163,23.13478],[89.91351,23.13844],[89.92136,23.14248],[89.92671,23.14283],[89.9309,23.14175],[89.94276,23.13892]]]}},{"type":"Feature","properties":{"name":"Kashiani","district_id":"gopalganj","pcode":"303543","sql_upazila_id":"gopalganj-kashiani","sql_name_bn":"কাশিয়ানী"},"geometry":{"type":"Polygon","coordinates":[[[89.797,23.31025],[89.79935,23.30087],[89.8016,23.29843],[89.80165,23.29522],[89.80421,23.28962],[89.808,23.28648],[89.80911,23.28354],[89.81887,23.28063],[89.81965,23.27913],[89.81759,23.27576],[89.81603,23.26975],[89.81963,23.26954],[89.82076,23.27022],[89.82115,23.27366],[89.82248,23.27479],[89.82421,23.2742],[89.82575,23.27102],[89.82368,23.26445],[89.8237,23.26203],[89.82841,23.25613],[89.82988,23.25158],[89.83059,23.24456],[89.83637,23.24175],[89.84013,23.2374],[89.84134,23.23257],[89.84118,23.2251],[89.84218,23.22257],[89.84554,23.22012],[89.84735,23.20845],[89.84605,23.20329],[89.84694,23.20116],[89.84991,23.19797],[89.85255,23.19697],[89.85525,23.19797],[89.85641,23.19991],[89.85854,23.20086],[89.86154,23.19848],[89.86596,23.19315],[89.86782,23.18744],[89.87055,23.18443],[89.87008,23.17709],[89.87141,23.17558],[89.87347,23.17625],[89.87544,23.17582],[89.87639,23.17294],[89.87772,23.17161],[89.88114,23.17186],[89.88416,23.1736],[89.88545,23.18146],[89.88992,23.19221],[89.89466,23.19324],[89.89548,23.19421],[89.89733,23.19362],[89.89768,23.18971],[89.89597,23.17968],[89.89662,23.17806],[89.90529,23.17728],[89.91821,23.16864],[89.91967,23.16989],[89.92411,23.17145],[89.92649,23.16947],[89.92671,23.16751],[89.92509,23.16524],[89.92394,23.16065],[89.91958,23.1603],[89.918,23.159],[89.9212,23.15242],[89.92136,23.14248],[89.91351,23.13844],[89.91163,23.13478],[89.91129,23.131],[89.90868,23.12821],[89.89058,23.12646],[89.88734,23.1258],[89.87948,23.12095],[89.86536,23.12012],[89.86355,23.11928],[89.86064,23.11983],[89.85937,23.12099],[89.8582,23.12468],[89.85524,23.12563],[89.85017,23.12092],[89.84438,23.11971],[89.84321,23.10758],[89.84029,23.10592],[89.84013,23.10374],[89.83866,23.10232],[89.83485,23.10374],[89.83569,23.10568],[89.83411,23.10685],[89.82917,23.10529],[89.82797,23.10203],[89.82931,23.09151],[89.82746,23.08912],[89.8242,23.08777],[89.82136,23.08545],[89.82038,23.08333],[89.81824,23.08163],[89.81612,23.08131],[89.81189,23.08371],[89.80813,23.0818],[89.80648,23.07752],[89.80452,23.07845],[89.79787,23.07817],[89.79596,23.07894],[89.79481,23.08285],[89.78577,23.08099],[89.78438,23.07986],[89.78314,23.07631],[89.7804,23.07622],[89.778,23.07768],[89.77615,23.08092],[89.77602,23.0839],[89.78296,23.08928],[89.78465,23.09248],[89.78587,23.10332],[89.78883,23.11174],[89.78895,23.11724],[89.78635,23.12605],[89.78625,23.13024],[89.78436,23.13245],[89.78004,23.13048],[89.7767,23.13109],[89.77147,23.12747],[89.76671,23.12832],[89.75968,23.12753],[89.75526,23.12441],[89.75381,23.12585],[89.75378,23.12781],[89.75195,23.12875],[89.74269,23.12884],[89.74293,23.13412],[89.74237,23.137],[89.74051,23.14017],[89.73456,23.1466],[89.72709,23.1519],[89.72468,23.15554],[89.72376,23.15911],[89.72533,23.16282],[89.72761,23.16487],[89.73194,23.16753],[89.73526,23.16858],[89.74074,23.16928],[89.7529,23.16887],[89.75993,23.16961],[89.76432,23.17146],[89.76524,23.17386],[89.76492,23.17639],[89.76353,23.17864],[89.75815,23.18231],[89.75258,23.18323],[89.73804,23.18286],[89.72968,23.18098],[89.72461,23.17937],[89.71519,23.17458],[89.70126,23.16139],[89.69698,23.15839],[89.69425,23.15841],[89.68911,23.16202],[89.68166,23.17134],[89.6798,23.17457],[89.67872,23.17951],[89.6791,23.1833],[89.68166,23.18999],[89.68644,23.19672],[89.68733,23.20263],[89.69548,23.20927],[89.69908,23.20964],[89.70309,23.21167],[89.7059,23.21537],[89.70825,23.22081],[89.71191,23.22335],[89.71653,23.22452],[89.71949,23.2265],[89.72065,23.22873],[89.7192,23.2366],[89.72103,23.23814],[89.73498,23.24231],[89.7369,23.24533],[89.7317,23.25216],[89.732,23.25474],[89.73503,23.25706],[89.74039,23.25799],[89.7431,23.25934],[89.74421,23.26507],[89.74937,23.27151],[89.75064,23.27568],[89.75046,23.27846],[89.74866,23.28191],[89.74504,23.28441],[89.74046,23.28572],[89.73648,23.28823],[89.73592,23.29139],[89.73649,23.29449],[89.73185,23.30177],[89.73631,23.30109],[89.74074,23.29858],[89.74574,23.29101],[89.74838,23.28967],[89.75015,23.29079],[89.74943,23.29786],[89.75125,23.29888],[89.75481,23.29706],[89.75928,23.29048],[89.76167,23.2889],[89.7641,23.28911],[89.76579,23.2954],[89.76817,23.29664],[89.77207,23.30149],[89.78062,23.30043],[89.77959,23.30428],[89.78181,23.30633],[89.78126,23.30967],[89.78382,23.31038],[89.79244,23.30991],[89.797,23.31025]]]}},{"type":"Feature","properties":{"name":"Kotalipara","district_id":"gopalganj","pcode":"303551","sql_upazila_id":"gopalganj-kotalipara","sql_name_bn":"কোটালীপাড়া"},"geometry":{"type":"Polygon","coordinates":[[[90.08495,23.12577],[90.08699,23.12288],[90.08353,23.11511],[90.08344,23.11184],[90.08411,23.1108],[90.09286,23.11114],[90.10979,23.11571],[90.11183,23.11539],[90.11084,23.11271],[90.11211,23.11108],[90.11655,23.11051],[90.11771,23.10923],[90.11251,23.09954],[90.11189,23.09714],[90.11335,23.09046],[90.11005,23.07976],[90.11048,23.07671],[90.11386,23.0727],[90.11991,23.07131],[90.12168,23.0752],[90.12289,23.0765],[90.1245,23.0766],[90.12789,23.07299],[90.13046,23.06579],[90.12663,23.06394],[90.11504,23.06753],[90.11379,23.06714],[90.11334,23.06399],[90.11697,23.04437],[90.11768,23.03242],[90.12347,23.02551],[90.12998,23.02299],[90.12923,23.02076],[90.13014,23.01542],[90.12891,23.0134],[90.12923,23.01064],[90.12801,23.00725],[90.12638,23.0046],[90.12181,23.00322],[90.10529,23.00462],[90.09793,23.00313],[90.09449,22.99738],[90.0913,22.99407],[90.08796,22.98736],[90.08015,22.97776],[90.07405,22.97288],[90.07208,22.96846],[90.06944,22.96675],[90.06657,22.96635],[90.06072,22.96785],[90.05784,22.95718],[90.05892,22.95299],[90.05855,22.9438],[90.06014,22.93834],[90.05921,22.93367],[90.05692,22.92999],[90.04047,22.93066],[90.03509,22.92855],[90.03467,22.91948],[90.03169,22.90926],[90.02638,22.89876],[90.02514,22.89341],[90.0206,22.88272],[90.02059,22.87564],[90.01768,22.86642],[89.99922,22.86388],[89.98825,22.8612],[89.98627,22.85908],[89.98238,22.85682],[89.97144,22.85461],[89.97092,22.85678],[89.97147,22.86768],[89.97062,22.87102],[89.96889,22.8742],[89.96641,22.87664],[89.96363,22.87719],[89.96125,22.87875],[89.958,22.8858],[89.96031,22.89743],[89.96193,22.90057],[89.97237,22.91049],[89.97358,22.91456],[89.97289,22.91686],[89.97383,22.9254],[89.97327,22.92799],[89.97218,22.92956],[89.96954,22.93033],[89.96319,22.92891],[89.96015,22.92653],[89.95552,22.9189],[89.95139,22.9171],[89.93954,22.9162],[89.93339,22.91886],[89.93256,22.92857],[89.92962,22.92986],[89.92742,22.93752],[89.9313,22.94431],[89.93353,22.94681],[89.93628,22.94827],[89.93967,22.95581],[89.94189,22.95785],[89.94755,22.96996],[89.94804,22.97242],[89.94677,22.97387],[89.94057,22.97681],[89.93834,22.97994],[89.9353,22.98755],[89.931,22.98943],[89.92679,22.99006],[89.92241,22.98827],[89.9249,23.00001],[89.92774,23.00204],[89.93499,23.00185],[89.93707,23.00297],[89.93935,23.00811],[89.94268,23.01014],[89.94599,23.0112],[89.95403,23.0103],[89.95784,23.0114],[89.96377,23.01839],[89.96236,23.03312],[89.96463,23.04842],[89.96671,23.04994],[89.96725,23.052],[89.96721,23.06377],[89.96569,23.0708],[89.96879,23.0788],[89.96812,23.08196],[89.96996,23.08964],[89.9696,23.09303],[89.97096,23.10673],[89.98142,23.10793],[89.98763,23.10769],[89.9902,23.11168],[89.99471,23.12971],[90.00258,23.12928],[90.0054,23.13028],[90.01147,23.13531],[90.01366,23.13598],[90.0198,23.13264],[90.0199,23.12643],[90.03874,23.12242],[90.04816,23.11898],[90.04381,23.11072],[90.04387,23.10772],[90.04494,23.1053],[90.04677,23.1043],[90.05173,23.1043],[90.05436,23.10513],[90.0555,23.10873],[90.06251,23.11399],[90.06515,23.11786],[90.07612,23.11727],[90.08008,23.11951],[90.08495,23.12577]]]}},{"type":"Feature","properties":{"name":"Muksudpur","district_id":"gopalganj","pcode":"303558","sql_upazila_id":"gopalganj-muksudpur","sql_name_bn":"মুকসুদপুর"},"geometry":{"type":"Polygon","coordinates":[[[89.95264,23.3551],[89.95421,23.35887],[89.95743,23.36056],[89.95989,23.35973],[89.96494,23.35439],[89.97515,23.35226],[89.97791,23.35079],[89.98402,23.34297],[89.98401,23.33424],[89.98969,23.33251],[89.99385,23.3296],[90.00089,23.32727],[90.00979,23.322],[90.01464,23.32212],[90.01884,23.32351],[90.01953,23.32936],[90.02209,23.32961],[90.02634,23.32772],[90.02763,23.32484],[90.01749,23.31106],[90.00979,23.30598],[90.00985,23.30322],[90.0192,23.29864],[90.02254,23.28958],[90.02684,23.28752],[90.02806,23.28131],[90.02535,23.27439],[90.02891,23.27211],[90.03051,23.26939],[90.03124,23.26571],[90.03495,23.26457],[90.03395,23.2617],[90.02773,23.25587],[90.02674,23.25365],[90.02988,23.24982],[90.0303,23.24608],[90.0267,23.24383],[90.02727,23.23894],[90.02643,23.23476],[90.02469,23.2326],[90.02195,23.23182],[90.01899,23.23272],[90.01585,23.23144],[90.00546,23.22226],[90.00233,23.21655],[90.00033,23.21566],[89.99407,23.2163],[89.987,23.21426],[89.98837,23.21172],[89.98421,23.20637],[89.98454,23.19626],[89.97903,23.19121],[89.97701,23.18469],[89.97909,23.18013],[89.97418,23.1776],[89.97181,23.17154],[89.96972,23.16967],[89.96859,23.1636],[89.96568,23.15881],[89.96239,23.15832],[89.95166,23.15925],[89.95033,23.15479],[89.94689,23.15414],[89.94585,23.15237],[89.94672,23.14916],[89.94565,23.14307],[89.94276,23.13892],[89.92671,23.14283],[89.92136,23.14248],[89.9212,23.15242],[89.918,23.159],[89.91958,23.1603],[89.92394,23.16065],[89.92509,23.16524],[89.92671,23.16751],[89.92649,23.16947],[89.92411,23.17145],[89.91967,23.16989],[89.91821,23.16864],[89.90529,23.17728],[89.89662,23.17806],[89.89597,23.17968],[89.89768,23.18971],[89.89733,23.19362],[89.89548,23.19421],[89.89466,23.19324],[89.88992,23.19221],[89.88545,23.18146],[89.88416,23.1736],[89.88114,23.17186],[89.87772,23.17161],[89.87639,23.17294],[89.87544,23.17582],[89.87347,23.17625],[89.87141,23.17558],[89.87008,23.17709],[89.87055,23.18443],[89.86782,23.18744],[89.86596,23.19315],[89.86154,23.19848],[89.85854,23.20086],[89.85641,23.19991],[89.85525,23.19797],[89.85255,23.19697],[89.84991,23.19797],[89.84694,23.20116],[89.84605,23.20329],[89.84735,23.20845],[89.84554,23.22012],[89.84218,23.22257],[89.84118,23.2251],[89.84134,23.23257],[89.84013,23.2374],[89.83637,23.24175],[89.83059,23.24456],[89.82988,23.25158],[89.82841,23.25613],[89.8237,23.26203],[89.82368,23.26445],[89.82575,23.27102],[89.82421,23.2742],[89.82248,23.27479],[89.82115,23.27366],[89.82076,23.27022],[89.81963,23.26954],[89.81603,23.26975],[89.81759,23.27576],[89.81965,23.27913],[89.81887,23.28063],[89.80911,23.28354],[89.808,23.28648],[89.80421,23.28962],[89.80165,23.29522],[89.8016,23.29843],[89.79935,23.30087],[89.797,23.31025],[89.8035,23.31524],[89.80613,23.31894],[89.80742,23.32358],[89.8113,23.32795],[89.81653,23.33095],[89.82059,23.3347],[89.82391,23.3384],[89.82573,23.34274],[89.82803,23.34536],[89.82997,23.34597],[89.83292,23.34416],[89.83377,23.33755],[89.83521,23.33478],[89.84159,23.33121],[89.84469,23.33037],[89.84784,23.33248],[89.85132,23.338],[89.85445,23.33918],[89.85819,23.33936],[89.86581,23.33836],[89.86699,23.33536],[89.86649,23.33238],[89.86736,23.32899],[89.86934,23.32593],[89.87433,23.3211],[89.87694,23.32366],[89.88052,23.33143],[89.88293,23.33324],[89.90234,23.34205],[89.90565,23.34258],[89.90774,23.34159],[89.912,23.33712],[89.91457,23.33548],[89.91711,23.33494],[89.91827,23.33389],[89.91877,23.33119],[89.91379,23.32803],[89.91169,23.32054],[89.90739,23.31483],[89.90736,23.31322],[89.91789,23.30869],[89.92591,23.30848],[89.92982,23.31062],[89.93146,23.32019],[89.93635,23.32192],[89.94212,23.32151],[89.94693,23.32242],[89.9539,23.32011],[89.95552,23.32033],[89.95726,23.32576],[89.96455,23.3289],[89.96635,23.33169],[89.96705,23.33765],[89.95893,23.34458],[89.95709,23.34299],[89.95565,23.33991],[89.95365,23.33941],[89.95178,23.34225],[89.95245,23.34988],[89.95264,23.3551]]]}},{"type":"Feature","properties":{"name":"Tungipara","district_id":"gopalganj","pcode":"303591","sql_upazila_id":"gopalganj-tungipara","sql_name_bn":"টুংগীপাড়া"},"geometry":{"type":"Polygon","coordinates":[[[89.92241,22.98827],[89.92679,22.99006],[89.931,22.98943],[89.9353,22.98755],[89.93834,22.97994],[89.94057,22.97681],[89.94677,22.97387],[89.94804,22.97242],[89.94755,22.96996],[89.94189,22.95785],[89.93967,22.95581],[89.93628,22.94827],[89.93353,22.94681],[89.9313,22.94431],[89.92742,22.93752],[89.92962,22.92986],[89.93256,22.92857],[89.93339,22.91886],[89.93954,22.9162],[89.95139,22.9171],[89.95552,22.9189],[89.96015,22.92653],[89.96319,22.92891],[89.96662,22.93008],[89.96954,22.93033],[89.97218,22.92956],[89.97383,22.9254],[89.97289,22.91686],[89.97358,22.91456],[89.97237,22.91049],[89.96193,22.90057],[89.96031,22.89743],[89.958,22.8858],[89.96125,22.87875],[89.96363,22.87719],[89.96641,22.87664],[89.96889,22.8742],[89.97062,22.87102],[89.97147,22.86768],[89.97092,22.85678],[89.97144,22.85461],[89.96394,22.85105],[89.95294,22.85196],[89.951,22.85355],[89.94961,22.85736],[89.94098,22.8617],[89.939,22.86192],[89.93847,22.86033],[89.94251,22.85362],[89.94313,22.8511],[89.94344,22.84852],[89.94209,22.84415],[89.94233,22.84129],[89.94639,22.83277],[89.94867,22.82465],[89.9472,22.82062],[89.94318,22.81837],[89.93735,22.81794],[89.93729,22.82023],[89.93349,22.82653],[89.93281,22.82994],[89.92598,22.84491],[89.91872,22.83838],[89.91299,22.83641],[89.89016,22.83756],[89.88112,22.84385],[89.87318,22.84786],[89.86614,22.8477],[89.84863,22.84209],[89.84571,22.84337],[89.83929,22.85258],[89.82996,22.85564],[89.82462,22.86384],[89.81934,22.86835],[89.81821,22.87114],[89.81859,22.87325],[89.82067,22.87481],[89.825,22.8732],[89.82816,22.87006],[89.82944,22.87325],[89.82806,22.8799],[89.83081,22.87936],[89.83907,22.88108],[89.84162,22.88355],[89.84648,22.8829],[89.8489,22.87979],[89.85218,22.8801],[89.85671,22.88291],[89.85382,22.88881],[89.85118,22.891],[89.8521,22.89449],[89.85643,22.89476],[89.86724,22.89153],[89.86851,22.8926],[89.86824,22.8976],[89.86429,22.89915],[89.85758,22.90347],[89.85064,22.90802],[89.84718,22.91134],[89.84262,22.92083],[89.83872,22.92584],[89.83885,22.93182],[89.84149,22.93655],[89.84185,22.95337],[89.84494,22.95552],[89.85261,22.95176],[89.86807,22.95304],[89.87564,22.95921],[89.87893,22.959],[89.88228,22.95345],[89.88625,22.95106],[89.89089,22.9498],[89.89382,22.95115],[89.89934,22.95683],[89.906,22.95831],[89.90729,22.96036],[89.90452,22.96412],[89.90212,22.96495],[89.9005,22.9699],[89.89915,22.97124],[89.88725,22.97395],[89.8856,22.97512],[89.88519,22.98155],[89.88661,22.98441],[89.89147,22.98861],[89.89261,22.99215],[89.89514,22.99471],[89.89856,22.99479],[89.90075,22.99315],[89.90696,22.99337],[89.91329,22.98802],[89.9173,22.98735],[89.92241,22.98827]]]}}]}