{"type":"FeatureCollection","features":[{"type":"Feature","properties":{"name":"Ajmiriganj","district_id":"habiganj","pcode":"603602","sql_upazila_id":"habiganj-ajmiriganj","sql_name_bn":"আজমিরীগঞ্জ"},"geometry":{"type":"Polygon","coordinates":[[[91.33656,24.65981],[91.33671,24.65223],[91.34468,24.64925],[91.34855,24.64998],[91.35912,24.64479],[91.3618,24.64177],[91.36174,24.63781],[91.35881,24.63424],[91.35477,24.63116],[91.35043,24.62437],[91.34435,24.62757],[91.34228,24.62747],[91.34214,24.62449],[91.34526,24.62145],[91.34995,24.61934],[91.36126,24.6194],[91.36649,24.61715],[91.37248,24.61212],[91.37373,24.61603],[91.37367,24.61879],[91.3764,24.61806],[91.38607,24.61244],[91.38464,24.6102],[91.39555,24.6043],[91.39751,24.60595],[91.40077,24.6044],[91.40622,24.59876],[91.40446,24.59727],[91.41056,24.58948],[91.41314,24.58956],[91.41566,24.58436],[91.41614,24.57992],[91.41553,24.57885],[91.41313,24.57871],[91.40932,24.57259],[91.40726,24.5675],[91.40178,24.56327],[91.39425,24.56205],[91.38251,24.56361],[91.37516,24.56347],[91.37056,24.56179],[91.36534,24.56174],[91.35749,24.56311],[91.35547,24.56026],[91.35567,24.5564],[91.35715,24.55463],[91.35632,24.55161],[91.35387,24.55141],[91.35095,24.54692],[91.3478,24.54531],[91.34644,24.54169],[91.34351,24.54202],[91.34105,24.54601],[91.33734,24.54866],[91.3327,24.54997],[91.32635,24.54727],[91.31876,24.54627],[91.31524,24.54748],[91.31024,24.5507],[91.3087,24.5472],[91.30972,24.5409],[91.31143,24.53866],[91.31486,24.53642],[91.31563,24.5341],[91.31789,24.53132],[91.32362,24.52768],[91.32772,24.52145],[91.32717,24.51763],[91.32224,24.51406],[91.32041,24.51138],[91.32094,24.50516],[91.31724,24.50247],[91.31379,24.50259],[91.30862,24.5076],[91.30511,24.5076],[91.3028,24.50533],[91.29783,24.49557],[91.29802,24.49028],[91.29945,24.48725],[91.30266,24.48456],[91.30468,24.47944],[91.305,24.47558],[91.29131,24.47267],[91.2874,24.47269],[91.28403,24.47407],[91.28257,24.47636],[91.28185,24.48677],[91.28068,24.48848],[91.278,24.48903],[91.27315,24.49407],[91.27055,24.49353],[91.27039,24.48998],[91.27135,24.48628],[91.27078,24.48354],[91.26801,24.48185],[91.26099,24.48227],[91.2542,24.486],[91.23506,24.48488],[91.22619,24.48208],[91.21491,24.48235],[91.21289,24.48133],[91.21245,24.47922],[91.21693,24.47303],[91.22188,24.47256],[91.22302,24.46993],[91.22153,24.46827],[91.21569,24.46785],[91.21269,24.46899],[91.20721,24.47344],[91.20408,24.47436],[91.1996,24.46546],[91.19886,24.46198],[91.19634,24.45921],[91.19042,24.45673],[91.18655,24.45239],[91.18428,24.45305],[91.18303,24.45969],[91.18303,24.46325],[91.18478,24.46715],[91.18807,24.46881],[91.193,24.46983],[91.1951,24.4709],[91.1957,24.47231],[91.19277,24.4738],[91.18761,24.47502],[91.18425,24.4748],[91.17297,24.47854],[91.16914,24.47897],[91.15814,24.47133],[91.15434,24.47083],[91.1514,24.47447],[91.15123,24.47945],[91.15866,24.48761],[91.16253,24.48865],[91.16439,24.49199],[91.16809,24.49573],[91.17269,24.49822],[91.17626,24.49782],[91.17907,24.49481],[91.17996,24.48976],[91.17935,24.48526],[91.18087,24.48422],[91.1881,24.49033],[91.19675,24.50154],[91.2147,24.51942],[91.22826,24.55474],[91.22987,24.558],[91.23481,24.56413],[91.23438,24.5662],[91.23683,24.57435],[91.24393,24.57721],[91.24783,24.57289],[91.25928,24.57612],[91.25815,24.58143],[91.26392,24.58542],[91.26468,24.58976],[91.26968,24.5905],[91.27015,24.59525],[91.27504,24.60042],[91.27045,24.60448],[91.2743,24.60894],[91.27988,24.61012],[91.28244,24.60705],[91.28158,24.60341],[91.2796,24.60135],[91.28445,24.60009],[91.28567,24.59391],[91.2925,24.59218],[91.29824,24.59525],[91.29359,24.59932],[91.29619,24.60945],[91.30099,24.60991],[91.30568,24.62037],[91.3002,24.62274],[91.30392,24.63265],[91.31013,24.63215],[91.31192,24.63553],[91.30877,24.65022],[91.31099,24.65353],[91.31434,24.65272],[91.31793,24.65001],[91.32378,24.65664],[91.32851,24.65315],[91.33656,24.65981]]]}},{"type":"Feature","properties":{"name":"Bahubal","district_id":"habiganj","pcode":"603605","sql_upazila_id":"habiganj-bahubal","sql_name_bn":"বাহুবল"},"geometry":{"type":"Polygon","coordinates":[[[91.59862,24.42971],[91.59709,24.42558],[91.60313,24.41922],[91.59838,24.41595],[91.59879,24.41259],[91.60194,24.40795],[91.60184,24.39946],[91.60706,24.39588],[91.60737,24.38789],[91.60838,24.38429],[91.60836,24.37999],[91.60081,24.37063],[91.60119,24.36436],[91.60013,24.35527],[91.60799,24.34407],[91.60884,24.33968],[91.60635,24.33243],[91.60727,24.32803],[91.60798,24.3144],[91.61047,24.30122],[91.61468,24.28586],[91.60524,24.28523],[91.60117,24.28383],[91.59281,24.28609],[91.58254,24.28498],[91.57527,24.28645],[91.57016,24.28428],[91.56177,24.28448],[91.55732,24.2832],[91.54403,24.28438],[91.54037,24.28267],[91.53772,24.27967],[91.52783,24.27728],[91.52642,24.27538],[91.52693,24.27163],[91.5295,24.26637],[91.52935,24.26454],[91.52662,24.25993],[91.52128,24.26231],[91.51835,24.26769],[91.51083,24.2717],[91.50629,24.27243],[91.50634,24.26962],[91.50868,24.26747],[91.50958,24.26537],[91.50867,24.2646],[91.50724,24.26482],[91.50558,24.26305],[91.49586,24.27052],[91.49685,24.27295],[91.49335,24.27434],[91.4915,24.27377],[91.49018,24.27107],[91.48598,24.26967],[91.48452,24.27334],[91.48559,24.27835],[91.4883,24.28152],[91.49253,24.28882],[91.49371,24.29229],[91.49362,24.29453],[91.49099,24.29721],[91.48314,24.30076],[91.48164,24.30363],[91.48186,24.30678],[91.47582,24.31434],[91.47476,24.32098],[91.47086,24.32864],[91.47027,24.33721],[91.47153,24.34273],[91.47629,24.34899],[91.48204,24.35384],[91.48335,24.35884],[91.48576,24.36231],[91.48717,24.3707],[91.48571,24.37551],[91.48767,24.37728],[91.49009,24.37805],[91.49036,24.38097],[91.48888,24.38688],[91.49448,24.39235],[91.4929,24.39884],[91.49293,24.4032],[91.49491,24.41301],[91.49341,24.42115],[91.49905,24.43019],[91.50008,24.43314],[91.49766,24.4404],[91.49466,24.44331],[91.48389,24.44916],[91.48119,24.4581],[91.48535,24.46001],[91.49104,24.46451],[91.49855,24.4666],[91.49911,24.46405],[91.50147,24.46368],[91.50452,24.46575],[91.50596,24.46466],[91.50727,24.46548],[91.50784,24.46798],[91.51181,24.46979],[91.51297,24.47428],[91.51602,24.47618],[91.52048,24.47774],[91.52668,24.4762],[91.52734,24.46653],[91.52875,24.4643],[91.53253,24.46209],[91.53774,24.46093],[91.53967,24.45908],[91.54148,24.45896],[91.54253,24.46133],[91.54511,24.46273],[91.5492,24.46286],[91.55283,24.46147],[91.55498,24.45905],[91.55643,24.4552],[91.55678,24.44083],[91.55847,24.43784],[91.56351,24.43582],[91.58812,24.43073],[91.59862,24.42971]]]}},{"type":"Feature","properties":{"name":"Baniachong","district_id":"habiganj","pcode":"603611","sql_upazila_id":"habiganj-baniachong","sql_name_bn":"বানিয়াচং"},"geometry":{"type":"Polygon","coordinates":[[[91.40488,24.67428],[91.40063,24.66674],[91.39687,24.65619],[91.39748,24.65331],[91.40009,24.65121],[91.40099,24.64894],[91.40025,24.64695],[91.40075,24.64516],[91.40256,24.64366],[91.4057,24.6436],[91.4128,24.64605],[91.41628,24.64495],[91.42329,24.6447],[91.42625,24.64328],[91.43579,24.63628],[91.43898,24.63243],[91.44176,24.62476],[91.44442,24.62237],[91.44638,24.62264],[91.45013,24.62474],[91.45764,24.63206],[91.45816,24.63509],[91.45683,24.63857],[91.45648,24.65253],[91.46772,24.64955],[91.47209,24.6476],[91.4787,24.6492],[91.4879,24.64578],[91.49038,24.63995],[91.48916,24.63925],[91.48514,24.63946],[91.48163,24.6382],[91.47913,24.63582],[91.47823,24.63275],[91.47863,24.63073],[91.4774,24.62865],[91.47084,24.62418],[91.46945,24.62008],[91.46152,24.60804],[91.45962,24.60364],[91.46071,24.60152],[91.46712,24.59773],[91.46915,24.59393],[91.47125,24.5868],[91.46985,24.5838],[91.46664,24.58238],[91.46223,24.58212],[91.45423,24.58419],[91.45348,24.58278],[91.45385,24.5776],[91.44961,24.57294],[91.45246,24.56158],[91.45441,24.5575],[91.45757,24.55262],[91.46042,24.55062],[91.4637,24.55096],[91.46943,24.55495],[91.47671,24.55474],[91.48412,24.55637],[91.49314,24.55306],[91.49606,24.54618],[91.49557,24.54367],[91.49128,24.5432],[91.48956,24.54142],[91.49297,24.53659],[91.49591,24.53488],[91.49714,24.53306],[91.49606,24.53155],[91.49001,24.52849],[91.48769,24.52863],[91.48457,24.5276],[91.48198,24.51948],[91.47729,24.51466],[91.4778,24.51206],[91.48164,24.50974],[91.48154,24.5075],[91.47956,24.50562],[91.4705,24.50922],[91.46759,24.50864],[91.46624,24.50673],[91.46586,24.50405],[91.47041,24.50337],[91.47498,24.5016],[91.47588,24.49961],[91.4698,24.4918],[91.47187,24.48793],[91.46994,24.48559],[91.46747,24.48505],[91.46455,24.48303],[91.46469,24.48079],[91.46667,24.48014],[91.47288,24.48124],[91.47614,24.48376],[91.47925,24.48451],[91.48065,24.4824],[91.47977,24.4799],[91.47806,24.47813],[91.47572,24.47764],[91.4732,24.4752],[91.47068,24.47082],[91.47147,24.46757],[91.4642,24.46003],[91.46207,24.46022],[91.46129,24.45818],[91.46252,24.4536],[91.4612,24.44963],[91.46206,24.44805],[91.45984,24.44354],[91.45252,24.43886],[91.45098,24.43663],[91.45152,24.43483],[91.45499,24.4339],[91.45847,24.43463],[91.46153,24.43286],[91.46179,24.42659],[91.45837,24.42327],[91.45237,24.42504],[91.45182,24.42787],[91.45007,24.42942],[91.44759,24.43003],[91.44507,24.42719],[91.44595,24.42458],[91.44866,24.4223],[91.46006,24.41518],[91.462,24.41224],[91.46179,24.40949],[91.45131,24.40929],[91.44405,24.41644],[91.44035,24.41754],[91.43677,24.4163],[91.43428,24.41403],[91.43723,24.40876],[91.42499,24.39795],[91.42387,24.3996],[91.42385,24.40429],[91.41965,24.4017],[91.41707,24.39766],[91.41504,24.39859],[91.4127,24.3981],[91.41006,24.39257],[91.40658,24.38936],[91.40289,24.38955],[91.40002,24.39115],[91.39783,24.39289],[91.39856,24.39493],[91.39528,24.39717],[91.39299,24.39645],[91.39208,24.39326],[91.39313,24.39133],[91.39648,24.39081],[91.39723,24.38797],[91.39093,24.38751],[91.38931,24.38911],[91.39037,24.39143],[91.38528,24.39523],[91.38014,24.39816],[91.37806,24.39646],[91.37453,24.3975],[91.37375,24.39581],[91.37888,24.39247],[91.3784,24.39042],[91.37978,24.38894],[91.37902,24.38753],[91.37205,24.39001],[91.36865,24.3872],[91.36212,24.38979],[91.35699,24.38876],[91.3549,24.39089],[91.35297,24.38976],[91.34235,24.38939],[91.34241,24.38675],[91.33659,24.38425],[91.32937,24.37877],[91.33389,24.37086],[91.33157,24.36659],[91.32468,24.36952],[91.32085,24.36948],[91.31775,24.37166],[91.31541,24.3699],[91.31445,24.36672],[91.30976,24.36706],[91.30779,24.36512],[91.29707,24.36388],[91.29522,24.36727],[91.29187,24.36676],[91.28847,24.36217],[91.28642,24.36132],[91.28609,24.35835],[91.28122,24.35737],[91.27805,24.35806],[91.27541,24.35935],[91.27559,24.3617],[91.27274,24.36249],[91.27054,24.35958],[91.27019,24.35752],[91.26787,24.35605],[91.26731,24.35349],[91.25955,24.35255],[91.25685,24.35379],[91.25901,24.35573],[91.25835,24.35931],[91.25593,24.36249],[91.25378,24.36337],[91.25129,24.36133],[91.24066,24.3633],[91.24179,24.36579],[91.24068,24.36784],[91.2443,24.37018],[91.24548,24.37358],[91.24496,24.37486],[91.24215,24.37651],[91.24564,24.37892],[91.25378,24.3799],[91.25563,24.38179],[91.25204,24.38845],[91.24503,24.39449],[91.2451,24.39845],[91.24397,24.40113],[91.24167,24.40293],[91.2383,24.4089],[91.23527,24.40975],[91.2303,24.40693],[91.22792,24.40684],[91.22245,24.40944],[91.21911,24.41306],[91.22078,24.41679],[91.21969,24.42307],[91.21724,24.42625],[91.22263,24.42789],[91.22973,24.42544],[91.23247,24.42579],[91.23493,24.42714],[91.23619,24.42589],[91.23928,24.4256],[91.23835,24.43086],[91.23972,24.43253],[91.24243,24.43381],[91.24127,24.44108],[91.24155,24.44978],[91.23059,24.47649],[91.2281,24.4805],[91.22619,24.48208],[91.23506,24.48488],[91.2542,24.486],[91.26099,24.48227],[91.26801,24.48185],[91.27078,24.48354],[91.27135,24.48628],[91.27039,24.48998],[91.27055,24.49353],[91.27315,24.49407],[91.278,24.48903],[91.28068,24.48848],[91.28185,24.48677],[91.28257,24.47636],[91.28403,24.47407],[91.2874,24.47269],[91.29131,24.47267],[91.305,24.47558],[91.30468,24.47944],[91.30266,24.48456],[91.29945,24.48725],[91.29802,24.49028],[91.29783,24.49557],[91.3028,24.50533],[91.30511,24.5076],[91.30862,24.5076],[91.31379,24.50259],[91.31724,24.50247],[91.32094,24.50516],[91.32041,24.51138],[91.32224,24.51406],[91.32717,24.51763],[91.32772,24.52145],[91.32362,24.52768],[91.31789,24.53132],[91.31563,24.5341],[91.31486,24.53642],[91.31143,24.53866],[91.30972,24.5409],[91.3087,24.5472],[91.31024,24.5507],[91.31524,24.54748],[91.31876,24.54627],[91.32635,24.54727],[91.3327,24.54997],[91.33734,24.54866],[91.34105,24.54601],[91.34351,24.54202],[91.34644,24.54169],[91.3478,24.54531],[91.35095,24.54692],[91.35387,24.55141],[91.35632,24.55161],[91.35715,24.55463],[91.35567,24.5564],[91.35547,24.56026],[91.35749,24.56311],[91.36534,24.56174],[91.37056,24.56179],[91.37516,24.56347],[91.38251,24.56361],[91.39425,24.56205],[91.40178,24.56327],[91.40726,24.5675],[91.40932,24.57259],[91.41313,24.57871],[91.41553,24.57885],[91.41614,24.57992],[91.41566,24.58436],[91.41314,24.58956],[91.41056,24.58948],[91.40446,24.59727],[91.40622,24.59876],[91.40077,24.6044],[91.39751,24.60595],[91.39555,24.6043],[91.38464,24.6102],[91.38607,24.61244],[91.3764,24.61806],[91.37367,24.61879],[91.37373,24.61603],[91.37248,24.61212],[91.36649,24.61715],[91.36126,24.6194],[91.34995,24.61934],[91.34526,24.62145],[91.34214,24.62449],[91.34228,24.62747],[91.34435,24.62757],[91.35043,24.62437],[91.35477,24.63116],[91.35881,24.63424],[91.36174,24.63781],[91.3618,24.64177],[91.35912,24.64479],[91.34855,24.64998],[91.34468,24.64925],[91.33671,24.65223],[91.33656,24.65981],[91.33802,24.66148],[91.33496,24.66607],[91.34226,24.67557],[91.34468,24.67089],[91.34581,24.66534],[91.34764,24.66287],[91.35195,24.66364],[91.35109,24.66809],[91.358,24.67875],[91.36457,24.67944],[91.36439,24.6822],[91.36283,24.6838],[91.35661,24.68649],[91.35358,24.69028],[91.35776,24.6923],[91.36449,24.69235],[91.36716,24.68618],[91.37903,24.68863],[91.37999,24.69434],[91.38811,24.69313],[91.38699,24.68691],[91.38765,24.68075],[91.38946,24.67643],[91.39609,24.67701],[91.40127,24.67613],[91.40488,24.67428]]]}},{"type":"Feature","properties":{"name":"Chunarughat","district_id":"habiganj","pcode":"603626","sql_upazila_id":"habiganj-chunarughat","sql_name_bn":"চুনারুঘাট"},"geometry":{"type":"Polygon","coordinates":[[[91.48452,24.27334],[91.48598,24.26967],[91.49018,24.27107],[91.4915,24.27377],[91.49335,24.27434],[91.49685,24.27295],[91.49586,24.27052],[91.50558,24.26305],[91.50724,24.26482],[91.50867,24.2646],[91.50958,24.26537],[91.50868,24.26747],[91.50634,24.26962],[91.50629,24.27243],[91.51083,24.2717],[91.51835,24.26769],[91.52128,24.26231],[91.52662,24.25993],[91.52935,24.26454],[91.5295,24.26637],[91.52693,24.27163],[91.52642,24.27538],[91.52783,24.27728],[91.53772,24.27967],[91.54037,24.28267],[91.54403,24.28438],[91.55732,24.2832],[91.56177,24.28448],[91.57016,24.28428],[91.57527,24.28645],[91.58254,24.28498],[91.59281,24.28609],[91.60117,24.28383],[91.60524,24.28523],[91.61468,24.28586],[91.61367,24.2743],[91.61761,24.26256],[91.61523,24.24985],[91.61744,24.24242],[91.61783,24.23368],[91.62215,24.22715],[91.62769,24.21375],[91.6333,24.20814],[91.63311,24.20155],[91.63546,24.19853],[91.63869,24.19795],[91.64165,24.19308],[91.64545,24.18904],[91.64494,24.18492],[91.64767,24.17799],[91.64449,24.16939],[91.64674,24.15777],[91.64632,24.15532],[91.63595,24.13934],[91.63927,24.13302],[91.6416,24.12318],[91.64227,24.11632],[91.64031,24.10836],[91.63824,24.10568],[91.63023,24.10053],[91.62257,24.09737],[91.61811,24.09708],[91.61192,24.09461],[91.60585,24.09747],[91.60021,24.09843],[91.59427,24.09469],[91.59546,24.09068],[91.59927,24.08813],[91.59913,24.08647],[91.59675,24.08507],[91.5962,24.08021],[91.58842,24.07723],[91.58461,24.07611],[91.57872,24.07977],[91.5764,24.07979],[91.57127,24.07837],[91.55978,24.07891],[91.55714,24.07849],[91.5551,24.07644],[91.54797,24.07802],[91.5452,24.07612],[91.54296,24.07637],[91.5405,24.07876],[91.53612,24.08121],[91.52183,24.08455],[91.51909,24.08631],[91.50755,24.08701],[91.49643,24.08868],[91.49344,24.09034],[91.49242,24.09651],[91.49049,24.0978],[91.48152,24.09616],[91.47551,24.10011],[91.46729,24.09955],[91.46381,24.09761],[91.4552,24.09803],[91.45019,24.10084],[91.44412,24.09797],[91.44054,24.10304],[91.43874,24.10315],[91.43476,24.10112],[91.43192,24.10202],[91.43044,24.10758],[91.42532,24.10794],[91.42219,24.1092],[91.41032,24.11111],[91.40565,24.11828],[91.39439,24.14508],[91.38343,24.16223],[91.37498,24.18244],[91.37219,24.19912],[91.37391,24.20486],[91.3757,24.22315],[91.37324,24.22944],[91.37281,24.23365],[91.37808,24.2446],[91.37659,24.24734],[91.37826,24.25136],[91.39519,24.25392],[91.41425,24.25549],[91.43403,24.25518],[91.43983,24.25606],[91.44268,24.25395],[91.44556,24.25385],[91.44969,24.25645],[91.45186,24.25988],[91.44993,24.26666],[91.45058,24.26996],[91.45299,24.27177],[91.46985,24.27341],[91.47527,24.27229],[91.47913,24.27049],[91.48452,24.27334]]]}},{"type":"Feature","properties":{"name":"Habiganj S.","district_id":"habiganj","pcode":"603644","sql_upazila_id":null,"sql_name_bn":null},"geometry":{"type":"Polygon","coordinates":[[[91.48119,24.4581],[91.48389,24.44916],[91.49466,24.44331],[91.49766,24.4404],[91.50008,24.43314],[91.49905,24.43019],[91.49341,24.42115],[91.49491,24.41301],[91.49293,24.4032],[91.4929,24.39884],[91.49448,24.39235],[91.48888,24.38688],[91.49036,24.38097],[91.49009,24.37805],[91.48767,24.37728],[91.48571,24.37551],[91.48717,24.3707],[91.48576,24.36231],[91.48335,24.35884],[91.48204,24.35384],[91.47629,24.34899],[91.47153,24.34273],[91.47052,24.3398],[91.47012,24.33274],[91.47086,24.32864],[91.47476,24.32098],[91.47582,24.31434],[91.48186,24.30678],[91.48164,24.30363],[91.48314,24.30076],[91.49099,24.29721],[91.49362,24.29453],[91.49371,24.29229],[91.49253,24.28882],[91.4883,24.28152],[91.48559,24.27835],[91.48452,24.27334],[91.47913,24.27049],[91.47527,24.27229],[91.46985,24.27341],[91.45299,24.27177],[91.45058,24.26996],[91.44993,24.26666],[91.45186,24.25988],[91.44969,24.25645],[91.44556,24.25385],[91.44268,24.25395],[91.43983,24.25606],[91.43403,24.25518],[91.41425,24.25549],[91.39519,24.25392],[91.37826,24.25136],[91.37773,24.2558],[91.3751,24.2598],[91.37202,24.26249],[91.35677,24.26308],[91.35088,24.26168],[91.34689,24.26343],[91.34518,24.26056],[91.34103,24.26025],[91.33905,24.26203],[91.33815,24.26563],[91.3357,24.26824],[91.33085,24.2703],[91.332,24.27221],[91.33949,24.27804],[91.34094,24.28246],[91.33688,24.29609],[91.33871,24.29907],[91.3398,24.30638],[91.34322,24.31808],[91.3414,24.3314],[91.34026,24.35268],[91.33809,24.3543],[91.33485,24.35361],[91.32583,24.35387],[91.32217,24.35474],[91.31808,24.35862],[91.31613,24.36242],[91.31445,24.36672],[91.31541,24.3699],[91.31775,24.37166],[91.32085,24.36948],[91.32468,24.36952],[91.33157,24.36659],[91.33389,24.37086],[91.32937,24.37877],[91.33659,24.38425],[91.34241,24.38675],[91.34235,24.38939],[91.35297,24.38976],[91.3549,24.39089],[91.35699,24.38876],[91.36212,24.38979],[91.36865,24.3872],[91.37205,24.39001],[91.37902,24.38753],[91.37978,24.38894],[91.3784,24.39042],[91.37888,24.39247],[91.37375,24.39581],[91.37453,24.3975],[91.37806,24.39646],[91.38014,24.39816],[91.38528,24.39523],[91.39037,24.39143],[91.38931,24.38911],[91.39093,24.38751],[91.39723,24.38797],[91.39648,24.39081],[91.39313,24.39133],[91.39208,24.39326],[91.39299,24.39645],[91.39528,24.39717],[91.39856,24.39493],[91.39783,24.39289],[91.40002,24.39115],[91.40289,24.38955],[91.40658,24.38936],[91.41006,24.39257],[91.4127,24.3981],[91.41504,24.39859],[91.41707,24.39766],[91.41965,24.4017],[91.42385,24.40429],[91.42387,24.3996],[91.42499,24.39795],[91.43723,24.40876],[91.43428,24.41403],[91.43677,24.4163],[91.44035,24.41754],[91.44405,24.41644],[91.45131,24.40929],[91.46179,24.40949],[91.462,24.41224],[91.46006,24.41518],[91.44866,24.4223],[91.44595,24.42458],[91.44507,24.42719],[91.44759,24.43003],[91.45007,24.42942],[91.45182,24.42787],[91.45237,24.42504],[91.45837,24.42327],[91.46179,24.42659],[91.46153,24.43286],[91.45847,24.43463],[91.45499,24.4339],[91.45152,24.43483],[91.45098,24.43663],[91.45252,24.43886],[91.45984,24.44354],[91.46206,24.44805],[91.4612,24.44963],[91.46252,24.4536],[91.47398,24.45709],[91.48119,24.4581]]]}},{"type":"Feature","properties":{"name":"Lakhai","district_id":"habiganj","pcode":"603668","sql_upazila_id":"habiganj-lakhai","sql_name_bn":"লাখাই"},"geometry":{"type":"Polygon","coordinates":[[[91.31445,24.36672],[91.31808,24.35862],[91.32217,24.35474],[91.32583,24.35387],[91.33485,24.35361],[91.33809,24.3543],[91.34026,24.35268],[91.3414,24.3314],[91.34322,24.31808],[91.3398,24.30638],[91.33871,24.29907],[91.33688,24.29609],[91.34094,24.28246],[91.33949,24.27804],[91.332,24.27221],[91.32866,24.26768],[91.32254,24.26543],[91.31175,24.26925],[91.30784,24.26864],[91.30381,24.26683],[91.29619,24.26061],[91.29533,24.25834],[91.29144,24.25423],[91.28746,24.248],[91.28458,24.23846],[91.28378,24.23206],[91.28442,24.23095],[91.28958,24.22876],[91.28873,24.22661],[91.28718,24.22551],[91.2827,24.22624],[91.27705,24.2246],[91.27336,24.22605],[91.26918,24.2251],[91.2572,24.22621],[91.24039,24.23235],[91.21119,24.23502],[91.20429,24.23623],[91.19862,24.23826],[91.1937,24.24158],[91.17745,24.26342],[91.17779,24.26531],[91.18661,24.2704],[91.19423,24.27829],[91.19762,24.28546],[91.19762,24.28948],[91.19672,24.29169],[91.19534,24.29312],[91.19013,24.29284],[91.18349,24.29036],[91.17507,24.2856],[91.16247,24.2812],[91.16003,24.28284],[91.16303,24.29921],[91.17133,24.31643],[91.17309,24.31935],[91.17561,24.32099],[91.185,24.32211],[91.19778,24.32196],[91.22853,24.31442],[91.23382,24.31493],[91.23769,24.31881],[91.23882,24.32141],[91.23882,24.32687],[91.23782,24.33126],[91.23506,24.33669],[91.22738,24.34826],[91.21507,24.36154],[91.21926,24.36701],[91.21889,24.36991],[91.23016,24.36923],[91.2327,24.36748],[91.24215,24.37651],[91.24496,24.37486],[91.24548,24.37358],[91.2443,24.37018],[91.24068,24.36784],[91.24179,24.36579],[91.24066,24.3633],[91.25129,24.36133],[91.25378,24.36337],[91.25593,24.36249],[91.25835,24.35931],[91.25901,24.35573],[91.25685,24.35379],[91.25955,24.35255],[91.26731,24.35349],[91.26787,24.35605],[91.27019,24.35752],[91.27054,24.35958],[91.27274,24.36249],[91.27559,24.3617],[91.27541,24.35935],[91.28122,24.35737],[91.28609,24.35835],[91.28642,24.36132],[91.28847,24.36217],[91.29187,24.36676],[91.29522,24.36727],[91.29707,24.36388],[91.30779,24.36512],[91.30976,24.36706],[91.31445,24.36672]]]}},{"type":"Feature","properties":{"name":"Madhabpur","district_id":"habiganj","pcode":"603671","sql_upazila_id":"habiganj-madhabpur","sql_name_bn":"মাধবপুর"},"geometry":{"type":"Polygon","coordinates":[[[91.32254,24.26543],[91.32866,24.26768],[91.33085,24.2703],[91.3357,24.26824],[91.33815,24.26563],[91.33905,24.26203],[91.34103,24.26025],[91.34518,24.26056],[91.34689,24.26343],[91.35088,24.26168],[91.35677,24.26308],[91.37202,24.26249],[91.3751,24.2598],[91.37773,24.2558],[91.37826,24.25136],[91.37659,24.24734],[91.37808,24.2446],[91.37281,24.23365],[91.37324,24.22944],[91.3757,24.22315],[91.37391,24.20486],[91.37219,24.19912],[91.37498,24.18244],[91.38343,24.16223],[91.39439,24.14508],[91.40565,24.11828],[91.41032,24.11111],[91.39986,24.1108],[91.3979,24.10903],[91.39162,24.10987],[91.38631,24.10875],[91.37802,24.1095],[91.37543,24.10753],[91.37708,24.08125],[91.37841,24.07776],[91.38464,24.07041],[91.39484,24.05594],[91.39651,24.05135],[91.39083,24.02905],[91.38831,24.02478],[91.38099,24.01793],[91.37433,24.00789],[91.37433,23.99733],[91.37723,23.99487],[91.37714,23.98765],[91.37903,23.97869],[91.3782,23.97688],[91.37302,23.97838],[91.36058,23.98651],[91.35492,23.98453],[91.34814,23.98511],[91.34435,23.98439],[91.339,23.98612],[91.33475,23.99184],[91.32342,23.99539],[91.31884,23.99372],[91.30173,23.99989],[91.29674,24.0031],[91.29707,24.00689],[91.30113,24.01288],[91.29806,24.01846],[91.29918,24.01975],[91.30582,24.01721],[91.30885,24.01729],[91.31068,24.02112],[91.31031,24.02479],[91.3083,24.02828],[91.30848,24.02964],[91.31443,24.03238],[91.31481,24.03769],[91.31412,24.04091],[91.31162,24.04521],[91.30856,24.04735],[91.30412,24.06039],[91.30099,24.06071],[91.29439,24.06312],[91.28931,24.06173],[91.28838,24.06215],[91.28663,24.0778],[91.28711,24.08064],[91.29264,24.09077],[91.29331,24.09361],[91.29187,24.09731],[91.28347,24.09846],[91.28169,24.09611],[91.27912,24.09458],[91.27041,24.09774],[91.26916,24.10138],[91.26933,24.106],[91.27137,24.11028],[91.27209,24.11438],[91.27542,24.11611],[91.28271,24.11402],[91.28793,24.11547],[91.29094,24.11836],[91.29185,24.12096],[91.28994,24.12204],[91.28495,24.12001],[91.28345,24.122],[91.28324,24.12492],[91.2803,24.12557],[91.2745,24.12534],[91.27136,24.12742],[91.27153,24.13559],[91.27226,24.13825],[91.27156,24.14336],[91.26408,24.14397],[91.26244,24.14556],[91.26279,24.14812],[91.26649,24.14922],[91.26963,24.15267],[91.26959,24.15667],[91.27153,24.15998],[91.27415,24.16111],[91.27676,24.16491],[91.27801,24.16974],[91.27691,24.176],[91.27731,24.18011],[91.2803,24.18265],[91.28484,24.18275],[91.28748,24.18764],[91.29361,24.18804],[91.30193,24.19146],[91.30484,24.19349],[91.31066,24.19241],[91.31356,24.18907],[91.31581,24.19009],[91.31476,24.20447],[91.31405,24.20568],[91.30952,24.20587],[91.30756,24.20393],[91.30487,24.20303],[91.30093,24.20372],[91.28796,24.1974],[91.28359,24.1969],[91.27787,24.199],[91.2765,24.20298],[91.27822,24.20693],[91.282,24.21014],[91.28412,24.21312],[91.28457,24.22018],[91.28767,24.22032],[91.2914,24.21913],[91.2934,24.2149],[91.29653,24.21453],[91.2989,24.21743],[91.2986,24.2263],[91.30283,24.22652],[91.30737,24.22307],[91.30805,24.22614],[91.31203,24.22991],[91.3153,24.2313],[91.31733,24.23336],[91.32034,24.23299],[91.32317,24.23103],[91.32571,24.23312],[91.32499,24.2392],[91.32887,24.24377],[91.32963,24.24706],[91.32886,24.25354],[91.32535,24.2593],[91.32548,24.26284],[91.32254,24.26543]]]}},{"type":"Feature","properties":{"name":"Nabiganj","district_id":"habiganj","pcode":"603677","sql_upazila_id":"habiganj-nabiganj","sql_name_bn":"নবীগঞ্জ"},"geometry":{"type":"Polygon","coordinates":[[[91.45596,24.66529],[91.45976,24.66607],[91.46273,24.66488],[91.46715,24.66139],[91.47401,24.67062],[91.47945,24.67277],[91.48048,24.66792],[91.48676,24.66528],[91.49197,24.66784],[91.49442,24.67275],[91.49728,24.67213],[91.50028,24.67317],[91.50612,24.67273],[91.50566,24.66735],[91.51332,24.66438],[91.51826,24.66385],[91.52103,24.66909],[91.52811,24.66838],[91.52943,24.6674],[91.53056,24.66467],[91.52779,24.6607],[91.52988,24.65833],[91.53233,24.65714],[91.53485,24.66107],[91.53619,24.66556],[91.54243,24.66177],[91.54372,24.6573],[91.53884,24.65651],[91.53887,24.65323],[91.53971,24.64987],[91.54325,24.64894],[91.54661,24.65077],[91.55017,24.65426],[91.55294,24.65944],[91.54852,24.66298],[91.5526,24.67202],[91.55558,24.67237],[91.55542,24.66652],[91.5577,24.66047],[91.56053,24.6579],[91.56181,24.66727],[91.56325,24.66848],[91.56512,24.66812],[91.56915,24.66556],[91.56776,24.66056],[91.57329,24.65376],[91.57844,24.64846],[91.58223,24.64769],[91.58537,24.6489],[91.58086,24.65308],[91.57424,24.66187],[91.57829,24.66999],[91.58255,24.67368],[91.58439,24.67252],[91.5891,24.67368],[91.5927,24.67038],[91.59269,24.66757],[91.5938,24.66437],[91.59328,24.65888],[91.60297,24.65784],[91.61489,24.65832],[91.618,24.66446],[91.59842,24.6665],[91.596,24.66963],[91.59812,24.67443],[91.60918,24.67414],[91.61223,24.67477],[91.61448,24.67722],[91.61758,24.67612],[91.61661,24.67048],[91.62323,24.66197],[91.62849,24.66298],[91.63091,24.66072],[91.63282,24.66138],[91.63168,24.66498],[91.63586,24.66948],[91.63657,24.67244],[91.63984,24.67375],[91.64589,24.67278],[91.64634,24.67902],[91.65156,24.68049],[91.65892,24.68068],[91.65588,24.67499],[91.6517,24.67193],[91.64961,24.66794],[91.65453,24.66563],[91.65298,24.6596],[91.64835,24.65737],[91.64223,24.66104],[91.63965,24.65958],[91.63821,24.65602],[91.63976,24.65298],[91.64337,24.65221],[91.64948,24.65353],[91.64974,24.65128],[91.64748,24.64747],[91.64857,24.64656],[91.65276,24.64624],[91.65261,24.64061],[91.65662,24.63909],[91.66184,24.63545],[91.66629,24.63999],[91.67638,24.63566],[91.67408,24.63116],[91.67878,24.62965],[91.68188,24.62506],[91.68732,24.62566],[91.68961,24.6211],[91.68981,24.61632],[91.68542,24.61523],[91.68279,24.60907],[91.68742,24.60608],[91.69122,24.61053],[91.70193,24.60715],[91.69685,24.5985],[91.69405,24.59534],[91.68878,24.59421],[91.68549,24.59628],[91.67926,24.59232],[91.67672,24.588],[91.67929,24.58537],[91.67809,24.58261],[91.675,24.57842],[91.67134,24.57574],[91.66878,24.57985],[91.6664,24.58132],[91.66434,24.58938],[91.65851,24.58816],[91.65266,24.58953],[91.64676,24.5894],[91.64362,24.59348],[91.63076,24.59648],[91.63049,24.59855],[91.63186,24.59954],[91.63841,24.6],[91.64498,24.60187],[91.64589,24.60401],[91.64429,24.60706],[91.64094,24.61034],[91.63694,24.61089],[91.63102,24.60801],[91.62885,24.60482],[91.61544,24.59285],[91.6106,24.58748],[91.61009,24.58364],[91.61201,24.58299],[91.61416,24.58332],[91.61705,24.58602],[91.62207,24.5883],[91.62597,24.58845],[91.63708,24.58299],[91.63765,24.57814],[91.63465,24.56821],[91.6359,24.56552],[91.64329,24.56496],[91.64491,24.56352],[91.64525,24.55754],[91.64843,24.55065],[91.65526,24.55028],[91.65504,24.54834],[91.65247,24.54608],[91.64872,24.54645],[91.64298,24.54861],[91.63547,24.54516],[91.63197,24.53926],[91.63162,24.53727],[91.63957,24.53536],[91.6411,24.53186],[91.63967,24.52847],[91.63737,24.52621],[91.63534,24.52071],[91.62411,24.51585],[91.62404,24.50931],[91.61913,24.50386],[91.61471,24.50213],[91.60704,24.50201],[91.60046,24.49956],[91.59966,24.49758],[91.60155,24.49131],[91.60181,24.4874],[91.60683,24.48474],[91.60766,24.48248],[91.60677,24.47734],[91.6073,24.47393],[91.6128,24.46696],[91.61356,24.46337],[91.61244,24.45968],[91.60925,24.45601],[91.60119,24.45304],[91.60065,24.44967],[91.60148,24.4435],[91.59862,24.42971],[91.58812,24.43073],[91.57364,24.43357],[91.56351,24.43582],[91.55847,24.43784],[91.55678,24.44083],[91.55643,24.4552],[91.55498,24.45905],[91.55283,24.46147],[91.5492,24.46286],[91.54511,24.46273],[91.54253,24.46133],[91.54148,24.45896],[91.53967,24.45908],[91.53774,24.46093],[91.53253,24.46209],[91.52875,24.4643],[91.52734,24.46653],[91.52668,24.4762],[91.52048,24.47774],[91.51297,24.47428],[91.51181,24.46979],[91.50784,24.46798],[91.50727,24.46548],[91.50596,24.46466],[91.50452,24.46575],[91.50147,24.46368],[91.49911,24.46405],[91.49855,24.4666],[91.49104,24.46451],[91.48535,24.46001],[91.48119,24.4581],[91.47398,24.45709],[91.46252,24.4536],[91.46129,24.45818],[91.46207,24.46022],[91.4642,24.46003],[91.47147,24.46757],[91.47068,24.47082],[91.4732,24.4752],[91.47572,24.47764],[91.47806,24.47813],[91.47977,24.4799],[91.48065,24.4824],[91.47925,24.48451],[91.47614,24.48376],[91.47288,24.48124],[91.46667,24.48014],[91.46469,24.48079],[91.46455,24.48303],[91.46747,24.48505],[91.46994,24.48559],[91.47187,24.48793],[91.4698,24.4918],[91.47588,24.49961],[91.47498,24.5016],[91.47041,24.50337],[91.46586,24.50405],[91.46624,24.50673],[91.46759,24.50864],[91.4705,24.50922],[91.47956,24.50562],[91.48154,24.5075],[91.48164,24.50974],[91.4778,24.51206],[91.47729,24.51466],[91.48198,24.51948],[91.48457,24.5276],[91.48769,24.52863],[91.49001,24.52849],[91.49606,24.53155],[91.49714,24.53306],[91.49591,24.53488],[91.49297,24.53659],[91.48956,24.54142],[91.49128,24.5432],[91.49557,24.54367],[91.49606,24.54618],[91.49314,24.55306],[91.48412,24.55637],[91.47671,24.55474],[91.46943,24.55495],[91.4637,24.55096],[91.46042,24.55062],[91.45757,24.55262],[91.45441,24.5575],[91.45246,24.56158],[91.44961,24.57294],[91.45385,24.5776],[91.45348,24.58278],[91.45423,24.58419],[91.46223,24.58212],[91.46664,24.58238],[91.46985,24.5838],[91.47125,24.5868],[91.46915,24.59393],[91.46712,24.59773],[91.46071,24.60152],[91.45962,24.60364],[91.46152,24.60804],[91.46945,24.62008],[91.47084,24.62418],[91.4774,24.62865],[91.47863,24.63073],[91.47823,24.63275],[91.47913,24.63582],[91.48163,24.6382],[91.48514,24.63946],[91.48916,24.63925],[91.49038,24.63995],[91.4879,24.64578],[91.4787,24.6492],[91.47209,24.6476],[91.46772,24.64955],[91.45648,24.65253],[91.45683,24.63857],[91.45816,24.63509],[91.45764,24.63206],[91.45013,24.62474],[91.44638,24.62264],[91.44442,24.62237],[91.44176,24.62476],[91.43898,24.63243],[91.43579,24.63628],[91.42625,24.64328],[91.42329,24.6447],[91.41628,24.64495],[91.4128,24.64605],[91.4057,24.6436],[91.40256,24.64366],[91.40075,24.64516],[91.40025,24.64695],[91.40099,24.64894],[91.40009,24.65121],[91.39748,24.65331],[91.39687,24.65619],[91.40063,24.66674],[91.40488,24.67428],[91.4076,24.67315],[91.41006,24.66802],[91.42036,24.67442],[91.41637,24.6779],[91.42294,24.6838],[91.42796,24.68334],[91.42844,24.67758],[91.42741,24.67308],[91.42773,24.6694],[91.4301,24.66753],[91.43552,24.67584],[91.43936,24.67335],[91.44064,24.66848],[91.43559,24.66545],[91.44073,24.6559],[91.44677,24.6573],[91.45168,24.66803],[91.45596,24.66529]]]}}]}