{"type":"FeatureCollection","features":[{"type":"Feature","properties":{"name":"Baksiganj","district_id":"jamalpur","pcode":"453907","sql_upazila_id":null,"sql_name_bn":null},"geometry":{"type":"Polygon","coordinates":[[[89.83427,25.29567],[89.85088,25.29133],[89.85686,25.28846],[89.86056,25.2878],[89.87206,25.28821],[89.88148,25.28703],[89.88642,25.28779],[89.88969,25.28988],[89.89413,25.29536],[89.90638,25.30742],[89.91126,25.30869],[89.91786,25.30742],[89.93673,25.30058],[89.94102,25.3006],[89.94862,25.30397],[89.94859,25.29817],[89.95093,25.29591],[89.94484,25.29247],[89.93607,25.28318],[89.93096,25.27365],[89.92867,25.26616],[89.92691,25.26375],[89.92206,25.26173],[89.91072,25.25994],[89.90765,25.25578],[89.90143,25.23069],[89.88814,25.19579],[89.88719,25.19086],[89.88838,25.18361],[89.89124,25.18209],[89.90054,25.18316],[89.90965,25.17721],[89.91076,25.17428],[89.90924,25.17164],[89.90394,25.16653],[89.90031,25.15117],[89.9025,25.14834],[89.90293,25.1454],[89.90045,25.1375],[89.89672,25.13455],[89.89565,25.13244],[89.89717,25.13036],[89.89719,25.12146],[89.89792,25.11818],[89.89546,25.11573],[89.89371,25.10926],[89.89114,25.10704],[89.88942,25.10706],[89.888,25.10989],[89.8857,25.11106],[89.87928,25.11135],[89.87663,25.10901],[89.87637,25.10345],[89.87452,25.10272],[89.87164,25.10343],[89.86799,25.10818],[89.86796,25.1095],[89.8722,25.11267],[89.87319,25.11456],[89.87289,25.11715],[89.86994,25.12027],[89.86526,25.11969],[89.86294,25.11994],[89.86077,25.12122],[89.85917,25.12749],[89.861,25.12995],[89.8619,25.13332],[89.85923,25.13674],[89.85767,25.1375],[89.85491,25.13574],[89.85106,25.13773],[89.84879,25.13987],[89.84657,25.15155],[89.84517,25.15323],[89.84187,25.15475],[89.83858,25.15438],[89.83727,25.15249],[89.83938,25.14633],[89.83858,25.14467],[89.83134,25.14479],[89.82785,25.14161],[89.82506,25.1406],[89.82158,25.14252],[89.81376,25.14489],[89.81067,25.14481],[89.80754,25.14317],[89.80634,25.14071],[89.80747,25.13789],[89.81095,25.13366],[89.81128,25.12935],[89.80928,25.12754],[89.80402,25.12867],[89.8002,25.12486],[89.7939,25.12474],[89.79414,25.12175],[89.79633,25.11898],[89.79533,25.11686],[89.79095,25.1154],[89.78544,25.1166],[89.78078,25.11429],[89.77768,25.1115],[89.77689,25.10789],[89.77487,25.10515],[89.77324,25.1051],[89.771,25.10851],[89.77463,25.11756],[89.77394,25.12043],[89.77058,25.12207],[89.75939,25.12296],[89.75616,25.12454],[89.75608,25.13143],[89.74884,25.13666],[89.7477,25.13875],[89.74422,25.14061],[89.74126,25.1458],[89.73209,25.14696],[89.73096,25.14944],[89.72715,25.15085],[89.72196,25.14756],[89.71956,25.14718],[89.71828,25.15115],[89.72108,25.1575],[89.72061,25.15894],[89.71818,25.15994],[89.71541,25.15996],[89.71318,25.15895],[89.71185,25.15356],[89.70972,25.15162],[89.70024,25.14825],[89.69668,25.1492],[89.69406,25.15302],[89.69614,25.15564],[89.70141,25.15956],[89.71165,25.16367],[89.7258,25.17234],[89.73414,25.17313],[89.73861,25.17275],[89.74987,25.17467],[89.75567,25.17956],[89.75712,25.18196],[89.75789,25.18746],[89.76024,25.19071],[89.76892,25.19236],[89.76793,25.19554],[89.76239,25.20091],[89.75816,25.20813],[89.7562,25.21722],[89.75595,25.2229],[89.75713,25.22703],[89.75996,25.22936],[89.76244,25.23014],[89.76978,25.23089],[89.77227,25.22966],[89.77266,25.2277],[89.77058,25.22262],[89.77103,25.22065],[89.77579,25.21436],[89.77768,25.21451],[89.78045,25.22419],[89.7847,25.23507],[89.78632,25.23677],[89.81106,25.24466],[89.81377,25.24716],[89.81169,25.25206],[89.80843,25.25565],[89.79897,25.26279],[89.79235,25.27009],[89.79034,25.27785],[89.79042,25.2875],[89.79191,25.29202],[89.79428,25.29591],[89.79839,25.29897],[89.80157,25.30004],[89.80562,25.30017],[89.81506,25.29699],[89.81765,25.29432],[89.83407,25.29566],[89.83427,25.29567]]]}},{"type":"Feature","properties":{"name":"Dewanganj","district_id":"jamalpur","pcode":"453915","sql_upazila_id":"jamalpur-dewangonj","sql_name_bn":"দেওয়ানগঞ্জ"},"geometry":{"type":"Polygon","coordinates":[[[89.82988,25.41347],[89.82868,25.41264],[89.8289,25.4089],[89.83054,25.40383],[89.8303,25.40188],[89.82802,25.39461],[89.8228,25.38805],[89.82166,25.38536],[89.82425,25.3661],[89.82203,25.3586],[89.82246,25.35572],[89.82449,25.35358],[89.82551,25.34921],[89.83308,25.34127],[89.83692,25.33423],[89.83473,25.323],[89.83541,25.31966],[89.83806,25.3174],[89.84605,25.31423],[89.8474,25.31025],[89.84665,25.30825],[89.84485,25.30683],[89.84109,25.30531],[89.83888,25.30068],[89.83427,25.29567],[89.81765,25.29432],[89.81506,25.29699],[89.80926,25.29934],[89.80157,25.30004],[89.79839,25.29897],[89.79428,25.29591],[89.79191,25.29202],[89.79042,25.2875],[89.79034,25.27785],[89.79235,25.27009],[89.79897,25.26279],[89.80843,25.25565],[89.81169,25.25206],[89.81377,25.24716],[89.81106,25.24466],[89.78632,25.23677],[89.7847,25.23507],[89.78045,25.22419],[89.77768,25.21451],[89.77579,25.21436],[89.77103,25.22065],[89.77058,25.22262],[89.77266,25.2277],[89.77227,25.22966],[89.76978,25.23089],[89.76244,25.23014],[89.75996,25.22936],[89.75713,25.22703],[89.75595,25.2229],[89.7562,25.21722],[89.75816,25.20813],[89.76239,25.20091],[89.76793,25.19554],[89.76892,25.19236],[89.76024,25.19071],[89.75789,25.18746],[89.75712,25.18196],[89.75282,25.17665],[89.74987,25.17467],[89.74405,25.17357],[89.7258,25.17234],[89.71165,25.16367],[89.69904,25.15808],[89.68903,25.14834],[89.68667,25.14692],[89.67065,25.14424],[89.66197,25.13954],[89.65407,25.13885],[89.66197,25.15171],[89.67686,25.16796],[89.6792,25.17685],[89.67737,25.18381],[89.68615,25.19777],[89.69157,25.20298],[89.69483,25.20777],[89.69736,25.21681],[89.70353,25.22718],[89.70657,25.22958],[89.71085,25.23105],[89.71648,25.23153],[89.73653,25.23031],[89.74436,25.23076],[89.74662,25.23152],[89.75156,25.239],[89.75689,25.24341],[89.75056,25.2576],[89.75056,25.26073],[89.75307,25.26842],[89.75875,25.27925],[89.757,25.28274],[89.75729,25.28512],[89.75676,25.28684],[89.75406,25.29001],[89.74814,25.29522],[89.74583,25.30269],[89.74476,25.31329],[89.74075,25.32154],[89.73902,25.32855],[89.7352,25.33657],[89.73432,25.34016],[89.72701,25.35205],[89.72563,25.35576],[89.7461,25.37051],[89.74667,25.37425],[89.7517,25.37957],[89.75441,25.38067],[89.7663,25.3803],[89.77913,25.38341],[89.78147,25.38519],[89.78373,25.38896],[89.78448,25.39611],[89.78738,25.40499],[89.78672,25.40983],[89.78636,25.41081],[89.78318,25.41159],[89.78216,25.41388],[89.77711,25.4155],[89.7774,25.41754],[89.77875,25.41951],[89.77892,25.42258],[89.77711,25.42613],[89.77332,25.42806],[89.77264,25.42944],[89.77408,25.43197],[89.77689,25.43204],[89.79086,25.42796],[89.80193,25.42028],[89.81488,25.41473],[89.82747,25.41373],[89.82988,25.41347]]]}},{"type":"Feature","properties":{"name":"Islampur","district_id":"jamalpur","pcode":"453929","sql_upazila_id":"jamalpur-islampur","sql_name_bn":"ইসলামপুর"},"geometry":{"type":"Polygon","coordinates":[[[89.69406,25.15302],[89.69668,25.1492],[89.70024,25.14825],[89.70972,25.15162],[89.71185,25.15356],[89.71318,25.15895],[89.71541,25.15996],[89.71818,25.15994],[89.72061,25.15894],[89.72108,25.1575],[89.71828,25.15115],[89.71956,25.14718],[89.72196,25.14756],[89.72715,25.15085],[89.73096,25.14944],[89.73209,25.14696],[89.74126,25.1458],[89.74422,25.14061],[89.7477,25.13875],[89.74884,25.13666],[89.75608,25.13143],[89.75616,25.12454],[89.75939,25.12296],[89.77058,25.12207],[89.77394,25.12043],[89.77463,25.11756],[89.771,25.10851],[89.77324,25.1051],[89.77487,25.10515],[89.77689,25.10789],[89.77768,25.1115],[89.78288,25.11547],[89.78544,25.1166],[89.79095,25.1154],[89.79533,25.11686],[89.79633,25.11898],[89.79414,25.12175],[89.7939,25.12474],[89.8002,25.12486],[89.80402,25.12867],[89.80928,25.12754],[89.81128,25.12935],[89.81095,25.13366],[89.80747,25.13789],[89.80634,25.14071],[89.80754,25.14317],[89.81067,25.14481],[89.81376,25.14489],[89.82158,25.14252],[89.82506,25.1406],[89.82785,25.14161],[89.83134,25.14479],[89.83858,25.14467],[89.83938,25.14633],[89.83727,25.15249],[89.83858,25.15438],[89.84187,25.15475],[89.84517,25.15323],[89.84657,25.15155],[89.84879,25.13987],[89.85106,25.13773],[89.85491,25.13574],[89.85767,25.1375],[89.85923,25.13674],[89.8619,25.13332],[89.861,25.12995],[89.85917,25.12749],[89.86077,25.12122],[89.86294,25.11994],[89.86526,25.11969],[89.86994,25.12027],[89.87289,25.11715],[89.87319,25.11456],[89.8722,25.11267],[89.86796,25.1095],[89.86799,25.10818],[89.87164,25.10343],[89.87452,25.10272],[89.87637,25.10345],[89.87663,25.10901],[89.87928,25.11135],[89.8857,25.11106],[89.888,25.10989],[89.88942,25.10706],[89.89114,25.10704],[89.89371,25.10926],[89.89546,25.11573],[89.89792,25.11818],[89.90089,25.11385],[89.90398,25.10463],[89.90791,25.09879],[89.91088,25.09629],[89.91465,25.09132],[89.91582,25.08792],[89.916,25.08297],[89.91795,25.08049],[89.91615,25.06944],[89.9227,25.065],[89.91691,25.05799],[89.90867,25.05136],[89.9058,25.04771],[89.90504,25.0379],[89.88815,25.03719],[89.8823,25.03501],[89.88103,25.02283],[89.88432,25.02155],[89.89353,25.02204],[89.89416,25.01951],[89.89004,25.01357],[89.8895,25.01014],[89.89211,25.00649],[89.89325,25.00206],[89.89322,24.99833],[89.89249,24.99443],[89.88731,24.98903],[89.88653,24.98559],[89.88818,24.97902],[89.8849,24.9767],[89.8699,24.97776],[89.86757,24.98025],[89.86651,24.98537],[89.86459,24.98676],[89.85894,24.98699],[89.85446,24.9891],[89.84534,24.99664],[89.84209,25.00224],[89.84203,25.00672],[89.84457,25.01284],[89.84319,25.01492],[89.84416,25.01635],[89.84365,25.0183],[89.83794,25.02611],[89.8347,25.02769],[89.8321,25.0315],[89.83023,25.03726],[89.83013,25.05041],[89.83115,25.05287],[89.83105,25.05643],[89.8264,25.06411],[89.81234,25.0733],[89.81056,25.07498],[89.8087,25.08074],[89.80728,25.08208],[89.8047,25.08227],[89.80182,25.08011],[89.79797,25.0728],[89.7832,25.06161],[89.78021,25.05831],[89.77906,25.05476],[89.77827,25.04323],[89.77373,25.03828],[89.7727,25.03483],[89.7665,25.02897],[89.76694,25.02408],[89.7605,25.02305],[89.75529,25.01873],[89.74825,25.01673],[89.74126,25.01368],[89.7402,25.0119],[89.74127,25.00925],[89.73888,25.00698],[89.72766,25.00558],[89.72144,25.00385],[89.71613,25.0009],[89.701,24.98994],[89.69881,24.98732],[89.69965,24.98347],[89.69774,24.98321],[89.69663,24.9822],[89.69225,24.9817],[89.68346,24.98418],[89.67963,24.98417],[89.67689,24.98216],[89.67469,24.98166],[89.67098,24.97873],[89.66669,24.98494],[89.66453,24.99067],[89.66303,24.99914],[89.66355,25.00438],[89.66222,25.01131],[89.65664,25.02325],[89.65246,25.04387],[89.65764,25.04575],[89.66064,25.05025],[89.66064,25.05399],[89.65666,25.06651],[89.65823,25.07467],[89.6572,25.07627],[89.65575,25.07624],[89.65367,25.07467],[89.65021,25.07707],[89.64353,25.08502],[89.64321,25.08729],[89.64856,25.09869],[89.65538,25.10728],[89.65599,25.10989],[89.65331,25.11857],[89.6528,25.12517],[89.65407,25.13885],[89.66197,25.13954],[89.67065,25.14424],[89.68667,25.14692],[89.68903,25.14834],[89.69406,25.15302]]]}},{"type":"Feature","properties":{"name":"Jamalpur S.","district_id":"jamalpur","pcode":"453936","sql_upazila_id":null,"sql_name_bn":null},"geometry":{"type":"Polygon","coordinates":[[[90.11358,24.91549],[90.12216,24.91217],[90.1254,24.91323],[90.12714,24.91241],[90.12865,24.91015],[90.13605,24.90973],[90.14163,24.90697],[90.14552,24.9129],[90.15032,24.91376],[90.15506,24.91233],[90.15575,24.91013],[90.15395,24.90677],[90.15602,24.90428],[90.16531,24.90131],[90.17897,24.89334],[90.19629,24.892],[90.19881,24.89467],[90.20981,24.89207],[90.21439,24.88989],[90.2223,24.88365],[90.21255,24.88532],[90.20621,24.88545],[90.19904,24.87144],[90.1977,24.87021],[90.19357,24.86907],[90.19146,24.86719],[90.19122,24.8653],[90.19543,24.86454],[90.20308,24.86673],[90.20537,24.86626],[90.20628,24.86514],[90.20513,24.86202],[90.1963,24.85528],[90.19534,24.85238],[90.19569,24.84881],[90.19507,24.84682],[90.18913,24.84356],[90.18861,24.84053],[90.18953,24.83758],[90.19106,24.83449],[90.1961,24.83004],[90.19655,24.8283],[90.19483,24.82709],[90.18672,24.8283],[90.17764,24.828],[90.17492,24.82665],[90.16949,24.81917],[90.16602,24.8035],[90.1669,24.79728],[90.16548,24.79526],[90.15303,24.79246],[90.1498,24.78779],[90.14812,24.78348],[90.14667,24.78243],[90.14354,24.78184],[90.13679,24.78966],[90.13185,24.7909],[90.12125,24.78989],[90.11703,24.78542],[90.11367,24.7854],[90.10928,24.78628],[90.10663,24.78922],[90.10045,24.79306],[90.09393,24.79349],[90.07855,24.78811],[90.06988,24.78125],[90.04882,24.77631],[90.03366,24.77555],[90.02971,24.77329],[90.0274,24.76941],[90.02611,24.75897],[90.01781,24.75423],[90.01448,24.7495],[89.99705,24.739],[89.9928,24.72876],[89.98922,24.7261],[89.97601,24.72261],[89.97203,24.72202],[89.96696,24.72282],[89.96381,24.72664],[89.96069,24.73437],[89.95976,24.74137],[89.95829,24.74334],[89.95367,24.74402],[89.9453,24.74381],[89.94254,24.74608],[89.94154,24.75086],[89.93808,24.75543],[89.93365,24.75639],[89.92896,24.75483],[89.92655,24.75887],[89.92956,24.76303],[89.92898,24.76487],[89.91538,24.78975],[89.91264,24.79282],[89.90119,24.79942],[89.89602,24.80331],[89.89359,24.81137],[89.88665,24.81247],[89.88538,24.81449],[89.88722,24.81758],[89.89218,24.81977],[89.89362,24.82188],[89.88585,24.82494],[89.88309,24.83001],[89.88074,24.83142],[89.87132,24.82409],[89.86873,24.82383],[89.86732,24.82528],[89.8677,24.82769],[89.857,24.82474],[89.85217,24.82507],[89.85048,24.8275],[89.84898,24.83267],[89.8465,24.8338],[89.84039,24.83368],[89.83889,24.83639],[89.83363,24.83448],[89.83234,24.83576],[89.83145,24.84237],[89.82968,24.84445],[89.82598,24.85448],[89.8272,24.86038],[89.8297,24.86455],[89.83911,24.86894],[89.84441,24.86953],[89.84779,24.86834],[89.85576,24.86351],[89.86124,24.86174],[89.86757,24.86099],[89.87951,24.86324],[89.88636,24.86547],[89.88979,24.86705],[89.89265,24.87029],[89.8942,24.87929],[89.89276,24.88166],[89.89294,24.88395],[89.89491,24.89163],[89.89359,24.89624],[89.89304,24.90657],[89.89348,24.91117],[89.89576,24.91401],[89.89688,24.91854],[89.89688,24.92302],[89.89372,24.92982],[89.89497,24.93395],[89.89837,24.9365],[89.90096,24.93694],[89.90386,24.93961],[89.89944,24.94624],[89.90067,24.94997],[89.89314,24.96681],[89.89352,24.97157],[89.89683,24.97332],[89.8996,24.97312],[89.90308,24.96453],[89.90727,24.95898],[89.90979,24.95907],[89.92239,24.9667],[89.93099,24.9661],[89.93865,24.96271],[89.94183,24.95974],[89.94318,24.95628],[89.94568,24.93927],[89.94792,24.93614],[89.95143,24.93341],[89.96051,24.92935],[89.96928,24.92812],[89.97151,24.92701],[89.97416,24.92279],[89.97661,24.92254],[89.98788,24.92736],[89.99468,24.92781],[89.99716,24.92675],[90.00162,24.9216],[90.00354,24.92078],[90.01325,24.91936],[90.01849,24.9177],[90.02533,24.91728],[90.03016,24.92119],[90.03235,24.92548],[90.03458,24.92643],[90.03654,24.92446],[90.03624,24.9228],[90.03344,24.91915],[90.03438,24.91679],[90.04924,24.91973],[90.05893,24.91544],[90.08009,24.91435],[90.08865,24.91248],[90.09394,24.91277],[90.10628,24.91516],[90.11358,24.91549]]]}},{"type":"Feature","properties":{"name":"Madarganj","district_id":"jamalpur","pcode":"453958","sql_upazila_id":"jamalpur-madarganj","sql_name_bn":"মাদারগঞ্জ"},"geometry":{"type":"Polygon","coordinates":[[[89.69965,24.98347],[89.71348,24.9829],[89.71619,24.98063],[89.71785,24.97643],[89.71992,24.97618],[89.72127,24.97709],[89.72317,24.98282],[89.72643,24.98497],[89.73244,24.98337],[89.73609,24.98351],[89.73958,24.98223],[89.74204,24.98031],[89.74148,24.97601],[89.74274,24.97525],[89.75011,24.97858],[89.75378,24.97918],[89.76067,24.97763],[89.7627,24.976],[89.76552,24.96581],[89.76748,24.96362],[89.77226,24.96134],[89.77325,24.95317],[89.78587,24.94715],[89.78985,24.94052],[89.79553,24.93909],[89.79763,24.93752],[89.79882,24.93476],[89.79901,24.93211],[89.79771,24.92839],[89.79327,24.93182],[89.79109,24.93252],[89.7889,24.92818],[89.79071,24.92248],[89.79084,24.91812],[89.78555,24.90794],[89.7849,24.90467],[89.78518,24.90094],[89.78689,24.89644],[89.78527,24.8921],[89.77918,24.88744],[89.77804,24.88423],[89.77711,24.87562],[89.77997,24.874],[89.78345,24.87529],[89.78659,24.8748],[89.79913,24.8709],[89.80289,24.86817],[89.80465,24.8658],[89.80527,24.86093],[89.81248,24.85729],[89.81626,24.85301],[89.81836,24.85189],[89.82598,24.85448],[89.82968,24.84445],[89.83145,24.84237],[89.83234,24.83576],[89.83363,24.83448],[89.83889,24.83639],[89.84039,24.83368],[89.8465,24.8338],[89.84898,24.83267],[89.85048,24.8275],[89.84318,24.82233],[89.8366,24.82326],[89.83474,24.82173],[89.83531,24.81943],[89.83816,24.81796],[89.8388,24.81589],[89.8363,24.81396],[89.82824,24.81346],[89.82244,24.80553],[89.81833,24.80436],[89.81073,24.80701],[89.8082,24.806],[89.80453,24.80046],[89.80236,24.79882],[89.79848,24.79983],[89.79683,24.80386],[89.79475,24.80589],[89.78017,24.80618],[89.77496,24.81055],[89.76903,24.81286],[89.76253,24.81825],[89.75999,24.81927],[89.75914,24.81877],[89.75604,24.81361],[89.75182,24.8118],[89.75014,24.80974],[89.75042,24.80717],[89.75268,24.80563],[89.7524,24.80176],[89.75609,24.79559],[89.77501,24.77991],[89.77586,24.77708],[89.77572,24.77642],[89.77357,24.77743],[89.77038,24.77742],[89.76638,24.77405],[89.76077,24.76716],[89.75304,24.77549],[89.74503,24.77896],[89.74188,24.7741],[89.73999,24.7691],[89.73866,24.76815],[89.73568,24.76927],[89.73215,24.77554],[89.72943,24.77706],[89.72196,24.77904],[89.71996,24.78295],[89.72357,24.7865],[89.72713,24.7937],[89.73257,24.79728],[89.73602,24.7982],[89.74841,24.79923],[89.74975,24.80036],[89.7493,24.8035],[89.74563,24.80492],[89.73436,24.80364],[89.70767,24.81627],[89.6989,24.82301],[89.69532,24.82676],[89.69376,24.83026],[89.68597,24.83636],[89.68385,24.84101],[89.68231,24.85027],[89.67102,24.868],[89.66824,24.8823],[89.66367,24.89018],[89.66319,24.89584],[89.66665,24.89682],[89.67204,24.89698],[89.67487,24.90305],[89.68125,24.90668],[89.68602,24.90673],[89.68778,24.90813],[89.68605,24.91706],[89.67924,24.92165],[89.67572,24.92513],[89.67554,24.93734],[89.67683,24.94087],[89.67927,24.94391],[89.68178,24.95307],[89.6799,24.96337],[89.67694,24.97117],[89.67098,24.97873],[89.67469,24.98166],[89.67689,24.98216],[89.67963,24.98417],[89.68346,24.98418],[89.69225,24.9817],[89.69663,24.9822],[89.69774,24.98321],[89.69965,24.98347]]]}},{"type":"Feature","properties":{"name":"Melandaha","district_id":"jamalpur","pcode":"453961","sql_upazila_id":null,"sql_name_bn":null},"geometry":{"type":"Polygon","coordinates":[[[89.89249,24.99443],[89.89994,24.9931],[89.90361,24.99151],[89.90541,24.9834],[89.90552,24.97806],[89.90446,24.96917],[89.90308,24.96453],[89.8996,24.97312],[89.89683,24.97332],[89.89352,24.97157],[89.89314,24.96681],[89.90067,24.94997],[89.89944,24.94624],[89.90386,24.93961],[89.90096,24.93694],[89.89837,24.9365],[89.89497,24.93395],[89.89372,24.92982],[89.89688,24.92302],[89.89688,24.91854],[89.89576,24.91401],[89.89348,24.91117],[89.89304,24.90657],[89.89359,24.89624],[89.89491,24.89163],[89.89294,24.88395],[89.89276,24.88166],[89.8942,24.87929],[89.89265,24.87029],[89.88979,24.86705],[89.88636,24.86547],[89.87951,24.86324],[89.86757,24.86099],[89.86124,24.86174],[89.85576,24.86351],[89.84779,24.86834],[89.84441,24.86953],[89.83911,24.86894],[89.8297,24.86455],[89.8272,24.86038],[89.82598,24.85448],[89.81836,24.85189],[89.81626,24.85301],[89.81248,24.85729],[89.80527,24.86093],[89.80465,24.8658],[89.80289,24.86817],[89.79913,24.8709],[89.78659,24.8748],[89.78345,24.87529],[89.77997,24.874],[89.77711,24.87562],[89.77804,24.88423],[89.77918,24.88744],[89.78527,24.8921],[89.78689,24.89644],[89.78518,24.90094],[89.7849,24.90467],[89.78555,24.90794],[89.79084,24.91812],[89.79071,24.92248],[89.7889,24.92818],[89.79109,24.93252],[89.79327,24.93182],[89.79771,24.92839],[89.79901,24.93211],[89.79763,24.93752],[89.79324,24.94003],[89.78985,24.94052],[89.78587,24.94715],[89.78339,24.94878],[89.77325,24.95317],[89.77226,24.96134],[89.76748,24.96362],[89.76552,24.96581],[89.7627,24.976],[89.76067,24.97763],[89.75378,24.97918],[89.75011,24.97858],[89.74274,24.97525],[89.74148,24.97601],[89.74204,24.98031],[89.73958,24.98223],[89.73609,24.98351],[89.73244,24.98337],[89.72643,24.98497],[89.72317,24.98282],[89.72127,24.97709],[89.71992,24.97618],[89.71785,24.97643],[89.71619,24.98063],[89.71348,24.9829],[89.69965,24.98347],[89.69881,24.98732],[89.701,24.98994],[89.70749,24.99495],[89.72144,25.00385],[89.72766,25.00558],[89.73888,25.00698],[89.74127,25.00925],[89.7402,25.0119],[89.74126,25.01368],[89.74825,25.01673],[89.75529,25.01873],[89.7605,25.02305],[89.76694,25.02408],[89.7665,25.02897],[89.7727,25.03483],[89.77373,25.03828],[89.77827,25.04323],[89.77906,25.05476],[89.78021,25.05831],[89.7832,25.06161],[89.79797,25.0728],[89.80182,25.08011],[89.8047,25.08227],[89.80728,25.08208],[89.8087,25.08074],[89.81056,25.07498],[89.81234,25.0733],[89.8264,25.06411],[89.83105,25.05643],[89.83115,25.05287],[89.83013,25.05041],[89.83023,25.03726],[89.8321,25.0315],[89.8347,25.02769],[89.83794,25.02611],[89.84365,25.0183],[89.84416,25.01635],[89.84319,25.01492],[89.84457,25.01284],[89.84203,25.00672],[89.84209,25.00224],[89.84534,24.99664],[89.85446,24.9891],[89.85894,24.98699],[89.86459,24.98676],[89.86651,24.98537],[89.86757,24.98025],[89.8699,24.97776],[89.8849,24.9767],[89.88818,24.97902],[89.88653,24.98559],[89.88731,24.98903],[89.89249,24.99443]]]}},{"type":"Feature","properties":{"name":"Sarishabari","district_id":"jamalpur","pcode":"453985","sql_upazila_id":"jamalpur-sarishabari","sql_name_bn":"সরিষাবাড়ী"},"geometry":{"type":"Polygon","coordinates":[[[89.85048,24.8275],[89.85217,24.82507],[89.857,24.82474],[89.8677,24.82769],[89.86732,24.82528],[89.86873,24.82383],[89.87132,24.82409],[89.88074,24.83142],[89.88309,24.83001],[89.88585,24.82494],[89.89362,24.82188],[89.89218,24.81977],[89.88722,24.81758],[89.88538,24.81449],[89.88665,24.81247],[89.89359,24.81137],[89.89602,24.80331],[89.90119,24.79942],[89.91264,24.79282],[89.91538,24.78975],[89.92898,24.76487],[89.92956,24.76303],[89.92655,24.75887],[89.92896,24.75483],[89.92713,24.7545],[89.92429,24.75625],[89.92229,24.7565],[89.92133,24.75587],[89.925,24.75004],[89.92456,24.74769],[89.91775,24.74655],[89.91501,24.74491],[89.91241,24.74178],[89.91136,24.73789],[89.90871,24.73705],[89.90624,24.73891],[89.90412,24.74191],[89.90232,24.74245],[89.9011,24.74166],[89.9026,24.73647],[89.89946,24.73662],[89.89233,24.74013],[89.88777,24.74333],[89.88538,24.74289],[89.88062,24.73886],[89.87862,24.73475],[89.87835,24.72946],[89.88061,24.72175],[89.87957,24.71797],[89.88,24.71291],[89.88615,24.70315],[89.89272,24.70022],[89.89537,24.69819],[89.89774,24.69328],[89.89999,24.68551],[89.8993,24.6808],[89.89635,24.67619],[89.89239,24.67358],[89.88579,24.67313],[89.87982,24.67709],[89.87758,24.6759],[89.86806,24.66468],[89.86685,24.65964],[89.86712,24.65533],[89.86901,24.64854],[89.86643,24.64592],[89.86162,24.64395],[89.85168,24.6456],[89.84526,24.64496],[89.84345,24.64291],[89.84485,24.63888],[89.84743,24.63685],[89.84763,24.63472],[89.84261,24.63213],[89.84426,24.62827],[89.85081,24.61966],[89.84952,24.61806],[89.84348,24.62219],[89.84155,24.62261],[89.83969,24.61889],[89.83949,24.61568],[89.83786,24.61369],[89.83583,24.61284],[89.83438,24.60998],[89.83348,24.6093],[89.82777,24.60941],[89.82655,24.60798],[89.82862,24.60573],[89.83411,24.60453],[89.83444,24.60275],[89.83001,24.60147],[89.82378,24.59796],[89.82283,24.59527],[89.82326,24.59234],[89.827,24.58921],[89.82519,24.58715],[89.82098,24.58696],[89.8192,24.58583],[89.81614,24.58144],[89.81161,24.58366],[89.8095,24.58201],[89.81174,24.57372],[89.80691,24.5663],[89.80323,24.56462],[89.7992,24.56407],[89.79208,24.56517],[89.78953,24.56651],[89.78384,24.57277],[89.78372,24.58272],[89.78203,24.58696],[89.78217,24.58888],[89.78061,24.59415],[89.77919,24.5984],[89.7726,24.60726],[89.76888,24.6161],[89.76917,24.62232],[89.77132,24.62491],[89.77411,24.62659],[89.77756,24.62781],[89.78606,24.62865],[89.78991,24.63099],[89.79058,24.63412],[89.78962,24.65126],[89.79073,24.6622],[89.78944,24.67095],[89.79047,24.67305],[89.79395,24.67574],[89.79734,24.67632],[89.80207,24.67865],[89.80553,24.68431],[89.80219,24.69001],[89.79976,24.69067],[89.79694,24.69396],[89.79697,24.70737],[89.78848,24.71069],[89.78108,24.72112],[89.7794,24.72513],[89.77883,24.7284],[89.78148,24.73007],[89.78822,24.73003],[89.78993,24.73109],[89.79355,24.73784],[89.79384,24.74063],[89.7914,24.74403],[89.78693,24.7458],[89.78477,24.74812],[89.78605,24.76094],[89.78374,24.76891],[89.78008,24.77352],[89.77572,24.77642],[89.77501,24.77991],[89.75609,24.79559],[89.7524,24.80176],[89.75268,24.80563],[89.75042,24.80717],[89.75014,24.80974],[89.75182,24.8118],[89.75604,24.81361],[89.75999,24.81927],[89.76762,24.81466],[89.76903,24.81286],[89.77496,24.81055],[89.78017,24.80618],[89.79475,24.80589],[89.79683,24.80386],[89.79848,24.79983],[89.80236,24.79882],[89.80453,24.80046],[89.8082,24.806],[89.81073,24.80701],[89.81833,24.80436],[89.82244,24.80553],[89.82824,24.81346],[89.8363,24.81396],[89.8388,24.81589],[89.83816,24.81796],[89.83531,24.81943],[89.83474,24.82173],[89.8366,24.82326],[89.84318,24.82233],[89.84695,24.82466],[89.85048,24.8275]]]}}]}