{"type":"FeatureCollection","features":[{"type":"Feature","properties":{"name":"Abhaynagar","district_id":"jashore","pcode":"408790","sql_upazila_id":"jashore-abhaynagar","sql_name_bn":"অভয়নগর"},"geometry":{"type":"Polygon","coordinates":[[[89.38247,23.08209],[89.38459,23.08059],[89.38967,23.0796],[89.39252,23.07789],[89.39378,23.07343],[89.39585,23.07244],[89.39668,23.07458],[89.39639,23.08049],[89.39807,23.08146],[89.40783,23.07765],[89.41262,23.07743],[89.41573,23.0792],[89.41704,23.08293],[89.42494,23.09219],[89.42805,23.09974],[89.43247,23.10238],[89.43884,23.1097],[89.44092,23.10876],[89.44129,23.10664],[89.43978,23.09936],[89.44154,23.08928],[89.44143,23.08464],[89.43925,23.07826],[89.43905,23.06906],[89.44258,23.06709],[89.44785,23.06632],[89.45132,23.06476],[89.45138,23.06213],[89.44769,23.06175],[89.44358,23.06242],[89.44201,23.06071],[89.44379,23.04971],[89.44543,23.0462],[89.44815,23.04394],[89.45068,23.04728],[89.45383,23.04819],[89.45264,23.04125],[89.45445,23.03701],[89.46235,23.02996],[89.46101,23.02485],[89.46264,23.02423],[89.46623,23.02787],[89.46934,23.02649],[89.47504,23.02839],[89.48001,23.02843],[89.48656,23.03013],[89.49105,23.02979],[89.49333,23.02776],[89.49852,23.0259],[89.50292,23.01955],[89.50433,23.01355],[89.50778,23.00918],[89.51809,23.00541],[89.51645,23.00376],[89.51611,23.00211],[89.51804,23.00084],[89.52509,22.99988],[89.52448,22.99436],[89.52735,22.99407],[89.53001,22.99232],[89.53146,22.98791],[89.53408,22.98735],[89.53555,22.97906],[89.53703,22.97625],[89.54145,22.97379],[89.54281,22.96865],[89.54491,22.96715],[89.55415,22.97006],[89.55995,22.97412],[89.5634,22.98022],[89.56597,22.9823],[89.56822,22.98291],[89.56774,22.98155],[89.56926,22.97674],[89.56942,22.96989],[89.56177,22.95806],[89.56039,22.95835],[89.56039,22.95759],[89.55596,22.95391],[89.54991,22.94987],[89.54308,22.9463],[89.53406,22.94388],[89.52794,22.93944],[89.52362,22.92966],[89.51752,22.92769],[89.51244,22.92907],[89.5071,22.93219],[89.49509,22.94266],[89.48698,22.95195],[89.48674,22.95395],[89.48336,22.9582],[89.48178,22.96167],[89.48205,22.96846],[89.47979,22.97747],[89.46661,22.9948],[89.46151,23.00574],[89.45714,23.00832],[89.45409,23.0088],[89.44461,23.00615],[89.43583,22.99163],[89.4333,22.98024],[89.43198,22.96594],[89.43114,22.96245],[89.42915,22.95974],[89.42284,22.95731],[89.41442,22.95659],[89.40993,22.95486],[89.40685,22.94851],[89.40669,22.94338],[89.39986,22.93998],[89.39805,22.93615],[89.39796,22.93411],[89.39719,22.93392],[89.39642,22.93196],[89.38881,22.93134],[89.3791,22.93301],[89.37251,22.93171],[89.3661,22.92286],[89.36217,22.92123],[89.35759,22.92063],[89.35349,22.92855],[89.35341,22.93284],[89.35928,22.93486],[89.3604,22.93808],[89.35907,22.94219],[89.36044,22.94552],[89.36427,22.95012],[89.36568,22.95539],[89.3683,22.95993],[89.36752,22.9638],[89.36544,22.96736],[89.35992,22.97312],[89.3569,22.97832],[89.35488,22.99922],[89.35632,23.00907],[89.35432,23.01258],[89.35064,23.01351],[89.34783,23.0115],[89.34646,23.00749],[89.34545,23.00678],[89.34215,23.00719],[89.33989,23.00543],[89.33905,22.99174],[89.33724,22.99032],[89.336,22.99247],[89.33554,22.99622],[89.33711,23.01899],[89.33511,23.02295],[89.33219,23.02432],[89.33143,23.02641],[89.32792,23.02905],[89.32925,23.03095],[89.33084,23.03644],[89.32961,23.03918],[89.32605,23.04223],[89.32614,23.04949],[89.3197,23.05333],[89.31627,23.05958],[89.31403,23.06733],[89.31736,23.06772],[89.31217,23.07232],[89.31134,23.07647],[89.31351,23.08309],[89.3058,23.08817],[89.30526,23.09168],[89.3069,23.09369],[89.31536,23.09515],[89.32086,23.09363],[89.32401,23.09409],[89.33825,23.09323],[89.34119,23.09236],[89.34478,23.09361],[89.34789,23.09802],[89.34987,23.10762],[89.3537,23.10822],[89.35804,23.1072],[89.36211,23.1074],[89.3641,23.10561],[89.36945,23.09436],[89.37542,23.09472],[89.37951,23.09268],[89.37912,23.0893],[89.37602,23.08497],[89.37914,23.08182],[89.38247,23.08209]]]}},{"type":"Feature","properties":{"name":"Bagherpara","district_id":"jashore","pcode":"404109","sql_upazila_id":"jashore-bagherpara","sql_name_bn":"বাঘারপাড়া"},"geometry":{"type":"Polygon","coordinates":[[[89.25995,23.36752],[89.26778,23.36741],[89.27191,23.36474],[89.27705,23.36301],[89.27886,23.36117],[89.27541,23.35826],[89.27558,23.35436],[89.27863,23.35025],[89.28312,23.34619],[89.28608,23.34672],[89.28621,23.3379],[89.29042,23.33316],[89.29523,23.3303],[89.30129,23.32848],[89.30317,23.32394],[89.30825,23.31683],[89.31214,23.31703],[89.3156,23.32051],[89.31763,23.3205],[89.32041,23.31805],[89.32143,23.314],[89.3242,23.31076],[89.32528,23.30625],[89.32494,23.29596],[89.32689,23.29519],[89.33672,23.30001],[89.33965,23.29846],[89.34466,23.28786],[89.34356,23.2824],[89.34438,23.28077],[89.3474,23.281],[89.35208,23.28352],[89.36117,23.29091],[89.36466,23.29262],[89.36894,23.29727],[89.37147,23.29712],[89.37558,23.28472],[89.38401,23.282],[89.39425,23.27681],[89.40257,23.26861],[89.40929,23.26624],[89.41027,23.2634],[89.41351,23.26242],[89.41709,23.26257],[89.42163,23.25891],[89.4269,23.25242],[89.42136,23.24708],[89.41975,23.24319],[89.42342,23.23939],[89.42403,23.23633],[89.43106,23.23086],[89.42815,23.22759],[89.41814,23.22361],[89.41624,23.22088],[89.42199,23.21368],[89.41994,23.20729],[89.42072,23.20372],[89.41811,23.18796],[89.42027,23.18015],[89.41524,23.16947],[89.41508,23.16529],[89.40894,23.15991],[89.41076,23.15859],[89.41333,23.15826],[89.41309,23.15581],[89.40953,23.15314],[89.40762,23.15023],[89.40701,23.14762],[89.40827,23.14632],[89.41341,23.14498],[89.41676,23.14291],[89.41849,23.14062],[89.41622,23.13544],[89.4122,23.13444],[89.40855,23.13618],[89.40608,23.13587],[89.40302,23.13381],[89.40069,23.13396],[89.39799,23.13703],[89.39037,23.13795],[89.38772,23.13724],[89.377,23.13071],[89.37225,23.12986],[89.37073,23.13089],[89.3671,23.13125],[89.36098,23.12941],[89.35677,23.13117],[89.35432,23.12834],[89.35282,23.12491],[89.35617,23.12318],[89.3584,23.11801],[89.35834,23.11509],[89.35612,23.11494],[89.34991,23.11809],[89.34471,23.12189],[89.34173,23.12085],[89.33846,23.12315],[89.33774,23.12712],[89.33908,23.12948],[89.34238,23.12838],[89.34608,23.12876],[89.35022,23.12981],[89.35076,23.13202],[89.34348,23.13664],[89.33882,23.13755],[89.3353,23.13957],[89.33099,23.13962],[89.32526,23.14171],[89.32169,23.14162],[89.32125,23.1445],[89.32418,23.14879],[89.32396,23.1504],[89.32547,23.15184],[89.32576,23.154],[89.32207,23.16014],[89.32336,23.16261],[89.32542,23.16391],[89.33022,23.16105],[89.33366,23.16092],[89.33759,23.16318],[89.33693,23.16446],[89.32902,23.16847],[89.32697,23.17061],[89.32809,23.17692],[89.32598,23.17625],[89.31936,23.17134],[89.31538,23.16623],[89.31499,23.16292],[89.30815,23.1626],[89.30428,23.17098],[89.30213,23.17134],[89.30771,23.18825],[89.30578,23.18987],[89.30113,23.18843],[89.29896,23.19321],[89.29595,23.19692],[89.29149,23.19823],[89.2919,23.20325],[89.28974,23.20608],[89.29072,23.2085],[89.29633,23.21459],[89.29793,23.22066],[89.30223,23.2292],[89.29956,23.23101],[89.29649,23.22872],[89.2939,23.22819],[89.28519,23.22952],[89.27091,23.23285],[89.26801,23.23514],[89.26853,23.24559],[89.26558,23.24587],[89.2637,23.24731],[89.26347,23.26008],[89.26235,23.26556],[89.25571,23.26591],[89.25633,23.27213],[89.25458,23.27637],[89.25159,23.27808],[89.24778,23.2757],[89.24209,23.27447],[89.24432,23.278],[89.24418,23.28041],[89.24679,23.2842],[89.24886,23.28928],[89.25167,23.29078],[89.25034,23.29524],[89.24612,23.30037],[89.24238,23.30074],[89.23499,23.30706],[89.22799,23.31098],[89.22229,23.31233],[89.21894,23.3113],[89.21131,23.32096],[89.2119,23.323],[89.21503,23.32169],[89.21838,23.31722],[89.2203,23.31738],[89.22599,23.32181],[89.23206,23.32314],[89.2354,23.32136],[89.24444,23.32595],[89.24706,23.32804],[89.24805,23.33109],[89.24737,23.33392],[89.23866,23.33893],[89.23883,23.34104],[89.24057,23.34189],[89.24345,23.34076],[89.25422,23.34031],[89.25591,23.3414],[89.25487,23.357],[89.2573,23.36166],[89.25995,23.36752]]]}},{"type":"Feature","properties":{"name":"Chaugachha","district_id":"jashore","pcode":"404111","sql_upazila_id":null,"sql_name_bn":null},"geometry":{"type":"Polygon","coordinates":[[[89.04636,23.37146],[89.04612,23.36489],[89.04337,23.36246],[89.04462,23.36048],[89.05849,23.35759],[89.06929,23.36168],[89.07058,23.36146],[89.07069,23.35705],[89.0728,23.35486],[89.07294,23.35246],[89.07126,23.34806],[89.06868,23.3455],[89.06322,23.34386],[89.05996,23.3406],[89.05693,23.33366],[89.05966,23.33162],[89.06352,23.33023],[89.06617,23.32699],[89.0671,23.32433],[89.06541,23.31946],[89.0686,23.31563],[89.06851,23.31094],[89.06694,23.30905],[89.0587,23.30316],[89.05624,23.30381],[89.04904,23.29731],[89.0487,23.29579],[89.05025,23.29292],[89.05708,23.29909],[89.06027,23.29847],[89.06976,23.30838],[89.07354,23.30985],[89.08157,23.31048],[89.08391,23.30755],[89.09696,23.30097],[89.10381,23.29478],[89.10596,23.29493],[89.10622,23.29841],[89.10846,23.29656],[89.10986,23.29239],[89.10792,23.28759],[89.10948,23.28558],[89.12373,23.27765],[89.13364,23.27421],[89.13148,23.26794],[89.13135,23.26073],[89.12696,23.26008],[89.12358,23.25711],[89.1213,23.25673],[89.11755,23.25795],[89.11425,23.25555],[89.10726,23.24429],[89.10999,23.24168],[89.10929,23.23787],[89.11235,23.23347],[89.11283,23.22968],[89.11461,23.22606],[89.11864,23.22489],[89.11949,23.22395],[89.11607,23.22224],[89.1151,23.21958],[89.11815,23.21827],[89.11874,23.21373],[89.11783,23.21124],[89.11546,23.20984],[89.11462,23.20123],[89.11213,23.19359],[89.11358,23.19188],[89.11118,23.18859],[89.1048,23.18389],[89.10217,23.1845],[89.09686,23.18937],[89.09912,23.19519],[89.09609,23.19472],[89.09248,23.18913],[89.08631,23.18843],[89.08185,23.18023],[89.07928,23.1782],[89.07719,23.17764],[89.06979,23.18099],[89.05766,23.17312],[89.04258,23.17644],[89.03978,23.17768],[89.03761,23.18022],[89.04405,23.18246],[89.047,23.18584],[89.05109,23.18742],[89.05286,23.18999],[89.05292,23.19268],[89.05654,23.19587],[89.0466,23.20366],[89.04176,23.20136],[89.03334,23.20228],[89.03111,23.2042],[89.03246,23.20792],[89.02982,23.21145],[89.02472,23.21489],[89.02319,23.21528],[89.01978,23.21105],[89.01051,23.21234],[89.00742,23.21485],[89.00464,23.21415],[88.99746,23.20878],[88.99203,23.2076],[88.98879,23.20771],[88.99412,23.20942],[88.9947,23.21236],[88.99016,23.21734],[88.97964,23.22205],[88.97583,23.22049],[88.96813,23.21185],[88.95715,23.20705],[88.95567,23.20432],[88.95176,23.20251],[88.93973,23.20519],[88.92871,23.21261],[88.92432,23.21239],[88.92086,23.20899],[88.91916,23.20831],[88.91428,23.21055],[88.9145,23.21326],[88.91766,23.21486],[88.91939,23.22053],[88.91925,23.22485],[88.91347,23.23],[88.90687,23.22934],[88.90149,23.22726],[88.88847,23.22712],[88.90028,23.23657],[88.90214,23.24418],[88.9009,23.24702],[88.90234,23.24932],[88.91068,23.25065],[88.91444,23.25],[88.91853,23.25158],[88.92068,23.25488],[88.91797,23.25869],[88.91403,23.25871],[88.91652,23.26349],[88.91959,23.26373],[88.92359,23.26663],[88.92654,23.27357],[88.92365,23.27367],[88.92124,23.27667],[88.91694,23.2771],[88.91711,23.28001],[88.90884,23.27875],[88.90993,23.28111],[88.91211,23.28235],[88.91889,23.28287],[88.92834,23.28101],[88.93934,23.28275],[88.94103,23.28458],[88.94628,23.28234],[88.95132,23.28132],[88.9595,23.28104],[88.96068,23.27801],[88.96745,23.2747],[88.97047,23.27477],[88.97519,23.2801],[88.97785,23.28104],[88.98506,23.28045],[88.98815,23.28172],[88.99244,23.2806],[88.9954,23.28388],[88.99661,23.2867],[88.99446,23.29335],[88.99061,23.2949],[88.98746,23.29159],[88.98657,23.29311],[88.98727,23.298],[88.98308,23.29757],[88.97507,23.30048],[88.97289,23.29947],[88.97272,23.30348],[88.96915,23.30394],[88.97038,23.30654],[88.97281,23.30846],[88.97404,23.31156],[88.97362,23.31884],[88.97009,23.32177],[88.96905,23.32535],[88.97079,23.32941],[88.97778,23.3345],[88.98669,23.34341],[88.99165,23.34164],[88.99955,23.34257],[89.00953,23.3424],[89.01552,23.33984],[89.02099,23.3424],[89.02101,23.34669],[89.02321,23.34902],[89.03461,23.35298],[89.03947,23.35241],[89.0391,23.3554],[89.03606,23.35756],[89.03175,23.35743],[89.02441,23.36375],[89.02074,23.36868],[89.02641,23.37209],[89.02805,23.37049],[89.03035,23.37173],[89.033,23.37535],[89.03546,23.37516],[89.0384,23.37374],[89.03902,23.3712],[89.04081,23.37102],[89.04387,23.37309],[89.04636,23.37146]]]}},{"type":"Feature","properties":{"name":"Jessore S.","district_id":"jashore","pcode":"404191","sql_upazila_id":null,"sql_name_bn":null},"geometry":{"type":"Polygon","coordinates":[[[89.21131,23.32096],[89.21894,23.3113],[89.22229,23.31233],[89.22799,23.31098],[89.23499,23.30706],[89.24238,23.30074],[89.24612,23.30037],[89.25034,23.29524],[89.25167,23.29078],[89.24886,23.28928],[89.24679,23.2842],[89.24418,23.28041],[89.24432,23.278],[89.24209,23.27447],[89.24778,23.2757],[89.25159,23.27808],[89.25458,23.27637],[89.25633,23.27213],[89.25571,23.26591],[89.26235,23.26556],[89.26347,23.26008],[89.2637,23.24731],[89.26558,23.24587],[89.26853,23.24559],[89.26801,23.23514],[89.27091,23.23285],[89.28519,23.22952],[89.2939,23.22819],[89.29649,23.22872],[89.29956,23.23101],[89.30223,23.2292],[89.29793,23.22066],[89.29633,23.21459],[89.29072,23.2085],[89.28974,23.20608],[89.2919,23.20325],[89.29149,23.19823],[89.29595,23.19692],[89.29896,23.19321],[89.30113,23.18843],[89.30578,23.18987],[89.30771,23.18825],[89.30213,23.17134],[89.30428,23.17098],[89.30815,23.1626],[89.31499,23.16292],[89.31538,23.16623],[89.31936,23.17134],[89.32598,23.17625],[89.32809,23.17692],[89.32697,23.17061],[89.32902,23.16847],[89.33693,23.16446],[89.33759,23.16318],[89.33366,23.16092],[89.33022,23.16105],[89.32542,23.16391],[89.32336,23.16261],[89.32207,23.16014],[89.32576,23.154],[89.32547,23.15184],[89.32396,23.1504],[89.32418,23.14879],[89.32125,23.1445],[89.32169,23.14162],[89.32526,23.14171],[89.33099,23.13962],[89.3353,23.13957],[89.33882,23.13755],[89.34348,23.13664],[89.35076,23.13202],[89.35022,23.12981],[89.34608,23.12876],[89.34238,23.12838],[89.33908,23.12948],[89.33774,23.12712],[89.33846,23.12315],[89.34173,23.12085],[89.34471,23.12189],[89.34991,23.11809],[89.35612,23.11494],[89.35834,23.11509],[89.3584,23.11801],[89.35617,23.12318],[89.35282,23.12491],[89.35432,23.12834],[89.35677,23.13117],[89.36098,23.12941],[89.3671,23.13125],[89.37073,23.13089],[89.37225,23.12986],[89.377,23.13071],[89.38294,23.12116],[89.38862,23.10218],[89.38793,23.09585],[89.38247,23.08209],[89.37914,23.08182],[89.37602,23.08497],[89.37912,23.0893],[89.37951,23.09268],[89.37542,23.09472],[89.36945,23.09436],[89.3641,23.10561],[89.36211,23.1074],[89.35804,23.1072],[89.3537,23.10822],[89.34987,23.10762],[89.34789,23.09802],[89.34478,23.09361],[89.34119,23.09236],[89.33825,23.09323],[89.32401,23.09409],[89.32086,23.09363],[89.31536,23.09515],[89.31232,23.09412],[89.31012,23.0946],[89.3069,23.09369],[89.30526,23.09168],[89.3058,23.08817],[89.29834,23.08415],[89.29455,23.08498],[89.29021,23.0892],[89.28693,23.09115],[89.27903,23.09264],[89.27682,23.09581],[89.27509,23.10119],[89.27232,23.10433],[89.26914,23.10439],[89.26284,23.09781],[89.26254,23.09514],[89.2606,23.09342],[89.24852,23.08928],[89.2406,23.08975],[89.23866,23.09134],[89.23528,23.09085],[89.2337,23.0857],[89.23051,23.08621],[89.229,23.08787],[89.22672,23.08749],[89.21996,23.08121],[89.21931,23.07654],[89.21478,23.07115],[89.21146,23.0715],[89.21156,23.0739],[89.2086,23.07607],[89.21065,23.08027],[89.21103,23.08416],[89.20949,23.08673],[89.20713,23.08882],[89.2056,23.09208],[89.20363,23.09209],[89.20064,23.0898],[89.2002,23.09279],[89.19894,23.09375],[89.18945,23.09334],[89.18659,23.09184],[89.18523,23.08812],[89.18349,23.08726],[89.1769,23.09299],[89.17693,23.09762],[89.17371,23.09619],[89.17162,23.09318],[89.16809,23.09405],[89.15951,23.08691],[89.15232,23.08419],[89.1566,23.0924],[89.15622,23.09464],[89.15229,23.0981],[89.1516,23.10104],[89.15066,23.10594],[89.15312,23.10934],[89.1528,23.1117],[89.14666,23.11214],[89.13625,23.11429],[89.131,23.12305],[89.13351,23.1252],[89.13883,23.12713],[89.13974,23.12944],[89.1372,23.13142],[89.13052,23.13286],[89.12509,23.13202],[89.12119,23.13387],[89.11755,23.13949],[89.11241,23.1379],[89.11064,23.14185],[89.10934,23.15104],[89.10761,23.15701],[89.10786,23.16032],[89.10351,23.16425],[89.10592,23.17132],[89.10389,23.17442],[89.1048,23.18389],[89.11118,23.18859],[89.11358,23.19188],[89.11213,23.19359],[89.11462,23.20123],[89.11546,23.20984],[89.11783,23.21124],[89.11874,23.21373],[89.11815,23.21827],[89.1151,23.21958],[89.11607,23.22224],[89.11949,23.22395],[89.11864,23.22489],[89.11461,23.22606],[89.11283,23.22968],[89.11235,23.23347],[89.10929,23.23787],[89.10999,23.24168],[89.10726,23.24429],[89.11425,23.25555],[89.11755,23.25795],[89.1213,23.25673],[89.12358,23.25711],[89.12696,23.26008],[89.13135,23.26073],[89.13148,23.26794],[89.13364,23.27421],[89.13667,23.27744],[89.14676,23.27427],[89.14826,23.28188],[89.15333,23.28558],[89.1563,23.28331],[89.16404,23.28218],[89.16879,23.28276],[89.17352,23.28831],[89.17588,23.2896],[89.18263,23.28839],[89.20008,23.28914],[89.20228,23.29113],[89.20487,23.29464],[89.2058,23.29752],[89.20926,23.30145],[89.21018,23.30451],[89.20768,23.30924],[89.20946,23.31457],[89.21131,23.32096]]]}},{"type":"Feature","properties":{"name":"Jhikargachha","district_id":"jashore","pcode":"404123","sql_upazila_id":null,"sql_name_bn":null},"geometry":{"type":"Polygon","coordinates":[[[89.1048,23.18389],[89.10389,23.17442],[89.10592,23.17132],[89.10351,23.16425],[89.10786,23.16032],[89.10761,23.15701],[89.10934,23.15104],[89.11064,23.14185],[89.11241,23.1379],[89.11755,23.13949],[89.12119,23.13387],[89.12509,23.13202],[89.13052,23.13286],[89.1372,23.13142],[89.13974,23.12944],[89.13883,23.12713],[89.13351,23.1252],[89.131,23.12305],[89.13159,23.12143],[89.13625,23.11429],[89.14666,23.11214],[89.1528,23.1117],[89.15312,23.10934],[89.15066,23.10594],[89.1516,23.10104],[89.15229,23.0981],[89.15622,23.09464],[89.1566,23.0924],[89.15232,23.08419],[89.14863,23.0901],[89.14636,23.09053],[89.13802,23.0887],[89.12914,23.09032],[89.12622,23.08895],[89.12266,23.08867],[89.11646,23.08963],[89.11507,23.08808],[89.11427,23.08433],[89.11502,23.07881],[89.11398,23.06632],[89.11226,23.063],[89.10517,23.05593],[89.09944,23.04846],[89.09928,23.04372],[89.1032,23.03597],[89.1028,23.03461],[89.09623,23.03181],[89.0901,23.02332],[89.08318,23.01813],[89.07301,23.00349],[89.0712,22.99206],[89.07318,22.98318],[89.07682,22.98059],[89.07969,22.9798],[89.08519,22.98126],[89.10501,22.99322],[89.10908,22.99388],[89.11121,22.99323],[89.11405,22.9905],[89.11802,22.98928],[89.12153,22.98978],[89.12177,22.9765],[89.12013,22.97461],[89.11247,22.97551],[89.11046,22.97306],[89.11035,22.96734],[89.10553,22.96591],[89.0983,22.96708],[89.09523,22.96679],[89.09469,22.96457],[89.09587,22.9616],[89.09518,22.95798],[89.09027,22.9546],[89.08849,22.9518],[89.08451,22.94879],[89.08274,22.94634],[89.08116,22.94027],[89.08025,22.94123],[89.07683,22.93899],[89.07349,22.93488],[89.06003,22.93723],[89.05431,22.93343],[89.04909,22.93309],[89.04727,22.93493],[89.04826,22.94474],[89.04547,22.9438],[89.03963,22.93291],[89.03557,22.93641],[89.02605,22.93973],[89.01567,22.94907],[89.00443,22.94917],[88.99588,22.94832],[88.98985,22.96082],[88.98893,22.96761],[88.98543,22.97803],[88.98547,22.98037],[88.98676,22.98347],[88.99133,22.98818],[88.99186,22.99016],[88.9904,22.99817],[88.99326,22.99979],[88.99815,22.9991],[89.00089,23.00027],[89.00365,23.0036],[89.0042,23.00633],[89.00256,23.01091],[89.0042,23.01371],[89.00566,23.01926],[89.00828,23.02141],[89.01006,23.02415],[89.01049,23.02814],[89.00597,23.03271],[89.0043,23.03557],[89.00542,23.04314],[89.00518,23.04658],[89.00673,23.0507],[89.00677,23.05306],[89.00352,23.06014],[89.00359,23.06391],[89.00607,23.06497],[89.00268,23.07752],[89.00363,23.07913],[89.00414,23.08341],[89.00366,23.09092],[89.00642,23.09363],[89.00726,23.09572],[89.00388,23.09578],[89.00069,23.09692],[88.99763,23.10057],[88.9986,23.10357],[89.00113,23.10703],[89.00368,23.10883],[89.00983,23.10897],[89.01196,23.11078],[89.01012,23.11811],[89.01134,23.1203],[89.01086,23.12438],[89.00649,23.13454],[89.00739,23.13674],[89.01537,23.14196],[89.0097,23.14862],[89.00661,23.14793],[89.00403,23.14418],[89.00176,23.1446],[88.99655,23.15251],[88.99837,23.15427],[88.99796,23.15583],[89.00072,23.15826],[88.99969,23.16304],[89.00308,23.16659],[89.00381,23.16953],[89.00798,23.17168],[89.00956,23.17426],[89.00588,23.18744],[89.00621,23.19275],[89.00842,23.1957],[89.00779,23.19818],[89.00423,23.19848],[88.99924,23.20494],[88.99203,23.2076],[88.99746,23.20878],[89.00464,23.21415],[89.00742,23.21485],[89.01051,23.21234],[89.01978,23.21105],[89.02319,23.21528],[89.02982,23.21145],[89.03246,23.20792],[89.03111,23.2042],[89.03334,23.20228],[89.04176,23.20136],[89.0466,23.20366],[89.05654,23.19587],[89.05292,23.19268],[89.05286,23.18999],[89.05109,23.18742],[89.047,23.18584],[89.04405,23.18246],[89.03761,23.18022],[89.03978,23.17768],[89.04258,23.17644],[89.05766,23.17312],[89.06979,23.18099],[89.07719,23.17764],[89.07928,23.1782],[89.08185,23.18023],[89.08631,23.18843],[89.09248,23.18913],[89.09609,23.19472],[89.09912,23.19519],[89.09686,23.18937],[89.10217,23.1845],[89.1048,23.18389]]]}},{"type":"Feature","properties":{"name":"Keshabpur","district_id":"jashore","pcode":"404138","sql_upazila_id":"jashore-keshabpur","sql_name_bn":"কেশবপুর"},"geometry":{"type":"Polygon","coordinates":[[[89.34661,22.91862],[89.34534,22.91714],[89.34477,22.9148],[89.34675,22.90831],[89.35036,22.90541],[89.35227,22.90157],[89.35352,22.89682],[89.3606,22.88022],[89.36055,22.87844],[89.35862,22.87584],[89.35521,22.87407],[89.3523,22.87061],[89.35153,22.86757],[89.35381,22.86563],[89.35869,22.86337],[89.36013,22.85805],[89.35835,22.85483],[89.35822,22.8516],[89.35599,22.84879],[89.35408,22.84229],[89.35506,22.83574],[89.35393,22.83337],[89.35072,22.8312],[89.34016,22.82639],[89.33048,22.82416],[89.32761,22.82508],[89.32585,22.82811],[89.32868,22.83046],[89.33118,22.83467],[89.32844,22.83793],[89.31056,22.84088],[89.30231,22.84114],[89.29994,22.8424],[89.29854,22.84335],[89.30007,22.84571],[89.30711,22.84746],[89.31111,22.85127],[89.30397,22.85281],[89.3014,22.8523],[89.29794,22.8544],[89.29498,22.85838],[89.29216,22.85988],[89.29074,22.85911],[89.28918,22.85453],[89.28893,22.84966],[89.28754,22.84838],[89.28561,22.84802],[89.28281,22.84912],[89.28211,22.8505],[89.2795,22.85195],[89.27731,22.85132],[89.27642,22.8495],[89.27162,22.8484],[89.27026,22.84659],[89.27133,22.84427],[89.27126,22.83956],[89.26861,22.83962],[89.25949,22.84436],[89.25729,22.84459],[89.25393,22.84174],[89.25225,22.83655],[89.25063,22.83599],[89.24979,22.83465],[89.23942,22.83201],[89.23698,22.82879],[89.23582,22.82485],[89.22366,22.81956],[89.21804,22.81923],[89.21535,22.81561],[89.21204,22.81648],[89.20382,22.81104],[89.19781,22.81004],[89.1921,22.81308],[89.18958,22.81343],[89.18388,22.81201],[89.18049,22.81474],[89.17533,22.81496],[89.17287,22.81277],[89.17219,22.81049],[89.16984,22.81009],[89.16547,22.80191],[89.16216,22.8001],[89.16256,22.79674],[89.15518,22.79277],[89.14993,22.79254],[89.14838,22.79792],[89.14573,22.7985],[89.14538,22.80385],[89.15576,22.80914],[89.1589,22.81142],[89.16142,22.81585],[89.16254,22.81582],[89.16301,22.82179],[89.16144,22.82545],[89.15894,22.82602],[89.1526,22.83076],[89.15147,22.83049],[89.15107,22.82924],[89.15111,22.82608],[89.14758,22.82591],[89.14671,22.82514],[89.14246,22.82546],[89.14103,22.82657],[89.13908,22.83119],[89.13064,22.8387],[89.12695,22.84495],[89.12373,22.85307],[89.12409,22.85586],[89.12973,22.87105],[89.12997,22.87431],[89.12747,22.87817],[89.12308,22.88244],[89.11235,22.88946],[89.11137,22.89264],[89.11555,22.90268],[89.11819,22.90579],[89.12144,22.90607],[89.12321,22.9051],[89.12664,22.90143],[89.13506,22.89587],[89.13957,22.89428],[89.1423,22.89551],[89.14133,22.9028],[89.13219,22.92217],[89.14545,22.92193],[89.15138,22.9236],[89.15117,22.92517],[89.14917,22.92678],[89.15076,22.9297],[89.14931,22.93404],[89.15257,22.93427],[89.15638,22.93116],[89.15974,22.93035],[89.15856,22.93589],[89.15919,22.93701],[89.16207,22.93622],[89.16518,22.93222],[89.16999,22.93005],[89.17249,22.93196],[89.17552,22.93643],[89.18134,22.93519],[89.18559,22.93338],[89.1892,22.9356],[89.19341,22.93413],[89.19873,22.93623],[89.20181,22.93641],[89.20319,22.93853],[89.2056,22.93896],[89.20957,22.9379],[89.2121,22.93535],[89.21442,22.9351],[89.22209,22.94386],[89.22389,22.94448],[89.22704,22.94237],[89.229,22.93932],[89.229,22.93583],[89.22996,22.93539],[89.23161,22.93768],[89.23332,22.93733],[89.23536,22.93474],[89.24148,22.93069],[89.24667,22.93216],[89.24461,22.93693],[89.24568,22.93815],[89.25375,22.93951],[89.25828,22.94124],[89.27409,22.94278],[89.27723,22.94015],[89.28115,22.93406],[89.28374,22.93179],[89.28984,22.93237],[89.29385,22.93044],[89.29925,22.93025],[89.30254,22.92927],[89.30885,22.92235],[89.31964,22.91869],[89.32626,22.91547],[89.33352,22.91864],[89.34661,22.91862]]]}},{"type":"Feature","properties":{"name":"Manirampur","district_id":"jashore","pcode":"404161","sql_upazila_id":"jashore-manirampur","sql_name_bn":"মণিরামপুর"},"geometry":{"type":"Polygon","coordinates":[[[89.3058,23.08817],[89.31351,23.08309],[89.31134,23.07647],[89.31217,23.07232],[89.31736,23.06772],[89.31403,23.06733],[89.31627,23.05958],[89.3197,23.05333],[89.32614,23.04949],[89.32605,23.04223],[89.32961,23.03918],[89.33084,23.03644],[89.32925,23.03095],[89.32792,23.02905],[89.33143,23.02641],[89.33219,23.02432],[89.33511,23.02295],[89.33711,23.01899],[89.33554,22.99622],[89.336,22.99247],[89.33724,22.99032],[89.33905,22.99174],[89.33989,23.00543],[89.34215,23.00719],[89.34545,23.00678],[89.34646,23.00749],[89.34783,23.0115],[89.35064,23.01351],[89.35432,23.01258],[89.35632,23.00907],[89.35488,22.99922],[89.3569,22.97832],[89.35992,22.97312],[89.36544,22.96736],[89.36752,22.9638],[89.3683,22.95993],[89.36568,22.95539],[89.36427,22.95012],[89.36044,22.94552],[89.35907,22.94219],[89.3604,22.93808],[89.35928,22.93486],[89.35341,22.93284],[89.35349,22.92855],[89.35759,22.92063],[89.34661,22.91862],[89.33352,22.91864],[89.32626,22.91547],[89.31964,22.91869],[89.30885,22.92235],[89.30254,22.92927],[89.29925,22.93025],[89.29385,22.93044],[89.28984,22.93237],[89.28374,22.93179],[89.28115,22.93406],[89.27723,22.94015],[89.27409,22.94278],[89.25828,22.94124],[89.25375,22.93951],[89.24568,22.93815],[89.24461,22.93693],[89.24667,22.93216],[89.24148,22.93069],[89.23536,22.93474],[89.23332,22.93733],[89.23161,22.93768],[89.22996,22.93539],[89.229,22.93583],[89.229,22.93932],[89.22704,22.94237],[89.22389,22.94448],[89.22209,22.94386],[89.21442,22.9351],[89.2121,22.93535],[89.20957,22.9379],[89.2056,22.93896],[89.20319,22.93853],[89.20181,22.93641],[89.19873,22.93623],[89.19341,22.93413],[89.1892,22.9356],[89.18559,22.93338],[89.18134,22.93519],[89.17552,22.93643],[89.17249,22.93196],[89.16999,22.93005],[89.16518,22.93222],[89.16207,22.93622],[89.15919,22.93701],[89.15856,22.93589],[89.15974,22.93035],[89.15638,22.93116],[89.15257,22.93427],[89.14931,22.93404],[89.15076,22.9297],[89.14917,22.92678],[89.15117,22.92517],[89.15138,22.9236],[89.14545,22.92193],[89.13219,22.92217],[89.12796,22.92862],[89.12257,22.93207],[89.11363,22.93587],[89.11187,22.93805],[89.11161,22.94046],[89.11314,22.94281],[89.11636,22.94453],[89.11695,22.94674],[89.11599,22.94786],[89.1105,22.94674],[89.10613,22.94295],[89.10164,22.94225],[89.1013,22.94077],[89.10864,22.93588],[89.10928,22.93385],[89.10834,22.92976],[89.10583,22.92751],[89.09566,22.92821],[89.08866,22.93177],[89.08116,22.94027],[89.08274,22.94634],[89.08451,22.94879],[89.08849,22.9518],[89.09027,22.9546],[89.09518,22.95798],[89.09587,22.9616],[89.09469,22.96457],[89.09523,22.96679],[89.0983,22.96708],[89.10553,22.96591],[89.11035,22.96734],[89.11046,22.97306],[89.11247,22.97551],[89.12013,22.97461],[89.12177,22.9765],[89.12153,22.98978],[89.11802,22.98928],[89.11405,22.9905],[89.11121,22.99323],[89.10908,22.99388],[89.10501,22.99322],[89.08519,22.98126],[89.07969,22.9798],[89.07682,22.98059],[89.07318,22.98318],[89.0712,22.99206],[89.07301,23.00349],[89.08318,23.01813],[89.0901,23.02332],[89.09623,23.03181],[89.1028,23.03461],[89.1032,23.03597],[89.09928,23.04372],[89.09944,23.04846],[89.10517,23.05593],[89.11226,23.063],[89.11398,23.06632],[89.11502,23.07881],[89.11427,23.08433],[89.11507,23.08808],[89.11646,23.08963],[89.12266,23.08867],[89.12622,23.08895],[89.12914,23.09032],[89.13802,23.0887],[89.14636,23.09053],[89.14863,23.0901],[89.15232,23.08419],[89.15951,23.08691],[89.16809,23.09405],[89.17162,23.09318],[89.17371,23.09619],[89.17693,23.09762],[89.1769,23.09299],[89.18349,23.08726],[89.18523,23.08812],[89.18659,23.09184],[89.18945,23.09334],[89.19894,23.09375],[89.2002,23.09279],[89.20064,23.0898],[89.20363,23.09209],[89.2056,23.09208],[89.20713,23.08882],[89.20949,23.08673],[89.21103,23.08416],[89.21065,23.08027],[89.2086,23.07607],[89.21156,23.0739],[89.21146,23.0715],[89.21478,23.07115],[89.21931,23.07654],[89.21996,23.08121],[89.22672,23.08749],[89.229,23.08787],[89.23051,23.08621],[89.2337,23.0857],[89.23528,23.09085],[89.23866,23.09134],[89.2406,23.08975],[89.24852,23.08928],[89.2606,23.09342],[89.26254,23.09514],[89.26284,23.09781],[89.26914,23.10439],[89.27232,23.10433],[89.27509,23.10119],[89.27682,23.09581],[89.27903,23.09264],[89.28693,23.09115],[89.29021,23.0892],[89.29455,23.08498],[89.29834,23.08415],[89.3058,23.08817]]]}},{"type":"Feature","properties":{"name":"Sharsha","district_id":"jashore","pcode":"404190","sql_upazila_id":"jashore-sharsha","sql_name_bn":"শার্শা"},"geometry":{"type":"Polygon","coordinates":[[[88.99203,23.2076],[88.99924,23.20494],[89.00423,23.19848],[89.00779,23.19818],[89.00842,23.1957],[89.00621,23.19275],[89.00588,23.18744],[89.00956,23.17426],[89.00798,23.17168],[89.00381,23.16953],[89.00308,23.16659],[88.99969,23.16304],[89.00072,23.15826],[88.99796,23.15583],[88.99837,23.15427],[88.99655,23.15251],[89.00176,23.1446],[89.00403,23.14418],[89.00661,23.14793],[89.0097,23.14862],[89.01537,23.14196],[89.00739,23.13674],[89.00649,23.13454],[89.01086,23.12438],[89.01134,23.1203],[89.01012,23.11811],[89.01196,23.11078],[89.00983,23.10897],[89.00368,23.10883],[89.00113,23.10703],[88.9986,23.10357],[88.99763,23.10057],[89.00069,23.09692],[89.00388,23.09578],[89.00726,23.09572],[89.00642,23.09363],[89.00366,23.09092],[89.00414,23.08341],[89.00363,23.07913],[89.00268,23.07752],[89.00607,23.06497],[89.00359,23.06391],[89.00352,23.06014],[89.00677,23.05306],[89.00673,23.0507],[89.00518,23.04658],[89.00542,23.04314],[89.0043,23.03557],[89.00597,23.03271],[89.01049,23.02814],[89.01006,23.02415],[89.00828,23.02141],[89.00566,23.01926],[89.0042,23.01371],[89.00256,23.01091],[89.0042,23.00633],[89.00365,23.0036],[89.00089,23.00027],[88.99815,22.9991],[88.99326,22.99979],[88.9904,22.99817],[88.99186,22.99016],[88.99133,22.98818],[88.98676,22.98347],[88.98547,22.98037],[88.98543,22.97803],[88.98893,22.96761],[88.98985,22.96082],[88.99588,22.94832],[88.98923,22.947],[88.98865,22.9456],[88.98862,22.94433],[88.99276,22.93641],[88.99218,22.93065],[88.99367,22.92791],[88.9938,22.9223],[88.99086,22.9223],[88.98326,22.92626],[88.98035,22.92545],[88.97884,22.92287],[88.97692,22.92196],[88.96999,22.92609],[88.96857,22.92557],[88.9653,22.91795],[88.96328,22.91791],[88.96017,22.91944],[88.95458,22.92604],[88.95181,22.92596],[88.94804,22.92398],[88.94677,22.92196],[88.94479,22.92105],[88.94215,22.92109],[88.93892,22.91897],[88.93735,22.92022],[88.93359,22.92664],[88.93102,22.92678],[88.92859,22.92498],[88.9268,22.92149],[88.92415,22.92054],[88.92049,22.92172],[88.9195,22.92494],[88.92209,22.92892],[88.9222,22.93166],[88.91944,22.93175],[88.91666,22.93082],[88.91291,22.92711],[88.91046,22.92884],[88.90772,22.92803],[88.90621,22.92717],[88.90601,22.92588],[88.90326,22.9233],[88.89699,22.92674],[88.89625,22.93306],[88.89768,22.94167],[88.89729,22.94849],[88.89545,22.95051],[88.89178,22.95208],[88.88811,22.95215],[88.8754,22.95044],[88.8652,22.95296],[88.86147,22.95515],[88.86218,22.96035],[88.8673,22.96512],[88.8678,22.96786],[88.86874,22.96878],[88.8692,22.98053],[88.86797,22.9896],[88.86208,22.99411],[88.86136,22.99569],[88.84832,23.00108],[88.84673,23.00243],[88.84778,23.00549],[88.85323,23.00699],[88.86497,23.00272],[88.87035,23.00162],[88.87341,23.00434],[88.87375,23.00978],[88.87176,23.01474],[88.872,23.01838],[88.87348,23.02223],[88.87846,23.02905],[88.8793,23.03945],[88.87474,23.04579],[88.87409,23.05642],[88.87312,23.06049],[88.86868,23.06457],[88.86648,23.06886],[88.86646,23.0788],[88.86812,23.08223],[88.87108,23.08451],[88.87145,23.08586],[88.87082,23.08947],[88.86934,23.09151],[88.86957,23.09536],[88.87421,23.09765],[88.8791,23.09744],[88.88107,23.09833],[88.88422,23.1047],[88.8858,23.1056],[88.89132,23.10291],[88.89745,23.10608],[88.905,23.1154],[88.90804,23.12153],[88.91133,23.12356],[88.91821,23.12451],[88.92087,23.1261],[88.92269,23.13948],[88.92571,23.14015],[88.92867,23.13857],[88.93135,23.13858],[88.9306,23.14536],[88.93115,23.15239],[88.93731,23.16826],[88.94553,23.17366],[88.94889,23.17508],[88.95405,23.17578],[88.9555,23.17717],[88.9566,23.18168],[88.95966,23.18374],[88.96157,23.18987],[88.96342,23.19099],[88.96869,23.19214],[88.97427,23.18901],[88.97482,23.18739],[88.97605,23.18673],[88.97752,23.1822],[88.98,23.18107],[88.98196,23.18129],[88.98239,23.19038],[88.98569,23.19492],[88.98972,23.19809],[88.98947,23.19967],[88.98677,23.20239],[88.98674,23.20475],[88.98757,23.20692],[88.98879,23.20771],[88.99203,23.2076]]]}}]}