{"type":"FeatureCollection","features":[{"type":"Feature","properties":{"name":"Jhalakati S.","district_id":"jhalokati","pcode":"104240","sql_upazila_id":null,"sql_name_bn":null},"geometry":{"type":"MultiPolygon","coordinates":[[[[90.21278,22.63722],[90.21926,22.63668],[90.2197,22.63214],[90.22059,22.63063],[90.22035,22.6243],[90.21695,22.6197],[90.21651,22.61753],[90.21756,22.61032],[90.21922,22.60765],[90.21958,22.60519],[90.21803,22.60284],[90.21542,22.5933],[90.21497,22.59034],[90.21571,22.58764],[90.21329,22.58301],[90.21172,22.58208],[90.20679,22.58253],[90.20583,22.57799],[90.205,22.58028],[90.20167,22.58333],[90.19167,22.58639],[90.18639,22.59361],[90.1825,22.61333],[90.17805,22.62361],[90.17834,22.62528],[90.17944,22.62611],[90.19195,22.62861],[90.20417,22.63556],[90.21083,22.63722],[90.21278,22.63722]]],[[[90.20319,22.77604],[90.20381,22.77419],[90.20773,22.77239],[90.21246,22.77342],[90.20977,22.76543],[90.2101,22.76171],[90.21375,22.7594],[90.22097,22.75872],[90.2223,22.7572],[90.2218,22.75476],[90.22384,22.75248],[90.22526,22.75211],[90.22863,22.75323],[90.23396,22.75133],[90.2384,22.75488],[90.24298,22.75512],[90.24977,22.75433],[90.26009,22.7514],[90.25945,22.74839],[90.26089,22.74466],[90.2652,22.74118],[90.27067,22.73984],[90.27518,22.73317],[90.27726,22.73204],[90.27312,22.73014],[90.273,22.72786],[90.27362,22.71905],[90.2785,22.71608],[90.27599,22.71538],[90.27475,22.71285],[90.27675,22.70892],[90.27361,22.70517],[90.26688,22.70367],[90.25787,22.69989],[90.25692,22.7014],[90.2536,22.69959],[90.24661,22.6997],[90.24141,22.69765],[90.23905,22.6953],[90.23687,22.69233],[90.23336,22.68407],[90.23467,22.67987],[90.23638,22.67909],[90.23923,22.67474],[90.23879,22.6723],[90.23676,22.67017],[90.23598,22.66465],[90.23021,22.65931],[90.22801,22.6557],[90.22787,22.65291],[90.22235,22.64187],[90.20917,22.64111],[90.20333,22.63861],[90.19417,22.63305],[90.18417,22.63222],[90.18248,22.6328],[90.17528,22.62833],[90.17445,22.62222],[90.17778,22.61528],[90.17892,22.60197],[90.1758,22.60249],[90.17378,22.60134],[90.17299,22.5993],[90.17067,22.5981],[90.16849,22.59969],[90.16778,22.60347],[90.16895,22.61019],[90.16834,22.61287],[90.16321,22.61494],[90.14413,22.61407],[90.14175,22.61509],[90.14127,22.62258],[90.14039,22.62431],[90.14103,22.62573],[90.13974,22.62798],[90.13671,22.63039],[90.13461,22.63027],[90.13326,22.62807],[90.1334,22.62436],[90.1321,22.61719],[90.13019,22.61524],[90.12775,22.61444],[90.12497,22.61444],[90.1237,22.6159],[90.12033,22.6166],[90.11751,22.60805],[90.1123,22.60502],[90.10907,22.6188],[90.10348,22.62224],[90.10263,22.62562],[90.10348,22.63167],[90.1027,22.6351],[90.09792,22.63658],[90.09753,22.64104],[90.10236,22.6531],[90.1101,22.65566],[90.10905,22.66014],[90.11231,22.66194],[90.11971,22.66545],[90.12337,22.66364],[90.12649,22.66472],[90.13692,22.67065],[90.14169,22.67585],[90.1445,22.68361],[90.14874,22.68957],[90.1522,22.70098],[90.15726,22.70619],[90.15774,22.71375],[90.15894,22.71686],[90.16392,22.72029],[90.16571,22.72236],[90.16651,22.72474],[90.17404,22.72628],[90.17791,22.72962],[90.18271,22.73539],[90.18867,22.73834],[90.19007,22.73996],[90.18747,22.74219],[90.18452,22.74294],[90.18228,22.74476],[90.17779,22.75052],[90.17393,22.74496],[90.1678,22.74493],[90.16615,22.75027],[90.16801,22.76006],[90.16807,22.76891],[90.16973,22.77509],[90.17129,22.7758],[90.18455,22.77624],[90.19182,22.7795],[90.19084,22.7822],[90.19213,22.784],[90.19374,22.78425],[90.19837,22.78146],[90.20018,22.77708],[90.20319,22.77604]]]]}},{"type":"Feature","properties":{"name":"Kathalia","district_id":"jhalokati","pcode":"104243","sql_upazila_id":"jhalokati-kathalia","sql_name_bn":"কাঠালিয়া"},"geometry":{"type":"Polygon","coordinates":[[[90.18887,22.48802],[90.18806,22.48139],[90.18667,22.48],[90.18611,22.4814],[90.1853,22.48114],[90.18333,22.47611],[90.1775,22.46917],[90.17028,22.45389],[90.16944,22.44639],[90.17223,22.43528],[90.17194,22.43222],[90.16833,22.43083],[90.16556,22.42805],[90.16167,22.42611],[90.14972,22.4175],[90.14027,22.40917],[90.135,22.40361],[90.125,22.39056],[90.11528,22.37083],[90.11166,22.365],[90.10152,22.35689],[90.09973,22.35669],[90.09944,22.35722],[90.10083,22.35833],[90.09957,22.35865],[90.095,22.35416],[90.09194,22.34805],[90.08968,22.34579],[90.08401,22.35016],[90.0815,22.35108],[90.08083,22.35028],[90.07944,22.35167],[90.07861,22.35305],[90.08028,22.35667],[90.07889,22.35611],[90.07667,22.35333],[90.08012,22.34932],[90.07897,22.34626],[90.07714,22.34466],[90.07403,22.34593],[90.06899,22.34952],[90.06808,22.35223],[90.06656,22.35317],[90.064,22.3542],[90.05876,22.35472],[90.05268,22.35799],[90.04906,22.35893],[90.04736,22.36245],[90.0427,22.36586],[90.04039,22.36956],[90.03979,22.37272],[90.03793,22.37476],[90.03598,22.36624],[90.03275,22.36517],[90.02736,22.36677],[90.02087,22.37132],[90.02255,22.37447],[90.02354,22.37917],[90.03021,22.394],[90.03553,22.39433],[90.04096,22.39913],[90.04111,22.40266],[90.03918,22.40396],[90.03817,22.40587],[90.03849,22.40883],[90.03733,22.41154],[90.03581,22.41243],[90.03761,22.41518],[90.03648,22.41732],[90.03124,22.41994],[90.03075,22.42207],[90.03129,22.42628],[90.03378,22.42988],[90.03284,22.44327],[90.03958,22.4462],[90.04242,22.44631],[90.04295,22.4451],[90.05008,22.44168],[90.05881,22.43995],[90.06432,22.4428],[90.06677,22.44976],[90.06274,22.45128],[90.06114,22.45611],[90.06359,22.46017],[90.0656,22.46127],[90.06641,22.46405],[90.06913,22.46422],[90.06991,22.46089],[90.06882,22.45714],[90.0729,22.45461],[90.07376,22.45212],[90.0765,22.45069],[90.0785,22.45144],[90.08011,22.44952],[90.07918,22.44452],[90.08141,22.44253],[90.08269,22.4393],[90.08534,22.43919],[90.08725,22.44131],[90.08992,22.44228],[90.09261,22.44131],[90.09776,22.44456],[90.1051,22.444],[90.11008,22.45262],[90.11044,22.45906],[90.11142,22.46121],[90.11396,22.45881],[90.11681,22.45949],[90.11929,22.46223],[90.12543,22.4654],[90.12815,22.46791],[90.13033,22.47306],[90.12388,22.48166],[90.12583,22.48783],[90.13178,22.48868],[90.1358,22.49269],[90.1385,22.49698],[90.14758,22.50447],[90.15584,22.50816],[90.1587,22.50416],[90.16305,22.50046],[90.17122,22.50113],[90.17315,22.4992],[90.17543,22.49213],[90.17868,22.49142],[90.18066,22.4936],[90.18423,22.49289],[90.18716,22.48957],[90.18887,22.48802]]]}},{"type":"Feature","properties":{"name":"Nalchity","district_id":"jhalokati","pcode":"104273","sql_upazila_id":"jhalokati-nalchity","sql_name_bn":"নলছিটি"},"geometry":{"type":"MultiPolygon","coordinates":[[[[90.29806,22.6625],[90.30889,22.66],[90.31361,22.65972],[90.32417,22.66167],[90.32722,22.66111],[90.33139,22.65694],[90.33556,22.64805],[90.34,22.64417],[90.34695,22.64639],[90.35,22.65139],[90.35167,22.65306],[90.35308,22.65306],[90.35354,22.65424],[90.36013,22.65084],[90.36368,22.65344],[90.36652,22.64915],[90.37018,22.64729],[90.37458,22.64112],[90.37849,22.63737],[90.37287,22.63111],[90.35965,22.63612],[90.35663,22.63202],[90.35354,22.62993],[90.35229,22.62739],[90.34982,22.62545],[90.34375,22.62725],[90.34225,22.62661],[90.34169,22.62206],[90.34344,22.62041],[90.35198,22.62088],[90.35939,22.61808],[90.36485,22.62104],[90.37332,22.61654],[90.36998,22.61012],[90.37968,22.60537],[90.3849,22.60821],[90.38783,22.60717],[90.39005,22.60471],[90.39082,22.60138],[90.38306,22.59598],[90.37687,22.59573],[90.37418,22.59459],[90.36381,22.60227],[90.36426,22.60389],[90.3635,22.60622],[90.35599,22.61371],[90.35285,22.61147],[90.34722,22.61467],[90.34435,22.61417],[90.34251,22.61222],[90.33865,22.60473],[90.33806,22.60222],[90.33876,22.59874],[90.34071,22.59726],[90.35366,22.59354],[90.35747,22.59088],[90.35966,22.58377],[90.36082,22.57582],[90.35971,22.57322],[90.35169,22.57081],[90.35049,22.5725],[90.3455,22.57296],[90.33548,22.57932],[90.32941,22.57929],[90.32285,22.57636],[90.31841,22.57276],[90.31189,22.57372],[90.31046,22.57129],[90.30938,22.56344],[90.30826,22.56101],[90.30408,22.55746],[90.29831,22.56118],[90.29217,22.56254],[90.28503,22.55939],[90.28377,22.55623],[90.28741,22.55157],[90.28436,22.54188],[90.27409,22.53693],[90.26101,22.52433],[90.2472,22.51866],[90.23555,22.51054],[90.22719,22.50754],[90.20744,22.49664],[90.20765,22.50182],[90.21167,22.50556],[90.21306,22.50861],[90.21306,22.51361],[90.21222,22.51583],[90.20834,22.51944],[90.20584,22.52057],[90.2025,22.52083],[90.18639,22.515],[90.18528,22.51611],[90.185,22.52528],[90.18833,22.54028],[90.1975,22.56472],[90.20444,22.57111],[90.20583,22.57417],[90.20679,22.58253],[90.21172,22.58208],[90.21329,22.58301],[90.21571,22.58764],[90.21497,22.59034],[90.21542,22.5933],[90.21803,22.60284],[90.21958,22.60519],[90.21922,22.60765],[90.21756,22.61032],[90.21651,22.61753],[90.21695,22.6197],[90.22035,22.6243],[90.22059,22.63063],[90.2197,22.63214],[90.21931,22.63659],[90.22278,22.63611],[90.24111,22.63028],[90.24639,22.63083],[90.25195,22.635],[90.25694,22.6375],[90.26639,22.63972],[90.27028,22.63972],[90.27556,22.6375],[90.28111,22.63639],[90.285,22.63833],[90.2875,22.64139],[90.29056,22.65055],[90.29139,22.65556],[90.29083,22.66083],[90.29195,22.66222],[90.2951,22.66255],[90.29806,22.6625]]],[[[90.27361,22.70517],[90.27341,22.69588],[90.27919,22.69441],[90.27911,22.69128],[90.28512,22.68725],[90.28383,22.68334],[90.2851,22.68228],[90.29036,22.67987],[90.29376,22.68008],[90.29443,22.68372],[90.29621,22.68573],[90.30049,22.68614],[90.30431,22.68542],[90.3046,22.6805],[90.30782,22.6782],[90.31192,22.67662],[90.31557,22.67853],[90.32173,22.67575],[90.32354,22.67394],[90.32157,22.67205],[90.31825,22.6663],[90.31945,22.66389],[90.31667,22.665],[90.31445,22.66417],[90.30805,22.66389],[90.295,22.66722],[90.29222,22.66667],[90.28944,22.66417],[90.28806,22.66167],[90.28333,22.64389],[90.28193,22.64109],[90.27972,22.63917],[90.27556,22.64167],[90.27111,22.64305],[90.26139,22.64333],[90.25361,22.64083],[90.24528,22.63389],[90.24111,22.63305],[90.22833,22.63972],[90.22222,22.64111],[90.21545,22.64139],[90.22235,22.64187],[90.22787,22.65291],[90.22801,22.6557],[90.23021,22.65931],[90.23598,22.66465],[90.23676,22.67017],[90.23879,22.6723],[90.23923,22.67474],[90.23638,22.67909],[90.23467,22.67987],[90.23336,22.68407],[90.23687,22.69233],[90.23905,22.6953],[90.24141,22.69765],[90.24661,22.6997],[90.2536,22.69959],[90.25692,22.7014],[90.25787,22.69989],[90.26688,22.70367],[90.27361,22.70517]]]]}},{"type":"Feature","properties":{"name":"Rajapur","district_id":"jhalokati","pcode":"104284","sql_upazila_id":"jhalokati-rajapur","sql_name_bn":"রাজাপুর"},"geometry":{"type":"Polygon","coordinates":[[[90.14175,22.61509],[90.14413,22.61407],[90.16321,22.61494],[90.16834,22.61287],[90.16895,22.61019],[90.16778,22.60347],[90.16849,22.59969],[90.17067,22.5981],[90.17299,22.5993],[90.17378,22.60134],[90.1758,22.60249],[90.17892,22.60197],[90.18139,22.59417],[90.18584,22.58639],[90.18889,22.58389],[90.19972,22.58],[90.20274,22.57719],[90.20222,22.575],[90.19889,22.57083],[90.19278,22.56528],[90.18945,22.55944],[90.18806,22.55194],[90.18389,22.54222],[90.18,22.52889],[90.17973,22.51833],[90.18139,22.515],[90.18417,22.5125],[90.18639,22.51167],[90.19111,22.51222],[90.19611,22.51528],[90.19889,22.51611],[90.2075,22.51611],[90.20944,22.51361],[90.20972,22.50972],[90.20639,22.50583],[90.19778,22.50111],[90.19222,22.49667],[90.19,22.49306],[90.18887,22.48802],[90.18423,22.49289],[90.18066,22.4936],[90.17868,22.49142],[90.17543,22.49213],[90.17315,22.4992],[90.17122,22.50113],[90.16305,22.50046],[90.1587,22.50416],[90.15584,22.50816],[90.14758,22.50447],[90.1385,22.49698],[90.1358,22.49269],[90.13178,22.48868],[90.12583,22.48783],[90.12682,22.49238],[90.12632,22.49449],[90.12054,22.50029],[90.11764,22.49796],[90.11639,22.49501],[90.11597,22.49125],[90.11307,22.49132],[90.11141,22.49381],[90.10912,22.49358],[90.10649,22.49455],[90.10487,22.4967],[90.10146,22.49369],[90.09505,22.49395],[90.09192,22.49265],[90.08842,22.48856],[90.08341,22.48622],[90.08178,22.48734],[90.08325,22.49187],[90.08286,22.49326],[90.07543,22.49502],[90.07397,22.49631],[90.07361,22.49791],[90.07629,22.50699],[90.07573,22.509],[90.07375,22.50893],[90.07069,22.50557],[90.06686,22.50292],[90.06568,22.50523],[90.06935,22.51325],[90.06801,22.5258],[90.06756,22.55126],[90.06399,22.55648],[90.06303,22.56038],[90.06245,22.57359],[90.05932,22.57457],[90.0587,22.57687],[90.06157,22.58018],[90.06385,22.58703],[90.0657,22.58939],[90.06683,22.59262],[90.07048,22.59248],[90.0722,22.5897],[90.07581,22.5882],[90.07858,22.58551],[90.08799,22.58575],[90.09441,22.58778],[90.09587,22.59192],[90.10081,22.5941],[90.10244,22.59702],[90.10585,22.59734],[90.10902,22.60019],[90.1123,22.60502],[90.11751,22.60805],[90.12033,22.6166],[90.1237,22.6159],[90.12497,22.61444],[90.12775,22.61444],[90.13019,22.61524],[90.1321,22.61719],[90.1334,22.62436],[90.13326,22.62807],[90.13461,22.63027],[90.13671,22.63039],[90.13974,22.62798],[90.14103,22.62573],[90.14039,22.62431],[90.14127,22.62258],[90.14174,22.61613],[90.14175,22.61509]]]}}]}