{"type":"FeatureCollection","features":[{"type":"Feature","properties":{"name":"Harinakunda","district_id":"jhenaidah","pcode":"404414","sql_upazila_id":null,"sql_name_bn":null},"geometry":{"type":"Polygon","coordinates":[[[89.1245,23.69117],[89.12782,23.68664],[89.12875,23.68088],[89.12505,23.67798],[89.11698,23.67575],[89.11427,23.67315],[89.1131,23.66695],[89.11494,23.66277],[89.11834,23.66041],[89.12524,23.65931],[89.12988,23.65297],[89.13461,23.64919],[89.14479,23.64414],[89.15222,23.64239],[89.15334,23.64028],[89.14891,23.63146],[89.14816,23.6276],[89.15008,23.62495],[89.15748,23.62126],[89.16067,23.61084],[89.16183,23.60972],[89.1653,23.61406],[89.1662,23.61242],[89.16643,23.60531],[89.1672,23.60414],[89.17324,23.60353],[89.18108,23.60674],[89.1818,23.60546],[89.17941,23.60291],[89.17335,23.59963],[89.17188,23.59367],[89.17372,23.59017],[89.17664,23.58766],[89.18336,23.58485],[89.18211,23.57482],[89.18136,23.57376],[89.17429,23.57212],[89.17366,23.57478],[89.1746,23.57858],[89.1745,23.58265],[89.16549,23.58634],[89.16119,23.58707],[89.1587,23.5863],[89.15472,23.57882],[89.15234,23.57673],[89.14835,23.5751],[89.14762,23.57238],[89.14861,23.56925],[89.14844,23.56685],[89.146,23.5619],[89.14696,23.55837],[89.14196,23.55443],[89.13631,23.55268],[89.133,23.5595],[89.1321,23.56485],[89.13,23.56744],[89.12992,23.5734],[89.12826,23.57346],[89.12595,23.56593],[89.12614,23.5567],[89.12807,23.55395],[89.12798,23.54948],[89.1257,23.54727],[89.12113,23.5464],[89.1172,23.55032],[89.11548,23.55736],[89.1113,23.55808],[89.10632,23.56232],[89.10811,23.56581],[89.11088,23.56851],[89.10942,23.5696],[89.10186,23.56831],[89.10514,23.57804],[89.10519,23.58068],[89.10229,23.58095],[89.0994,23.57825],[89.09293,23.5755],[89.09243,23.5786],[89.08979,23.58259],[89.08422,23.58507],[89.08051,23.58486],[89.07582,23.58822],[89.07088,23.58794],[89.06721,23.58995],[89.06218,23.58835],[89.05853,23.58436],[89.05996,23.58173],[89.05785,23.57494],[89.05495,23.57126],[89.05216,23.57445],[89.04343,23.57635],[89.04058,23.58223],[89.04735,23.58773],[89.05242,23.588],[89.05425,23.59349],[89.05103,23.59612],[89.04811,23.59542],[89.0448,23.5933],[89.03684,23.58368],[89.03449,23.57683],[89.03545,23.56833],[89.03468,23.56681],[89.02737,23.56591],[89.01724,23.56895],[89.01773,23.57186],[89.01344,23.58024],[89.00884,23.57863],[89.00355,23.57881],[88.9987,23.57766],[88.99564,23.57879],[88.98987,23.57384],[88.98943,23.57964],[88.99003,23.58249],[88.9936,23.58905],[89.00108,23.59938],[89.00358,23.60085],[89.00519,23.59781],[89.0089,23.60461],[89.01151,23.61569],[89.01502,23.62226],[89.01642,23.62759],[89.01456,23.63378],[89.01168,23.63846],[89.01116,23.64065],[89.01334,23.64155],[89.01501,23.64453],[89.01962,23.65628],[89.01867,23.65906],[89.01667,23.66119],[89.01237,23.66272],[89.0112,23.66899],[89.01398,23.67593],[89.01299,23.692],[89.0196,23.70871],[89.02325,23.70212],[89.03114,23.69469],[89.03811,23.69056],[89.04119,23.69045],[89.04619,23.69343],[89.04871,23.69603],[89.05424,23.70718],[89.05701,23.71006],[89.0585,23.71361],[89.05675,23.7155],[89.04784,23.71856],[89.0446,23.72085],[89.04464,23.72239],[89.04652,23.72404],[89.05266,23.72481],[89.05627,23.72273],[89.06191,23.71739],[89.06487,23.71718],[89.07232,23.71891],[89.08015,23.72408],[89.08001,23.72655],[89.07814,23.72879],[89.06919,23.73282],[89.06606,23.73739],[89.06023,23.75597],[89.05974,23.75955],[89.06031,23.76364],[89.06235,23.76666],[89.0692,23.76923],[89.0771,23.76844],[89.07874,23.76678],[89.07806,23.76354],[89.07496,23.75672],[89.07595,23.75377],[89.07947,23.7533],[89.08797,23.75467],[89.08957,23.75432],[89.09083,23.75251],[89.0877,23.74449],[89.0881,23.74218],[89.09837,23.73936],[89.1013,23.73766],[89.1028,23.73532],[89.10196,23.73008],[89.10232,23.7264],[89.10438,23.72421],[89.10726,23.72308],[89.11079,23.72319],[89.11694,23.73116],[89.12115,23.73141],[89.1239,23.72702],[89.12351,23.72292],[89.12234,23.71695],[89.11781,23.70583],[89.11915,23.69857],[89.12185,23.69458],[89.1245,23.69117]]]}},{"type":"Feature","properties":{"name":"Jhenaidaha S.","district_id":"jhenaidah","pcode":"404419","sql_upazila_id":null,"sql_name_bn":null},"geometry":{"type":"Polygon","coordinates":[[[89.18336,23.58485],[89.18777,23.5855],[89.19434,23.58068],[89.19601,23.58142],[89.19316,23.59315],[89.19447,23.59665],[89.20645,23.58781],[89.20954,23.58174],[89.21828,23.58642],[89.22203,23.58576],[89.23193,23.58049],[89.23515,23.57808],[89.23247,23.57354],[89.23277,23.57044],[89.23648,23.56756],[89.24004,23.5668],[89.25565,23.56887],[89.25838,23.56969],[89.26264,23.57297],[89.27168,23.57413],[89.27343,23.57539],[89.27446,23.57741],[89.27052,23.58076],[89.27043,23.58225],[89.27341,23.58357],[89.27551,23.58361],[89.27814,23.58775],[89.28055,23.58818],[89.2938,23.58386],[89.29881,23.58134],[89.30141,23.58187],[89.30405,23.58097],[89.30492,23.5786],[89.30238,23.57525],[89.30273,23.57438],[89.3048,23.57317],[89.30724,23.57456],[89.3098,23.56995],[89.31303,23.56794],[89.31638,23.56885],[89.31699,23.56522],[89.31898,23.5632],[89.32515,23.55989],[89.32028,23.55165],[89.31576,23.54781],[89.31589,23.53927],[89.3086,23.53313],[89.30831,23.5308],[89.30562,23.52654],[89.30511,23.51969],[89.30795,23.51695],[89.30962,23.51357],[89.3056,23.50759],[89.30883,23.50581],[89.31116,23.50556],[89.31248,23.50059],[89.31,23.49678],[89.30283,23.49601],[89.30264,23.49344],[89.30586,23.49098],[89.30939,23.48312],[89.30902,23.46804],[89.30647,23.46131],[89.3062,23.45113],[89.30245,23.45212],[89.30058,23.45122],[89.30207,23.44853],[89.29922,23.44766],[89.29529,23.4426],[89.28931,23.43955],[89.28474,23.43348],[89.28337,23.43301],[89.28181,23.43507],[89.27539,23.43176],[89.2692,23.4361],[89.26194,23.43728],[89.2599,23.43661],[89.26013,23.43019],[89.25507,23.42722],[89.24873,23.42751],[89.2449,23.43011],[89.24381,23.43398],[89.24475,23.43801],[89.24424,23.43975],[89.23846,23.44076],[89.23571,23.44206],[89.2336,23.44448],[89.2312,23.44456],[89.22837,23.44146],[89.22748,23.43852],[89.21804,23.43416],[89.21216,23.43614],[89.21078,23.43528],[89.20947,23.43166],[89.20773,23.4303],[89.20444,23.43304],[89.20069,23.43381],[89.19859,23.43262],[89.19525,23.4325],[89.19066,23.43394],[89.18355,23.4331],[89.18008,23.43563],[89.17685,23.43408],[89.1739,23.43522],[89.16851,23.44028],[89.16172,23.43943],[89.15642,23.44248],[89.14851,23.44213],[89.14002,23.44615],[89.13395,23.45414],[89.13403,23.4582],[89.13227,23.46251],[89.1293,23.46571],[89.12304,23.46695],[89.12363,23.4628],[89.11723,23.45696],[89.11681,23.45457],[89.11762,23.4514],[89.11706,23.44804],[89.11565,23.44569],[89.11027,23.44546],[89.11053,23.44192],[89.10657,23.44142],[89.09676,23.44394],[89.0915,23.4435],[89.08296,23.45164],[89.08437,23.45439],[89.08156,23.45867],[89.07681,23.45918],[89.07465,23.46188],[89.0725,23.46235],[89.06273,23.46109],[89.06063,23.46397],[89.05841,23.46416],[89.05514,23.46742],[89.05391,23.47056],[89.05055,23.47268],[89.04499,23.47859],[89.04227,23.48212],[89.04195,23.48396],[89.03185,23.4854],[89.02928,23.48291],[89.02668,23.48272],[89.02133,23.49006],[89.02232,23.49345],[89.02074,23.49809],[89.01656,23.50241],[89.01218,23.50239],[89.00776,23.5042],[89.00089,23.50873],[88.99174,23.51161],[88.99111,23.51056],[88.99161,23.50687],[88.98895,23.50336],[88.98626,23.5019],[88.98338,23.50595],[88.98638,23.50819],[88.98484,23.51546],[88.98167,23.51762],[88.9777,23.51616],[88.97626,23.5185],[88.97527,23.525],[88.9777,23.52629],[88.97694,23.53227],[88.97318,23.53566],[88.97044,23.5342],[88.96176,23.53834],[88.96299,23.54184],[88.95563,23.54524],[88.95309,23.54395],[88.95296,23.54029],[88.95115,23.5391],[88.94881,23.5394],[88.94482,23.54698],[88.95097,23.55306],[88.95496,23.55539],[88.95978,23.5557],[88.9787,23.55064],[88.98059,23.55269],[88.98109,23.55989],[88.98319,23.56365],[88.98987,23.57384],[88.99564,23.57879],[88.9987,23.57766],[89.00355,23.57881],[89.00884,23.57863],[89.01344,23.58024],[89.01773,23.57186],[89.01724,23.56895],[89.02737,23.56591],[89.03468,23.56681],[89.03545,23.56833],[89.03449,23.57683],[89.03684,23.58368],[89.0448,23.5933],[89.04811,23.59542],[89.05103,23.59612],[89.05425,23.59349],[89.05242,23.588],[89.04735,23.58773],[89.04058,23.58223],[89.04343,23.57635],[89.05216,23.57445],[89.05495,23.57126],[89.05785,23.57494],[89.05996,23.58173],[89.05853,23.58436],[89.06218,23.58835],[89.06721,23.58995],[89.07088,23.58794],[89.07582,23.58822],[89.08051,23.58486],[89.08422,23.58507],[89.08979,23.58259],[89.09243,23.5786],[89.09293,23.5755],[89.0994,23.57825],[89.10229,23.58095],[89.10519,23.58068],[89.10514,23.57804],[89.10186,23.56831],[89.10942,23.5696],[89.11088,23.56851],[89.10811,23.56581],[89.10632,23.56232],[89.1113,23.55808],[89.11548,23.55736],[89.1172,23.55032],[89.12113,23.5464],[89.1257,23.54727],[89.12798,23.54948],[89.12807,23.55395],[89.12614,23.5567],[89.12595,23.56593],[89.12826,23.57346],[89.12992,23.5734],[89.13,23.56744],[89.1321,23.56485],[89.133,23.5595],[89.13631,23.55268],[89.14196,23.55443],[89.14696,23.55837],[89.146,23.5619],[89.14844,23.56685],[89.14861,23.56925],[89.14762,23.57238],[89.14835,23.5751],[89.15234,23.57673],[89.15472,23.57882],[89.1587,23.5863],[89.16119,23.58707],[89.16549,23.58634],[89.1745,23.58265],[89.1746,23.57858],[89.17366,23.57478],[89.17429,23.57212],[89.18136,23.57376],[89.18277,23.57983],[89.18336,23.58485]]]}},{"type":"Feature","properties":{"name":"Kaliganj","district_id":"jhenaidah","pcode":"404433","sql_upazila_id":"jhenaidah-kaliganj","sql_name_bn":"কালীগঞ্জ"},"geometry":{"type":"Polygon","coordinates":[[[89.26013,23.43019],[89.2672,23.42908],[89.26856,23.42565],[89.27488,23.42467],[89.26024,23.41135],[89.26001,23.40913],[89.26468,23.40536],[89.26199,23.40334],[89.25548,23.40162],[89.2532,23.39907],[89.25298,23.39656],[89.25605,23.39347],[89.2557,23.39149],[89.25046,23.38854],[89.25333,23.38155],[89.25167,23.37789],[89.24876,23.37473],[89.24877,23.37256],[89.25352,23.37245],[89.25658,23.37102],[89.25995,23.36752],[89.25487,23.357],[89.25591,23.3414],[89.25422,23.34031],[89.24345,23.34076],[89.24057,23.34189],[89.23883,23.34104],[89.23866,23.33893],[89.24737,23.33392],[89.24805,23.33109],[89.24706,23.32804],[89.24444,23.32595],[89.2354,23.32136],[89.23206,23.32314],[89.22872,23.32263],[89.22599,23.32181],[89.2203,23.31738],[89.21838,23.31722],[89.21503,23.32169],[89.2119,23.323],[89.20768,23.30924],[89.21018,23.30451],[89.20926,23.30145],[89.2058,23.29752],[89.20487,23.29464],[89.20228,23.29113],[89.20008,23.28914],[89.18263,23.28839],[89.17588,23.2896],[89.17352,23.28831],[89.16879,23.28276],[89.16404,23.28218],[89.1563,23.28331],[89.15333,23.28558],[89.14826,23.28188],[89.14676,23.27427],[89.13667,23.27744],[89.13364,23.27421],[89.12373,23.27765],[89.10948,23.28558],[89.10792,23.28759],[89.10986,23.29239],[89.10846,23.29656],[89.10622,23.29841],[89.10596,23.29493],[89.10381,23.29478],[89.09696,23.30097],[89.08391,23.30755],[89.08157,23.31048],[89.07354,23.30985],[89.06976,23.30838],[89.06027,23.29847],[89.05708,23.29909],[89.05025,23.29292],[89.0487,23.29579],[89.04904,23.29731],[89.05624,23.30381],[89.0587,23.30316],[89.06694,23.30905],[89.06851,23.31094],[89.0686,23.31563],[89.06541,23.31946],[89.0671,23.32433],[89.06617,23.32699],[89.06352,23.33023],[89.05966,23.33162],[89.05693,23.33366],[89.05996,23.3406],[89.06322,23.34386],[89.06868,23.3455],[89.07126,23.34806],[89.07294,23.35246],[89.0728,23.35486],[89.07069,23.35705],[89.07058,23.36146],[89.06929,23.36168],[89.05849,23.35759],[89.04462,23.36048],[89.04337,23.36246],[89.04612,23.36489],[89.04636,23.37146],[89.05365,23.37853],[89.05634,23.38417],[89.05446,23.39207],[89.05543,23.39451],[89.05891,23.39615],[89.062,23.3965],[89.0636,23.39971],[89.06355,23.40372],[89.06538,23.4056],[89.06831,23.40435],[89.07103,23.40466],[89.06977,23.40957],[89.07216,23.412],[89.07682,23.41419],[89.07601,23.41044],[89.07823,23.41059],[89.08012,23.41236],[89.08279,23.41318],[89.08624,23.41679],[89.08584,23.41828],[89.0825,23.42097],[89.07619,23.42297],[89.07532,23.42935],[89.07639,23.43349],[89.08293,23.43074],[89.08554,23.43146],[89.08797,23.43308],[89.0915,23.4435],[89.09676,23.44394],[89.10393,23.44163],[89.11053,23.44192],[89.11027,23.44546],[89.11565,23.44569],[89.11706,23.44804],[89.11723,23.45696],[89.12363,23.4628],[89.12304,23.46695],[89.1293,23.46571],[89.13227,23.46251],[89.13403,23.4582],[89.13395,23.45414],[89.13725,23.44905],[89.14002,23.44615],[89.14851,23.44213],[89.15642,23.44248],[89.16172,23.43943],[89.16851,23.44028],[89.1739,23.43522],[89.17685,23.43408],[89.18008,23.43563],[89.18355,23.4331],[89.19066,23.43394],[89.19525,23.4325],[89.19859,23.43262],[89.20069,23.43381],[89.20444,23.43304],[89.20773,23.4303],[89.20947,23.43166],[89.21078,23.43528],[89.21216,23.43614],[89.21804,23.43416],[89.22748,23.43852],[89.22837,23.44146],[89.2312,23.44456],[89.2336,23.44448],[89.23571,23.44206],[89.23846,23.44076],[89.24424,23.43975],[89.24475,23.43801],[89.24381,23.43398],[89.2449,23.43011],[89.24873,23.42751],[89.25507,23.42722],[89.26013,23.43019]]]}},{"type":"Feature","properties":{"name":"Kotchandpur","district_id":"jhenaidah","pcode":"404442","sql_upazila_id":"jhenaidah-kotchandpur","sql_name_bn":"কোটচাঁদপুর"},"geometry":{"type":"Polygon","coordinates":[[[88.94482,23.54698],[88.94881,23.5394],[88.95115,23.5391],[88.95296,23.54029],[88.95309,23.54395],[88.95563,23.54524],[88.96299,23.54184],[88.96176,23.53834],[88.97044,23.5342],[88.97318,23.53566],[88.97694,23.53227],[88.9777,23.52629],[88.97527,23.525],[88.97626,23.5185],[88.9777,23.51616],[88.98167,23.51762],[88.98484,23.51546],[88.98638,23.50819],[88.98338,23.50595],[88.98626,23.5019],[88.98895,23.50336],[88.99161,23.50687],[88.99111,23.51056],[88.99174,23.51161],[89.00089,23.50873],[89.00776,23.5042],[89.01218,23.50239],[89.01656,23.50241],[89.02074,23.49809],[89.02232,23.49345],[89.02133,23.49006],[89.02668,23.48272],[89.02928,23.48291],[89.03185,23.4854],[89.04195,23.48396],[89.04227,23.48212],[89.04499,23.47859],[89.05055,23.47268],[89.05391,23.47056],[89.05514,23.46742],[89.05841,23.46416],[89.06063,23.46397],[89.06273,23.46109],[89.0725,23.46235],[89.07465,23.46188],[89.07681,23.45918],[89.08156,23.45867],[89.08437,23.45439],[89.08296,23.45164],[89.0915,23.4435],[89.08797,23.43308],[89.08293,23.43074],[89.07639,23.43349],[89.07532,23.42935],[89.07619,23.42297],[89.0825,23.42097],[89.08584,23.41828],[89.08624,23.41679],[89.08279,23.41318],[89.08012,23.41236],[89.07823,23.41059],[89.07601,23.41044],[89.07682,23.41419],[89.07216,23.412],[89.06977,23.40957],[89.07103,23.40466],[89.06831,23.40435],[89.06538,23.4056],[89.06355,23.40372],[89.0636,23.39971],[89.062,23.3965],[89.05891,23.39615],[89.05543,23.39451],[89.05446,23.39207],[89.05634,23.38417],[89.05365,23.37853],[89.04636,23.37146],[89.04387,23.37309],[89.04081,23.37102],[89.03902,23.3712],[89.0384,23.37374],[89.03546,23.37516],[89.033,23.37535],[89.03035,23.37173],[89.02805,23.37049],[89.02641,23.37209],[89.02574,23.37602],[89.0221,23.37922],[89.0168,23.38175],[89.01456,23.38429],[89.01698,23.3889],[89.01677,23.39062],[89.01407,23.391],[89.01269,23.39304],[89.01252,23.40399],[89.01058,23.406],[89.00513,23.40464],[89.00343,23.396],[89.0055,23.39439],[89.00423,23.38596],[89.00094,23.38081],[88.99717,23.37704],[88.99402,23.37675],[88.98827,23.38267],[88.98944,23.38601],[88.99388,23.39278],[88.99594,23.39752],[88.99574,23.39976],[88.99446,23.40095],[88.98775,23.40152],[88.97943,23.3982],[88.97474,23.39738],[88.96635,23.39733],[88.96421,23.39815],[88.96065,23.40244],[88.95642,23.40052],[88.95194,23.40148],[88.95048,23.40588],[88.94803,23.40676],[88.94511,23.41207],[88.93996,23.4175],[88.94027,23.4211],[88.93901,23.4267],[88.93964,23.43074],[88.94151,23.43142],[88.94875,23.42973],[88.9502,23.4353],[88.94936,23.43974],[88.94211,23.44422],[88.94049,23.44685],[88.93752,23.44689],[88.92436,23.44173],[88.92599,23.44649],[88.92961,23.44882],[88.93587,23.45113],[88.93335,23.45808],[88.93401,23.46086],[88.93797,23.4613],[88.94024,23.46071],[88.94183,23.46283],[88.94048,23.46711],[88.94178,23.4709],[88.94627,23.47367],[88.94924,23.47763],[88.95051,23.48302],[88.94833,23.49168],[88.94815,23.49598],[88.94953,23.50378],[88.95044,23.51663],[88.9499,23.52094],[88.94746,23.52571],[88.94308,23.52935],[88.94083,23.53532],[88.94141,23.53994],[88.94482,23.54698]]]}},{"type":"Feature","properties":{"name":"Maheshpur","district_id":"jhenaidah","pcode":"404471","sql_upazila_id":null,"sql_name_bn":null},"geometry":{"type":"Polygon","coordinates":[[[89.02641,23.37209],[89.02074,23.36868],[89.02441,23.36375],[89.03175,23.35743],[89.03606,23.35756],[89.0391,23.3554],[89.03947,23.35241],[89.03461,23.35298],[89.02321,23.34902],[89.02101,23.34669],[89.02099,23.3424],[89.01552,23.33984],[89.00953,23.3424],[88.99955,23.34257],[88.99165,23.34164],[88.98669,23.34341],[88.97778,23.3345],[88.97079,23.32941],[88.96905,23.32535],[88.97009,23.32177],[88.97362,23.31884],[88.97404,23.31156],[88.97281,23.30846],[88.97038,23.30654],[88.96915,23.30394],[88.97272,23.30348],[88.97289,23.29947],[88.97507,23.30048],[88.98308,23.29757],[88.98727,23.298],[88.98657,23.29311],[88.98746,23.29159],[88.99061,23.2949],[88.99446,23.29335],[88.99661,23.2867],[88.9954,23.28388],[88.99244,23.2806],[88.98815,23.28172],[88.98506,23.28045],[88.97785,23.28104],[88.97519,23.2801],[88.97047,23.27477],[88.96745,23.2747],[88.96068,23.27801],[88.9595,23.28104],[88.95132,23.28132],[88.94628,23.28234],[88.94103,23.28458],[88.93934,23.28275],[88.92834,23.28101],[88.91889,23.28287],[88.91211,23.28235],[88.90993,23.28111],[88.90884,23.27875],[88.91711,23.28001],[88.91694,23.2771],[88.92124,23.27667],[88.92365,23.27367],[88.92654,23.27357],[88.92359,23.26663],[88.91959,23.26373],[88.91652,23.26349],[88.91403,23.25871],[88.91797,23.25869],[88.92068,23.25488],[88.91853,23.25158],[88.91444,23.25],[88.91068,23.25065],[88.90234,23.24932],[88.9009,23.24702],[88.90214,23.24418],[88.90028,23.23657],[88.88847,23.22712],[88.88091,23.2263],[88.87209,23.22762],[88.86669,23.22963],[88.85715,23.2275],[88.85567,23.22577],[88.85276,23.22461],[88.84197,23.2307],[88.84047,23.23545],[88.83654,23.23815],[88.83434,23.23791],[88.83041,23.23405],[88.82432,23.23199],[88.8226,23.23265],[88.82248,23.23446],[88.82368,23.23742],[88.82804,23.24058],[88.83093,23.24469],[88.82501,23.2449],[88.82107,23.24626],[88.8196,23.24964],[88.81788,23.25099],[88.80904,23.24981],[88.80804,23.24341],[88.80788,23.23827],[88.81036,23.22763],[88.8149,23.22289],[88.81409,23.21656],[88.81259,23.21562],[88.80795,23.21699],[88.80039,23.21512],[88.79671,23.21557],[88.79057,23.21782],[88.78543,23.21757],[88.77804,23.22343],[88.77802,23.22978],[88.7768,23.23274],[88.7682,23.23948],[88.76414,23.23923],[88.7621,23.23674],[88.75742,23.2349],[88.74712,23.23737],[88.73205,23.24739],[88.72527,23.24926],[88.72112,23.25196],[88.71886,23.25626],[88.71886,23.25987],[88.71959,23.26123],[88.72376,23.26396],[88.72372,23.26963],[88.71587,23.27368],[88.70824,23.28791],[88.70651,23.2888],[88.70354,23.28813],[88.69938,23.28968],[88.69678,23.29285],[88.6974,23.29648],[88.69993,23.30148],[88.70969,23.30863],[88.71449,23.30067],[88.72107,23.29895],[88.72276,23.29902],[88.72544,23.30103],[88.72578,23.30362],[88.72749,23.30633],[88.72772,23.30928],[88.72525,23.31132],[88.72562,23.3147],[88.72696,23.31676],[88.73087,23.31678],[88.73237,23.31563],[88.73582,23.30842],[88.74,23.30662],[88.74365,23.30663],[88.74608,23.3098],[88.74731,23.31436],[88.74693,23.31798],[88.74483,23.32113],[88.73673,23.32632],[88.73659,23.32835],[88.73804,23.33151],[88.73789,23.33762],[88.73418,23.34125],[88.73356,23.3463],[88.73645,23.34862],[88.74046,23.34923],[88.74243,23.34877],[88.74692,23.35011],[88.7497,23.35806],[88.753,23.35943],[88.75791,23.35832],[88.75937,23.359],[88.76231,23.36175],[88.76279,23.36763],[88.76115,23.37084],[88.78024,23.38138],[88.78208,23.38058],[88.78235,23.37816],[88.77991,23.37235],[88.78206,23.37165],[88.78613,23.37598],[88.78847,23.38294],[88.79043,23.38597],[88.79697,23.38621],[88.80026,23.38073],[88.80347,23.38097],[88.80509,23.38137],[88.81113,23.38569],[88.81595,23.39011],[88.82414,23.39339],[88.82732,23.39157],[88.83429,23.3847],[88.83641,23.38629],[88.83986,23.3931],[88.84245,23.3937],[88.84673,23.38732],[88.84954,23.38637],[88.85287,23.38666],[88.85799,23.38328],[88.85956,23.38466],[88.86059,23.38736],[88.86253,23.38867],[88.86349,23.38733],[88.86362,23.38372],[88.86598,23.38216],[88.86772,23.38273],[88.87095,23.38736],[88.87778,23.39069],[88.87972,23.3924],[88.88223,23.39833],[88.88328,23.40487],[88.8857,23.40972],[88.88788,23.41119],[88.89445,23.41022],[88.90113,23.41464],[88.91473,23.40909],[88.91804,23.41189],[88.92365,23.41193],[88.92474,23.41487],[88.92779,23.41574],[88.92629,23.41871],[88.92276,23.42101],[88.91783,23.42111],[88.91737,23.42318],[88.91887,23.42423],[88.92245,23.42468],[88.92638,23.42369],[88.93452,23.41695],[88.93996,23.4175],[88.94511,23.41207],[88.94803,23.40676],[88.95048,23.40588],[88.95194,23.40148],[88.95642,23.40052],[88.96065,23.40244],[88.96421,23.39815],[88.96635,23.39733],[88.97474,23.39738],[88.97943,23.3982],[88.98775,23.40152],[88.99446,23.40095],[88.99574,23.39976],[88.99594,23.39752],[88.98827,23.38267],[88.99402,23.37675],[88.99717,23.37704],[89.00094,23.38081],[89.00423,23.38596],[89.0055,23.39439],[89.00343,23.396],[89.00513,23.40464],[89.01058,23.406],[89.01252,23.40399],[89.01269,23.39304],[89.01407,23.391],[89.01677,23.39062],[89.01698,23.3889],[89.01456,23.38429],[89.0168,23.38175],[89.0221,23.37922],[89.02574,23.37602],[89.02641,23.37209]]]}},{"type":"Feature","properties":{"name":"Shailkupa","district_id":"jhenaidah","pcode":"404480","sql_upazila_id":"jhenaidah-shailkupa","sql_name_bn":"শৈলকুপা"},"geometry":{"type":"Polygon","coordinates":[[[89.2484,23.76057],[89.25329,23.76067],[89.25798,23.7573],[89.26087,23.75365],[89.26868,23.73951],[89.27159,23.73694],[89.27998,23.73578],[89.28836,23.73193],[89.29872,23.73092],[89.30648,23.72933],[89.30984,23.72766],[89.31256,23.72447],[89.31415,23.71491],[89.32328,23.70519],[89.32644,23.69689],[89.33555,23.68642],[89.34581,23.67809],[89.35065,23.67562],[89.35272,23.67148],[89.35268,23.66713],[89.35413,23.66525],[89.35882,23.66576],[89.36296,23.66505],[89.37119,23.6601],[89.37877,23.6597],[89.37132,23.64893],[89.36768,23.64614],[89.36707,23.64095],[89.36414,23.64227],[89.36152,23.64127],[89.35972,23.6351],[89.35767,23.63134],[89.35835,23.62839],[89.35458,23.61119],[89.35137,23.60856],[89.34895,23.60527],[89.34721,23.59274],[89.34187,23.58315],[89.34676,23.58062],[89.3439,23.57088],[89.33875,23.56413],[89.33224,23.56272],[89.32515,23.55989],[89.31898,23.5632],[89.31699,23.56522],[89.31638,23.56885],[89.31303,23.56794],[89.3098,23.56995],[89.30724,23.57456],[89.3048,23.57317],[89.30273,23.57438],[89.30238,23.57525],[89.30492,23.5786],[89.30405,23.58097],[89.30141,23.58187],[89.29881,23.58134],[89.2938,23.58386],[89.28055,23.58818],[89.27814,23.58775],[89.27551,23.58361],[89.27341,23.58357],[89.27043,23.58225],[89.27052,23.58076],[89.27446,23.57741],[89.27343,23.57539],[89.27168,23.57413],[89.26264,23.57297],[89.25838,23.56969],[89.25565,23.56887],[89.24004,23.5668],[89.23648,23.56756],[89.23277,23.57044],[89.23247,23.57354],[89.23515,23.57808],[89.23193,23.58049],[89.22203,23.58576],[89.21828,23.58642],[89.20954,23.58174],[89.20645,23.58781],[89.19447,23.59665],[89.19316,23.59315],[89.19601,23.58142],[89.19434,23.58068],[89.18777,23.5855],[89.18336,23.58485],[89.17925,23.58608],[89.17372,23.59017],[89.17188,23.59367],[89.17219,23.59692],[89.17335,23.59963],[89.17941,23.60291],[89.1818,23.60546],[89.18108,23.60674],[89.17324,23.60353],[89.1672,23.60414],[89.16643,23.60531],[89.1662,23.61242],[89.1653,23.61406],[89.16183,23.60972],[89.16067,23.61084],[89.15748,23.62126],[89.15008,23.62495],[89.14816,23.6276],[89.14891,23.63146],[89.15334,23.64028],[89.15222,23.64239],[89.14479,23.64414],[89.13461,23.64919],[89.12988,23.65297],[89.12524,23.65931],[89.11834,23.66041],[89.11494,23.66277],[89.1131,23.66695],[89.11427,23.67315],[89.11698,23.67575],[89.12505,23.67798],[89.12875,23.68088],[89.12782,23.68664],[89.1245,23.69117],[89.12928,23.69838],[89.12635,23.70661],[89.12634,23.70913],[89.13222,23.71271],[89.13395,23.71591],[89.13595,23.71721],[89.13904,23.71704],[89.14351,23.72113],[89.14728,23.72116],[89.15523,23.71682],[89.16013,23.71751],[89.16216,23.72018],[89.1635,23.72878],[89.16533,23.73101],[89.17225,23.73368],[89.17447,23.73646],[89.17577,23.73676],[89.17819,23.7436],[89.18144,23.74509],[89.1854,23.74558],[89.19527,23.74088],[89.19878,23.74041],[89.20563,23.74303],[89.20864,23.7451],[89.21137,23.74878],[89.21377,23.75098],[89.21645,23.75203],[89.21931,23.75571],[89.22315,23.75631],[89.23703,23.7517],[89.24084,23.75671],[89.24353,23.75839],[89.2484,23.76057]]]}}]}