{"type":"FeatureCollection","features":[{"type":"Feature","properties":{"name":"Akkelpur","district_id":"joypurhat","pcode":"503813","sql_upazila_id":"joypurhat-akkelpur","sql_name_bn":"আক্কেলপুর"},"geometry":{"type":"Polygon","coordinates":[[[89.03736,25.02739],[89.04523,25.01853],[89.04561,25.00072],[89.0461,25.00003],[89.05118,25.00057],[89.05211,24.99941],[89.0488,24.9939],[89.05186,24.99365],[89.056,24.99475],[89.05787,24.99926],[89.0593,24.99844],[89.05949,24.98662],[89.06291,24.98477],[89.06853,24.98369],[89.07188,24.98532],[89.08202,24.97992],[89.09687,24.98093],[89.10101,24.98083],[89.103,24.9795],[89.10396,24.97561],[89.10243,24.9681],[89.10035,24.96635],[89.09627,24.96517],[89.09189,24.96551],[89.09011,24.96301],[89.09215,24.96038],[89.09342,24.95636],[89.09269,24.95289],[89.09641,24.94914],[89.096,24.94641],[89.09217,24.94513],[89.08634,24.93833],[89.08574,24.92852],[89.08954,24.92695],[89.09039,24.91918],[89.09194,24.91751],[89.0935,24.91721],[89.09541,24.9144],[89.09715,24.90759],[89.09978,24.9078],[89.10121,24.90647],[89.09912,24.89873],[89.09512,24.89231],[89.08936,24.89225],[89.08453,24.89704],[89.0834,24.89716],[89.08042,24.89353],[89.07793,24.88836],[89.08134,24.88616],[89.08337,24.88215],[89.08485,24.88093],[89.0866,24.88041],[89.08912,24.88153],[89.0913,24.88128],[89.09084,24.87917],[89.08644,24.87681],[89.07716,24.8745],[89.07184,24.87494],[89.06935,24.87611],[89.06809,24.87577],[89.06733,24.87356],[89.06161,24.87172],[89.05806,24.86713],[89.05548,24.86595],[89.05339,24.86911],[89.0502,24.86977],[89.0425,24.8684],[89.04161,24.86732],[89.04114,24.86431],[89.03938,24.86318],[89.03655,24.86229],[89.02473,24.86205],[89.0205,24.85866],[89.01941,24.85576],[89.01703,24.85538],[89.01311,24.85815],[89.01509,24.8619],[89.01398,24.86322],[88.99734,24.86279],[88.99294,24.8647],[88.9938,24.8683],[88.9903,24.87448],[88.99245,24.87848],[88.99993,24.88321],[89.00834,24.89655],[89.0077,24.89963],[89.00553,24.9021],[89.00024,24.91148],[89.00291,24.92325],[89.00415,24.93686],[89.0001,24.95236],[89.00394,24.95583],[89.00484,24.95883],[89.0035,24.96259],[89.00258,24.97084],[89.00098,24.97455],[89.00237,24.9768],[89.01115,24.97867],[89.01225,24.98381],[89.01167,24.98876],[89.00768,24.99598],[89.00684,24.99996],[89.01099,25.01002],[89.01514,25.01297],[89.01652,25.01959],[89.01602,25.02074],[89.0097,25.02003],[89.0089,25.02117],[89.01638,25.02505],[89.01814,25.0269],[89.01772,25.02917],[89.01264,25.03407],[89.01154,25.03607],[89.01142,25.03806],[89.01503,25.04295],[89.01475,25.0454],[89.01706,25.04659],[89.02225,25.04726],[89.02538,25.04539],[89.03049,25.0371],[89.03214,25.03287],[89.03437,25.03063],[89.03736,25.02739]]]}},{"type":"Feature","properties":{"name":"Joypurhat S.","district_id":"joypurhat","pcode":"503847","sql_upazila_id":null,"sql_name_bn":null},"geometry":{"type":"Polygon","coordinates":[[[88.92303,25.16713],[88.92665,25.17952],[88.92977,25.18497],[88.93331,25.18729],[88.93626,25.18715],[88.93963,25.18513],[88.94066,25.18192],[88.94334,25.18083],[88.94739,25.18404],[88.9481,25.18603],[88.94775,25.18866],[88.94463,25.18977],[88.94704,25.19403],[88.94592,25.20078],[88.94523,25.20112],[88.94082,25.19921],[88.93782,25.20005],[88.9357,25.20264],[88.93493,25.206],[88.9358,25.21215],[88.93485,25.21815],[88.93837,25.2183],[88.94144,25.21753],[88.9463,25.21441],[88.94357,25.21152],[88.94067,25.21034],[88.94047,25.20829],[88.94189,25.20668],[88.95968,25.20352],[88.96049,25.20277],[88.96012,25.19712],[88.96141,25.19375],[88.96358,25.19173],[88.9677,25.18953],[88.97041,25.19042],[88.97433,25.19363],[88.97817,25.19498],[88.97929,25.19372],[88.97824,25.18973],[88.972,25.17945],[88.97346,25.1759],[88.97672,25.17422],[88.98087,25.17653],[88.98091,25.17383],[88.97929,25.1678],[88.98159,25.16648],[88.98406,25.16948],[88.9871,25.1714],[88.99122,25.16959],[88.99126,25.16708],[88.98998,25.16572],[88.98863,25.16157],[88.9906,25.15133],[88.98994,25.1482],[88.98722,25.14583],[88.98631,25.14287],[88.98748,25.14029],[88.99017,25.13958],[88.99365,25.14132],[88.99657,25.14084],[89.00019,25.13876],[89.00295,25.13862],[89.00667,25.14053],[89.01086,25.13919],[89.0155,25.13972],[89.01702,25.14108],[89.01742,25.14341],[89.01446,25.14983],[89.01466,25.15592],[89.02044,25.15674],[89.02163,25.16289],[89.02694,25.1673],[89.03145,25.16611],[89.03342,25.16292],[89.03835,25.16132],[89.04186,25.1605],[89.05188,25.16035],[89.05595,25.15815],[89.0579,25.15893],[89.06725,25.15919],[89.06928,25.16249],[89.07743,25.16167],[89.0799,25.15754],[89.08077,25.15771],[89.08187,25.16078],[89.0834,25.16236],[89.08495,25.16183],[89.08447,25.15693],[89.08614,25.15555],[89.0911,25.1559],[89.09523,25.15467],[89.09501,25.15171],[89.091,25.14654],[89.09203,25.14277],[89.09383,25.14184],[89.09609,25.1421],[89.09995,25.13865],[89.10134,25.13977],[89.10207,25.14427],[89.11094,25.14625],[89.11375,25.15056],[89.12399,25.14756],[89.12564,25.1488],[89.1263,25.15136],[89.12878,25.15442],[89.13154,25.1549],[89.13322,25.15404],[89.13363,25.15142],[89.13473,25.15003],[89.13723,25.14784],[89.1416,25.14603],[89.14361,25.14601],[89.14439,25.14852],[89.15552,25.14619],[89.15704,25.14235],[89.15488,25.14026],[89.15386,25.13804],[89.15435,25.13678],[89.15816,25.13629],[89.16181,25.13711],[89.1656,25.1405],[89.16755,25.1399],[89.16803,25.13762],[89.16434,25.134],[89.15612,25.13294],[89.14928,25.12684],[89.14507,25.13058],[89.14342,25.1302],[89.13853,25.12334],[89.12929,25.12166],[89.12189,25.10934],[89.12221,25.10563],[89.11877,25.10024],[89.11711,25.09221],[89.11465,25.09],[89.1117,25.08957],[89.10886,25.08806],[89.10177,25.08658],[89.09858,25.08706],[89.09686,25.08514],[89.09772,25.08319],[89.08517,25.06949],[89.08356,25.06597],[89.08353,25.06243],[89.0738,25.05515],[89.07365,25.05328],[89.07487,25.05075],[89.07207,25.04569],[89.06796,25.04259],[89.05089,25.04514],[89.04692,25.04306],[89.04285,25.03841],[89.03802,25.03646],[89.03868,25.03337],[89.04041,25.03164],[89.03736,25.02739],[89.03214,25.03287],[89.03049,25.0371],[89.02538,25.04539],[89.02225,25.04726],[89.01706,25.04659],[89.01475,25.0454],[89.01213,25.04719],[89.00488,25.04825],[89.00188,25.04772],[88.99747,25.04364],[88.99628,25.04405],[88.99517,25.04622],[88.99299,25.04699],[88.98979,25.04675],[88.98456,25.04903],[88.98028,25.05266],[88.97372,25.05457],[88.96973,25.0549],[88.95583,25.05332],[88.95368,25.05102],[88.95663,25.04536],[88.95766,25.04149],[88.95259,25.03877],[88.95669,25.02986],[88.95631,25.02873],[88.95399,25.02797],[88.94965,25.03244],[88.94737,25.03776],[88.94382,25.03968],[88.94303,25.04179],[88.94467,25.05103],[88.94406,25.05325],[88.93828,25.05707],[88.93177,25.07237],[88.93262,25.07707],[88.93459,25.08028],[88.9403,25.09702],[88.94055,25.10507],[88.93723,25.11988],[88.9357,25.12263],[88.92667,25.13006],[88.92422,25.13498],[88.92801,25.13998],[88.92816,25.14316],[88.92686,25.14568],[88.9243,25.14645],[88.92245,25.14846],[88.92403,25.15213],[88.92507,25.162],[88.92303,25.16713]]]}},{"type":"Feature","properties":{"name":"Kalai","district_id":"joypurhat","pcode":"503858","sql_upazila_id":"joypurhat-kalai","sql_name_bn":"কালাই"},"geometry":{"type":"Polygon","coordinates":[[[89.19741,25.18431],[89.19736,25.17859],[89.19873,25.17542],[89.20291,25.17526],[89.20505,25.1708],[89.2103,25.17154],[89.21143,25.17124],[89.21153,25.16953],[89.21534,25.16898],[89.21714,25.16793],[89.22141,25.16004],[89.22138,25.15759],[89.21782,25.15201],[89.22075,25.14669],[89.22398,25.14546],[89.22958,25.14767],[89.23304,25.14495],[89.23384,25.13914],[89.23507,25.13663],[89.24808,25.118],[89.24872,25.1097],[89.24998,25.10536],[89.25175,25.10267],[89.25492,25.10087],[89.25777,25.10368],[89.26073,25.10131],[89.26618,25.10227],[89.26675,25.09839],[89.27318,25.09764],[89.27801,25.09473],[89.27637,25.09165],[89.27366,25.08985],[89.26681,25.08279],[89.26308,25.08088],[89.25787,25.07541],[89.2495,25.07189],[89.24872,25.06978],[89.25114,25.0624],[89.25098,25.05897],[89.24911,25.0558],[89.2466,25.05457],[89.24449,25.05145],[89.24299,25.04627],[89.24228,25.03435],[89.24075,25.03082],[89.23641,25.02527],[89.23013,25.02356],[89.22775,25.02411],[89.22708,25.02582],[89.22253,25.02729],[89.21845,25.03213],[89.2164,25.03323],[89.21381,25.03229],[89.21365,25.02982],[89.21888,25.02596],[89.2188,25.02442],[89.21103,25.01919],[89.20896,25.01379],[89.20642,25.01039],[89.20212,25.00677],[89.19626,25.00392],[89.19788,25.00276],[89.20264,25.00272],[89.20356,25.00111],[89.20353,24.99906],[89.19107,24.99883],[89.18961,24.99759],[89.18961,24.992],[89.19217,24.99118],[89.19551,24.98744],[89.1938,24.98631],[89.18618,24.98747],[89.18421,24.98509],[89.17661,24.98779],[89.17001,24.9915],[89.16936,24.99533],[89.17426,25.00265],[89.17397,25.00459],[89.16296,25.02233],[89.1583,25.02545],[89.14931,25.02822],[89.14715,25.03127],[89.14705,25.03874],[89.14507,25.04241],[89.14177,25.04273],[89.13737,25.04169],[89.13337,25.04229],[89.13252,25.04538],[89.13311,25.04783],[89.13676,25.05447],[89.13929,25.06244],[89.1417,25.06499],[89.1506,25.07113],[89.16409,25.08304],[89.16952,25.0867],[89.17549,25.0936],[89.17826,25.09524],[89.18169,25.09966],[89.18134,25.10171],[89.17818,25.10397],[89.16845,25.10857],[89.16616,25.11116],[89.1683,25.1172],[89.16787,25.11845],[89.15912,25.12081],[89.15832,25.12339],[89.15926,25.13342],[89.16434,25.134],[89.16688,25.13592],[89.16803,25.13762],[89.16755,25.1399],[89.1656,25.1405],[89.16181,25.13711],[89.15816,25.13629],[89.15435,25.13678],[89.15386,25.13804],[89.15488,25.14026],[89.16091,25.14625],[89.16139,25.14938],[89.15979,25.15248],[89.16157,25.15463],[89.16382,25.1537],[89.1644,25.15483],[89.16558,25.15962],[89.16417,25.16853],[89.16516,25.1736],[89.17063,25.17355],[89.17399,25.17135],[89.17994,25.17015],[89.18367,25.1728],[89.18742,25.1775],[89.18904,25.18262],[89.19741,25.18431]]]}},{"type":"Feature","properties":{"name":"Khetlal","district_id":"joypurhat","pcode":"503861","sql_upazila_id":"joypurhat-khetlal","sql_name_bn":"ক্ষেতলাল"},"geometry":{"type":"Polygon","coordinates":[[[89.15926,25.13342],[89.15832,25.12339],[89.15912,25.12081],[89.16787,25.11845],[89.1683,25.1172],[89.16616,25.11116],[89.16845,25.10857],[89.17818,25.10397],[89.18134,25.10171],[89.18169,25.09966],[89.17826,25.09524],[89.17549,25.0936],[89.16952,25.0867],[89.16409,25.08304],[89.1506,25.07113],[89.1417,25.06499],[89.13929,25.06244],[89.13676,25.05447],[89.13311,25.04783],[89.13252,25.04538],[89.13337,25.04229],[89.13737,25.04169],[89.14177,25.04273],[89.14507,25.04241],[89.14705,25.03874],[89.14715,25.03127],[89.14931,25.02822],[89.1583,25.02545],[89.16296,25.02233],[89.17397,25.00459],[89.17426,25.00265],[89.16936,24.99533],[89.17001,24.9915],[89.17661,24.98779],[89.18421,24.98509],[89.1838,24.98247],[89.18071,24.98027],[89.17937,24.97292],[89.17972,24.97018],[89.18485,24.96511],[89.18583,24.96259],[89.18542,24.96031],[89.18907,24.9508],[89.18874,24.94818],[89.18659,24.94717],[89.1831,24.94795],[89.17881,24.95101],[89.17875,24.95626],[89.17639,24.95703],[89.1694,24.95504],[89.16033,24.95575],[89.13577,24.95427],[89.12244,24.95462],[89.12189,24.95572],[89.12805,24.9637],[89.12733,24.96616],[89.12054,24.9693],[89.11831,24.9712],[89.11287,24.97194],[89.10897,24.97471],[89.10396,24.97561],[89.103,24.9795],[89.10101,24.98083],[89.08202,24.97992],[89.07188,24.98532],[89.06853,24.98369],[89.06291,24.98477],[89.05949,24.98662],[89.0593,24.99844],[89.05787,24.99926],[89.056,24.99475],[89.05186,24.99365],[89.0488,24.9939],[89.05211,24.99941],[89.05118,25.00057],[89.0461,25.00003],[89.04561,25.00072],[89.04523,25.01853],[89.03736,25.02739],[89.04041,25.03164],[89.03868,25.03337],[89.03802,25.03646],[89.04285,25.03841],[89.04692,25.04306],[89.05089,25.04514],[89.06796,25.04259],[89.07207,25.04569],[89.07487,25.05075],[89.07365,25.05328],[89.0738,25.05515],[89.08353,25.06243],[89.08356,25.06597],[89.08517,25.06949],[89.09772,25.08319],[89.09686,25.08514],[89.09858,25.08706],[89.10177,25.08658],[89.10886,25.08806],[89.1117,25.08957],[89.11465,25.09],[89.11711,25.09221],[89.11877,25.10024],[89.12221,25.10563],[89.12189,25.10934],[89.12929,25.12166],[89.13853,25.12334],[89.14342,25.1302],[89.14507,25.13058],[89.14928,25.12684],[89.15612,25.13294],[89.15926,25.13342]]]}},{"type":"Feature","properties":{"name":"Panchbibi","district_id":"joypurhat","pcode":"503874","sql_upazila_id":"joypurhat-panchbibi","sql_name_bn":"পাঁচবিবি"},"geometry":{"type":"Polygon","coordinates":[[[89.14494,25.25721],[89.1487,25.26093],[89.15506,25.26153],[89.15635,25.25947],[89.15985,25.25766],[89.16286,25.25718],[89.16352,25.2554],[89.15994,25.25464],[89.1603,25.25349],[89.16406,25.253],[89.16618,25.25178],[89.16592,25.25036],[89.16879,25.24925],[89.16952,25.24701],[89.1729,25.24647],[89.17664,25.24369],[89.18265,25.24193],[89.18915,25.24563],[89.19096,25.25006],[89.19228,25.25114],[89.19386,25.25084],[89.19616,25.24967],[89.19701,25.2479],[89.19608,25.24231],[89.19781,25.2403],[89.20232,25.23934],[89.2037,25.23996],[89.20557,25.23919],[89.20637,25.23696],[89.20509,25.23509],[89.20593,25.23119],[89.19501,25.22229],[89.19501,25.2159],[89.19193,25.20999],[89.19353,25.20164],[89.19262,25.19902],[89.18731,25.19491],[89.18501,25.19214],[89.18556,25.19048],[89.19639,25.18855],[89.19794,25.18722],[89.19741,25.18431],[89.18904,25.18262],[89.18742,25.1775],[89.18367,25.1728],[89.17994,25.17015],[89.17399,25.17135],[89.17063,25.17355],[89.16516,25.1736],[89.16417,25.16853],[89.16558,25.15962],[89.1644,25.15483],[89.16382,25.1537],[89.16157,25.15463],[89.15979,25.15248],[89.16139,25.14938],[89.16091,25.14625],[89.15704,25.14235],[89.15552,25.14619],[89.1529,25.14718],[89.14439,25.14852],[89.14361,25.14601],[89.1416,25.14603],[89.13723,25.14784],[89.13363,25.15142],[89.13322,25.15404],[89.13154,25.1549],[89.12878,25.15442],[89.1263,25.15136],[89.12564,25.1488],[89.12399,25.14756],[89.11375,25.15056],[89.11094,25.14625],[89.10207,25.14427],[89.10134,25.13977],[89.09995,25.13865],[89.09609,25.1421],[89.09383,25.14184],[89.09203,25.14277],[89.091,25.14654],[89.09501,25.15171],[89.09523,25.15467],[89.0911,25.1559],[89.08614,25.15555],[89.08447,25.15693],[89.08495,25.16183],[89.0834,25.16236],[89.08187,25.16078],[89.08077,25.15771],[89.0799,25.15754],[89.07743,25.16167],[89.06928,25.16249],[89.06725,25.15919],[89.0579,25.15893],[89.05595,25.15815],[89.05188,25.16035],[89.04186,25.1605],[89.03835,25.16132],[89.03342,25.16292],[89.03145,25.16611],[89.02694,25.1673],[89.02163,25.16289],[89.02044,25.15674],[89.01466,25.15592],[89.01446,25.14983],[89.01742,25.14341],[89.01702,25.14108],[89.0155,25.13972],[89.01086,25.13919],[89.00667,25.14053],[89.00295,25.13862],[89.00019,25.13876],[88.99657,25.14084],[88.99365,25.14132],[88.99017,25.13958],[88.98748,25.14029],[88.98631,25.14287],[88.98722,25.14583],[88.98994,25.1482],[88.9906,25.15133],[88.98863,25.16157],[88.98998,25.16572],[88.99126,25.16708],[88.99122,25.16959],[88.9871,25.1714],[88.98406,25.16948],[88.98159,25.16648],[88.97929,25.1678],[88.98091,25.17383],[88.98087,25.17653],[88.97672,25.17422],[88.97346,25.1759],[88.972,25.17945],[88.97824,25.18973],[88.97929,25.19372],[88.97817,25.19498],[88.97433,25.19363],[88.97041,25.19042],[88.9677,25.18953],[88.96141,25.19375],[88.96012,25.19712],[88.96049,25.20277],[88.95968,25.20352],[88.94446,25.20592],[88.94189,25.20668],[88.94047,25.20829],[88.94067,25.21034],[88.94357,25.21152],[88.9463,25.21441],[88.9489,25.2134],[88.9511,25.21367],[88.95532,25.21591],[88.95888,25.2196],[88.9574,25.22298],[88.95634,25.23046],[88.95256,25.23535],[88.95121,25.24134],[88.95259,25.25176],[88.95664,25.25927],[88.95809,25.26088],[88.96424,25.26413],[88.97332,25.2666],[88.98024,25.273],[88.98285,25.27785],[88.98553,25.27939],[88.98832,25.27941],[88.99384,25.27587],[88.99702,25.27604],[89.00098,25.27802],[89.00352,25.27697],[89.00703,25.27533],[89.00863,25.2704],[89.01096,25.26845],[89.02013,25.26396],[89.02229,25.26495],[89.02544,25.26948],[89.02737,25.26908],[89.03062,25.26988],[89.03105,25.27632],[89.03635,25.27541],[89.0389,25.27341],[89.03958,25.27039],[89.0412,25.2693],[89.04874,25.26708],[89.05197,25.26531],[89.05974,25.26491],[89.06156,25.26388],[89.06287,25.25988],[89.0651,25.25959],[89.06922,25.26057],[89.07065,25.26302],[89.07072,25.2669],[89.07496,25.26849],[89.07732,25.26832],[89.07938,25.2669],[89.08758,25.25645],[89.09231,25.25257],[89.09915,25.24886],[89.09958,25.24435],[89.10138,25.24207],[89.10344,25.24099],[89.10829,25.24224],[89.11172,25.2415],[89.1139,25.244],[89.11658,25.2452],[89.12038,25.24491],[89.12249,25.24177],[89.12436,25.24149],[89.12592,25.2428],[89.12649,25.24525],[89.12599,25.25078],[89.12656,25.25346],[89.12781,25.255],[89.13017,25.2542],[89.13421,25.24798],[89.13589,25.2473],[89.13956,25.24809],[89.1445,25.25054],[89.14599,25.25225],[89.14382,25.25636],[89.14494,25.25721]]]}}]}