{"type":"FeatureCollection","features":[{"type":"Feature","properties":{"name":"Dighinala","district_id":"khagrachhari","pcode":"204643","sql_upazila_id":"khagrachhari-dighinala","sql_name_bn":"দিঘীনালা"},"geometry":{"type":"Polygon","coordinates":[[[91.97721,23.73149],[91.98049,23.7313],[91.98362,23.72974],[91.9848,23.72643],[91.98941,23.71968],[91.99659,23.70476],[92.00057,23.69462],[92.00198,23.68861],[92.01441,23.66911],[92.01859,23.66491],[92.02223,23.66314],[92.02201,23.65938],[92.02312,23.65796],[92.02678,23.6574],[92.03145,23.66079],[92.03553,23.66166],[92.03863,23.66028],[92.04316,23.65596],[92.04881,23.65261],[92.05413,23.65006],[92.07067,23.64465],[92.07599,23.64511],[92.08355,23.64976],[92.07941,23.63938],[92.08172,23.62865],[92.08964,23.60749],[92.10041,23.56961],[92.11365,23.54093],[92.11594,23.52658],[92.11497,23.52346],[92.11531,23.52111],[92.11795,23.51656],[92.12183,23.5001],[92.1254,23.49493],[92.12968,23.4811],[92.13268,23.46376],[92.13705,23.45018],[92.13612,23.44015],[92.13719,23.43135],[92.13407,23.4263],[92.1306,23.42395],[92.12288,23.41412],[92.11946,23.41111],[92.10064,23.39881],[92.08196,23.3843],[92.07877,23.38239],[92.07667,23.38252],[92.06803,23.37804],[92.06249,23.37318],[92.05551,23.36943],[92.05355,23.36681],[92.05464,23.36398],[92.06403,23.3589],[92.07246,23.35316],[92.0778,23.35068],[92.08057,23.34767],[92.08633,23.34453],[92.09479,23.33701],[92.10721,23.33124],[92.11019,23.3286],[92.12308,23.32174],[92.12555,23.31924],[92.12644,23.31654],[92.12561,23.31002],[92.12734,23.29814],[92.12628,23.26525],[92.12775,23.25902],[92.12727,23.24479],[92.12789,23.22587],[92.13002,23.21305],[92.13128,23.21034],[92.13261,23.20207],[92.13439,23.19833],[92.13491,23.19312],[92.13665,23.18901],[92.13869,23.18686],[92.14505,23.17487],[92.14693,23.17422],[92.15347,23.16437],[92.15262,23.15861],[92.15312,23.15531],[92.16289,23.13895],[92.16608,23.12895],[92.17123,23.11954],[92.1742,23.11218],[92.16604,23.10492],[92.15816,23.10324],[92.14399,23.10213],[92.13577,23.10573],[92.12939,23.10482],[92.12226,23.09902],[92.11801,23.09728],[92.11186,23.09289],[92.09387,23.08828],[92.08518,23.08894],[92.07911,23.08851],[92.07751,23.08751],[92.07569,23.08275],[92.07019,23.08759],[92.04752,23.1298],[92.04691,23.134],[92.04481,23.13718],[92.04262,23.14355],[92.04216,23.1481],[92.04026,23.15104],[92.03911,23.15591],[92.03064,23.17448],[92.02606,23.18128],[92.02276,23.19243],[92.01892,23.19901],[92.01604,23.21137],[92.01372,23.21474],[92.0117,23.22036],[92.0108,23.2343],[92.00828,23.24346],[92.00602,23.24761],[92.00375,23.25523],[92.00079,23.2821],[91.99928,23.28872],[91.99936,23.29407],[91.99198,23.32005],[91.99156,23.32968],[91.98885,23.33803],[91.9868,23.35128],[91.98661,23.35655],[91.98753,23.36161],[91.98619,23.36825],[91.98658,23.38563],[91.98294,23.39381],[91.97792,23.39955],[91.97593,23.40896],[91.97692,23.41875],[91.96955,23.44553],[91.96833,23.45895],[91.96306,23.47292],[91.96234,23.47826],[91.96375,23.48208],[91.97331,23.48077],[91.97517,23.48244],[91.97457,23.48656],[91.97275,23.49061],[91.97305,23.49244],[91.97551,23.49406],[91.97606,23.49596],[91.9727,23.49686],[91.97224,23.49789],[91.97205,23.50067],[91.97423,23.50436],[91.96899,23.50896],[91.96811,23.51379],[91.96466,23.51583],[91.96133,23.5162],[91.95965,23.52021],[91.95986,23.52561],[91.96115,23.52726],[91.96494,23.52761],[91.96789,23.52894],[91.96521,23.53451],[91.96094,23.53763],[91.96446,23.54759],[91.9656,23.55401],[91.96354,23.55665],[91.96255,23.56372],[91.96048,23.56703],[91.96358,23.57501],[91.96387,23.57883],[91.95901,23.58633],[91.95682,23.58735],[91.95213,23.58601],[91.95099,23.58636],[91.951,23.58846],[91.95312,23.59144],[91.95468,23.59594],[91.95642,23.60803],[91.95667,23.61792],[91.95096,23.63287],[91.95185,23.64694],[91.94995,23.65811],[91.94231,23.68181],[91.94412,23.68525],[91.95209,23.69132],[91.95733,23.69912],[91.95757,23.70329],[91.95653,23.70676],[91.95835,23.71007],[91.95827,23.71311],[91.95661,23.71901],[91.96211,23.7277],[91.96618,23.72975],[91.97095,23.73018],[91.97721,23.73149]]]}},{"type":"Feature","properties":{"name":"Khagrachari","district_id":"khagrachhari","pcode":"204649","sql_upazila_id":null,"sql_name_bn":null},"geometry":{"type":"Polygon","coordinates":[[[92.00126,23.27366],[92.00375,23.25523],[92.00602,23.24761],[92.00828,23.24346],[92.0108,23.2343],[92.0117,23.22036],[92.01372,23.21474],[92.01604,23.21137],[92.01892,23.19901],[92.02276,23.19243],[92.02606,23.18128],[92.03064,23.17448],[92.03911,23.15591],[92.04026,23.15104],[92.04216,23.1481],[92.04262,23.14355],[92.04481,23.13718],[92.04691,23.134],[92.04752,23.1298],[92.07019,23.08759],[92.07569,23.08275],[92.07807,23.07568],[92.08042,23.07264],[92.08221,23.06622],[92.07191,23.06556],[92.06529,23.06253],[92.05851,23.06303],[92.05561,23.06137],[92.05161,23.06036],[92.0497,23.05833],[92.04257,23.05398],[92.03945,23.05294],[92.03666,23.04978],[92.02889,23.04547],[92.02389,23.04055],[92.01205,23.03271],[92.00814,23.03094],[91.99703,23.02845],[91.99105,23.02612],[91.98055,23.02497],[91.96733,23.0202],[91.9646,23.02716],[91.96435,23.03114],[91.96126,23.03779],[91.95528,23.05495],[91.95395,23.06238],[91.95161,23.06893],[91.95068,23.08231],[91.95268,23.1113],[91.94292,23.11911],[91.93348,23.1346],[91.92908,23.13919],[91.91905,23.14494],[91.91487,23.14536],[91.91067,23.15293],[91.90736,23.16362],[91.90232,23.17035],[91.89991,23.17154],[91.89897,23.18062],[91.90136,23.18452],[91.90553,23.187],[91.90685,23.18921],[91.91619,23.19765],[91.91959,23.20231],[91.91936,23.20528],[91.91716,23.20668],[91.91752,23.20873],[91.93262,23.22966],[91.93629,23.23197],[91.93904,23.23267],[91.95653,23.23474],[91.96793,23.24223],[91.9738,23.24731],[91.98503,23.25878],[91.98916,23.26152],[91.99449,23.2676],[92.00126,23.27366]]]}},{"type":"Feature","properties":{"name":"Lakshmichhari","district_id":"khagrachhari","pcode":"204661","sql_upazila_id":null,"sql_name_bn":null},"geometry":{"type":"Polygon","coordinates":[[[91.89382,22.89049],[91.89542,22.88938],[91.89939,22.89009],[91.9064,22.89366],[91.91507,22.89606],[91.92055,22.89635],[91.92923,22.9004],[91.93258,22.9011],[91.94039,22.90144],[91.94666,22.89899],[91.9532,22.90073],[91.97131,22.90117],[91.97816,22.90061],[91.9873,22.87469],[91.98587,22.85393],[91.98079,22.82699],[91.98149,22.81013],[91.98289,22.8042],[91.99954,22.77757],[92.00554,22.76398],[92.00601,22.76053],[92.00514,22.75798],[92.00095,22.75451],[91.99932,22.75069],[92.00182,22.74487],[91.98734,22.73485],[91.98484,22.73518],[91.98316,22.73411],[91.96576,22.73331],[91.96386,22.72022],[91.96398,22.70957],[91.96173,22.70837],[91.95462,22.70706],[91.94871,22.70705],[91.93785,22.70395],[91.93582,22.70287],[91.93466,22.7012],[91.934,22.69699],[91.92811,22.7003],[91.92053,22.69647],[91.91476,22.69874],[91.91331,22.69817],[91.90939,22.69297],[91.90633,22.69256],[91.89367,22.69731],[91.88992,22.70014],[91.88584,22.71345],[91.88502,22.71976],[91.8884,22.73297],[91.89082,22.73853],[91.89654,22.7478],[91.89616,22.74903],[91.88888,22.74983],[91.88618,22.75348],[91.89022,22.75553],[91.893,22.75464],[91.89523,22.7565],[91.89262,22.75794],[91.89094,22.76254],[91.89134,22.7659],[91.88993,22.76661],[91.88533,22.76604],[91.8824,22.76707],[91.87757,22.76742],[91.87501,22.76495],[91.87193,22.76406],[91.86802,22.76004],[91.86208,22.75685],[91.85951,22.7569],[91.85884,22.75897],[91.86243,22.76559],[91.86444,22.77139],[91.86461,22.77738],[91.86244,22.77731],[91.86047,22.77594],[91.8583,22.77233],[91.85506,22.77176],[91.85288,22.77432],[91.85762,22.78223],[91.86008,22.78413],[91.86164,22.78972],[91.86334,22.79222],[91.86317,22.79769],[91.86131,22.8052],[91.86219,22.81096],[91.86544,22.81545],[91.86816,22.81728],[91.86967,22.8199],[91.87198,22.82598],[91.87205,22.82825],[91.87423,22.83236],[91.87449,22.8381],[91.86932,22.85218],[91.8704,22.85536],[91.87409,22.85988],[91.87775,22.86795],[91.87774,22.87138],[91.88127,22.87669],[91.8901,22.88582],[91.89382,22.89049]]]}},{"type":"Feature","properties":{"name":"Mahalchhari","district_id":"khagrachhari","pcode":"204665","sql_upazila_id":null,"sql_name_bn":null},"geometry":{"type":"Polygon","coordinates":[[[91.96733,23.0202],[91.98055,23.02497],[91.99105,23.02612],[91.99703,23.02845],[92.00814,23.03094],[92.01205,23.03271],[92.02389,23.04055],[92.02889,23.04547],[92.03666,23.04978],[92.03945,23.05294],[92.04257,23.05398],[92.0497,23.05833],[92.05161,23.06036],[92.05561,23.06137],[92.05851,23.06303],[92.06529,23.06253],[92.07191,23.06556],[92.08221,23.06622],[92.08903,23.05221],[92.09427,23.04353],[92.0961,23.03741],[92.09956,23.03081],[92.10055,23.01732],[92.10185,23.01426],[92.11165,22.99732],[92.11236,22.99365],[92.11235,22.97886],[92.10419,22.96725],[92.101,22.96551],[92.09293,22.96306],[92.08748,22.95969],[92.07881,22.95623],[92.06924,22.94939],[92.06575,22.94552],[92.06231,22.93486],[92.06098,22.92622],[92.05787,22.9202],[92.04709,22.90648],[92.04547,22.90547],[92.03277,22.90285],[92.02164,22.9023],[92.01622,22.90318],[92.01349,22.90518],[92.01069,22.90605],[92.0046,22.90566],[91.99675,22.90325],[91.97816,22.90061],[91.97964,22.90778],[91.98312,22.91505],[91.99496,22.9334],[91.99547,22.93648],[91.99444,22.94238],[91.99065,22.95362],[91.9912,22.96071],[91.98476,22.9738],[91.98403,22.97927],[91.97735,22.9897],[91.97128,23.01058],[91.96733,23.0202]]]}},{"type":"Feature","properties":{"name":"Manikchhari","district_id":"khagrachhari","pcode":"204667","sql_upazila_id":null,"sql_name_bn":null},"geometry":{"type":"Polygon","coordinates":[[[91.74591,22.87365],[91.75176,22.8802],[91.7552,22.88798],[91.75924,22.89139],[91.76077,22.89216],[91.76432,22.89222],[91.77142,22.89119],[91.77765,22.89375],[91.78289,22.90006],[91.78675,22.9079],[91.79033,22.91209],[91.79559,22.91513],[91.80252,22.91729],[91.80463,22.92096],[91.80766,22.92283],[91.8135,22.92434],[91.81481,22.92408],[91.81987,22.92014],[91.82983,22.92139],[91.83243,22.92497],[91.83832,22.92583],[91.84405,22.92397],[91.84729,22.91939],[91.84957,22.91241],[91.85194,22.90933],[91.86482,22.90394],[91.86881,22.89855],[91.87388,22.89369],[91.87837,22.89362],[91.88071,22.892],[91.8878,22.89489],[91.8903,22.89449],[91.89382,22.89049],[91.88668,22.88172],[91.88127,22.87669],[91.87774,22.87138],[91.87775,22.86795],[91.87409,22.85988],[91.8704,22.85536],[91.86932,22.85218],[91.87449,22.8381],[91.87423,22.83236],[91.87205,22.82825],[91.87198,22.82598],[91.86967,22.8199],[91.86816,22.81728],[91.86544,22.81545],[91.86219,22.81096],[91.86131,22.8052],[91.86317,22.79769],[91.86334,22.79222],[91.86164,22.78972],[91.86008,22.78413],[91.85762,22.78223],[91.85288,22.77432],[91.84849,22.78048],[91.84508,22.78183],[91.83804,22.7756],[91.83614,22.77749],[91.83788,22.78708],[91.83747,22.78963],[91.83031,22.79053],[91.81991,22.79341],[91.81743,22.7929],[91.81381,22.79004],[91.811,22.78438],[91.8108,22.7818],[91.80617,22.77613],[91.80492,22.76971],[91.80213,22.76799],[91.8002,22.7702],[91.79901,22.77488],[91.79441,22.7835],[91.78661,22.79086],[91.78587,22.79287],[91.78374,22.79469],[91.78195,22.80338],[91.77833,22.80902],[91.77786,22.81259],[91.77392,22.82176],[91.77536,22.82739],[91.77427,22.8306],[91.77,22.8355],[91.76545,22.84787],[91.7675,22.8516],[91.76735,22.85412],[91.76534,22.85863],[91.75765,22.86662],[91.75591,22.86948],[91.75448,22.87001],[91.7515,22.86808],[91.74879,22.86962],[91.74591,22.87365]]]}},{"type":"Feature","properties":{"name":"Matiranga","district_id":"khagrachhari","pcode":"204670","sql_upazila_id":"khagrachhari-matiranga","sql_name_bn":"মাটিরাঙ্গা"},"geometry":{"type":"Polygon","coordinates":[[[91.89991,23.17154],[91.90232,23.17035],[91.90736,23.16362],[91.91067,23.15293],[91.91487,23.14536],[91.91905,23.14494],[91.92908,23.13919],[91.93348,23.1346],[91.94292,23.11911],[91.95268,23.1113],[91.95068,23.08231],[91.95161,23.06893],[91.95395,23.06238],[91.95528,23.05495],[91.96126,23.03779],[91.94811,23.0337],[91.93147,23.03246],[91.92708,23.03098],[91.92268,23.03107],[91.91962,23.02958],[91.9167,23.02954],[91.90875,23.03309],[91.89578,23.04124],[91.89013,23.04717],[91.88396,23.0492],[91.87719,23.04843],[91.87339,23.04673],[91.8649,23.04092],[91.85887,23.03498],[91.85662,23.03473],[91.85512,23.03277],[91.85501,23.02943],[91.85664,23.02183],[91.85598,23.01919],[91.85157,23.01328],[91.84766,23.01113],[91.8355,23.00113],[91.82492,22.996],[91.82163,22.99778],[91.81285,22.99118],[91.80967,22.9903],[91.80492,22.99058],[91.79553,22.99509],[91.79014,23.00523],[91.79022,23.00873],[91.79346,23.01413],[91.79096,23.01819],[91.77488,23.02484],[91.76631,23.02927],[91.77124,23.03678],[91.77434,23.03721],[91.77435,23.03996],[91.77278,23.04296],[91.77542,23.04549],[91.77729,23.04113],[91.77756,23.03636],[91.78048,23.03112],[91.78504,23.03171],[91.78703,23.03665],[91.78741,23.04209],[91.78675,23.04894],[91.78043,23.05637],[91.77981,23.05849],[91.78023,23.06126],[91.77797,23.06493],[91.77846,23.06666],[91.78036,23.06853],[91.78522,23.07069],[91.78596,23.06959],[91.78779,23.07266],[91.7937,23.07079],[91.79422,23.07003],[91.79368,23.06768],[91.79537,23.06571],[91.79979,23.06568],[91.80695,23.06755],[91.81256,23.07129],[91.81513,23.06985],[91.81532,23.07078],[91.81618,23.0706],[91.81654,23.07377],[91.82338,23.07566],[91.82474,23.07835],[91.82467,23.08032],[91.82134,23.08288],[91.82289,23.08629],[91.82408,23.08606],[91.82573,23.08391],[91.82758,23.08493],[91.8299,23.08922],[91.83221,23.08956],[91.8355,23.09391],[91.83543,23.09543],[91.83166,23.10006],[91.8295,23.10068],[91.82516,23.09989],[91.82331,23.10082],[91.8223,23.10276],[91.82504,23.10673],[91.8232,23.1089],[91.82263,23.11165],[91.81797,23.11226],[91.82069,23.11833],[91.82086,23.12266],[91.81995,23.12303],[91.81572,23.11882],[91.81386,23.11858],[91.81354,23.12148],[91.81616,23.12363],[91.81782,23.12768],[91.81675,23.12897],[91.81208,23.13069],[91.81452,23.13872],[91.82227,23.14957],[91.82303,23.15179],[91.82792,23.1573],[91.83896,23.15898],[91.84148,23.15986],[91.84326,23.16156],[91.84403,23.17072],[91.85034,23.17954],[91.8545,23.18149],[91.86239,23.18095],[91.87273,23.17395],[91.87981,23.17244],[91.88217,23.17061],[91.88912,23.16905],[91.89459,23.16884],[91.89991,23.17154]]]}},{"type":"Feature","properties":{"name":"Panchhari","district_id":"khagrachhari","pcode":"204677","sql_upazila_id":null,"sql_name_bn":null},"geometry":{"type":"Polygon","coordinates":[[[91.90106,23.43711],[91.90351,23.44145],[91.90745,23.44211],[91.91065,23.4406],[91.91892,23.4417],[91.92242,23.44296],[91.93054,23.43963],[91.93654,23.44091],[91.94178,23.43759],[91.94492,23.43977],[91.94719,23.44405],[91.94695,23.44768],[91.94139,23.46083],[91.94249,23.46638],[91.94181,23.46911],[91.94384,23.47009],[91.95183,23.47037],[91.95223,23.47248],[91.95738,23.47743],[91.96234,23.47826],[91.96306,23.47292],[91.96833,23.45895],[91.96955,23.44553],[91.97692,23.41875],[91.97593,23.40896],[91.97792,23.39955],[91.98294,23.39381],[91.98658,23.38563],[91.98619,23.36825],[91.98753,23.36161],[91.98661,23.35655],[91.9868,23.35128],[91.98885,23.33803],[91.99156,23.32968],[91.99198,23.32005],[91.99936,23.29407],[91.99928,23.28872],[92.00079,23.2821],[92.00126,23.27366],[91.99449,23.2676],[91.98916,23.26152],[91.98503,23.25878],[91.9738,23.24731],[91.96793,23.24223],[91.95653,23.23474],[91.93904,23.23267],[91.93629,23.23197],[91.93262,23.22966],[91.91752,23.20873],[91.91716,23.20668],[91.91936,23.20528],[91.91959,23.20231],[91.91619,23.19765],[91.90685,23.18921],[91.90553,23.187],[91.90136,23.18452],[91.89897,23.18062],[91.89991,23.17154],[91.89459,23.16884],[91.88912,23.16905],[91.88217,23.17061],[91.87981,23.17244],[91.87273,23.17395],[91.86239,23.18095],[91.8545,23.18149],[91.85034,23.17954],[91.84403,23.17072],[91.84326,23.16156],[91.84148,23.15986],[91.83896,23.15898],[91.82792,23.1573],[91.82303,23.15179],[91.82227,23.14957],[91.81452,23.13872],[91.81341,23.15089],[91.81174,23.15451],[91.80571,23.15861],[91.80735,23.16456],[91.80704,23.16899],[91.80247,23.1737],[91.79976,23.17853],[91.79969,23.17957],[91.80156,23.18179],[91.80019,23.1854],[91.79872,23.18697],[91.80012,23.19256],[91.79941,23.19668],[91.79715,23.19791],[91.7939,23.20137],[91.79274,23.20904],[91.79137,23.21044],[91.78782,23.20807],[91.78556,23.20784],[91.78843,23.21448],[91.78741,23.21765],[91.78868,23.21882],[91.78754,23.22036],[91.78954,23.22166],[91.79217,23.22931],[91.77852,23.24084],[91.77321,23.24932],[91.77294,23.25635],[91.77091,23.26376],[91.77348,23.26816],[91.77278,23.27009],[91.77482,23.27289],[91.77485,23.27806],[91.77818,23.28513],[91.78106,23.28849],[91.78305,23.29402],[91.79203,23.31237],[91.79162,23.31054],[91.80822,23.33866],[91.81054,23.34155],[91.81669,23.34595],[91.82145,23.35109],[91.82373,23.35722],[91.82697,23.36221],[91.83194,23.36617],[91.84397,23.38037],[91.84126,23.38079],[91.83821,23.3827],[91.83813,23.38449],[91.84417,23.39087],[91.8421,23.39385],[91.84393,23.39652],[91.85046,23.40277],[91.86317,23.40857],[91.86682,23.41176],[91.87239,23.41475],[91.8773,23.41917],[91.88027,23.4231],[91.88226,23.4233],[91.88705,23.42682],[91.89057,23.4307],[91.89271,23.43529],[91.89498,23.43585],[91.89779,23.4349],[91.90043,23.43591],[91.90106,23.43711]]]}},{"type":"Feature","properties":{"name":"Ramgarh","district_id":"khagrachhari","pcode":"204680","sql_upazila_id":"khagrachhari-ramgarh","sql_name_bn":"রামগড়"},"geometry":{"type":"Polygon","coordinates":[[[91.96733,23.0202],[91.97128,23.01058],[91.97735,22.9897],[91.98403,22.97927],[91.98476,22.9738],[91.9912,22.96071],[91.99065,22.95362],[91.99444,22.94238],[91.99547,22.93648],[91.99496,22.9334],[91.98312,22.91505],[91.97964,22.90778],[91.97816,22.90061],[91.97131,22.90117],[91.9532,22.90073],[91.94666,22.89899],[91.94039,22.90144],[91.93258,22.9011],[91.92923,22.9004],[91.92055,22.89635],[91.91507,22.89606],[91.9064,22.89366],[91.89939,22.89009],[91.89542,22.88938],[91.8903,22.89449],[91.8878,22.89489],[91.88071,22.892],[91.87837,22.89362],[91.87388,22.89369],[91.86881,22.89855],[91.86482,22.90394],[91.85194,22.90933],[91.84957,22.91241],[91.84729,22.91939],[91.84405,22.92397],[91.83832,22.92583],[91.83243,22.92497],[91.82983,22.92139],[91.81987,22.92014],[91.81481,22.92408],[91.8135,22.92434],[91.80766,22.92283],[91.80463,22.92096],[91.80252,22.91729],[91.79559,22.91513],[91.79033,22.91209],[91.78675,22.9079],[91.78289,22.90006],[91.77765,22.89375],[91.77142,22.89119],[91.76432,22.89222],[91.76077,22.89216],[91.75924,22.89139],[91.7552,22.88798],[91.75176,22.8802],[91.74591,22.87365],[91.73793,22.87408],[91.73599,22.87625],[91.73482,22.88705],[91.73793,22.89342],[91.73873,22.8969],[91.73458,22.89836],[91.73208,22.90239],[91.7319,22.90705],[91.73602,22.91352],[91.7367,22.91826],[91.73485,22.92265],[91.73648,22.92995],[91.73851,22.93244],[91.73818,22.93554],[91.73324,22.9434],[91.73199,22.94721],[91.73258,22.95318],[91.72883,22.9623],[91.72557,22.97364],[91.72371,22.97819],[91.72154,22.98071],[91.72027,22.98807],[91.72338,22.98973],[91.72404,22.98871],[91.72614,22.98983],[91.72811,22.99689],[91.73368,23.00134],[91.73924,23.00463],[91.74571,23.00619],[91.75112,23.01004],[91.75605,23.01562],[91.76071,23.02525],[91.76631,23.02927],[91.77488,23.02484],[91.79096,23.01819],[91.79346,23.01413],[91.79022,23.00873],[91.79014,23.00523],[91.79338,22.99817],[91.79553,22.99509],[91.80004,22.99269],[91.80492,22.99058],[91.80967,22.9903],[91.81285,22.99118],[91.82163,22.99778],[91.82492,22.996],[91.8355,23.00113],[91.84766,23.01113],[91.85157,23.01328],[91.85598,23.01919],[91.85664,23.02183],[91.85501,23.02943],[91.85512,23.03277],[91.85662,23.03473],[91.85887,23.03498],[91.8649,23.04092],[91.87339,23.04673],[91.87719,23.04843],[91.88396,23.0492],[91.89013,23.04717],[91.89578,23.04124],[91.90875,23.03309],[91.9167,23.02954],[91.91962,23.02958],[91.92268,23.03107],[91.92708,23.03098],[91.93147,23.03246],[91.94811,23.0337],[91.96126,23.03779],[91.96435,23.03114],[91.9646,23.02716],[91.96733,23.0202]]]}}]}