{"type":"FeatureCollection","features":[{"type":"Feature","properties":{"name":"Batiaghata","district_id":"khulna","pcode":"404712","sql_upazila_id":null,"sql_name_bn":null},"geometry":{"type":"MultiPolygon","coordinates":[[[[89.48648,22.76989],[89.49492,22.76534],[89.50134,22.76718],[89.50396,22.76659],[89.50551,22.76292],[89.50553,22.75352],[89.50723,22.74944],[89.51277,22.74587],[89.52051,22.74422],[89.52167,22.7425],[89.52167,22.73833],[89.51976,22.73343],[89.51947,22.72905],[89.52579,22.71635],[89.53022,22.69842],[89.52944,22.67899],[89.53051,22.66681],[89.52746,22.65201],[89.52174,22.63782],[89.52028,22.63025],[89.51892,22.62918],[89.51075,22.63416],[89.5025,22.63778],[89.4946,22.645],[89.48583,22.64781],[89.48151,22.65007],[89.48002,22.6499],[89.4757,22.64544],[89.47403,22.64473],[89.47015,22.64583],[89.45773,22.646],[89.45615,22.64368],[89.45619,22.6389],[89.44431,22.64648],[89.4368,22.64862],[89.43185,22.64869],[89.43091,22.65514],[89.43213,22.65667],[89.43861,22.65771],[89.43988,22.65912],[89.44032,22.66129],[89.44067,22.66516],[89.44001,22.66762],[89.437,22.66982],[89.4362,22.67191],[89.43559,22.67428],[89.43597,22.67796],[89.43893,22.68075],[89.44109,22.68081],[89.44434,22.68464],[89.44835,22.69093],[89.44754,22.69383],[89.45562,22.70333],[89.45881,22.70314],[89.46233,22.70535],[89.4671,22.70503],[89.47025,22.70866],[89.4718,22.71345],[89.46969,22.71885],[89.47199,22.71959],[89.47205,22.72333],[89.46852,22.7291],[89.46539,22.73119],[89.46548,22.73452],[89.46434,22.7376],[89.46457,22.74136],[89.46848,22.74152],[89.47004,22.74263],[89.47276,22.74699],[89.47379,22.75076],[89.47276,22.75308],[89.4761,22.75978],[89.47603,22.76359],[89.47982,22.76469],[89.47952,22.76688],[89.4803,22.7683],[89.47956,22.7697],[89.48572,22.76995],[89.48648,22.76989]]],[[[89.51019,22.80664],[89.51424,22.80608],[89.51628,22.80666],[89.51989,22.80973],[89.52635,22.8113],[89.53842,22.80893],[89.54074,22.81025],[89.54323,22.80547],[89.54359,22.80293],[89.55198,22.79893],[89.5537,22.79699],[89.5556,22.79614],[89.5618,22.79661],[89.56405,22.79874],[89.56658,22.79846],[89.56924,22.797],[89.5701,22.79526],[89.5705,22.78823],[89.56991,22.77888],[89.57215,22.77762],[89.57582,22.77298],[89.5759,22.76902],[89.5806,22.772],[89.58414,22.78099],[89.58468,22.78843],[89.59647,22.79281],[89.59997,22.79628],[89.60291,22.79557],[89.60518,22.79339],[89.61211,22.78252],[89.61282,22.7779],[89.61594,22.77507],[89.61532,22.76899],[89.60662,22.7391],[89.59944,22.73405],[89.60103,22.7278],[89.60113,22.72291],[89.60576,22.72142],[89.60381,22.71836],[89.60038,22.71673],[89.59867,22.7174],[89.59718,22.72266],[89.59359,22.72408],[89.58944,22.7235],[89.58826,22.72117],[89.59274,22.71847],[89.59301,22.71363],[89.59593,22.7104],[89.59813,22.70983],[89.60278,22.70672],[89.60309,22.70292],[89.5972,22.69767],[89.58886,22.69288],[89.58486,22.69511],[89.57455,22.69439],[89.57615,22.69021],[89.58258,22.68316],[89.57893,22.67854],[89.58231,22.66839],[89.57991,22.66455],[89.57369,22.66654],[89.56822,22.67076],[89.56837,22.67277],[89.56238,22.67706],[89.56033,22.67662],[89.55917,22.67271],[89.55358,22.66125],[89.55762,22.64442],[89.55806,22.64079],[89.55749,22.63828],[89.54436,22.6278],[89.54064,22.6287],[89.54361,22.63139],[89.55317,22.63555],[89.55496,22.6373],[89.55608,22.63999],[89.54972,22.65583],[89.54833,22.66333],[89.54778,22.66417],[89.54667,22.66361],[89.54861,22.65111],[89.555,22.63972],[89.55334,22.63806],[89.54111,22.63194],[89.53472,22.62583],[89.5325,22.61889],[89.52944,22.61333],[89.52834,22.61333],[89.52666,22.61583],[89.525,22.62306],[89.525,22.62667],[89.5275,22.63417],[89.52805,22.63861],[89.53306,22.65111],[89.53528,22.66139],[89.53611,22.67083],[89.53584,22.68028],[89.53833,22.69472],[89.53667,22.70444],[89.53374,22.71179],[89.53251,22.71265],[89.53167,22.71583],[89.52583,22.72389],[89.52417,22.72861],[89.525,22.73306],[89.52639,22.73583],[89.53222,22.73861],[89.53075,22.7429],[89.52917,22.74472],[89.52528,22.74111],[89.52444,22.74111],[89.52179,22.74553],[89.51759,22.74604],[89.51231,22.74807],[89.50735,22.75159],[89.5068,22.75503],[89.50748,22.76241],[89.50624,22.76631],[89.50437,22.76811],[89.5023,22.769],[89.49486,22.76695],[89.48814,22.771],[89.47995,22.77117],[89.48103,22.77225],[89.48004,22.77612],[89.48173,22.78079],[89.48602,22.78609],[89.48948,22.78658],[89.49037,22.78753],[89.48875,22.79476],[89.49129,22.80171],[89.49459,22.80663],[89.51103,22.81208],[89.51282,22.81014],[89.51085,22.80795],[89.51019,22.80664]]]]}},{"type":"Feature","properties":{"name":"Dacope","district_id":"khulna","pcode":"404717","sql_upazila_id":null,"sql_name_bn":null},"geometry":{"type":"MultiPolygon","coordinates":[[[[89.49665,22.56696],[89.4958,22.55963],[89.49416,22.55598],[89.48941,22.55001],[89.48109,22.54288],[89.48003,22.54064],[89.48117,22.53827],[89.48649,22.53429],[89.49012,22.53027],[89.49305,22.52309],[89.49272,22.51281],[89.49075,22.49921],[89.4897,22.4987],[89.48875,22.49922],[89.48403,22.50393],[89.48215,22.50389],[89.48067,22.50193],[89.48132,22.48893],[89.48389,22.48],[89.47882,22.47813],[89.46935,22.47763],[89.46445,22.47389],[89.4604,22.47216],[89.45979,22.47092],[89.4606,22.46818],[89.4664,22.463],[89.46679,22.46148],[89.45639,22.44833],[89.45347,22.43788],[89.45389,22.43528],[89.45528,22.43333],[89.45778,22.43167],[89.46139,22.43083],[89.46222,22.42972],[89.45944,22.42611],[89.45389,22.42694],[89.45222,22.42639],[89.45028,22.42444],[89.45028,22.42278],[89.45639,22.41278],[89.46111,22.4075],[89.46194,22.40528],[89.46111,22.40472],[89.45139,22.41361],[89.44695,22.41389],[89.44417,22.41139],[89.43528,22.41972],[89.43553,22.4284],[89.43361,22.43639],[89.43305,22.44722],[89.43389,22.45833],[89.43195,22.47028],[89.43142,22.4791],[89.42722,22.49778],[89.42306,22.50557],[89.42255,22.50889],[89.42432,22.51041],[89.43056,22.51056],[89.43389,22.51194],[89.44333,22.52169],[89.44456,22.52716],[89.44366,22.53251],[89.44404,22.53427],[89.45194,22.54472],[89.45181,22.55022],[89.4576,22.55641],[89.45911,22.55935],[89.45884,22.56175],[89.45611,22.56472],[89.45722,22.56639],[89.46429,22.56772],[89.46947,22.56641],[89.47218,22.56671],[89.47629,22.5686],[89.48452,22.57479],[89.49061,22.57694],[89.49271,22.57527],[89.49419,22.56995],[89.49657,22.56762],[89.49665,22.56696]]],[[[89.52889,22.59778],[89.53889,22.58917],[89.54806,22.57889],[89.55972,22.56333],[89.56416,22.55528],[89.56722,22.54667],[89.57027,22.5325],[89.57833,22.51194],[89.58083,22.50139],[89.58195,22.49389],[89.5825,22.47697],[89.585,22.46694],[89.58444,22.46472],[89.58556,22.4614],[89.58528,22.45806],[89.58611,22.45694],[89.585,22.45417],[89.58584,22.44194],[89.58833,22.44],[89.59194,22.43111],[89.59583,22.42528],[89.59722,22.42083],[89.60973,22.40167],[89.61472,22.39167],[89.61584,22.38583],[89.61555,22.37278],[89.61639,22.36889],[89.6175,22.3675],[89.61777,22.365],[89.62028,22.35917],[89.62028,22.35722],[89.62473,22.34694],[89.62473,22.34472],[89.62305,22.33971],[89.61166,22.31722],[89.60528,22.30667],[89.58701,22.28939],[89.58083,22.2775],[89.57833,22.2675],[89.57833,22.26111],[89.57917,22.25417],[89.58472,22.24222],[89.58305,22.24111],[89.57726,22.23968],[89.57417,22.24528],[89.57417,22.24972],[89.57269,22.25287],[89.56695,22.25556],[89.55889,22.25583],[89.55527,22.25944],[89.55278,22.27361],[89.55305,22.28528],[89.55055,22.29083],[89.55055,22.29306],[89.55334,22.2975],[89.55389,22.3],[89.55278,22.30305],[89.55083,22.305],[89.53884,22.31238],[89.53416,22.31861],[89.52972,22.32861],[89.52805,22.33028],[89.52333,22.33139],[89.515,22.32611],[89.51334,22.32639],[89.51195,22.32805],[89.51167,22.33222],[89.51444,22.33583],[89.52084,22.33694],[89.53,22.33694],[89.53416,22.33805],[89.53584,22.34056],[89.53445,22.34472],[89.52666,22.35333],[89.52583,22.3525],[89.53222,22.34556],[89.53416,22.3425],[89.53445,22.34028],[89.53222,22.33861],[89.5225,22.33861],[89.51389,22.33694],[89.51111,22.33444],[89.51,22.33167],[89.51111,22.32694],[89.51444,22.32472],[89.51945,22.32611],[89.52389,22.32972],[89.5266,22.32987],[89.53028,22.32083],[89.53445,22.31472],[89.54139,22.30778],[89.55188,22.30152],[89.55222,22.29944],[89.54945,22.29472],[89.54916,22.29056],[89.55083,22.28444],[89.55055,22.27083],[89.55297,22.25994],[89.555,22.25667],[89.55833,22.25444],[89.56917,22.25306],[89.57139,22.25111],[89.5725,22.24055],[89.57111,22.23501],[89.55055,22.21667],[89.54389,22.20889],[89.54195,22.205],[89.53944,22.2025],[89.53944,22.20138],[89.54079,22.19976],[89.54115,22.19483],[89.54389,22.18549],[89.56021,22.16546],[89.57169,22.14627],[89.57989,22.13442],[89.58305,22.1248],[89.58107,22.1142],[89.57747,22.10209],[89.56662,22.08153],[89.56005,22.07081],[89.5531,22.05454],[89.54896,22.04239],[89.54414,22.01665],[89.54221,22.01081],[89.53528,22],[89.53505,21.99674],[89.53195,21.99304],[89.52952,21.99391],[89.52737,21.99788],[89.52005,22.00131],[89.51747,22.00668],[89.51353,22.01129],[89.5104,22.01313],[89.50909,22.01613],[89.52763,22.04534],[89.53072,22.05155],[89.53131,22.05568],[89.53328,22.0588],[89.53471,22.06676],[89.53436,22.06987],[89.53528,22.07229],[89.53384,22.08347],[89.53113,22.0897],[89.52687,22.09363],[89.52646,22.09492],[89.53151,22.09556],[89.54005,22.0945],[89.54328,22.0949],[89.54524,22.09809],[89.5493,22.11013],[89.54916,22.1125],[89.54778,22.11444],[89.54505,22.11528],[89.54507,22.11438],[89.54681,22.11346],[89.54806,22.11111],[89.54417,22.10139],[89.54389,22.09805],[89.54083,22.09611],[89.53056,22.0975],[89.52361,22.09611],[89.51639,22.1025],[89.51583,22.10861],[89.51083,22.13111],[89.50777,22.13667],[89.50195,22.15361],[89.50027,22.16139],[89.4975,22.16694],[89.49667,22.17139],[89.49167,22.18306],[89.48805,22.19778],[89.47722,22.22361],[89.47749,22.22555],[89.47528,22.23028],[89.48083,22.23917],[89.48333,22.24556],[89.48695,22.25056],[89.48861,22.25583],[89.49361,22.26417],[89.49639,22.27528],[89.49667,22.28722],[89.49639,22.28806],[89.49528,22.28778],[89.495,22.27583],[89.49333,22.26778],[89.49194,22.26583],[89.49111,22.26694],[89.49084,22.27611],[89.48889,22.28194],[89.48722,22.285],[89.47861,22.29389],[89.47528,22.3],[89.47556,22.30305],[89.48222,22.31],[89.4825,22.31472],[89.48111,22.3175],[89.47611,22.3225],[89.45917,22.33389],[89.45695,22.33805],[89.4575,22.34],[89.45917,22.34139],[89.46321,22.34207],[89.47083,22.34056],[89.48333,22.33611],[89.48833,22.3375],[89.48861,22.33861],[89.48695,22.33861],[89.48611,22.34028],[89.48528,22.35333],[89.48547,22.35972],[89.48861,22.36861],[89.48666,22.36639],[89.48444,22.35939],[89.48417,22.34833],[89.48556,22.33917],[89.48444,22.3375],[89.47056,22.34222],[89.46167,22.34361],[89.45778,22.3425],[89.45583,22.33944],[89.45556,22.33722],[89.45965,22.33138],[89.47444,22.32167],[89.48,22.31611],[89.48111,22.31361],[89.48055,22.31],[89.47833,22.30806],[89.47417,22.30611],[89.47222,22.30727],[89.46917,22.31444],[89.465,22.32],[89.44639,22.3375],[89.44111,22.34694],[89.43333,22.3567],[89.44305,22.36695],[89.44611,22.37306],[89.44611,22.37722],[89.44778,22.38056],[89.44751,22.38222],[89.44833,22.38417],[89.44755,22.39059],[89.44805,22.39667],[89.44695,22.40167],[89.44751,22.4025],[89.44722,22.40833],[89.44806,22.41055],[89.44917,22.41111],[89.45333,22.40917],[89.45695,22.40389],[89.45917,22.40195],[89.46278,22.40167],[89.46472,22.40306],[89.465,22.40417],[89.46361,22.40722],[89.46389,22.40944],[89.46194,22.40972],[89.45778,22.41389],[89.45222,22.42361],[89.45333,22.42528],[89.45667,22.42444],[89.45944,22.42472],[89.46278,22.42722],[89.46361,22.42917],[89.46306,22.43111],[89.46139,22.43278],[89.45611,22.43472],[89.455,22.43611],[89.45695,22.44139],[89.45722,22.44528],[89.45917,22.44972],[89.46667,22.45861],[89.46833,22.45945],[89.4675,22.46389],[89.46083,22.47],[89.46889,22.47611],[89.47305,22.47694],[89.48,22.47694],[89.48417,22.47861],[89.485,22.48111],[89.4825,22.48722],[89.48186,22.50216],[89.48389,22.50222],[89.49,22.49722],[89.49139,22.4975],[89.49277,22.5],[89.49472,22.51722],[89.49389,22.52611],[89.48917,22.53389],[89.48306,22.53833],[89.48167,22.54055],[89.49028,22.54889],[89.49528,22.55556],[89.4975,22.56056],[89.49805,22.56833],[89.49889,22.56972],[89.50611,22.57278],[89.51028,22.57861],[89.51611,22.58167],[89.51778,22.58333],[89.51889,22.58694],[89.51945,22.59583],[89.52368,22.59889],[89.5275,22.59945],[89.52889,22.59833],[89.52889,22.59778]]],[[[89.46611,22.64555],[89.46362,22.64588],[89.46827,22.64575],[89.46659,22.64555],[89.46611,22.64555]]],[[[89.49561,22.64253],[89.50195,22.63615],[89.51281,22.63114],[89.51849,22.6266],[89.52144,22.61518],[89.52522,22.60649],[89.52538,22.60202],[89.51975,22.59903],[89.51767,22.59683],[89.51675,22.59476],[89.51643,22.58782],[89.51471,22.58449],[89.5081,22.57957],[89.50527,22.575],[89.50159,22.57366],[89.4985,22.57147],[89.49619,22.57089],[89.49299,22.5775],[89.49033,22.57935],[89.47894,22.57301],[89.47528,22.56972],[89.47195,22.56889],[89.46167,22.56889],[89.4575,22.56805],[89.45583,22.56694],[89.45444,22.56472],[89.45805,22.56083],[89.45805,22.55972],[89.45028,22.55083],[89.44945,22.54889],[89.45028,22.54389],[89.44195,22.53417],[89.44139,22.53],[89.4425,22.52694],[89.44195,22.52444],[89.43723,22.51805],[89.43333,22.51444],[89.42973,22.51417],[89.42361,22.51556],[89.42083,22.51528],[89.41833,22.51694],[89.41194,22.52389],[89.41556,22.52944],[89.42528,22.5375],[89.42667,22.53945],[89.42778,22.5425],[89.42722,22.55056],[89.42528,22.55556],[89.41994,22.56139],[89.41458,22.56389],[89.40361,22.57389],[89.40309,22.57541],[89.40361,22.57722],[89.4104,22.58198],[89.41467,22.58366],[89.41695,22.58588],[89.41917,22.59056],[89.4206,22.5919],[89.425,22.59333],[89.43111,22.59889],[89.43555,22.59972],[89.43833,22.60111],[89.44277,22.60617],[89.44726,22.6132],[89.45138,22.6169],[89.45727,22.62062],[89.46044,22.62415],[89.46134,22.62561],[89.46139,22.62944],[89.4567,22.63552],[89.45844,22.64444],[89.46958,22.64433],[89.47462,22.64224],[89.47577,22.64275],[89.47883,22.64713],[89.48161,22.64827],[89.49138,22.64496],[89.49524,22.64288],[89.49561,22.64253]]]]}},{"type":"Feature","properties":{"name":"Dighalia","district_id":"khulna","pcode":"404740","sql_upazila_id":null,"sql_name_bn":null},"geometry":{"type":"Polygon","coordinates":[[[89.56177,22.95806],[89.57133,22.95427],[89.57403,22.95],[89.5743,22.94011],[89.57133,22.92035],[89.56837,22.91256],[89.56689,22.9046],[89.5703,22.89101],[89.56776,22.87693],[89.57001,22.8717],[89.56965,22.86786],[89.56793,22.8598],[89.56475,22.85464],[89.55871,22.85123],[89.55548,22.84644],[89.5549,22.84174],[89.5574,22.8321],[89.55484,22.83174],[89.55119,22.83321],[89.55032,22.83691],[89.54571,22.83945],[89.54281,22.83945],[89.53673,22.8361],[89.5341,22.82898],[89.52998,22.83299],[89.52528,22.8346],[89.52134,22.83487],[89.51962,22.83733],[89.51755,22.84365],[89.51863,22.84684],[89.51745,22.85273],[89.51477,22.85596],[89.51234,22.85487],[89.50206,22.86386],[89.49574,22.8527],[89.49527,22.84931],[89.49309,22.84667],[89.49014,22.84473],[89.48736,22.84451],[89.4894,22.85078],[89.49233,22.856],[89.49458,22.86698],[89.49117,22.87246],[89.48846,22.87489],[89.48943,22.87883],[89.48811,22.88133],[89.48355,22.88576],[89.48366,22.88937],[89.48244,22.89377],[89.4785,22.90025],[89.47783,22.91067],[89.48693,22.9097],[89.48837,22.91024],[89.49403,22.90809],[89.4976,22.90932],[89.49867,22.91245],[89.50063,22.91413],[89.50462,22.91553],[89.51411,22.91098],[89.51817,22.91071],[89.52401,22.912],[89.52435,22.91504],[89.52288,22.91944],[89.52103,22.92184],[89.51903,22.9227],[89.51752,22.92769],[89.52362,22.92966],[89.52794,22.93944],[89.53406,22.94388],[89.54308,22.9463],[89.54991,22.94987],[89.55596,22.95391],[89.56039,22.95759],[89.56039,22.95835],[89.56177,22.95806]]]}},{"type":"Feature","properties":{"name":"Dumuria","district_id":"khulna","pcode":"404730","sql_upazila_id":"khulna-dumuria","sql_name_bn":"ডুমুরিয়া"},"geometry":{"type":"MultiPolygon","coordinates":[[[[89.43084,22.65302],[89.43185,22.64869],[89.42916,22.65443],[89.42986,22.65608],[89.43213,22.65667],[89.43091,22.65514],[89.43084,22.65302]]],[[[89.43988,22.65912],[89.43861,22.65771],[89.43733,22.65784],[89.43815,22.65929],[89.43769,22.662],[89.43261,22.67006],[89.43266,22.67326],[89.43581,22.67762],[89.43559,22.67428],[89.437,22.66982],[89.44001,22.66762],[89.44067,22.66516],[89.44032,22.66129],[89.43988,22.65912]]],[[[89.43893,22.68075],[89.4369,22.67886],[89.44754,22.69383],[89.44835,22.69093],[89.44109,22.68081],[89.43893,22.68075]]],[[[89.46064,22.70453],[89.45881,22.70314],[89.45562,22.70333],[89.4584,22.70639],[89.46013,22.70674],[89.46425,22.70552],[89.46233,22.70535],[89.46064,22.70453]]],[[[89.46852,22.7291],[89.47205,22.72333],[89.47199,22.71959],[89.46969,22.71885],[89.4718,22.71345],[89.46928,22.70765],[89.46912,22.71447],[89.4671,22.72288],[89.46438,22.72865],[89.46415,22.73262],[89.46152,22.7384],[89.46258,22.74046],[89.46457,22.74136],[89.46434,22.7376],[89.46548,22.73452],[89.46539,22.73119],[89.46852,22.7291]]],[[[89.47709,22.76946],[89.47956,22.7697],[89.4803,22.7683],[89.47952,22.76688],[89.47982,22.76469],[89.47603,22.76359],[89.4761,22.75978],[89.47276,22.75308],[89.47379,22.75076],[89.47276,22.74699],[89.47004,22.74263],[89.46848,22.74152],[89.46487,22.7415],[89.46771,22.74411],[89.46849,22.74983],[89.47237,22.75545],[89.47385,22.75975],[89.4724,22.76833],[89.47364,22.76943],[89.47656,22.76956],[89.47709,22.76946]]],[[[89.38762,22.92217],[89.38901,22.92127],[89.39637,22.9261],[89.4019,22.92758],[89.41132,22.92085],[89.41589,22.91873],[89.42505,22.9196],[89.44151,22.92357],[89.44778,22.92279],[89.45993,22.92463],[89.46362,22.92447],[89.46674,22.92324],[89.46467,22.92031],[89.46465,22.91748],[89.46866,22.91343],[89.47783,22.91067],[89.4785,22.90025],[89.48244,22.89377],[89.48366,22.88937],[89.48355,22.88576],[89.48811,22.88133],[89.48943,22.87883],[89.48846,22.87489],[89.49117,22.87246],[89.49458,22.86698],[89.49233,22.856],[89.4894,22.85078],[89.48736,22.84451],[89.49014,22.84473],[89.49309,22.84667],[89.49527,22.84931],[89.49574,22.8527],[89.50206,22.86386],[89.51234,22.85487],[89.51477,22.85596],[89.51745,22.85273],[89.51863,22.84684],[89.51755,22.84365],[89.51962,22.83733],[89.52134,22.83487],[89.52528,22.8346],[89.52998,22.83299],[89.5341,22.82898],[89.53456,22.8238],[89.53596,22.82134],[89.53875,22.81961],[89.54074,22.81025],[89.53842,22.80893],[89.52635,22.8113],[89.51989,22.80973],[89.51628,22.80666],[89.51424,22.80608],[89.51019,22.80664],[89.51282,22.81014],[89.51103,22.81208],[89.49765,22.80793],[89.49459,22.80663],[89.49324,22.80482],[89.49129,22.80171],[89.48875,22.79476],[89.49037,22.78753],[89.48948,22.78658],[89.48602,22.78609],[89.48173,22.78079],[89.48004,22.77612],[89.48103,22.77225],[89.47995,22.77117],[89.47585,22.7716],[89.47234,22.77085],[89.47036,22.76941],[89.46958,22.76682],[89.47213,22.76047],[89.47205,22.75739],[89.46703,22.74976],[89.4663,22.74432],[89.46204,22.74184],[89.46035,22.73943],[89.46029,22.73723],[89.46578,22.72282],[89.46805,22.71093],[89.46758,22.70792],[89.46572,22.70672],[89.45882,22.70912],[89.45693,22.70794],[89.44751,22.69688],[89.43097,22.67497],[89.42864,22.67091],[89.42811,22.66541],[89.42955,22.66168],[89.43159,22.65937],[89.42778,22.65694],[89.42694,22.65528],[89.42722,22.65167],[89.42865,22.64835],[89.4228,22.64596],[89.41687,22.64682],[89.4131,22.64577],[89.40828,22.65414],[89.40524,22.66352],[89.4054,22.66893],[89.40083,22.67306],[89.4025,22.67639],[89.40972,22.68222],[89.41111,22.68639],[89.41084,22.68972],[89.405,22.69722],[89.40222,22.7025],[89.40327,22.71284],[89.3992,22.72474],[89.39278,22.72917],[89.38223,22.73056],[89.37917,22.73195],[89.37889,22.73278],[89.38111,22.73583],[89.3825,22.73972],[89.38167,22.74361],[89.38055,22.745],[89.37889,22.74556],[89.37083,22.745],[89.36812,22.74605],[89.36584,22.75334],[89.36361,22.75611],[89.36139,22.7575],[89.36,22.75694],[89.36432,22.75351],[89.36608,22.74813],[89.36842,22.74475],[89.37444,22.74333],[89.37611,22.74417],[89.37917,22.74417],[89.38084,22.74306],[89.38084,22.73917],[89.37778,22.7325],[89.37934,22.72988],[89.39361,22.7275],[89.39667,22.725],[89.3975,22.72333],[89.40053,22.71384],[89.4,22.70262],[89.40084,22.69856],[89.40269,22.695],[89.40945,22.68722],[89.40879,22.68528],[89.39919,22.67533],[89.39854,22.67644],[89.38889,22.67897],[89.38126,22.67513],[89.3782,22.6775],[89.37322,22.6844],[89.37495,22.69097],[89.37116,22.69399],[89.366,22.69624],[89.35744,22.69202],[89.35231,22.70197],[89.3552,22.70828],[89.34982,22.71157],[89.34737,22.71416],[89.3403,22.71271],[89.33159,22.72229],[89.32999,22.7268],[89.33299,22.7303],[89.33419,22.7332],[89.33132,22.73637],[89.32,22.73888],[89.31358,22.74248],[89.31277,22.74664],[89.3194,22.75407],[89.3191,22.76109],[89.30971,22.76205],[89.30889,22.76351],[89.30487,22.76527],[89.30151,22.76828],[89.30879,22.77304],[89.30763,22.78204],[89.2972,22.78562],[89.29565,22.78945],[89.29126,22.79122],[89.2832,22.78951],[89.27116,22.79284],[89.27031,22.79785],[89.27145,22.80128],[89.27156,22.80501],[89.27063,22.80687],[89.26994,22.81281],[89.26732,22.8139],[89.26401,22.81237],[89.26094,22.80859],[89.25237,22.80832],[89.25119,22.81036],[89.24876,22.81174],[89.25069,22.81647],[89.25375,22.81795],[89.25547,22.82063],[89.25867,22.82864],[89.25858,22.83186],[89.2562,22.83473],[89.25476,22.83539],[89.24979,22.83465],[89.25063,22.83599],[89.25225,22.83655],[89.25393,22.84174],[89.25729,22.84459],[89.25949,22.84436],[89.26861,22.83962],[89.27126,22.83956],[89.27133,22.84427],[89.27026,22.84659],[89.27075,22.84791],[89.27642,22.8495],[89.27731,22.85132],[89.2795,22.85195],[89.28211,22.8505],[89.28281,22.84912],[89.28561,22.84802],[89.28754,22.84838],[89.28893,22.84966],[89.28918,22.85453],[89.29074,22.85911],[89.29216,22.85988],[89.29498,22.85838],[89.29794,22.8544],[89.3014,22.8523],[89.30397,22.85281],[89.31111,22.85127],[89.30711,22.84746],[89.30007,22.84571],[89.29854,22.84335],[89.29994,22.8424],[89.30231,22.84114],[89.31056,22.84088],[89.32844,22.83793],[89.33118,22.83467],[89.32868,22.83046],[89.32585,22.82811],[89.32761,22.82508],[89.33048,22.82416],[89.34016,22.82639],[89.3479,22.8296],[89.35393,22.83337],[89.35506,22.83574],[89.35408,22.84229],[89.35599,22.84879],[89.35822,22.8516],[89.35835,22.85483],[89.36013,22.85805],[89.35869,22.86337],[89.35381,22.86563],[89.35153,22.86757],[89.3523,22.87061],[89.35521,22.87407],[89.35862,22.87584],[89.36055,22.87844],[89.3606,22.88022],[89.35352,22.89682],[89.35227,22.90157],[89.35036,22.90541],[89.34675,22.90831],[89.34477,22.9148],[89.34534,22.91714],[89.34661,22.91862],[89.36217,22.92123],[89.3661,22.92286],[89.37251,22.93171],[89.3791,22.93301],[89.38881,22.93134],[89.38863,22.92514],[89.38762,22.92217]]]]}},{"type":"Feature","properties":{"name":"Kotwali","district_id":"khulna","pcode":"404147","sql_upazila_id":null,"sql_name_bn":null},"geometry":{"type":"Polygon","coordinates":[[[89.5341,22.82898],[89.53673,22.8361],[89.54281,22.83945],[89.54571,22.83945],[89.55032,22.83691],[89.55119,22.83321],[89.55484,22.83174],[89.5574,22.8321],[89.57049,22.82083],[89.57802,22.81709],[89.58383,22.80933],[89.5862,22.79082],[89.58621,22.78888],[89.58468,22.78843],[89.58414,22.78099],[89.5806,22.772],[89.5759,22.76902],[89.57582,22.77298],[89.57215,22.77762],[89.56991,22.77888],[89.5705,22.78823],[89.5701,22.79526],[89.56924,22.797],[89.56658,22.79846],[89.56405,22.79874],[89.5618,22.79661],[89.5556,22.79614],[89.55119,22.79938],[89.54359,22.80293],[89.54323,22.80547],[89.53944,22.81407],[89.53981,22.81648],[89.53875,22.81961],[89.53596,22.82134],[89.53456,22.8238],[89.53419,22.82808],[89.5341,22.82898]]]}},{"type":"Feature","properties":{"name":"Koyra","district_id":"khulna","pcode":"404753","sql_upazila_id":"khulna-koyra","sql_name_bn":"কয়রা"},"geometry":{"type":"MultiPolygon","coordinates":[[[[89.34728,21.7004],[89.34538,21.69816],[89.34204,21.69643],[89.33673,21.69516],[89.3309,21.69834],[89.32996,21.70036],[89.32881,21.70036],[89.33168,21.7068],[89.33395,21.71647],[89.33636,21.71915],[89.3378,21.71958],[89.33875,21.71874],[89.34198,21.71243],[89.34608,21.70912],[89.34946,21.70433],[89.34946,21.70325],[89.34766,21.70096],[89.34728,21.7004]]],[[[89.44909,21.75867],[89.45019,21.75809],[89.44984,21.75672],[89.44847,21.75701],[89.44819,21.75928],[89.44934,21.75928],[89.44934,21.75867],[89.44909,21.75867]]],[[[89.45291,21.7598],[89.45207,21.7598],[89.45241,21.76146],[89.45378,21.76225],[89.45291,21.76091],[89.45291,21.7598]]],[[[89.33054,21.8656],[89.32731,21.86526],[89.32716,21.86406],[89.32545,21.86325],[89.32122,21.86231],[89.32022,21.86278],[89.32373,21.86742],[89.32731,21.87058],[89.33498,21.86836],[89.33103,21.86594],[89.33054,21.8656]]],[[[89.33794,21.86967],[89.33558,21.86893],[89.3287,21.87196],[89.33594,21.87653],[89.35083,21.88164],[89.35141,21.8807],[89.35033,21.87875],[89.34361,21.87256],[89.34031,21.87061],[89.33794,21.86967]]],[[[89.33583,21.78695],[89.33339,21.788],[89.33052,21.79117],[89.32945,21.79614],[89.32616,21.8024],[89.32379,21.81074],[89.3205,21.81511],[89.32043,21.81793],[89.31871,21.82224],[89.31541,21.82566],[89.31348,21.8293],[89.31269,21.83488],[89.30946,21.84012],[89.30911,21.84711],[89.30997,21.85102],[89.31241,21.85552],[89.31448,21.8572],[89.33396,21.86399],[89.35344,21.87704],[89.35673,21.88054],[89.36053,21.88296],[89.36568,21.88356],[89.36662,21.8808],[89.3664,21.87657],[89.36404,21.87462],[89.35909,21.8681],[89.35616,21.86117],[89.35072,21.83259],[89.34835,21.82883],[89.34105,21.82264],[89.33718,21.81618],[89.33567,21.80764],[89.33411,21.80603],[89.33618,21.80334],[89.3375,21.79556],[89.33778,21.79028],[89.33639,21.78722],[89.33583,21.78695]]],[[[89.41399,21.98607],[89.42255,21.98631],[89.42432,21.98462],[89.42319,21.98256],[89.4219,21.98195],[89.41823,21.97525],[89.41728,21.96866],[89.41893,21.96443],[89.42438,21.95967],[89.42715,21.95127],[89.42951,21.94817],[89.43288,21.94448],[89.44007,21.9405],[89.45573,21.93524],[89.45718,21.93394],[89.45743,21.93273],[89.44753,21.92087],[89.44531,21.91572],[89.44511,21.91236],[89.44721,21.90712],[89.45,21.9045],[89.456,21.90191],[89.46101,21.90164],[89.46983,21.90297],[89.47154,21.90223],[89.47033,21.90008],[89.46861,21.89981],[89.46431,21.89598],[89.46306,21.89255],[89.46028,21.89083],[89.45889,21.88889],[89.46,21.88642],[89.45778,21.88221],[89.45551,21.8814],[89.45679,21.87817],[89.45565,21.87494],[89.45589,21.8728],[89.4545,21.8705],[89.45379,21.86714],[89.45393,21.86405],[89.45528,21.86122],[89.45527,21.85638],[89.45184,21.85139],[89.4475,21.85056],[89.42555,21.84917],[89.42203,21.85107],[89.42102,21.85336],[89.42059,21.85974],[89.42203,21.8625],[89.42411,21.86348],[89.43584,21.86444],[89.44509,21.86719],[89.44896,21.8692],[89.45111,21.87176],[89.45139,21.87357],[89.45104,21.87539],[89.44882,21.87761],[89.44424,21.8807],[89.4307,21.88601],[89.42154,21.89126],[89.41911,21.89502],[89.41746,21.89489],[89.41903,21.892],[89.42791,21.88494],[89.44538,21.87754],[89.44875,21.87579],[89.45054,21.87364],[89.44975,21.87156],[89.4451,21.86887],[89.43984,21.86742],[89.42774,21.86594],[89.42216,21.86413],[89.41894,21.86043],[89.41851,21.85626],[89.41908,21.85371],[89.42309,21.84806],[89.4256,21.84698],[89.43526,21.84637],[89.44736,21.84792],[89.44958,21.84745],[89.45417,21.84436],[89.45617,21.84147],[89.45654,21.83743],[89.45932,21.83158],[89.45674,21.82957],[89.45989,21.82775],[89.46104,21.8262],[89.4624,21.82109],[89.46362,21.81995],[89.46369,21.81773],[89.46835,21.81625],[89.46885,21.8143],[89.47171,21.81222],[89.47293,21.8102],[89.47321,21.8071],[89.47221,21.80509],[89.47314,21.80186],[89.47157,21.79937],[89.47372,21.79655],[89.4745,21.79251],[89.46992,21.78411],[89.46097,21.77227],[89.45395,21.76494],[89.45094,21.76481],[89.44643,21.76945],[89.44601,21.76743],[89.44331,21.76503],[89.44339,21.76423],[89.44601,21.76595],[89.44707,21.76441],[89.44407,21.75573],[89.43705,21.7484],[89.43476,21.74753],[89.43262,21.74531],[89.42803,21.74477],[89.42588,21.74315],[89.4213,21.74571],[89.4203,21.74558],[89.42516,21.74262],[89.42624,21.7406],[89.42667,21.73717],[89.42617,21.73515],[89.41879,21.72783],[89.41228,21.72372],[89.40942,21.72392],[89.40826,21.72487],[89.40627,21.72184],[89.4049,21.72124],[89.3981,21.72063],[89.39423,21.7213],[89.38667,21.72584],[89.38156,21.72735],[89.37469,21.7322],[89.37304,21.73469],[89.37175,21.74195],[89.37083,21.7425],[89.36909,21.74107],[89.36581,21.74181],[89.35993,21.74867],[89.3595,21.75257],[89.36387,21.75398],[89.35986,21.75445],[89.35771,21.75729],[89.35735,21.76911],[89.35628,21.7716],[89.35671,21.77987],[89.35578,21.78169],[89.35549,21.7866],[89.35406,21.78888],[89.3542,21.79272],[89.35335,21.7942],[89.35356,21.79602],[89.35492,21.79729],[89.35428,21.79803],[89.3522,21.79742],[89.3512,21.79789],[89.34876,21.8022],[89.34762,21.80623],[89.34811,21.81047],[89.34998,21.81369],[89.35313,21.81854],[89.36015,21.8266],[89.36294,21.83239],[89.36437,21.85028],[89.37232,21.86022],[89.37752,21.86818],[89.38213,21.88027],[89.38413,21.88793],[89.38478,21.90737],[89.38335,21.91571],[89.37972,21.92583],[89.38421,21.92108],[89.38664,21.92095],[89.38857,21.92189],[89.39287,21.92619],[89.39247,21.92778],[89.38896,21.93024],[89.38873,21.93172],[89.39917,21.93778],[89.39794,21.9412],[89.39349,21.94473],[89.37495,21.95115],[89.37325,21.95248],[89.37318,21.95424],[89.37685,21.96037],[89.38034,21.96328],[89.38208,21.96296],[89.38472,21.96028],[89.38895,21.95867],[89.39431,21.95982],[89.40062,21.96303],[89.40185,21.96472],[89.40285,21.96893],[89.40045,21.98039],[89.40337,21.98321],[89.40873,21.98628],[89.41147,21.98683],[89.41357,21.9863],[89.41399,21.98607]]],[[[89.46457,22.04557],[89.46929,22.04579],[89.47107,22.04412],[89.47111,22.03722],[89.47278,22.03111],[89.47662,22.02423],[89.48274,22.01655],[89.48707,22.0094],[89.48965,22.00338],[89.48946,21.99742],[89.49303,21.98639],[89.49633,21.97953],[89.50127,21.97288],[89.50443,21.96662],[89.50115,21.96752],[89.47721,21.98695],[89.47124,21.98921],[89.46902,21.99332],[89.46486,21.99758],[89.46484,21.99451],[89.46637,21.99404],[89.47147,21.98734],[89.47688,21.98565],[89.48059,21.98282],[89.48213,21.98065],[89.49252,21.97339],[89.49852,21.96788],[89.50592,21.96385],[89.50721,21.96122],[89.509,21.96031],[89.51235,21.95003],[89.51028,21.94139],[89.51111,21.93889],[89.51083,21.93381],[89.50806,21.93333],[89.50278,21.92945],[89.49722,21.93028],[89.49091,21.93358],[89.48718,21.93466],[89.47664,21.93587],[89.47793,21.93714],[89.48209,21.93809],[89.48351,21.93998],[89.47571,21.93654],[89.47227,21.93829],[89.47048,21.93788],[89.47771,21.93418],[89.4848,21.93418],[89.4874,21.93345],[89.49917,21.92805],[89.50242,21.92791],[89.50797,21.92999],[89.51139,21.92972],[89.51222,21.92889],[89.51195,21.92611],[89.50945,21.91639],[89.50667,21.90972],[89.50472,21.90861],[89.50195,21.90889],[89.5,21.90778],[89.49722,21.90778],[89.49583,21.90861],[89.48639,21.9075],[89.48451,21.90763],[89.47878,21.91039],[89.4752,21.9108],[89.46775,21.90999],[89.46532,21.91066],[89.46083,21.90833],[89.45695,21.90833],[89.45222,21.91],[89.45167,21.91055],[89.4519,21.91372],[89.45361,21.91654],[89.46156,21.92528],[89.46239,21.93264],[89.46035,21.93689],[89.45999,21.93999],[89.4568,21.94239],[89.45651,21.94373],[89.45306,21.94583],[89.44527,21.94806],[89.44167,21.94806],[89.43756,21.95007],[89.43083,21.95722],[89.42827,21.9616],[89.42416,21.96583],[89.42183,21.97017],[89.42333,21.97502],[89.42828,21.97919],[89.43347,21.98182],[89.43742,21.98699],[89.43899,21.99089],[89.43584,22.00472],[89.43554,22.00995],[89.43426,22.01354],[89.43414,22.01797],[89.43227,22.02403],[89.43135,22.03398],[89.42879,22.0408],[89.42947,22.04576],[89.43176,22.05186],[89.4377,22.05854],[89.44124,22.06115],[89.44933,22.05225],[89.45782,22.04724],[89.46406,22.04568],[89.46457,22.04557]]],[[[89.51495,22.07528],[89.51694,22.07417],[89.51942,22.0691],[89.51775,22.06201],[89.51461,22.0549],[89.50529,22.04087],[89.50201,22.03789],[89.5007,22.03501],[89.4959,22.02925],[89.49265,22.02959],[89.48517,22.03638],[89.48017,22.03901],[89.47786,22.04328],[89.47755,22.04862],[89.48112,22.05222],[89.48801,22.05419],[89.49712,22.05923],[89.51137,22.07057],[89.51486,22.07518],[89.51495,22.07528]]],[[[89.49323,22.08892],[89.50369,22.08639],[89.51125,22.08052],[89.51248,22.07842],[89.51206,22.07627],[89.50636,22.07166],[89.48911,22.06133],[89.48083,22.05445],[89.47704,22.05286],[89.47111,22.04726],[89.46085,22.04838],[89.45603,22.05059],[89.44695,22.05775],[89.44346,22.06252],[89.44312,22.06411],[89.45004,22.07029],[89.46825,22.07421],[89.47758,22.08109],[89.4855,22.08545],[89.48738,22.08908],[89.49269,22.08908],[89.49323,22.08892]]],[[[89.27937,22.11199],[89.28889,22.11056],[89.295,22.11056],[89.30039,22.10868],[89.31055,22.1075],[89.31747,22.10572],[89.31885,22.10325],[89.32169,22.08688],[89.32391,22.08224],[89.34135,22.06323],[89.34298,22.06065],[89.34268,22.05895],[89.33869,22.05585],[89.33485,22.05626],[89.32914,22.05838],[89.32372,22.06174],[89.31623,22.06885],[89.30817,22.07394],[89.30473,22.07833],[89.30473,22.07944],[89.30695,22.08167],[89.30773,22.08447],[89.30665,22.09043],[89.30515,22.09122],[89.30241,22.09551],[89.29882,22.09778],[89.29243,22.09936],[89.28577,22.09887],[89.27925,22.09632],[89.26855,22.09056],[89.26324,22.08944],[89.26284,22.08998],[89.26386,22.09194],[89.2711,22.10001],[89.27369,22.10482],[89.27621,22.11242],[89.27717,22.11298],[89.27888,22.11222],[89.27937,22.11199]]],[[[89.47028,22.11153],[89.4697,22.11112],[89.46588,22.11426],[89.46236,22.11833],[89.45923,22.1236],[89.45921,22.12554],[89.46055,22.12848],[89.46492,22.13227],[89.46857,22.12306],[89.47051,22.11193],[89.47028,22.11153]]],[[[89.49944,22.10946],[89.4995,22.10654],[89.50201,22.09845],[89.50742,22.08877],[89.50678,22.08755],[89.49959,22.09041],[89.49629,22.09061],[89.48715,22.09336],[89.48452,22.09605],[89.47729,22.10796],[89.47444,22.10951],[89.47389,22.11278],[89.47089,22.12024],[89.46975,22.12794],[89.47003,22.13583],[89.47162,22.13966],[89.48009,22.14287],[89.48489,22.14012],[89.49167,22.13305],[89.49472,22.12944],[89.49689,22.12508],[89.49852,22.11895],[89.49943,22.10988],[89.49944,22.10946]]],[[[89.47111,22.15778],[89.47298,22.15784],[89.47557,22.15442],[89.47722,22.14958],[89.47655,22.14839],[89.47077,22.14694],[89.4687,22.14727],[89.46722,22.14861],[89.46584,22.15167],[89.46561,22.15472],[89.4675,22.15694],[89.47083,22.15806],[89.47111,22.15778]]],[[[89.43639,22.16278],[89.44167,22.16055],[89.45528,22.14722],[89.46222,22.14305],[89.46249,22.14173],[89.46139,22.13972],[89.46111,22.13694],[89.45722,22.12667],[89.45805,22.12],[89.46111,22.11472],[89.47056,22.10444],[89.47361,22.09972],[89.48333,22.09167],[89.48473,22.08917],[89.48111,22.08583],[89.46694,22.07833],[89.44945,22.07472],[89.43972,22.08528],[89.4375,22.08917],[89.43777,22.09222],[89.43723,22.09278],[89.43639,22.09194],[89.43611,22.08972],[89.43806,22.08472],[89.44778,22.07472],[89.44833,22.07334],[89.43056,22.05722],[89.4275,22.05305],[89.42555,22.04778],[89.42555,22.04083],[89.42744,22.03389],[89.4275,22.03028],[89.42639,22.02729],[89.42718,22.02555],[89.42727,22.01584],[89.43166,21.99867],[89.43301,21.99027],[89.4315,21.98761],[89.42767,21.98559],[89.42366,21.98776],[89.41547,21.98757],[89.41084,21.98861],[89.40504,21.98655],[89.39803,21.98122],[89.39346,21.98461],[89.39234,21.98638],[89.39231,21.98825],[89.39442,21.99322],[89.39346,21.99476],[89.39333,21.99306],[89.39111,21.98917],[89.39056,21.98861],[89.39,21.98917],[89.38944,21.98806],[89.39314,21.98313],[89.39937,21.9784],[89.40158,21.96975],[89.40065,21.9649],[89.39362,21.96091],[89.389,21.95996],[89.38725,21.96037],[89.38243,21.96415],[89.37978,21.96492],[89.37622,21.9619],[89.37303,21.95753],[89.37189,21.95423],[89.37189,21.95228],[89.3744,21.94999],[89.39079,21.94441],[89.39788,21.93971],[89.39745,21.93756],[89.388,21.93386],[89.38707,21.93211],[89.38743,21.92955],[89.39144,21.92545],[89.38614,21.92216],[89.38442,21.92229],[89.38248,21.92498],[89.3812,21.92935],[89.37812,21.93258],[89.37468,21.93917],[89.37038,21.94489],[89.36687,21.95269],[89.36287,21.95847],[89.36215,21.96271],[89.36222,21.96639],[89.36361,21.97167],[89.36306,21.98],[89.36025,21.99279],[89.35504,22.00669],[89.35197,22.02518],[89.35402,22.03299],[89.36081,22.03905],[89.36861,22.04833],[89.37223,22.05449],[89.375,22.06171],[89.37722,22.06361],[89.37673,22.06549],[89.38834,22.07615],[89.39056,22.08],[89.39167,22.08333],[89.39167,22.08917],[89.38944,22.09417],[89.38722,22.09583],[89.38306,22.10111],[89.38223,22.11139],[89.38306,22.11667],[89.38445,22.11833],[89.38778,22.11889],[89.39361,22.12167],[89.40361,22.12361],[89.4075,22.12644],[89.41,22.13083],[89.41111,22.13917],[89.40723,22.14868],[89.40778,22.15055],[89.41111,22.15389],[89.41861,22.15944],[89.42472,22.15889],[89.43,22.16],[89.43528,22.16278],[89.43639,22.16278]]],[[[89.32446,22.18338],[89.32973,22.18193],[89.33159,22.18005],[89.33356,22.17085],[89.33444,22.15889],[89.33666,22.15176],[89.33465,22.14783],[89.32639,22.14028],[89.325,22.13444],[89.32557,22.12844],[89.32742,22.12592],[89.32938,22.12473],[89.3343,22.12379],[89.34045,22.12643],[89.34595,22.13148],[89.34772,22.13176],[89.34851,22.13083],[89.34561,22.11968],[89.34643,22.11535],[89.34808,22.11248],[89.35093,22.11007],[89.35889,22.1073],[89.36254,22.10151],[89.36752,22.09594],[89.37312,22.0937],[89.38012,22.09246],[89.38368,22.09053],[89.38464,22.08899],[89.38155,22.08296],[89.36954,22.07035],[89.36448,22.06025],[89.36156,22.0514],[89.35284,22.04542],[89.34592,22.03895],[89.34087,22.02883],[89.33972,22.02056],[89.34,22.01694],[89.34541,22.00649],[89.34586,22.00137],[89.34764,21.99757],[89.34759,21.99202],[89.34999,21.9849],[89.34912,21.97548],[89.3473,21.97164],[89.34316,21.97399],[89.33621,21.98081],[89.3331,21.9826],[89.32393,21.99423],[89.32172,21.99816],[89.32139,22.00111],[89.31778,22.00667],[89.31074,22.02244],[89.30639,22.02944],[89.30639,22.0325],[89.28867,22.06108],[89.2905,22.06381],[89.29731,22.0688],[89.30201,22.07126],[89.30453,22.07164],[89.30795,22.06968],[89.31657,22.06195],[89.32591,22.05643],[89.33068,22.05449],[89.33784,22.05418],[89.34203,22.05554],[89.34376,22.05738],[89.34467,22.06043],[89.34331,22.06491],[89.33547,22.07466],[89.33028,22.07917],[89.3253,22.08596],[89.3225,22.09361],[89.32128,22.10231],[89.31778,22.1075],[89.30432,22.11104],[89.28102,22.114],[89.27791,22.11514],[89.27703,22.11622],[89.27779,22.1201],[89.28385,22.132],[89.28662,22.14226],[89.28701,22.1473],[89.28891,22.15123],[89.2934,22.15504],[89.30347,22.1607],[89.30996,22.16622],[89.31805,22.17555],[89.32222,22.18344],[89.32402,22.18359],[89.32446,22.18338]]],[[[89.45628,22.21859],[89.45535,22.21135],[89.45695,22.20056],[89.45834,22.19778],[89.45778,22.19583],[89.46178,22.1894],[89.47028,22.16833],[89.47166,22.16265],[89.47025,22.16027],[89.46534,22.15693],[89.46278,22.15194],[89.46243,22.1482],[89.46066,22.147],[89.45502,22.15038],[89.45103,22.15397],[89.44694,22.16043],[89.44395,22.16333],[89.43962,22.16496],[89.43366,22.16552],[89.42941,22.17302],[89.41715,22.18229],[89.41612,22.18481],[89.41581,22.19183],[89.41418,22.19526],[89.41244,22.19695],[89.40753,22.19884],[89.39922,22.20052],[89.39484,22.2006],[89.39378,22.20132],[89.3971,22.20389],[89.40265,22.2056],[89.4052,22.2091],[89.40355,22.21245],[89.39435,22.21869],[89.39423,22.22027],[89.40116,22.22189],[89.40819,22.21819],[89.41041,22.21876],[89.41309,22.22248],[89.41767,22.22383],[89.41912,22.2251],[89.41967,22.22677],[89.41825,22.23018],[89.41894,22.23077],[89.43504,22.23535],[89.44933,22.24296],[89.45719,22.24611],[89.45951,22.24499],[89.46027,22.24304],[89.45969,22.23458],[89.45616,22.21918],[89.45628,22.21859]]],[[[89.36355,22.267],[89.36744,22.26846],[89.36973,22.26773],[89.37338,22.26051],[89.37585,22.25787],[89.37762,22.25714],[89.37959,22.25782],[89.38055,22.25944],[89.38306,22.26805],[89.38403,22.26921],[89.38515,22.26908],[89.39085,22.26307],[89.39426,22.26144],[89.40102,22.25924],[89.41188,22.25795],[89.40763,22.24735],[89.40758,22.24233],[89.41034,22.23467],[89.41312,22.23204],[89.41708,22.22995],[89.4183,22.22611],[89.41724,22.22509],[89.41274,22.22386],[89.41026,22.22007],[89.40879,22.2195],[89.40166,22.22361],[89.39481,22.22298],[89.39167,22.22139],[89.3925,22.21793],[89.39952,22.21361],[89.40106,22.21203],[89.40221,22.20879],[89.40115,22.20757],[89.39136,22.20273],[89.39027,22.19917],[89.39111,22.19778],[89.39333,22.1975],[89.39806,22.19861],[89.40111,22.19806],[89.41055,22.19472],[89.4125,22.19278],[89.41389,22.18444],[89.41528,22.18139],[89.41721,22.17889],[89.42416,22.17333],[89.42583,22.17006],[89.42805,22.16806],[89.42778,22.16444],[89.42667,22.1625],[89.42,22.16195],[89.41361,22.15972],[89.40694,22.15389],[89.405,22.15111],[89.40472,22.14806],[89.40806,22.13944],[89.40527,22.13361],[89.40195,22.13361],[89.38528,22.13806],[89.38306,22.13722],[89.37833,22.1375],[89.37695,22.13944],[89.37611,22.13917],[89.37583,22.13806],[89.37805,22.13611],[89.38972,22.13556],[89.40166,22.13194],[89.40417,22.13083],[89.40528,22.12944],[89.39694,22.12583],[89.38667,22.12361],[89.38194,22.12029],[89.37945,22.1175],[89.37861,22.11528],[89.37945,22.10028],[89.37861,22.09945],[89.37473,22.09861],[89.36945,22.09917],[89.36639,22.10556],[89.36139,22.11167],[89.35249,22.11584],[89.35,22.11806],[89.35389,22.1275],[89.35361,22.13223],[89.35078,22.13584],[89.34944,22.13667],[89.34611,22.13667],[89.34278,22.13529],[89.33444,22.1275],[89.33195,22.12834],[89.33028,22.13028],[89.32889,22.13529],[89.33028,22.13806],[89.33889,22.1475],[89.34,22.15195],[89.33972,22.15639],[89.33806,22.15972],[89.33612,22.18056],[89.33273,22.18472],[89.32361,22.19],[89.32361,22.19361],[89.325,22.19528],[89.33111,22.19695],[89.33222,22.19833],[89.33167,22.20278],[89.33278,22.20722],[89.33096,22.21262],[89.33972,22.21361],[89.3425,22.21472],[89.34472,22.21667],[89.34695,22.22056],[89.34666,22.23083],[89.34835,22.23583],[89.35,22.23806],[89.35472,22.24055],[89.35693,22.24368],[89.35687,22.24781],[89.35482,22.25051],[89.34592,22.2517],[89.34104,22.2531],[89.33988,22.25426],[89.34142,22.25579],[89.34888,22.25828],[89.3511,22.26079],[89.35213,22.26392],[89.35943,22.26938],[89.3632,22.26721],[89.36355,22.267]]],[[[89.45084,22.25],[89.44751,22.24861],[89.445,22.24889],[89.44281,22.24668],[89.43427,22.24167],[89.4204,22.2356],[89.41637,22.23589],[89.41339,22.23822],[89.41349,22.24172],[89.4196,22.25838],[89.43074,22.27077],[89.43304,22.27671],[89.43164,22.28423],[89.42634,22.29132],[89.41451,22.2989],[89.4089,22.30352],[89.40953,22.30547],[89.41737,22.31451],[89.42028,22.32139],[89.42358,22.32377],[89.42464,22.32622],[89.42495,22.33311],[89.42068,22.34336],[89.42099,22.34541],[89.42234,22.34658],[89.42459,22.3454],[89.42899,22.33945],[89.44502,22.32691],[89.44981,22.31992],[89.45694,22.31299],[89.46132,22.30128],[89.46278,22.29524],[89.46772,22.28668],[89.47385,22.27912],[89.47829,22.27169],[89.47736,22.26839],[89.46756,22.26013],[89.46165,22.25287],[89.46,22.25169],[89.45306,22.25],[89.45084,22.25]]],[[[89.34389,22.46389],[89.34639,22.45889],[89.34722,22.455],[89.35028,22.4525],[89.35361,22.45139],[89.35833,22.45361],[89.36195,22.45778],[89.36723,22.45722],[89.36861,22.45583],[89.36528,22.44833],[89.36472,22.44417],[89.36333,22.44111],[89.365,22.43111],[89.36139,22.42778],[89.36056,22.4225],[89.35611,22.41722],[89.35667,22.415],[89.36083,22.41444],[89.36195,22.41361],[89.36166,22.40944],[89.3625,22.40444],[89.36694,22.39],[89.36667,22.38667],[89.36222,22.37806],[89.3625,22.37417],[89.36361,22.37278],[89.36333,22.37083],[89.38167,22.37278],[89.3825,22.37167],[89.38055,22.36194],[89.38028,22.35389],[89.38194,22.34972],[89.3875,22.34667],[89.39361,22.34778],[89.39889,22.34778],[89.39972,22.34694],[89.39944,22.34472],[89.3975,22.34278],[89.39555,22.33889],[89.39528,22.33472],[89.39917,22.33028],[89.40778,22.32667],[89.41611,22.32111],[89.41584,22.32004],[89.40583,22.30973],[89.40556,22.30556],[89.40806,22.29866],[89.41861,22.29028],[89.41695,22.29],[89.41333,22.2925],[89.41055,22.29333],[89.40667,22.28917],[89.40556,22.28917],[89.40166,22.29417],[89.3975,22.29556],[89.39667,22.29667],[89.39278,22.29833],[89.39,22.29833],[89.38639,22.29667],[89.38416,22.29667],[89.38306,22.29833],[89.38361,22.3],[89.38277,22.30194],[89.38167,22.30305],[89.37848,22.30347],[89.3768,22.30471],[89.37833,22.31528],[89.37389,22.316],[89.37339,22.31547],[89.37555,22.31513],[89.37695,22.31333],[89.37583,22.30445],[89.3775,22.30278],[89.38139,22.30111],[89.38223,22.29667],[89.38472,22.295],[89.39027,22.29667],[89.39417,22.29667],[89.40056,22.29333],[89.40278,22.29111],[89.40305,22.28972],[89.40611,22.28778],[89.40806,22.28833],[89.41055,22.29167],[89.41278,22.29167],[89.41583,22.28944],[89.42278,22.28667],[89.42611,22.28306],[89.42667,22.28],[89.4264,22.27682],[89.42014,22.2739],[89.42173,22.27361],[89.42389,22.27472],[89.42528,22.27417],[89.42416,22.27],[89.41639,22.26306],[89.415,22.26083],[89.41194,22.25889],[89.40361,22.26],[89.39528,22.26222],[89.38979,22.26514],[89.38542,22.2696],[89.38389,22.27],[89.38167,22.26778],[89.37972,22.26],[89.37833,22.25833],[89.37666,22.25853],[89.37334,22.26222],[89.37173,22.26577],[89.37186,22.26751],[89.37305,22.26833],[89.37256,22.26902],[89.37111,22.26828],[89.36972,22.26917],[89.36618,22.26917],[89.36354,22.26813],[89.36111,22.27021],[89.35944,22.27028],[89.35389,22.26737],[89.35052,22.26355],[89.34194,22.2675],[89.33639,22.27139],[89.32917,22.27444],[89.32806,22.27555],[89.32833,22.27639],[89.33444,22.28389],[89.33389,22.2875],[89.32528,22.2925],[89.31445,22.29722],[89.31167,22.30028],[89.31277,22.30139],[89.32555,22.30028],[89.32806,22.30083],[89.34111,22.30778],[89.35139,22.31111],[89.35306,22.31333],[89.35222,22.31667],[89.34369,22.33069],[89.34182,22.33258],[89.32833,22.33722],[89.33195,22.34194],[89.33305,22.34556],[89.3311,22.34976],[89.33111,22.35806],[89.33277,22.36806],[89.33444,22.37028],[89.34189,22.37292],[89.33792,22.37278],[89.33377,22.37071],[89.33195,22.36833],[89.33035,22.36195],[89.32999,22.35178],[89.33167,22.34528],[89.32826,22.34027],[89.3273,22.33722],[89.33011,22.33477],[89.33931,22.3329],[89.34179,22.33121],[89.35035,22.31608],[89.35126,22.31315],[89.34999,22.31199],[89.34039,22.30966],[89.32859,22.30255],[89.31236,22.30273],[89.31054,22.30139],[89.31007,22.29885],[89.31035,22.29783],[89.31409,22.29535],[89.3322,22.2861],[89.33245,22.28423],[89.32709,22.2783],[89.32716,22.27398],[89.32951,22.27172],[89.34763,22.26261],[89.3485,22.26146],[89.34177,22.25898],[89.33862,22.2569],[89.33727,22.2552],[89.3375,22.25278],[89.34139,22.24945],[89.35049,22.24853],[89.35379,22.24668],[89.35218,22.24344],[89.34614,22.23773],[89.3427,22.23227],[89.34199,22.22515],[89.34305,22.21967],[89.34217,22.21766],[89.33971,22.21646],[89.33214,22.21684],[89.32759,22.21367],[89.32583,22.20866],[89.32777,22.20028],[89.32503,22.19895],[89.32279,22.19955],[89.31985,22.20578],[89.31715,22.20931],[89.31303,22.21303],[89.309,22.21532],[89.30802,22.2168],[89.31303,22.22376],[89.3144,22.22742],[89.31439,22.23196],[89.31194,22.23889],[89.30773,22.24306],[89.29916,22.24806],[89.295,22.25361],[89.295,22.25556],[89.29667,22.25972],[89.30028,22.26333],[89.30805,22.26694],[89.31181,22.26764],[89.31743,22.27085],[89.32139,22.27416],[89.32418,22.27972],[89.32333,22.28389],[89.31884,22.28877],[89.31255,22.29104],[89.30788,22.29166],[89.29195,22.28695],[89.28722,22.28667],[89.28389,22.28778],[89.28361,22.295],[89.28194,22.3036],[89.27689,22.31483],[89.27197,22.31997],[89.26534,22.32403],[89.26042,22.32834],[89.25259,22.33915],[89.2523,22.34237],[89.25459,22.34384],[89.26517,22.3404],[89.26945,22.34028],[89.27444,22.3425],[89.27633,22.34545],[89.2761,22.35032],[89.27444,22.35667],[89.26987,22.36716],[89.26861,22.37278],[89.26556,22.37639],[89.25919,22.37857],[89.25388,22.37778],[89.24596,22.37144],[89.24084,22.37028],[89.23889,22.37083],[89.23778,22.37222],[89.23696,22.3775],[89.23917,22.38028],[89.24861,22.38361],[89.25394,22.38804],[89.2558,22.3905],[89.25777,22.39611],[89.25777,22.39944],[89.25611,22.40472],[89.24361,22.42],[89.24084,22.42722],[89.24254,22.43794],[89.24639,22.4475],[89.24834,22.44972],[89.24973,22.45028],[89.25723,22.44972],[89.26124,22.45173],[89.26823,22.4501],[89.28111,22.45583],[89.3,22.46159],[89.32306,22.4636],[89.32944,22.46194],[89.33361,22.45945],[89.33591,22.45909],[89.34361,22.46395],[89.34389,22.46389]]],[[[89.33529,22.49758],[89.34502,22.49223],[89.35049,22.4921],[89.35085,22.48939],[89.35001,22.48614],[89.34135,22.47772],[89.34036,22.47344],[89.34343,22.46894],[89.34815,22.47475],[89.35338,22.47491],[89.35926,22.47264],[89.36252,22.47228],[89.36705,22.46959],[89.37145,22.47086],[89.37384,22.47063],[89.37735,22.46664],[89.38477,22.46617],[89.39069,22.46908],[89.39116,22.47217],[89.38986,22.47433],[89.39125,22.47538],[89.39719,22.47444],[89.40031,22.47631],[89.41639,22.47605],[89.41805,22.4575],[89.41611,22.45583],[89.41833,22.45528],[89.42027,22.44833],[89.42194,22.43333],[89.42361,22.42667],[89.42389,22.41195],[89.42715,22.40107],[89.42667,22.39972],[89.43083,22.39361],[89.43806,22.38611],[89.43833,22.385],[89.43695,22.38254],[89.4314,22.37723],[89.42639,22.36889],[89.42333,22.36167],[89.42194,22.35444],[89.41972,22.35444],[89.41639,22.35667],[89.40889,22.36417],[89.40806,22.36806],[89.40945,22.37444],[89.40916,22.37778],[89.40334,22.38333],[89.39972,22.39278],[89.39889,22.3925],[89.39944,22.39056],[89.39889,22.38889],[89.40278,22.3825],[89.40806,22.37778],[89.40833,22.37472],[89.40611,22.36639],[89.41306,22.35806],[89.41944,22.35361],[89.4225,22.34973],[89.42278,22.34805],[89.41972,22.34528],[89.41972,22.34139],[89.42334,22.3339],[89.42416,22.32833],[89.42083,22.32306],[89.41972,22.32278],[89.41139,22.32778],[89.39778,22.33417],[89.3975,22.33694],[89.40222,22.34583],[89.39972,22.34972],[89.39555,22.35028],[89.39167,22.34889],[89.38583,22.34889],[89.38277,22.35111],[89.38223,22.35583],[89.38306,22.35639],[89.38389,22.36167],[89.38445,22.37056],[89.3825,22.37389],[89.37945,22.37472],[89.37334,22.37472],[89.36528,22.37333],[89.36361,22.37472],[89.36777,22.38278],[89.36861,22.38861],[89.36361,22.40528],[89.36305,22.41444],[89.36111,22.41583],[89.35806,22.41583],[89.3575,22.41694],[89.36166,22.42222],[89.36222,22.42694],[89.36611,22.43056],[89.36584,22.43611],[89.36436,22.44072],[89.36971,22.45542],[89.36861,22.45778],[89.36417,22.45889],[89.36083,22.45861],[89.35694,22.45389],[89.35278,22.45306],[89.35056,22.45361],[89.34805,22.45555],[89.34583,22.46333],[89.34444,22.465],[89.34194,22.46472],[89.33833,22.46139],[89.33528,22.46],[89.32528,22.46445],[89.31849,22.46452],[89.29778,22.46222],[89.28222,22.4575],[89.26806,22.45111],[89.26389,22.45167],[89.26112,22.45331],[89.26281,22.45423],[89.25794,22.46255],[89.26254,22.46664],[89.27556,22.46861],[89.28389,22.47167],[89.28528,22.47305],[89.28703,22.47831],[89.26759,22.48839],[89.27191,22.49325],[89.27491,22.49509],[89.28023,22.49622],[89.28743,22.49652],[89.29308,22.49858],[89.29748,22.50157],[89.30008,22.50444],[89.30114,22.50734],[89.30867,22.5082],[89.31934,22.51157],[89.32383,22.51583],[89.32629,22.51589],[89.32751,22.51155],[89.32681,22.5022],[89.32867,22.5006],[89.334,22.49973],[89.33529,22.49758]]]]}},{"type":"Feature","properties":{"name":"Paikgachha","district_id":"khulna","pcode":"404764","sql_upazila_id":null,"sql_name_bn":null},"geometry":{"type":"MultiPolygon","coordinates":[[[[89.33722,22.60167],[89.34167,22.59889],[89.34528,22.59778],[89.35944,22.59472],[89.36833,22.59444],[89.375,22.59139],[89.38333,22.58361],[89.38972,22.58],[89.39944,22.57028],[89.40139,22.56584],[89.40639,22.56],[89.42,22.54833],[89.42028,22.54722],[89.41861,22.54472],[89.40916,22.53417],[89.40611,22.5275],[89.40583,22.52222],[89.40472,22.52028],[89.38667,22.51805],[89.38277,22.51944],[89.37527,22.52528],[89.37305,22.52611],[89.36639,22.52611],[89.365,22.52722],[89.36444,22.53],[89.36528,22.53389],[89.36417,22.5375],[89.36444,22.54306],[89.36278,22.54917],[89.36472,22.56167],[89.36222,22.56472],[89.36056,22.565],[89.35139,22.56278],[89.33667,22.56333],[89.32777,22.56],[89.31859,22.56371],[89.31826,22.56785],[89.3162,22.56995],[89.31374,22.56944],[89.30917,22.56611],[89.30791,22.5664],[89.30639,22.57667],[89.30695,22.57972],[89.3125,22.58444],[89.31472,22.58444],[89.31944,22.58278],[89.32417,22.58444],[89.32611,22.58611],[89.32694,22.58833],[89.327,22.59022],[89.32472,22.59361],[89.32472,22.595],[89.32667,22.59639],[89.33111,22.59694],[89.33611,22.60167],[89.33722,22.60167]]],[[[89.28722,22.63167],[89.28944,22.63056],[89.29027,22.62749],[89.28194,22.62944],[89.28306,22.63056],[89.28555,22.62972],[89.28694,22.63167],[89.28722,22.63167]]],[[[89.40987,22.63717],[89.41444,22.63614],[89.41626,22.63469],[89.41782,22.62785],[89.41998,22.62342],[89.41991,22.62119],[89.41623,22.61601],[89.41301,22.60687],[89.40783,22.5996],[89.40708,22.59295],[89.40306,22.58287],[89.40028,22.57833],[89.39889,22.57806],[89.39366,22.58028],[89.38972,22.58389],[89.39139,22.58945],[89.39081,22.59722],[89.3889,22.6019],[89.38521,22.60705],[89.385,22.60861],[89.39326,22.61625],[89.39889,22.61695],[89.40139,22.61889],[89.40417,22.63389],[89.40588,22.6367],[89.40936,22.63724],[89.40987,22.63717]]],[[[89.29111,22.63889],[89.29021,22.63868],[89.29111,22.63926],[89.29111,22.63889]]],[[[89.42861,22.64584],[89.4228,22.64596],[89.42865,22.64835],[89.42871,22.64588],[89.42861,22.64584]]],[[[89.44908,22.64355],[89.45619,22.6389],[89.45528,22.63528],[89.45665,22.63169],[89.45985,22.62693],[89.4596,22.62564],[89.44573,22.61612],[89.44063,22.60993],[89.43759,22.60311],[89.42878,22.59972],[89.42513,22.59563],[89.42031,22.59388],[89.41805,22.59194],[89.41417,22.58528],[89.41222,22.58444],[89.41139,22.58556],[89.40833,22.58583],[89.40722,22.58722],[89.40939,22.59298],[89.41,22.59972],[89.41583,22.60806],[89.41805,22.61512],[89.42111,22.61833],[89.42223,22.62111],[89.42196,22.62565],[89.41833,22.63528],[89.41434,22.63895],[89.41434,22.64181],[89.41647,22.64275],[89.4277,22.64251],[89.42947,22.64312],[89.43073,22.64395],[89.43166,22.64611],[89.43162,22.64878],[89.4368,22.64862],[89.44431,22.64648],[89.44908,22.64355]]],[[[89.26889,22.62667],[89.27386,22.62428],[89.28358,22.62175],[89.28667,22.62164],[89.28694,22.61667],[89.28833,22.61389],[89.28694,22.60778],[89.2875,22.60333],[89.2975,22.59306],[89.295,22.59],[89.295,22.58667],[89.29833,22.58361],[89.30334,22.58111],[89.30499,22.57942],[89.30639,22.5725],[89.30611,22.56778],[89.30805,22.56472],[89.30945,22.56444],[89.31555,22.56876],[89.3168,22.56751],[89.31722,22.56417],[89.31889,22.56222],[89.32777,22.55889],[89.33667,22.56222],[89.35167,22.56167],[89.35861,22.56333],[89.36195,22.56333],[89.36333,22.56222],[89.36333,22.55889],[89.36083,22.55167],[89.36278,22.545],[89.36278,22.53806],[89.36389,22.535],[89.36305,22.52944],[89.36389,22.52667],[89.36555,22.525],[89.36938,22.52452],[89.36972,22.52389],[89.36611,22.52167],[89.36111,22.52028],[89.35416,22.52417],[89.34972,22.52417],[89.34639,22.52139],[89.3425,22.51556],[89.3412,22.51489],[89.34156,22.51395],[89.34355,22.51503],[89.34639,22.51917],[89.35152,22.5236],[89.36028,22.51944],[89.36166,22.51805],[89.36111,22.51639],[89.35861,22.51472],[89.35722,22.5125],[89.36,22.51028],[89.36139,22.51028],[89.36667,22.5075],[89.37722,22.5075],[89.37972,22.51167],[89.38028,22.51528],[89.37805,22.51778],[89.37666,22.51722],[89.3725,22.52],[89.3675,22.51917],[89.36777,22.52056],[89.37286,22.52362],[89.37556,22.52333],[89.38055,22.51805],[89.38556,22.51639],[89.39445,22.51639],[89.39917,22.51722],[89.40111,22.51833],[89.40417,22.51778],[89.40556,22.51667],[89.40694,22.51306],[89.40694,22.50805],[89.40833,22.50389],[89.41472,22.49694],[89.41639,22.49306],[89.41639,22.47605],[89.40031,22.47631],[89.39719,22.47444],[89.39125,22.47538],[89.38986,22.47433],[89.39116,22.47217],[89.39069,22.46908],[89.38477,22.46617],[89.37735,22.46664],[89.37384,22.47063],[89.37145,22.47086],[89.36705,22.46959],[89.36252,22.47228],[89.35926,22.47264],[89.35338,22.47491],[89.34815,22.47475],[89.34343,22.46894],[89.34036,22.47344],[89.34135,22.47772],[89.35001,22.48614],[89.35085,22.48939],[89.35049,22.4921],[89.34502,22.49223],[89.33529,22.49758],[89.334,22.49973],[89.32867,22.5006],[89.32681,22.5022],[89.32751,22.51155],[89.32629,22.51589],[89.32383,22.51583],[89.31934,22.51157],[89.31362,22.50946],[89.30114,22.50734],[89.30008,22.50444],[89.29748,22.50157],[89.28991,22.49727],[89.27491,22.49509],[89.27191,22.49325],[89.26759,22.48839],[89.26516,22.48945],[89.2608,22.49386],[89.25469,22.51468],[89.25114,22.53717],[89.24403,22.54429],[89.24072,22.54873],[89.23864,22.55395],[89.24426,22.56118],[89.24599,22.56691],[89.24992,22.56887],[89.25498,22.56826],[89.25735,22.56873],[89.25743,22.56959],[89.25316,22.56961],[89.26035,22.57115],[89.26285,22.57241],[89.26534,22.57569],[89.26628,22.58056],[89.2682,22.59435],[89.26511,22.60638],[89.26049,22.6085],[89.25133,22.60877],[89.24756,22.61017],[89.24634,22.61491],[89.25759,22.61696],[89.26428,22.62065],[89.26476,22.62271],[89.26306,22.62556],[89.25742,22.63046],[89.24861,22.63601],[89.24992,22.64144],[89.25335,22.6455],[89.25493,22.65109],[89.25485,22.65483],[89.25611,22.65639],[89.26206,22.65512],[89.2661,22.64767],[89.27291,22.64533],[89.27081,22.63601],[89.26398,22.63376],[89.26889,22.62694],[89.26889,22.62667]]],[[[89.41155,22.64502],[89.40979,22.64583],[89.4069,22.64923],[89.40305,22.65694],[89.40083,22.66667],[89.40111,22.67263],[89.4054,22.66893],[89.40524,22.66352],[89.40828,22.65414],[89.4131,22.64577],[89.4119,22.64518],[89.41155,22.64502]]],[[[89.27165,22.698],[89.27389,22.69639],[89.2675,22.69695],[89.26556,22.69917],[89.26583,22.70833],[89.26694,22.71517],[89.26936,22.70196],[89.27165,22.698]]],[[[89.29388,22.64084],[89.30457,22.64603],[89.30417,22.65083],[89.29919,22.65564],[89.29544,22.65785],[89.2851,22.65999],[89.26925,22.66771],[89.26793,22.67102],[89.26947,22.67966],[89.26611,22.69639],[89.26945,22.69472],[89.27695,22.69444],[89.2877,22.69717],[89.29179,22.69368],[89.2981,22.68388],[89.30079,22.68129],[89.30386,22.68087],[89.30684,22.68247],[89.31124,22.68731],[89.31332,22.69094],[89.31269,22.69682],[89.31509,22.69923],[89.313,22.70106],[89.31042,22.7056],[89.31113,22.71201],[89.31595,22.71481],[89.32535,22.71289],[89.3286,22.71448],[89.33183,22.71998],[89.33159,22.72229],[89.3403,22.71271],[89.34737,22.71416],[89.34982,22.71157],[89.3552,22.70828],[89.35231,22.70197],[89.35744,22.69202],[89.366,22.69624],[89.37116,22.69399],[89.37495,22.69097],[89.37322,22.6844],[89.3782,22.6775],[89.38126,22.67513],[89.38889,22.67897],[89.39854,22.67644],[89.39919,22.67533],[89.39778,22.6725],[89.39778,22.67028],[89.39977,22.65536],[89.40361,22.64556],[89.40756,22.64056],[89.40444,22.63722],[89.40222,22.63194],[89.40056,22.61945],[89.39861,22.61806],[89.39278,22.61722],[89.38805,22.61306],[89.38111,22.60917],[89.38333,22.6075],[89.38934,22.59607],[89.38967,22.5904],[89.38743,22.58493],[89.38663,22.58456],[89.38277,22.58583],[89.37805,22.59167],[89.37139,22.59556],[89.35472,22.59805],[89.34306,22.60083],[89.33889,22.60278],[89.33556,22.60278],[89.33361,22.60167],[89.33056,22.59778],[89.32639,22.5975],[89.32389,22.59639],[89.32339,22.59383],[89.3258,22.58966],[89.32407,22.58649],[89.32184,22.5848],[89.31999,22.58401],[89.31272,22.58578],[89.30573,22.58109],[89.29667,22.58778],[89.29916,22.59333],[89.29583,22.59778],[89.28944,22.60361],[89.28861,22.60556],[89.29,22.61139],[89.28889,22.6175],[89.28917,22.62231],[89.29228,22.62316],[89.29723,22.63139],[89.29723,22.63333],[89.29639,22.63445],[89.29333,22.63445],[89.2925,22.63528],[89.29444,22.63972],[89.29417,22.64083],[89.29388,22.64084]]]]}},{"type":"Feature","properties":{"name":"Phultala","district_id":"khulna","pcode":"404769","sql_upazila_id":null,"sql_name_bn":null},"geometry":{"type":"Polygon","coordinates":[[[89.51752,22.92769],[89.51903,22.9227],[89.52103,22.92184],[89.52288,22.91944],[89.52435,22.91504],[89.52401,22.912],[89.51817,22.91071],[89.51411,22.91098],[89.50462,22.91553],[89.50063,22.91413],[89.49867,22.91245],[89.4976,22.90932],[89.49403,22.90809],[89.48837,22.91024],[89.48693,22.9097],[89.47783,22.91067],[89.46866,22.91343],[89.46465,22.91748],[89.46467,22.92031],[89.46674,22.92324],[89.46362,22.92447],[89.45993,22.92463],[89.44778,22.92279],[89.44151,22.92357],[89.42505,22.9196],[89.41589,22.91873],[89.41132,22.92085],[89.4019,22.92758],[89.39637,22.9261],[89.38901,22.92127],[89.38762,22.92217],[89.38886,22.92686],[89.38881,22.93134],[89.39642,22.93196],[89.39719,22.93392],[89.39796,22.93411],[89.39805,22.93615],[89.39986,22.93998],[89.40669,22.94338],[89.40685,22.94851],[89.40993,22.95486],[89.41442,22.95659],[89.42284,22.95731],[89.42915,22.95974],[89.43114,22.96245],[89.43198,22.96594],[89.4333,22.98024],[89.43583,22.99163],[89.44461,23.00615],[89.45409,23.0088],[89.45714,23.00832],[89.46151,23.00574],[89.46661,22.9948],[89.47979,22.97747],[89.48205,22.96846],[89.48178,22.96167],[89.48336,22.9582],[89.48674,22.95395],[89.48698,22.95195],[89.49509,22.94266],[89.5071,22.93219],[89.51244,22.92907],[89.51752,22.92769]]]}},{"type":"Feature","properties":{"name":"Rupsa","district_id":"khulna","pcode":"404775","sql_upazila_id":null,"sql_name_bn":null},"geometry":{"type":"Polygon","coordinates":[[[89.66615,22.86602],[89.68024,22.85525],[89.68275,22.84881],[89.68068,22.8361],[89.68191,22.81871],[89.67984,22.81371],[89.68,22.79951],[89.67861,22.79638],[89.67107,22.7975],[89.66852,22.79492],[89.66605,22.78716],[89.65683,22.7743],[89.65858,22.76747],[89.65892,22.76068],[89.66054,22.75719],[89.65823,22.7561],[89.65253,22.75487],[89.64824,22.75791],[89.64899,22.76031],[89.64868,22.77181],[89.64732,22.77575],[89.64445,22.7748],[89.63929,22.76723],[89.63571,22.76697],[89.62093,22.77514],[89.61594,22.77507],[89.61282,22.7779],[89.61211,22.78252],[89.60948,22.78724],[89.60518,22.79339],[89.60133,22.79642],[89.59997,22.79628],[89.59647,22.79281],[89.58621,22.78888],[89.5853,22.80155],[89.58383,22.80933],[89.57802,22.81709],[89.57049,22.82083],[89.56584,22.82457],[89.5574,22.8321],[89.55635,22.83469],[89.5549,22.84174],[89.55548,22.84644],[89.55871,22.85123],[89.56475,22.85464],[89.58084,22.85712],[89.58579,22.85579],[89.59077,22.85336],[89.59606,22.85288],[89.60346,22.8485],[89.60559,22.84804],[89.61034,22.84992],[89.61436,22.8485],[89.61561,22.84698],[89.61194,22.83994],[89.61281,22.83642],[89.61681,22.83625],[89.62532,22.83822],[89.62827,22.83774],[89.63152,22.83554],[89.6341,22.83725],[89.63544,22.84038],[89.64149,22.84453],[89.64227,22.84779],[89.64458,22.85083],[89.6489,22.85296],[89.6512,22.8552],[89.65344,22.85618],[89.65773,22.85308],[89.65986,22.85222],[89.66117,22.85287],[89.66098,22.85662],[89.66267,22.86491],[89.66615,22.86602]]]}},{"type":"Feature","properties":{"name":"Terokhada","district_id":"khulna","pcode":"404794","sql_upazila_id":"khulna-terokhada","sql_name_bn":"তেরখাদা"},"geometry":{"type":"Polygon","coordinates":[[[89.56822,22.98291],[89.57061,22.98637],[89.57451,22.98885],[89.57815,22.98859],[89.58852,22.98477],[89.59204,22.98283],[89.59404,22.97565],[89.60136,22.96523],[89.60519,22.96118],[89.61249,22.95587],[89.61625,22.95566],[89.62181,22.95402],[89.62252,22.95895],[89.62651,22.96224],[89.62788,22.9645],[89.62842,22.96799],[89.63169,22.96837],[89.63348,22.96039],[89.63447,22.96013],[89.65003,22.9645],[89.65391,22.96601],[89.65671,22.96864],[89.66031,22.9789],[89.66386,22.98024],[89.66948,22.98011],[89.67812,22.9782],[89.68597,22.97063],[89.69086,22.97351],[89.69244,22.97634],[89.69564,22.97804],[89.71828,22.97187],[89.7257,22.9742],[89.73317,22.97234],[89.737,22.97241],[89.74196,22.97492],[89.74697,22.96582],[89.74995,22.96431],[89.75294,22.96906],[89.75819,22.96809],[89.7572,22.96181],[89.75891,22.95734],[89.75157,22.9461],[89.75301,22.9429],[89.74722,22.93943],[89.74566,22.93683],[89.74138,22.93608],[89.73669,22.93241],[89.73416,22.92862],[89.7342,22.92471],[89.73225,22.92091],[89.73617,22.92196],[89.73813,22.92403],[89.74165,22.9236],[89.74216,22.92232],[89.7369,22.91596],[89.73671,22.912],[89.7306,22.90802],[89.7271,22.90697],[89.72402,22.90705],[89.72272,22.90317],[89.72539,22.90138],[89.72735,22.9011],[89.73282,22.90411],[89.73735,22.90135],[89.73629,22.89915],[89.73278,22.89544],[89.72814,22.89694],[89.71677,22.89459],[89.71636,22.89121],[89.7225,22.8903],[89.72659,22.88659],[89.71884,22.88413],[89.71613,22.88236],[89.71475,22.88349],[89.71126,22.88416],[89.71063,22.88004],[89.7055,22.87557],[89.70229,22.87572],[89.70171,22.8805],[89.69805,22.88382],[89.69656,22.88753],[89.69425,22.88857],[89.69314,22.88693],[89.69167,22.87904],[89.68909,22.8775],[89.68608,22.87982],[89.6834,22.88064],[89.6727,22.87994],[89.67231,22.87719],[89.66842,22.87528],[89.66678,22.8721],[89.6659,22.86959],[89.66615,22.86602],[89.66267,22.86491],[89.66098,22.85662],[89.66117,22.85287],[89.65986,22.85222],[89.65773,22.85308],[89.65344,22.85618],[89.6512,22.8552],[89.6489,22.85296],[89.64458,22.85083],[89.64227,22.84779],[89.64149,22.84453],[89.63544,22.84038],[89.6341,22.83725],[89.63152,22.83554],[89.62827,22.83774],[89.62532,22.83822],[89.61681,22.83625],[89.61281,22.83642],[89.61194,22.83994],[89.61561,22.84698],[89.61436,22.8485],[89.61034,22.84992],[89.60559,22.84804],[89.60346,22.8485],[89.59606,22.85288],[89.59077,22.85336],[89.58579,22.85579],[89.58084,22.85712],[89.56475,22.85464],[89.56793,22.8598],[89.57001,22.8717],[89.56776,22.87693],[89.5703,22.89101],[89.56689,22.9046],[89.56837,22.91256],[89.57133,22.92035],[89.5743,22.94011],[89.57403,22.95],[89.57133,22.95427],[89.56177,22.95806],[89.56942,22.96989],[89.56926,22.97674],[89.56774,22.98155],[89.56822,22.98291]]]}}]}