{"type":"FeatureCollection","features":[{"type":"Feature","properties":{"name":"Astagram","district_id":"kishoreganj","pcode":"304802","sql_upazila_id":null,"sql_name_bn":null},"geometry":{"type":"Polygon","coordinates":[[[91.21724,24.42625],[91.21969,24.42307],[91.22078,24.41679],[91.21911,24.41306],[91.22245,24.40944],[91.22792,24.40684],[91.2303,24.40693],[91.23527,24.40975],[91.2383,24.4089],[91.24167,24.40293],[91.24397,24.40113],[91.2451,24.39845],[91.24503,24.39449],[91.25204,24.38845],[91.25563,24.38179],[91.25378,24.3799],[91.24564,24.37892],[91.24215,24.37651],[91.2327,24.36748],[91.23016,24.36923],[91.21889,24.36991],[91.21926,24.36701],[91.21507,24.36154],[91.22738,24.34826],[91.23782,24.33126],[91.23882,24.32687],[91.23882,24.32141],[91.23609,24.31663],[91.23382,24.31493],[91.22853,24.31442],[91.19778,24.32196],[91.185,24.32211],[91.17561,24.32099],[91.17309,24.31935],[91.17133,24.31643],[91.16303,24.29921],[91.16003,24.28284],[91.16247,24.2812],[91.17507,24.2856],[91.18349,24.29036],[91.19013,24.29284],[91.19534,24.29312],[91.19762,24.28948],[91.19762,24.28546],[91.19423,24.27829],[91.19047,24.27406],[91.18661,24.2704],[91.17779,24.26531],[91.17745,24.26342],[91.17197,24.25758],[91.16058,24.25249],[91.14456,24.24056],[91.13568,24.23819],[91.12368,24.23638],[91.10838,24.23579],[91.09879,24.23614],[91.09469,24.23933],[91.08321,24.23836],[91.08136,24.23693],[91.08503,24.2321],[91.08363,24.23106],[91.0827,24.22541],[91.08306,24.22184],[91.07903,24.21963],[91.07897,24.21814],[91.08808,24.21116],[91.09218,24.21004],[91.09411,24.20859],[91.09456,24.20715],[91.09222,24.20418],[91.08817,24.20324],[91.08489,24.20341],[91.08076,24.20741],[91.06171,24.20964],[91.04797,24.20932],[91.03825,24.2072],[91.04083,24.21388],[91.04797,24.22734],[91.05389,24.24245],[91.05386,24.25055],[91.04305,24.26941],[91.04414,24.27585],[91.04321,24.27721],[91.03955,24.27917],[91.03718,24.28751],[91.03445,24.28917],[91.02714,24.28898],[91.02464,24.2847],[91.02298,24.28544],[91.01974,24.28998],[91.01517,24.29037],[91.01591,24.29379],[91.01801,24.29566],[91.01823,24.29823],[91.01749,24.30016],[91.0106,24.30333],[91.00961,24.30513],[91.00977,24.30818],[91.01649,24.31454],[91.01754,24.31611],[91.0172,24.31859],[91.01544,24.32163],[91.01054,24.32697],[91.00919,24.33104],[91.00107,24.33425],[90.998,24.33705],[90.99683,24.34444],[90.99735,24.34712],[91.00205,24.35407],[91.005,24.35706],[91.00785,24.35822],[91.01031,24.35802],[91.01248,24.35645],[91.01728,24.34997],[91.01994,24.3481],[91.02289,24.34737],[91.02656,24.34769],[91.03002,24.34923],[91.03113,24.35103],[91.03217,24.35771],[91.03511,24.36041],[91.04684,24.36447],[91.04855,24.369],[91.05322,24.37348],[91.05549,24.37266],[91.06263,24.36609],[91.07093,24.35713],[91.07452,24.35682],[91.07887,24.35742],[91.0815,24.36007],[91.08397,24.37032],[91.09068,24.37426],[91.09246,24.37391],[91.09334,24.37222],[91.09261,24.36914],[91.09674,24.3616],[91.10093,24.35737],[91.11436,24.357],[91.11688,24.35811],[91.12096,24.36152],[91.12202,24.36349],[91.12,24.37613],[91.12079,24.37766],[91.1233,24.37843],[91.13019,24.37708],[91.13107,24.38107],[91.14411,24.37996],[91.146,24.37892],[91.14571,24.37239],[91.14677,24.36954],[91.14848,24.36867],[91.14993,24.36942],[91.15121,24.37242],[91.152,24.3787],[91.15612,24.38475],[91.16577,24.39301],[91.17965,24.40203],[91.18307,24.40529],[91.1852,24.41301],[91.19225,24.41947],[91.1947,24.42731],[91.19774,24.42903],[91.1993,24.42914],[91.20155,24.42797],[91.2058,24.42896],[91.20713,24.42627],[91.21085,24.42625],[91.21724,24.42625]]]}},{"type":"Feature","properties":{"name":"Bajitpur","district_id":"kishoreganj","pcode":"304806","sql_upazila_id":"kishoreganj-bajitpur","sql_name_bn":"বাজিতপুর"},"geometry":{"type":"Polygon","coordinates":[[[90.87304,24.26544],[90.87852,24.26112],[90.88791,24.25844],[90.90476,24.25654],[90.9059,24.25575],[90.90084,24.24887],[90.90214,24.24705],[90.90501,24.2477],[90.90881,24.25015],[90.91985,24.26216],[90.92394,24.26402],[90.92864,24.26937],[90.92968,24.26893],[90.93079,24.26683],[90.93102,24.26452],[90.92797,24.2605],[90.92809,24.25837],[90.92967,24.25763],[90.93359,24.25789],[90.94077,24.25448],[90.9446,24.25423],[90.94868,24.25415],[90.95658,24.25703],[90.96511,24.25111],[90.96719,24.25058],[90.97072,24.25234],[90.97816,24.25099],[90.98366,24.25774],[90.99034,24.25946],[91.00002,24.26015],[91.00523,24.26593],[91.00616,24.2694],[91.00516,24.27104],[91.0032,24.27346],[91.00092,24.27394],[90.99735,24.27654],[90.99816,24.27829],[91.00098,24.27921],[91.00327,24.2827],[91.00605,24.28444],[91.00867,24.2848],[91.01397,24.28238],[91.01566,24.28489],[91.01517,24.29037],[91.01974,24.28998],[91.02298,24.28544],[91.02464,24.2847],[91.02714,24.28898],[91.03445,24.28917],[91.03718,24.28751],[91.03955,24.27917],[91.04321,24.27721],[91.04414,24.27585],[91.04305,24.26941],[91.05267,24.25363],[91.05426,24.24801],[91.05389,24.24245],[91.04797,24.22734],[91.04083,24.21388],[91.03825,24.2072],[91.03017,24.19366],[91.021,24.18228],[91.01007,24.17412],[90.99121,24.16538],[90.98922,24.1631],[90.98402,24.15989],[90.97717,24.16341],[90.97503,24.16595],[90.97233,24.17218],[90.96963,24.17458],[90.96819,24.174],[90.96758,24.16879],[90.96922,24.1642],[90.96886,24.16129],[90.96808,24.15983],[90.96529,24.15786],[90.96017,24.15655],[90.95808,24.16609],[90.9549,24.16884],[90.95225,24.17461],[90.94937,24.17557],[90.9482,24.17779],[90.94871,24.17978],[90.94691,24.18157],[90.94321,24.17803],[90.93983,24.17688],[90.93745,24.17243],[90.92847,24.17607],[90.92469,24.17374],[90.9234,24.17401],[90.92123,24.1777],[90.92123,24.18338],[90.92398,24.18736],[90.91901,24.18908],[90.91814,24.1925],[90.91602,24.19383],[90.91239,24.18903],[90.9111,24.18919],[90.90724,24.19592],[90.90482,24.19732],[90.90233,24.19701],[90.89819,24.19181],[90.88991,24.18814],[90.88429,24.19057],[90.88355,24.19255],[90.88452,24.1974],[90.88277,24.19856],[90.87017,24.19565],[90.86411,24.19747],[90.85997,24.19589],[90.85639,24.19997],[90.85391,24.20562],[90.851,24.20917],[90.84314,24.21472],[90.83192,24.21802],[90.82969,24.21982],[90.82786,24.22436],[90.82723,24.23534],[90.83539,24.24619],[90.83841,24.24792],[90.84451,24.24892],[90.84795,24.25179],[90.85049,24.2521],[90.86584,24.24612],[90.86847,24.24706],[90.8692,24.24859],[90.86784,24.25047],[90.86839,24.25235],[90.87473,24.25299],[90.87627,24.25443],[90.87585,24.25697],[90.87268,24.26224],[90.87304,24.26544]]]}},{"type":"Feature","properties":{"name":"Bhairab","district_id":"kishoreganj","pcode":"304811","sql_upazila_id":"kishoreganj-bhairab","sql_name_bn":"ভৈরব"},"geometry":{"type":"Polygon","coordinates":[[[90.98402,24.15989],[90.98299,24.15569],[90.98341,24.15294],[90.98907,24.14565],[90.99534,24.14062],[91.00029,24.13444],[91.01404,24.12762],[91.02601,24.12376],[91.03059,24.12147],[91.03838,24.11737],[91.04591,24.11106],[91.05379,24.10016],[91.05541,24.09081],[91.05339,24.08332],[91.0498,24.07765],[91.04449,24.07185],[91.0267,24.05934],[91.0108,24.05304],[90.9936,24.04338],[90.98851,24.03963],[90.9796,24.04098],[90.97004,24.03845],[90.96568,24.03834],[90.96143,24.03972],[90.95825,24.0417],[90.95751,24.04313],[90.96085,24.04481],[90.96293,24.04812],[90.96589,24.05691],[90.96484,24.06056],[90.96124,24.06373],[90.95356,24.06704],[90.95116,24.06913],[90.94711,24.0757],[90.94501,24.08104],[90.94375,24.08213],[90.93967,24.08233],[90.92851,24.07761],[90.91761,24.07868],[90.90656,24.08274],[90.90091,24.08948],[90.89309,24.096],[90.91026,24.0954],[90.91177,24.09828],[90.91871,24.09678],[90.92325,24.09731],[90.92525,24.09821],[90.92809,24.10546],[90.93011,24.10872],[90.93252,24.11041],[90.93445,24.11063],[90.9361,24.10661],[90.93938,24.10672],[90.94158,24.10785],[90.94365,24.11036],[90.94298,24.11618],[90.93203,24.13446],[90.93065,24.13933],[90.93267,24.14248],[90.93477,24.14234],[90.94034,24.15162],[90.93856,24.15398],[90.94373,24.15884],[90.94795,24.15915],[90.94849,24.15696],[90.95119,24.156],[90.96017,24.15655],[90.96529,24.15786],[90.96808,24.15983],[90.96886,24.16129],[90.96922,24.1642],[90.96758,24.16879],[90.96819,24.174],[90.96963,24.17458],[90.97233,24.17218],[90.97503,24.16595],[90.97717,24.16341],[90.98402,24.15989]]]}},{"type":"Feature","properties":{"name":"Hossainpur","district_id":"kishoreganj","pcode":"304827","sql_upazila_id":"kishoreganj-hossainpur","sql_name_bn":"হোসেনপুর"},"geometry":{"type":"Polygon","coordinates":[[[90.72249,24.4677],[90.72063,24.46226],[90.72082,24.46019],[90.72826,24.45231],[90.72892,24.44787],[90.72689,24.44633],[90.72427,24.44607],[90.71936,24.44738],[90.71507,24.44512],[90.71564,24.44366],[90.72144,24.44278],[90.72208,24.44132],[90.7215,24.43853],[90.72548,24.42945],[90.72697,24.42779],[90.72765,24.42347],[90.73209,24.42114],[90.7172,24.40707],[90.71587,24.40429],[90.71712,24.4004],[90.72071,24.39432],[90.72156,24.39188],[90.72117,24.38931],[90.71815,24.38637],[90.70953,24.38385],[90.70441,24.38482],[90.6953,24.38891],[90.69087,24.38963],[90.6758,24.38945],[90.66976,24.38643],[90.66517,24.39019],[90.66344,24.39048],[90.65679,24.38725],[90.65247,24.38648],[90.64963,24.38663],[90.64217,24.38997],[90.64675,24.40772],[90.64697,24.41254],[90.64588,24.41544],[90.64436,24.4163],[90.63657,24.42906],[90.62878,24.43357],[90.62018,24.43407],[90.60316,24.43921],[90.58976,24.44464],[90.58193,24.45431],[90.57663,24.46945],[90.57743,24.47696],[90.58385,24.48047],[90.58694,24.48605],[90.59153,24.49198],[90.59387,24.49357],[90.59844,24.49313],[90.60046,24.49198],[90.60513,24.49475],[90.61247,24.49136],[90.6149,24.49162],[90.61765,24.49033],[90.61831,24.48772],[90.62631,24.48373],[90.63361,24.475],[90.63973,24.47658],[90.64156,24.47566],[90.63956,24.47314],[90.63962,24.4709],[90.64939,24.47225],[90.66135,24.466],[90.664,24.46345],[90.66786,24.46189],[90.67183,24.46187],[90.67117,24.45856],[90.67397,24.45864],[90.681,24.46168],[90.68291,24.46512],[90.68246,24.46886],[90.67958,24.47383],[90.68059,24.47604],[90.68324,24.47578],[90.68531,24.47847],[90.68555,24.48196],[90.68345,24.48633],[90.68495,24.4907],[90.68225,24.49159],[90.6824,24.49469],[90.68826,24.49707],[90.6905,24.50125],[90.69536,24.50189],[90.70002,24.50644],[90.70238,24.50653],[90.70536,24.50643],[90.7073,24.50539],[90.70682,24.50346],[90.70831,24.49939],[90.70549,24.49478],[90.70518,24.4929],[90.71081,24.49042],[90.71092,24.48816],[90.712,24.48699],[90.71508,24.4862],[90.71658,24.4846],[90.71728,24.47367],[90.71874,24.47081],[90.72249,24.4677]]]}},{"type":"Feature","properties":{"name":"Itna","district_id":"kishoreganj","pcode":"304833","sql_upazila_id":"kishoreganj-itna","sql_name_bn":"ইটনা"},"geometry":{"type":"Polygon","coordinates":[[[91.19603,24.6249],[91.19782,24.61789],[91.19604,24.61652],[91.18797,24.62026],[91.1879,24.62365],[91.18371,24.62599],[91.18076,24.62672],[91.17703,24.62531],[91.18002,24.6217],[91.1808,24.61938],[91.18091,24.61719],[91.17874,24.61578],[91.17783,24.61294],[91.17957,24.61087],[91.18608,24.60736],[91.19441,24.60585],[91.20049,24.60397],[91.20255,24.60246],[91.20144,24.60095],[91.20054,24.59673],[91.20295,24.59492],[91.20577,24.59034],[91.20516,24.58892],[91.20032,24.58538],[91.19894,24.58147],[91.20319,24.58253],[91.20565,24.57996],[91.20638,24.57625],[91.20786,24.57402],[91.21365,24.57295],[91.2175,24.56936],[91.22096,24.5674],[91.22307,24.56726],[91.22741,24.56946],[91.22968,24.56978],[91.23158,24.56913],[91.235,24.56556],[91.23367,24.56205],[91.23125,24.55996],[91.22826,24.55474],[91.2147,24.51942],[91.19675,24.50154],[91.1881,24.49033],[91.18087,24.48422],[91.17935,24.48526],[91.17996,24.48976],[91.17907,24.49481],[91.17626,24.49782],[91.17269,24.49822],[91.16809,24.49573],[91.16439,24.49199],[91.16253,24.48865],[91.15866,24.48761],[91.15123,24.47945],[91.1514,24.47447],[91.15434,24.47083],[91.14695,24.46698],[91.1444,24.46684],[91.13233,24.47118],[91.12326,24.47937],[91.10244,24.48173],[91.09886,24.48392],[91.09412,24.4849],[91.08388,24.48285],[91.08015,24.48293],[91.06977,24.48583],[91.06684,24.48542],[91.06054,24.48254],[91.05369,24.48158],[91.05219,24.47957],[91.0518,24.47712],[91.05306,24.47432],[91.05499,24.47287],[91.05981,24.47224],[91.06608,24.46926],[91.06818,24.467],[91.06008,24.46036],[91.05862,24.45398],[91.05684,24.45088],[91.05367,24.45071],[91.04668,24.45825],[91.04178,24.45486],[91.0355,24.44734],[91.03173,24.44529],[91.02878,24.44637],[91.02792,24.44853],[91.02888,24.45131],[91.03231,24.45525],[91.02759,24.46397],[91.02581,24.46473],[91.02261,24.46358],[91.01669,24.45885],[91.01057,24.45786],[91.00787,24.46048],[91.00715,24.46292],[91.00787,24.46576],[91.00748,24.46727],[91.0057,24.46768],[91.00198,24.46586],[90.99793,24.46187],[90.99339,24.46313],[90.98674,24.46284],[90.98399,24.46397],[90.98165,24.47002],[90.97469,24.48197],[90.97049,24.48641],[90.96531,24.48717],[90.95498,24.48455],[90.95346,24.48535],[90.95162,24.488],[90.95078,24.49204],[90.95116,24.49633],[90.95402,24.50369],[90.94852,24.50779],[90.94668,24.51067],[90.94661,24.5156],[90.95603,24.52108],[90.95464,24.52393],[90.95669,24.52747],[90.96779,24.52558],[90.97252,24.52956],[90.97727,24.53209],[90.97672,24.53458],[90.97127,24.54217],[90.96938,24.54671],[90.96786,24.54769],[90.96093,24.54839],[90.95206,24.55593],[90.95084,24.56004],[90.95316,24.56421],[90.95187,24.57034],[90.95025,24.5719],[90.94759,24.57215],[90.9443,24.57392],[90.94208,24.57808],[90.94543,24.58548],[90.94574,24.58897],[90.94161,24.59549],[90.94534,24.59582],[90.95189,24.59467],[90.95523,24.59817],[90.96114,24.60186],[90.96571,24.59964],[90.97486,24.58933],[90.98172,24.59385],[90.98569,24.59538],[90.98784,24.59489],[90.99033,24.59304],[90.99371,24.59256],[91.00099,24.59649],[91.00436,24.59512],[91.01112,24.59862],[91.02023,24.59796],[91.02339,24.59962],[91.02381,24.60281],[91.02094,24.60779],[91.02082,24.60969],[91.0241,24.6113],[91.02516,24.6135],[91.03548,24.62077],[91.0363,24.6193],[91.03954,24.61781],[91.03619,24.60731],[91.03671,24.6062],[91.04198,24.60597],[91.05392,24.60801],[91.06728,24.60856],[91.07005,24.60748],[91.07807,24.601],[91.08173,24.59909],[91.08777,24.59955],[91.08961,24.59559],[91.09191,24.59374],[91.09473,24.59265],[91.10065,24.59329],[91.10406,24.59163],[91.10677,24.59245],[91.10876,24.59444],[91.10858,24.59652],[91.10502,24.60118],[91.11888,24.59993],[91.12243,24.60049],[91.13026,24.6056],[91.13392,24.60886],[91.13711,24.61309],[91.13637,24.61497],[91.13016,24.62179],[91.13107,24.6318],[91.13243,24.63342],[91.1348,24.63385],[91.1394,24.63047],[91.15224,24.62994],[91.16367,24.62477],[91.16662,24.62569],[91.17539,24.63312],[91.17821,24.63371],[91.1844,24.62975],[91.19603,24.6249]]]}},{"type":"Feature","properties":{"name":"Karimganj","district_id":"kishoreganj","pcode":"304842","sql_upazila_id":null,"sql_name_bn":null},"geometry":{"type":"Polygon","coordinates":[[[90.82318,24.4957],[90.82751,24.49549],[90.82948,24.49663],[90.83132,24.49997],[90.83279,24.50105],[90.83258,24.50439],[90.83483,24.50684],[90.83558,24.50927],[90.83587,24.5118],[90.83414,24.51748],[90.83465,24.51998],[90.83607,24.52189],[90.83814,24.5225],[90.8399,24.51567],[90.84109,24.5142],[90.84273,24.51472],[90.84359,24.51675],[90.84678,24.51922],[90.84917,24.52023],[90.86233,24.52214],[90.8693,24.52677],[90.87074,24.52673],[90.87323,24.52538],[90.87624,24.52057],[90.88292,24.51609],[90.88383,24.51411],[90.88312,24.5057],[90.88359,24.50304],[90.88708,24.49977],[90.88743,24.49511],[90.8897,24.49296],[90.8923,24.49254],[90.89868,24.49236],[90.90195,24.49386],[90.90375,24.49374],[90.90569,24.49225],[90.90532,24.49058],[90.90081,24.48558],[90.90274,24.48384],[90.91039,24.4845],[90.92886,24.4842],[90.93418,24.48568],[90.93789,24.48876],[90.94096,24.48986],[90.95078,24.49204],[90.95162,24.488],[90.95346,24.48535],[90.95498,24.48455],[90.96531,24.48717],[90.97049,24.48641],[90.97469,24.48197],[90.98165,24.47002],[90.98399,24.46397],[90.98674,24.46284],[90.99339,24.46313],[90.99793,24.46187],[91.00198,24.46586],[91.0057,24.46768],[91.00748,24.46727],[91.00787,24.46576],[91.00715,24.46292],[91.00787,24.46048],[91.01057,24.45786],[91.00118,24.45349],[90.99635,24.4481],[90.99527,24.44555],[90.99674,24.43983],[90.9958,24.43756],[90.99052,24.43923],[90.98697,24.4385],[90.9825,24.44056],[90.98035,24.43902],[90.98193,24.42915],[90.97864,24.42519],[90.9716,24.42418],[90.97146,24.42188],[90.97321,24.41838],[90.97269,24.41605],[90.97069,24.41549],[90.96583,24.41669],[90.965,24.41436],[90.96578,24.40625],[90.96465,24.40405],[90.96278,24.40372],[90.95933,24.4005],[90.9511,24.39919],[90.94576,24.39701],[90.94572,24.39564],[90.94736,24.39318],[90.95703,24.39278],[90.95351,24.38613],[90.95188,24.38544],[90.94895,24.38692],[90.94515,24.38625],[90.94397,24.38796],[90.94398,24.39025],[90.94285,24.39144],[90.93971,24.39224],[90.92791,24.39156],[90.922,24.38694],[90.9174,24.38458],[90.91572,24.38452],[90.90667,24.37898],[90.9009,24.37144],[90.89888,24.37392],[90.89637,24.37469],[90.8933,24.37394],[90.88675,24.37055],[90.87867,24.36813],[90.8772,24.37042],[90.86514,24.37112],[90.86355,24.37525],[90.85758,24.38188],[90.85454,24.38204],[90.84496,24.37749],[90.84341,24.3772],[90.84219,24.37788],[90.84286,24.37986],[90.84901,24.382],[90.85018,24.38736],[90.85298,24.39322],[90.85419,24.39428],[90.85719,24.4064],[90.85729,24.40892],[90.85365,24.4153],[90.85382,24.41874],[90.85563,24.42074],[90.85632,24.4229],[90.85515,24.42517],[90.85165,24.42782],[90.85184,24.43034],[90.85007,24.43092],[90.83784,24.4264],[90.83353,24.42557],[90.82907,24.42566],[90.82706,24.427],[90.82409,24.42698],[90.81969,24.43057],[90.82066,24.43209],[90.82468,24.43373],[90.82687,24.43595],[90.82732,24.43835],[90.82462,24.44326],[90.82264,24.44516],[90.81636,24.44653],[90.81431,24.44057],[90.81638,24.43579],[90.81642,24.43315],[90.8144,24.43202],[90.81112,24.43236],[90.80881,24.43364],[90.80703,24.43605],[90.80724,24.43697],[90.8095,24.43769],[90.81096,24.44057],[90.81242,24.45091],[90.80798,24.45926],[90.8047,24.46144],[90.80555,24.4687],[90.8065,24.47102],[90.80383,24.47467],[90.80519,24.48219],[90.80864,24.48374],[90.81097,24.48883],[90.81778,24.4898],[90.82153,24.49449],[90.82318,24.4957]]]}},{"type":"Feature","properties":{"name":"Katiadi","district_id":"kishoreganj","pcode":"304845","sql_upazila_id":"kishoreganj-katiadi","sql_name_bn":"কটিয়াদী"},"geometry":{"type":"Polygon","coordinates":[[[90.9009,24.37144],[90.90354,24.3632],[90.90804,24.36086],[90.91026,24.35849],[90.91351,24.35212],[90.92154,24.34386],[90.92216,24.34178],[90.91903,24.33173],[90.92028,24.32285],[90.91999,24.31597],[90.91676,24.31391],[90.91081,24.31205],[90.9072,24.30569],[90.89232,24.30338],[90.89079,24.30235],[90.89001,24.30124],[90.89085,24.30034],[90.89382,24.30018],[90.89586,24.29868],[90.89487,24.29464],[90.89538,24.29124],[90.89729,24.2875],[90.89729,24.28342],[90.89851,24.27764],[90.89605,24.27779],[90.89217,24.28222],[90.88698,24.28269],[90.88477,24.28139],[90.88419,24.27888],[90.88562,24.27327],[90.88506,24.27128],[90.88314,24.27129],[90.87984,24.27455],[90.87629,24.27399],[90.87017,24.27053],[90.87304,24.26544],[90.87268,24.26224],[90.87585,24.25697],[90.87627,24.25443],[90.87473,24.25299],[90.86839,24.25235],[90.86784,24.25047],[90.8692,24.24859],[90.86847,24.24706],[90.86584,24.24612],[90.85049,24.2521],[90.84795,24.25179],[90.84451,24.24892],[90.83841,24.24792],[90.83539,24.24619],[90.82841,24.23737],[90.82723,24.23534],[90.82721,24.22897],[90.82786,24.22436],[90.82969,24.21982],[90.83192,24.21802],[90.83647,24.21689],[90.84264,24.20716],[90.84331,24.20105],[90.84708,24.19886],[90.84577,24.19505],[90.84303,24.19228],[90.84074,24.19087],[90.83654,24.19285],[90.83295,24.19073],[90.82821,24.1859],[90.8307,24.18249],[90.82381,24.16855],[90.82086,24.16923],[90.82098,24.17663],[90.81921,24.17927],[90.81337,24.18245],[90.80774,24.18798],[90.80068,24.18971],[90.79196,24.19368],[90.78922,24.19676],[90.78803,24.20047],[90.78865,24.20401],[90.79064,24.2083],[90.79209,24.21863],[90.79124,24.2209],[90.784,24.22895],[90.78291,24.23897],[90.78152,24.242],[90.77781,24.24574],[90.77003,24.24858],[90.76006,24.25013],[90.75512,24.24874],[90.73958,24.24077],[90.72295,24.23742],[90.72708,24.24859],[90.72981,24.25275],[90.72622,24.25654],[90.72635,24.25855],[90.72488,24.26129],[90.72435,24.26957],[90.72613,24.27112],[90.72854,24.27098],[90.73121,24.2694],[90.73361,24.27282],[90.73771,24.27509],[90.73885,24.27976],[90.74133,24.28174],[90.74368,24.28166],[90.74789,24.27796],[90.75122,24.27751],[90.76202,24.28591],[90.7626,24.28848],[90.76173,24.29057],[90.762,24.29327],[90.76483,24.30006],[90.765,24.30361],[90.76405,24.3068],[90.76365,24.31754],[90.76589,24.33519],[90.7647,24.34436],[90.77346,24.34492],[90.7759,24.34587],[90.77493,24.35021],[90.77586,24.35436],[90.77995,24.35819],[90.78332,24.36634],[90.78465,24.36738],[90.78659,24.36795],[90.78825,24.36749],[90.79168,24.36617],[90.79384,24.36391],[90.79417,24.36115],[90.79306,24.35539],[90.80354,24.3575],[90.80834,24.35648],[90.81517,24.359],[90.81927,24.35926],[90.8238,24.35739],[90.826,24.35301],[90.82859,24.35074],[90.83167,24.34983],[90.83365,24.34604],[90.83688,24.34839],[90.84061,24.35274],[90.84576,24.35635],[90.84924,24.36059],[90.85813,24.35966],[90.86813,24.36426],[90.88675,24.37055],[90.8933,24.37394],[90.89637,24.37469],[90.89888,24.37392],[90.9009,24.37144]]]}},{"type":"Feature","properties":{"name":"Kishoreganj S.","district_id":"kishoreganj","pcode":"304849","sql_upazila_id":null,"sql_name_bn":null},"geometry":{"type":"Polygon","coordinates":[[[90.80174,24.52312],[90.80561,24.51793],[90.80791,24.51613],[90.81301,24.51464],[90.81481,24.51286],[90.81583,24.50806],[90.81778,24.50518],[90.82053,24.49832],[90.82318,24.4957],[90.82006,24.49311],[90.81778,24.4898],[90.81097,24.48883],[90.80864,24.48374],[90.80519,24.48219],[90.80383,24.47467],[90.8065,24.47102],[90.80555,24.4687],[90.8047,24.46144],[90.80798,24.45926],[90.81242,24.45091],[90.81096,24.44057],[90.8095,24.43769],[90.80724,24.43697],[90.80703,24.43605],[90.80881,24.43364],[90.81112,24.43236],[90.8144,24.43202],[90.81642,24.43315],[90.81638,24.43579],[90.81431,24.44057],[90.81636,24.44653],[90.82264,24.44516],[90.82462,24.44326],[90.82732,24.43835],[90.82687,24.43595],[90.82468,24.43373],[90.82066,24.43209],[90.81969,24.43057],[90.82409,24.42698],[90.82706,24.427],[90.82907,24.42566],[90.83353,24.42557],[90.83784,24.4264],[90.85007,24.43092],[90.85184,24.43034],[90.85165,24.42782],[90.85515,24.42517],[90.85632,24.4229],[90.85563,24.42074],[90.85382,24.41874],[90.85365,24.4153],[90.85729,24.40892],[90.85719,24.4064],[90.85419,24.39428],[90.85298,24.39322],[90.85018,24.38736],[90.84901,24.382],[90.84286,24.37986],[90.84219,24.37788],[90.84341,24.3772],[90.84496,24.37749],[90.85454,24.38204],[90.85758,24.38188],[90.86355,24.37525],[90.86514,24.37112],[90.8772,24.37042],[90.87867,24.36813],[90.85813,24.35966],[90.85116,24.36053],[90.8483,24.36016],[90.84576,24.35635],[90.84061,24.35274],[90.83688,24.34839],[90.83365,24.34604],[90.83167,24.34983],[90.82859,24.35074],[90.826,24.35301],[90.8238,24.35739],[90.81927,24.35926],[90.81517,24.359],[90.80834,24.35648],[90.80354,24.3575],[90.79306,24.35539],[90.79417,24.36115],[90.79384,24.36391],[90.79168,24.36617],[90.78659,24.36795],[90.78332,24.36634],[90.77995,24.35819],[90.77586,24.35436],[90.77493,24.35021],[90.7759,24.34587],[90.77346,24.34492],[90.7647,24.34436],[90.76157,24.34538],[90.75874,24.34393],[90.75576,24.34363],[90.75067,24.34712],[90.74738,24.347],[90.74614,24.34888],[90.74665,24.35317],[90.74569,24.35613],[90.74294,24.35714],[90.74014,24.357],[90.73755,24.35915],[90.73859,24.36091],[90.74193,24.36239],[90.74393,24.36474],[90.74271,24.37528],[90.74056,24.37984],[90.73692,24.38218],[90.73489,24.38237],[90.71468,24.37627],[90.71442,24.37777],[90.7177,24.38392],[90.71815,24.38637],[90.72117,24.38931],[90.72156,24.39188],[90.71587,24.40429],[90.7172,24.40707],[90.73209,24.42114],[90.72765,24.42347],[90.72697,24.42779],[90.72548,24.42945],[90.7215,24.43853],[90.72208,24.44132],[90.72144,24.44278],[90.71564,24.44366],[90.71507,24.44512],[90.71936,24.44738],[90.72427,24.44607],[90.72689,24.44633],[90.72892,24.44787],[90.72826,24.45231],[90.72082,24.46019],[90.72063,24.46226],[90.72249,24.4677],[90.72414,24.46708],[90.7272,24.46766],[90.72974,24.4697],[90.73306,24.47647],[90.73753,24.47839],[90.73993,24.48164],[90.7439,24.49138],[90.74483,24.50121],[90.74612,24.50284],[90.75098,24.49596],[90.75437,24.4951],[90.75633,24.49612],[90.75645,24.50169],[90.75911,24.50533],[90.7722,24.50157],[90.78423,24.50333],[90.79333,24.50108],[90.79457,24.50275],[90.79447,24.51125],[90.79855,24.5126],[90.79935,24.52015],[90.80174,24.52312]]]}},{"type":"Feature","properties":{"name":"Kuliarchar","district_id":"kishoreganj","pcode":"304854","sql_upazila_id":"kishoreganj-kuliarchar","sql_name_bn":"কুলিয়ারচর"},"geometry":{"type":"Polygon","coordinates":[[[90.82381,24.16855],[90.8307,24.18249],[90.82821,24.1859],[90.83295,24.19073],[90.83654,24.19285],[90.84074,24.19087],[90.84303,24.19228],[90.84577,24.19505],[90.84708,24.19886],[90.84331,24.20105],[90.84264,24.20716],[90.83647,24.21689],[90.84314,24.21472],[90.851,24.20917],[90.85391,24.20562],[90.85639,24.19997],[90.85997,24.19589],[90.86411,24.19747],[90.87017,24.19565],[90.88277,24.19856],[90.88452,24.1974],[90.88355,24.19255],[90.88429,24.19057],[90.88991,24.18814],[90.89819,24.19181],[90.90233,24.19701],[90.90482,24.19732],[90.90724,24.19592],[90.9111,24.18919],[90.91239,24.18903],[90.91602,24.19383],[90.91814,24.1925],[90.91901,24.18908],[90.92398,24.18736],[90.92123,24.18338],[90.92123,24.1777],[90.9234,24.17401],[90.92469,24.17374],[90.92847,24.17607],[90.93745,24.17243],[90.93983,24.17688],[90.94321,24.17803],[90.94691,24.18157],[90.94871,24.17978],[90.9482,24.17779],[90.94937,24.17557],[90.95225,24.17461],[90.9549,24.16884],[90.95808,24.16609],[90.96017,24.15655],[90.95119,24.156],[90.94849,24.15696],[90.94795,24.15915],[90.94373,24.15884],[90.93856,24.15398],[90.94034,24.15162],[90.93477,24.14234],[90.93267,24.14248],[90.93065,24.13933],[90.93203,24.13446],[90.94298,24.11618],[90.94365,24.11036],[90.94158,24.10785],[90.93938,24.10672],[90.9361,24.10661],[90.93445,24.11063],[90.93252,24.11041],[90.93011,24.10872],[90.92809,24.10546],[90.92525,24.09821],[90.92325,24.09731],[90.91871,24.09678],[90.91177,24.09828],[90.91026,24.0954],[90.89309,24.096],[90.87721,24.102],[90.86227,24.10619],[90.84857,24.11268],[90.84785,24.11529],[90.84958,24.11891],[90.85378,24.121],[90.8637,24.12346],[90.87037,24.12692],[90.87263,24.12987],[90.87367,24.13339],[90.87391,24.13849],[90.872,24.14246],[90.869,24.14336],[90.85988,24.14253],[90.84932,24.14295],[90.84634,24.14478],[90.84568,24.14721],[90.84413,24.14898],[90.82941,24.15849],[90.82668,24.16185],[90.82381,24.16855]]]}},{"type":"Feature","properties":{"name":"Mithamain","district_id":"kishoreganj","pcode":"304859","sql_upazila_id":null,"sql_name_bn":null},"geometry":{"type":"Polygon","coordinates":[[[91.22619,24.48208],[91.2281,24.4805],[91.23059,24.47649],[91.24155,24.44978],[91.24127,24.44108],[91.24243,24.43381],[91.23972,24.43253],[91.23835,24.43086],[91.23928,24.4256],[91.23619,24.42589],[91.23493,24.42714],[91.23247,24.42579],[91.22973,24.42544],[91.22263,24.42789],[91.21724,24.42625],[91.20713,24.42627],[91.2058,24.42896],[91.20155,24.42797],[91.1993,24.42914],[91.19774,24.42903],[91.1947,24.42731],[91.19225,24.41947],[91.1852,24.41301],[91.18307,24.40529],[91.17965,24.40203],[91.16577,24.39301],[91.15612,24.38475],[91.152,24.3787],[91.15121,24.37242],[91.14993,24.36942],[91.14848,24.36867],[91.14677,24.36954],[91.14571,24.37239],[91.146,24.37892],[91.14411,24.37996],[91.13107,24.38107],[91.13019,24.37708],[91.1233,24.37843],[91.12079,24.37766],[91.12,24.37613],[91.12202,24.36349],[91.12096,24.36152],[91.11688,24.35811],[91.11436,24.357],[91.10093,24.35737],[91.09674,24.3616],[91.09261,24.36914],[91.09334,24.37222],[91.09246,24.37391],[91.09068,24.37426],[91.08397,24.37032],[91.0815,24.36007],[91.07887,24.35742],[91.07452,24.35682],[91.07093,24.35713],[91.05549,24.37266],[91.05322,24.37348],[91.04855,24.369],[91.04065,24.38076],[91.03571,24.38507],[91.03174,24.38486],[91.0302,24.38681],[91.02975,24.39211],[91.0303,24.39502],[91.02926,24.39729],[91.01797,24.41175],[91.01453,24.41262],[91.00397,24.42286],[91.0029,24.42554],[91.00086,24.43847],[90.99921,24.44111],[90.99606,24.44311],[90.99527,24.44555],[90.99635,24.4481],[91.00118,24.45349],[91.01057,24.45786],[91.01669,24.45885],[91.02261,24.46358],[91.02581,24.46473],[91.02759,24.46397],[91.03231,24.45525],[91.02888,24.45131],[91.02792,24.44853],[91.02878,24.44637],[91.03173,24.44529],[91.0355,24.44734],[91.04178,24.45486],[91.04668,24.45825],[91.05367,24.45071],[91.05684,24.45088],[91.05862,24.45398],[91.06008,24.46036],[91.06818,24.467],[91.06608,24.46926],[91.05981,24.47224],[91.05499,24.47287],[91.05306,24.47432],[91.0518,24.47712],[91.05219,24.47957],[91.05369,24.48158],[91.06054,24.48254],[91.06684,24.48542],[91.06977,24.48583],[91.08015,24.48293],[91.08388,24.48285],[91.09412,24.4849],[91.09886,24.48392],[91.10244,24.48173],[91.12326,24.47937],[91.13233,24.47118],[91.1444,24.46684],[91.14695,24.46698],[91.15434,24.47083],[91.15814,24.47133],[91.16914,24.47897],[91.17297,24.47854],[91.18425,24.4748],[91.18761,24.47502],[91.19277,24.4738],[91.1957,24.47231],[91.1951,24.4709],[91.18478,24.46715],[91.18303,24.46325],[91.18428,24.45305],[91.18655,24.45239],[91.19042,24.45673],[91.19634,24.45921],[91.19886,24.46198],[91.1996,24.46546],[91.20408,24.47436],[91.20721,24.47344],[91.21269,24.46899],[91.21569,24.46785],[91.22153,24.46827],[91.22302,24.46993],[91.22188,24.47256],[91.21693,24.47303],[91.21245,24.47922],[91.21289,24.48133],[91.21491,24.48235],[91.22446,24.48262],[91.22619,24.48208]]]}},{"type":"Feature","properties":{"name":"Nikli","district_id":"kishoreganj","pcode":"304876","sql_upazila_id":"kishoreganj-nikli","sql_name_bn":"নিকলী"},"geometry":{"type":"Polygon","coordinates":[[[90.99606,24.44311],[90.99921,24.44111],[91.00086,24.43847],[91.0029,24.42554],[91.00397,24.42286],[91.01453,24.41262],[91.01797,24.41175],[91.02926,24.39729],[91.0303,24.39502],[91.02975,24.39211],[91.0302,24.38681],[91.03174,24.38486],[91.03571,24.38507],[91.04065,24.38076],[91.04855,24.369],[91.04684,24.36447],[91.03511,24.36041],[91.03217,24.35771],[91.03113,24.35103],[91.03002,24.34923],[91.02656,24.34769],[91.02289,24.34737],[91.01994,24.3481],[91.01728,24.34997],[91.01248,24.35645],[91.01031,24.35802],[91.00785,24.35822],[91.005,24.35706],[91.00205,24.35407],[90.99735,24.34712],[90.99683,24.34444],[90.998,24.33705],[91.00107,24.33425],[91.00919,24.33104],[91.01054,24.32697],[91.01544,24.32163],[91.0172,24.31859],[91.01754,24.31611],[91.00977,24.30818],[91.00961,24.30513],[91.0106,24.30333],[91.01749,24.30016],[91.01823,24.29823],[91.01801,24.29566],[91.01591,24.29379],[91.01517,24.29037],[91.01566,24.28489],[91.01397,24.28238],[91.00867,24.2848],[91.00605,24.28444],[91.00327,24.2827],[91.00098,24.27921],[90.99816,24.27829],[90.99735,24.27654],[91.00092,24.27394],[91.0032,24.27346],[91.00616,24.2694],[91.00523,24.26593],[91.00002,24.26015],[90.99034,24.25946],[90.98366,24.25774],[90.97816,24.25099],[90.97072,24.25234],[90.96719,24.25058],[90.96511,24.25111],[90.95658,24.25703],[90.94868,24.25415],[90.9446,24.25423],[90.94077,24.25448],[90.93359,24.25789],[90.92967,24.25763],[90.92809,24.25837],[90.92797,24.2605],[90.93102,24.26452],[90.93079,24.26683],[90.92968,24.26893],[90.92864,24.26937],[90.92394,24.26402],[90.91985,24.26216],[90.90881,24.25015],[90.90501,24.2477],[90.90214,24.24705],[90.90084,24.24887],[90.9059,24.25575],[90.90476,24.25654],[90.88791,24.25844],[90.87852,24.26112],[90.87304,24.26544],[90.87017,24.27053],[90.87629,24.27399],[90.87984,24.27455],[90.88314,24.27129],[90.88506,24.27128],[90.88562,24.27327],[90.88419,24.27888],[90.88477,24.28139],[90.88698,24.28269],[90.89217,24.28222],[90.89605,24.27779],[90.89851,24.27764],[90.89729,24.28342],[90.89729,24.2875],[90.89538,24.29124],[90.89487,24.29464],[90.89586,24.29868],[90.89382,24.30018],[90.89085,24.30034],[90.89001,24.30124],[90.89232,24.30338],[90.9072,24.30569],[90.91081,24.31205],[90.91676,24.31391],[90.91999,24.31597],[90.92028,24.32285],[90.91903,24.33173],[90.92216,24.34178],[90.92154,24.34386],[90.91351,24.35212],[90.91026,24.35849],[90.90804,24.36086],[90.90354,24.3632],[90.9009,24.37144],[90.90667,24.37898],[90.91572,24.38452],[90.9174,24.38458],[90.922,24.38694],[90.92791,24.39156],[90.93971,24.39224],[90.94285,24.39144],[90.94398,24.39025],[90.94397,24.38796],[90.94515,24.38625],[90.94895,24.38692],[90.95188,24.38544],[90.95351,24.38613],[90.95703,24.39278],[90.94736,24.39318],[90.94572,24.39564],[90.94576,24.39701],[90.9511,24.39919],[90.95933,24.4005],[90.96278,24.40372],[90.96465,24.40405],[90.96578,24.40625],[90.965,24.41436],[90.96583,24.41669],[90.97069,24.41549],[90.97269,24.41605],[90.97321,24.41838],[90.97146,24.42188],[90.9716,24.42418],[90.97864,24.42519],[90.98193,24.42915],[90.98035,24.43902],[90.9825,24.44056],[90.98697,24.4385],[90.99052,24.43923],[90.9958,24.43756],[90.99674,24.43983],[90.99606,24.44311]]]}},{"type":"Feature","properties":{"name":"Pakundia","district_id":"kishoreganj","pcode":"304879","sql_upazila_id":"kishoreganj-pakundia","sql_name_bn":"পাকুন্দিয়া"},"geometry":{"type":"Polygon","coordinates":[[[90.71815,24.38637],[90.7177,24.38392],[90.71442,24.37777],[90.71468,24.37627],[90.73489,24.38237],[90.73692,24.38218],[90.74056,24.37984],[90.74271,24.37528],[90.74393,24.36474],[90.74193,24.36239],[90.73859,24.36091],[90.73755,24.35915],[90.74014,24.357],[90.74294,24.35714],[90.74569,24.35613],[90.74665,24.35317],[90.74614,24.34888],[90.74738,24.347],[90.75067,24.34712],[90.75576,24.34363],[90.75874,24.34393],[90.76157,24.34538],[90.7647,24.34436],[90.76589,24.33519],[90.76365,24.31754],[90.76405,24.3068],[90.765,24.30361],[90.76483,24.30006],[90.762,24.29327],[90.76173,24.29057],[90.7626,24.28848],[90.76202,24.28591],[90.75888,24.28293],[90.75574,24.28137],[90.75342,24.27863],[90.75122,24.27751],[90.74789,24.27796],[90.74368,24.28166],[90.74133,24.28174],[90.73885,24.27976],[90.73771,24.27509],[90.73361,24.27282],[90.73121,24.2694],[90.72854,24.27098],[90.72613,24.27112],[90.72435,24.26957],[90.72488,24.26129],[90.72635,24.25855],[90.72622,24.25654],[90.72981,24.25275],[90.72708,24.24859],[90.72295,24.23742],[90.71931,24.23611],[90.71254,24.23553],[90.70246,24.23933],[90.68455,24.24255],[90.66873,24.24726],[90.65834,24.25156],[90.65505,24.25718],[90.6533,24.26642],[90.64696,24.27741],[90.64608,24.28112],[90.64549,24.29594],[90.64637,24.30612],[90.64497,24.30909],[90.63949,24.31208],[90.63615,24.31828],[90.63327,24.32113],[90.62818,24.32864],[90.62421,24.33255],[90.6217,24.33728],[90.6217,24.33963],[90.62598,24.34529],[90.62801,24.35113],[90.63113,24.35556],[90.63379,24.35748],[90.63575,24.36081],[90.63659,24.36393],[90.63642,24.36842],[90.6409,24.3771],[90.64217,24.38997],[90.64963,24.38663],[90.65247,24.38648],[90.65679,24.38725],[90.66344,24.39048],[90.66517,24.39019],[90.66976,24.38643],[90.6758,24.38945],[90.69087,24.38963],[90.6953,24.38891],[90.70441,24.38482],[90.70953,24.38385],[90.71264,24.38426],[90.71815,24.38637]]]}},{"type":"Feature","properties":{"name":"Tarail","district_id":"kishoreganj","pcode":"304892","sql_upazila_id":"kishoreganj-tarail","sql_name_bn":"তাড়াইল"},"geometry":{"type":"Polygon","coordinates":[[[90.91547,24.60449],[90.92242,24.6062],[90.92612,24.60568],[90.92864,24.60661],[90.93219,24.60322],[90.93282,24.59792],[90.9352,24.59514],[90.93816,24.59447],[90.94161,24.59549],[90.94574,24.58897],[90.94543,24.58548],[90.94208,24.57808],[90.9443,24.57392],[90.94759,24.57215],[90.95025,24.5719],[90.95187,24.57034],[90.95316,24.56421],[90.95084,24.56004],[90.95206,24.55593],[90.96093,24.54839],[90.96786,24.54769],[90.96938,24.54671],[90.97127,24.54217],[90.97672,24.53458],[90.97727,24.53209],[90.97252,24.52956],[90.96779,24.52558],[90.95669,24.52747],[90.95464,24.52393],[90.95603,24.52108],[90.94661,24.5156],[90.94668,24.51067],[90.94852,24.50779],[90.95402,24.50369],[90.95168,24.49844],[90.95078,24.49204],[90.94096,24.48986],[90.93789,24.48876],[90.93418,24.48568],[90.92886,24.4842],[90.91039,24.4845],[90.90274,24.48384],[90.90081,24.48558],[90.90532,24.49058],[90.90569,24.49225],[90.90375,24.49374],[90.90195,24.49386],[90.89868,24.49236],[90.8923,24.49254],[90.8897,24.49296],[90.88743,24.49511],[90.88708,24.49977],[90.88359,24.50304],[90.88312,24.5057],[90.88383,24.51411],[90.88292,24.51609],[90.87624,24.52057],[90.87323,24.52538],[90.87074,24.52673],[90.8693,24.52677],[90.86233,24.52214],[90.84917,24.52023],[90.84678,24.51922],[90.84359,24.51675],[90.84273,24.51472],[90.84109,24.5142],[90.8399,24.51567],[90.83814,24.5225],[90.83607,24.52189],[90.83465,24.51998],[90.83414,24.51748],[90.83587,24.5118],[90.83558,24.50927],[90.83483,24.50684],[90.83258,24.50439],[90.83279,24.50105],[90.83132,24.49997],[90.82948,24.49663],[90.82751,24.49549],[90.82318,24.4957],[90.82053,24.49832],[90.81778,24.50518],[90.81583,24.50806],[90.81481,24.51286],[90.81301,24.51464],[90.80791,24.51613],[90.80561,24.51793],[90.80174,24.52312],[90.804,24.52556],[90.80138,24.53116],[90.80467,24.53678],[90.8056,24.5367],[90.80804,24.53184],[90.81099,24.54018],[90.80965,24.54482],[90.81137,24.54803],[90.81432,24.55103],[90.8144,24.55355],[90.81072,24.55684],[90.81078,24.55861],[90.8194,24.56756],[90.81902,24.57141],[90.82153,24.57414],[90.81838,24.5785],[90.82295,24.57966],[90.82727,24.57498],[90.83305,24.57507],[90.83676,24.57259],[90.84014,24.57196],[90.84208,24.57603],[90.84439,24.57663],[90.84711,24.58021],[90.84988,24.58127],[90.85105,24.58295],[90.8498,24.58442],[90.84932,24.58668],[90.85243,24.58875],[90.85713,24.59026],[90.86053,24.58968],[90.86393,24.58566],[90.87843,24.58499],[90.8812,24.58955],[90.88418,24.59145],[90.88842,24.59205],[90.89648,24.58982],[90.89928,24.59041],[90.9025,24.5899],[90.90663,24.58534],[90.90831,24.58551],[90.90853,24.58832],[90.90995,24.58987],[90.91404,24.59168],[90.9161,24.59391],[90.91637,24.59648],[90.91393,24.60275],[90.91547,24.60449]]]}}]}