{"type":"FeatureCollection","features":[{"type":"Feature","properties":{"name":"Bhurungamari","district_id":"kurigram","pcode":"554906","sql_upazila_id":"kurigram-bhurungamari","sql_name_bn":"ভুরুঙ্গামারী"},"geometry":{"type":"Polygon","coordinates":[[[89.6376,26.22235],[89.63758,26.22768],[89.6391,26.22851],[89.64481,26.22632],[89.65108,26.22083],[89.65717,26.21847],[89.66087,26.21767],[89.6667,26.21946],[89.67325,26.21868],[89.6745,26.21906],[89.6742,26.22719],[89.68034,26.23546],[89.68217,26.23572],[89.68311,26.22831],[89.68486,26.22709],[89.68855,26.22874],[89.68935,26.22828],[89.68933,26.22668],[89.68696,26.22405],[89.68277,26.22286],[89.68188,26.22185],[89.6823,26.22128],[89.68571,26.22128],[89.68932,26.22225],[89.69215,26.22175],[89.69245,26.22073],[89.69014,26.21815],[89.68848,26.21777],[89.68124,26.21878],[89.6808,26.21783],[89.68153,26.21611],[89.68559,26.20986],[89.68684,26.20938],[89.69386,26.21121],[89.69392,26.2103],[89.68867,26.20595],[89.67956,26.20773],[89.67765,26.20668],[89.67615,26.20363],[89.67636,26.20136],[89.68115,26.19731],[89.68728,26.19773],[89.68717,26.19534],[89.68525,26.19327],[89.68504,26.18873],[89.68984,26.18138],[89.69592,26.17515],[89.70518,26.17165],[89.69624,26.16781],[89.69272,26.1686],[89.68785,26.16788],[89.68389,26.16431],[89.68336,26.16289],[89.68464,26.16042],[89.68971,26.15824],[89.69314,26.16058],[89.69554,26.16014],[89.70091,26.15757],[89.70544,26.15312],[89.7084,26.15239],[89.71111,26.15292],[89.7131,26.15442],[89.71395,26.16453],[89.71614,26.16739],[89.71835,26.16753],[89.71975,26.16472],[89.72195,26.16452],[89.72359,26.1604],[89.72267,26.15496],[89.72449,26.15466],[89.73912,26.15823],[89.74442,26.15855],[89.74844,26.1578],[89.75092,26.15561],[89.75535,26.149],[89.75709,26.14414],[89.75734,26.14027],[89.75913,26.13837],[89.76627,26.13559],[89.76936,26.13202],[89.77066,26.12745],[89.7706,26.12421],[89.7606,26.11233],[89.75913,26.10904],[89.76105,26.10691],[89.76687,26.1083],[89.76913,26.10792],[89.77411,26.1042],[89.77711,26.10347],[89.78384,26.10627],[89.78704,26.10525],[89.79017,26.10043],[89.78654,26.09844],[89.78969,26.09458],[89.7858,26.08822],[89.78589,26.08321],[89.78813,26.08119],[89.79453,26.08723],[89.79642,26.08748],[89.79754,26.08616],[89.79865,26.08098],[89.79579,26.07686],[89.79539,26.07484],[89.79623,26.07372],[89.79992,26.07447],[89.79974,26.07083],[89.80182,26.06784],[89.8022,26.06494],[89.80136,26.06342],[89.8038,26.05929],[89.80347,26.05764],[89.80125,26.05671],[89.79739,26.05598],[89.79116,26.05619],[89.78829,26.05436],[89.7887,26.05196],[89.79222,26.04838],[89.79218,26.04611],[89.78337,26.04295],[89.78114,26.04145],[89.77796,26.03692],[89.77901,26.03444],[89.77613,26.03193],[89.77334,26.03083],[89.76931,26.03402],[89.76903,26.03596],[89.77502,26.04433],[89.77567,26.04876],[89.77433,26.05179],[89.77215,26.05301],[89.76926,26.05335],[89.76775,26.0532],[89.76569,26.05079],[89.7644,26.04211],[89.75934,26.04026],[89.75779,26.03869],[89.75724,26.03512],[89.75647,26.03462],[89.75181,26.03407],[89.74341,26.03624],[89.7381,26.03524],[89.73409,26.03286],[89.73235,26.03015],[89.72897,26.02753],[89.72632,26.02735],[89.72438,26.02829],[89.72711,26.03314],[89.72708,26.03524],[89.72567,26.03765],[89.72029,26.03967],[89.71707,26.03915],[89.71762,26.03436],[89.71685,26.03301],[89.71162,26.03264],[89.70982,26.03425],[89.70943,26.04176],[89.7059,26.04494],[89.70008,26.04679],[89.69566,26.04646],[89.69286,26.0444],[89.69065,26.04017],[89.68791,26.03816],[89.68417,26.04078],[89.68109,26.03696],[89.67707,26.03765],[89.67707,26.0414],[89.68172,26.04822],[89.6799,26.04886],[89.67802,26.04769],[89.67712,26.04862],[89.67734,26.04982],[89.67487,26.05286],[89.68093,26.05396],[89.68113,26.05481],[89.67848,26.05815],[89.67987,26.05869],[89.68389,26.05795],[89.68536,26.05958],[89.67986,26.06119],[89.68021,26.06386],[89.67508,26.06939],[89.6729,26.07068],[89.67163,26.07063],[89.67293,26.06528],[89.6724,26.06369],[89.66689,26.05809],[89.66551,26.05834],[89.66109,26.06562],[89.6556,26.06849],[89.65513,26.06639],[89.65711,26.06091],[89.65577,26.05973],[89.65458,26.05981],[89.65089,26.06157],[89.65235,26.06223],[89.65269,26.06359],[89.6502,26.06868],[89.64008,26.07485],[89.63712,26.0782],[89.63566,26.08146],[89.63682,26.0832],[89.63999,26.08515],[89.64342,26.09021],[89.63556,26.09465],[89.63978,26.09891],[89.63629,26.10117],[89.63471,26.10466],[89.63267,26.10697],[89.62872,26.10839],[89.62732,26.10774],[89.62647,26.10575],[89.62634,26.10143],[89.62537,26.09997],[89.62255,26.10075],[89.62001,26.10317],[89.61686,26.10305],[89.61627,26.10129],[89.61978,26.09692],[89.62006,26.09482],[89.61923,26.09386],[89.61492,26.09608],[89.61327,26.09486],[89.61297,26.08844],[89.61145,26.08818],[89.60819,26.09307],[89.60608,26.09462],[89.59845,26.09842],[89.59666,26.10089],[89.59688,26.10254],[89.60388,26.10341],[89.6041,26.10505],[89.59803,26.10741],[89.59849,26.1086],[89.60213,26.1086],[89.60297,26.10939],[89.60139,26.11293],[89.60334,26.11262],[89.60521,26.11117],[89.60779,26.10693],[89.61196,26.10795],[89.61441,26.10769],[89.61703,26.10623],[89.6188,26.10643],[89.62045,26.10697],[89.63161,26.11545],[89.63299,26.1189],[89.63121,26.1262],[89.62847,26.12783],[89.6268,26.12621],[89.62348,26.11921],[89.6214,26.11918],[89.61872,26.12138],[89.61652,26.12556],[89.61497,26.12689],[89.6133,26.12538],[89.61066,26.11701],[89.6095,26.11611],[89.60818,26.11653],[89.60621,26.11923],[89.606,26.12173],[89.60969,26.12356],[89.60928,26.12515],[89.60539,26.12663],[89.60072,26.13369],[89.60036,26.13568],[89.60103,26.13766],[89.59866,26.13912],[89.60069,26.14443],[89.60004,26.14683],[89.60038,26.15245],[89.59459,26.15691],[89.59689,26.15949],[89.59962,26.16047],[89.60207,26.15953],[89.6054,26.15539],[89.6079,26.1582],[89.6097,26.15215],[89.61153,26.15201],[89.61349,26.15335],[89.61436,26.15572],[89.61344,26.15755],[89.61182,26.15837],[89.61268,26.16103],[89.61598,26.16172],[89.61739,26.16437],[89.62197,26.16681],[89.62129,26.16772],[89.617,26.16705],[89.61512,26.16787],[89.61397,26.17056],[89.61381,26.17261],[89.61797,26.17278],[89.61803,26.17692],[89.61951,26.17804],[89.62448,26.17797],[89.62547,26.17619],[89.62383,26.17331],[89.62476,26.17137],[89.6269,26.17145],[89.62936,26.17534],[89.63319,26.17818],[89.63708,26.17738],[89.63876,26.17645],[89.63779,26.17481],[89.63437,26.17333],[89.63377,26.17175],[89.6393,26.17053],[89.64143,26.16607],[89.64318,26.16479],[89.64935,26.16413],[89.65188,26.16466],[89.65273,26.16641],[89.65188,26.16864],[89.65555,26.16967],[89.65952,26.17336],[89.66062,26.17563],[89.65904,26.17893],[89.65623,26.18024],[89.65143,26.18014],[89.64446,26.18189],[89.64139,26.1788],[89.63343,26.18176],[89.63076,26.18413],[89.62984,26.18619],[89.63132,26.18787],[89.63645,26.18904],[89.63303,26.19171],[89.63414,26.19465],[89.63616,26.1949],[89.63853,26.19328],[89.6399,26.18797],[89.64138,26.18602],[89.64734,26.18423],[89.64912,26.18522],[89.65035,26.18753],[89.65304,26.18994],[89.64371,26.19747],[89.64097,26.20757],[89.6366,26.21019],[89.63725,26.21886],[89.6376,26.22235]]]}},{"type":"Feature","properties":{"name":"Charrajibpur","district_id":"kurigram","pcode":"554908","sql_upazila_id":"kurigram-charrajibpur","sql_name_bn":"চর রাজিবপুর"},"geometry":{"type":"Polygon","coordinates":[[[89.74798,25.61803],[89.74939,25.61585],[89.75089,25.61577],[89.75217,25.61706],[89.7525,25.61836],[89.75024,25.62147],[89.75021,25.62334],[89.7515,25.62543],[89.75774,25.62777],[89.77178,25.63699],[89.78376,25.63748],[89.78934,25.63364],[89.791,25.63066],[89.79051,25.62135],[89.79198,25.61956],[89.79535,25.61826],[89.79895,25.61269],[89.80174,25.61065],[89.80277,25.60483],[89.80658,25.60376],[89.80684,25.60079],[89.80265,25.58983],[89.80442,25.58429],[89.80195,25.57949],[89.79314,25.56725],[89.79008,25.56014],[89.78912,25.55543],[89.79034,25.55405],[89.80135,25.55194],[89.807,25.54901],[89.80904,25.54738],[89.81062,25.54463],[89.81174,25.54006],[89.80941,25.53635],[89.8038,25.53473],[89.79852,25.53033],[89.79752,25.52682],[89.79736,25.51744],[89.79598,25.51036],[89.79214,25.50951],[89.78642,25.51233],[89.78072,25.51185],[89.77503,25.51313],[89.7717,25.51266],[89.76465,25.51807],[89.76239,25.51793],[89.75945,25.51457],[89.75635,25.51274],[89.75096,25.51209],[89.74722,25.51038],[89.74497,25.50723],[89.7443,25.50491],[89.74857,25.50172],[89.74918,25.50046],[89.74994,25.49653],[89.74705,25.49282],[89.74908,25.49069],[89.74989,25.48692],[89.75238,25.48575],[89.75622,25.48694],[89.75897,25.48633],[89.7608,25.48346],[89.76205,25.47582],[89.76157,25.4698],[89.76381,25.46903],[89.7651,25.46764],[89.76376,25.46238],[89.76481,25.46139],[89.76503,25.45957],[89.76315,25.45642],[89.76616,25.4562],[89.76865,25.45497],[89.77011,25.45273],[89.76541,25.44916],[89.76262,25.44352],[89.75779,25.43655],[89.75916,25.4355],[89.76211,25.43529],[89.77001,25.43232],[89.77408,25.43197],[89.77264,25.42944],[89.77332,25.42806],[89.77711,25.42613],[89.77892,25.42258],[89.77875,25.41951],[89.7774,25.41754],[89.77711,25.4155],[89.78216,25.41388],[89.78318,25.41159],[89.78636,25.41081],[89.78738,25.40499],[89.78448,25.39611],[89.78373,25.38896],[89.78147,25.38519],[89.77913,25.38341],[89.7663,25.3803],[89.75441,25.38067],[89.74916,25.37757],[89.74667,25.37425],[89.74456,25.37564],[89.75359,25.38795],[89.7537,25.39034],[89.74569,25.39064],[89.74364,25.39164],[89.7441,25.39703],[89.74243,25.39802],[89.73943,25.39808],[89.73559,25.39677],[89.72462,25.39608],[89.71331,25.39386],[89.70847,25.3965],[89.7038,25.39446],[89.70124,25.39866],[89.69907,25.39994],[89.69972,25.40169],[89.70558,25.40745],[89.70595,25.41131],[89.70313,25.41818],[89.70071,25.41912],[89.69128,25.41739],[89.6908,25.4187],[89.69273,25.42135],[89.69793,25.42553],[89.70381,25.43636],[89.71021,25.45962],[89.70957,25.46276],[89.70773,25.46506],[89.70398,25.46574],[89.69845,25.46446],[89.69773,25.46294],[89.69173,25.46337],[89.68649,25.46146],[89.68503,25.46353],[89.68698,25.46805],[89.68721,25.47071],[89.68167,25.47671],[89.67483,25.47971],[89.67376,25.48342],[89.6743,25.4862],[89.67577,25.48811],[89.67818,25.48915],[89.68813,25.48861],[89.69748,25.48936],[89.70071,25.4916],[89.70183,25.49471],[89.69996,25.49906],[89.68827,25.50475],[89.6897,25.50756],[89.68767,25.50976],[89.68587,25.5149],[89.68615,25.51785],[89.68816,25.52061],[89.69599,25.52424],[89.69691,25.52684],[89.69855,25.52739],[89.70155,25.53053],[89.70537,25.53086],[89.71483,25.52646],[89.72512,25.52306],[89.72855,25.52608],[89.7328,25.53266],[89.73359,25.53464],[89.73314,25.53794],[89.72982,25.54152],[89.72935,25.54386],[89.72764,25.54621],[89.72528,25.54762],[89.71267,25.54718],[89.71195,25.55293],[89.71993,25.56173],[89.7252,25.56922],[89.72255,25.57147],[89.7113,25.57045],[89.70846,25.5689],[89.70568,25.56411],[89.70367,25.56426],[89.7012,25.56634],[89.69888,25.57019],[89.69875,25.57371],[89.70056,25.5767],[89.70335,25.57899],[89.71305,25.58515],[89.71424,25.58854],[89.71433,25.59399],[89.71699,25.59896],[89.71878,25.60041],[89.72629,25.5966],[89.72807,25.598],[89.72861,25.60439],[89.73103,25.60641],[89.7344,25.60477],[89.73579,25.60237],[89.73822,25.60102],[89.74062,25.60195],[89.74194,25.60562],[89.74257,25.61346],[89.74449,25.61598],[89.74798,25.61803]]]}},{"type":"Feature","properties":{"name":"Chilmari","district_id":"kurigram","pcode":"554909","sql_upazila_id":"kurigram-chilmari","sql_name_bn":"চিলমারী"},"geometry":{"type":"Polygon","coordinates":[[[89.74798,25.61803],[89.74449,25.61598],[89.74257,25.61346],[89.74194,25.60562],[89.74062,25.60195],[89.73822,25.60102],[89.73579,25.60237],[89.7344,25.60477],[89.73103,25.60641],[89.72861,25.60439],[89.72807,25.598],[89.72629,25.5966],[89.71878,25.60041],[89.71699,25.59896],[89.71433,25.59399],[89.71424,25.58854],[89.71305,25.58515],[89.70335,25.57899],[89.70056,25.5767],[89.69875,25.57371],[89.69888,25.57019],[89.7012,25.56634],[89.70367,25.56426],[89.70568,25.56411],[89.70846,25.5689],[89.7113,25.57045],[89.72255,25.57147],[89.7252,25.56922],[89.71993,25.56173],[89.71195,25.55293],[89.71267,25.54718],[89.72528,25.54762],[89.72764,25.54621],[89.72935,25.54386],[89.72982,25.54152],[89.73314,25.53794],[89.73359,25.53464],[89.7328,25.53266],[89.72855,25.52608],[89.72512,25.52306],[89.71483,25.52646],[89.70537,25.53086],[89.70155,25.53053],[89.69842,25.53455],[89.69661,25.53498],[89.68635,25.53257],[89.67395,25.53338],[89.66989,25.53464],[89.66479,25.54063],[89.6525,25.54433],[89.64373,25.54856],[89.64088,25.55508],[89.63297,25.56151],[89.6348,25.56688],[89.63627,25.57595],[89.63761,25.57758],[89.64272,25.58001],[89.64567,25.58394],[89.65276,25.58423],[89.65767,25.59263],[89.65777,25.59866],[89.65842,25.60007],[89.65665,25.60305],[89.65356,25.60258],[89.6516,25.60119],[89.65099,25.59819],[89.64934,25.59713],[89.64665,25.59797],[89.64397,25.60267],[89.64538,25.60492],[89.65324,25.61032],[89.65869,25.62473],[89.66154,25.6264],[89.66476,25.62714],[89.66649,25.62984],[89.66601,25.63076],[89.6585,25.63213],[89.65913,25.6361],[89.65712,25.63992],[89.65801,25.64072],[89.66302,25.64037],[89.66603,25.63599],[89.6679,25.63511],[89.66984,25.63918],[89.67544,25.63966],[89.67879,25.64114],[89.67734,25.64458],[89.67793,25.64576],[89.68391,25.64715],[89.6862,25.64888],[89.6866,25.65018],[89.68445,25.65368],[89.68547,25.65435],[89.6998,25.65578],[89.70914,25.65535],[89.71384,25.65141],[89.71898,25.65065],[89.72146,25.64891],[89.72269,25.64372],[89.72464,25.64021],[89.74026,25.62526],[89.74634,25.62119],[89.74798,25.61803]]]}},{"type":"Feature","properties":{"name":"Kurigram S.","district_id":"kurigram","pcode":"554952","sql_upazila_id":null,"sql_name_bn":null},"geometry":{"type":"Polygon","coordinates":[[[89.6492,25.89902],[89.66211,25.9002],[89.66295,25.90127],[89.6634,25.9062],[89.6686,25.90903],[89.67017,25.91241],[89.67264,25.91334],[89.67383,25.91287],[89.67418,25.91139],[89.67419,25.90428],[89.67467,25.90302],[89.6758,25.90306],[89.67728,25.90469],[89.67799,25.90944],[89.67963,25.91022],[89.68207,25.90638],[89.68559,25.90502],[89.6871,25.90199],[89.68432,25.89691],[89.69001,25.89535],[89.69163,25.89379],[89.69063,25.89056],[89.68637,25.88813],[89.68304,25.88795],[89.68095,25.8869],[89.6794,25.88459],[89.68272,25.87676],[89.69008,25.87647],[89.69186,25.87747],[89.69379,25.88074],[89.69663,25.88155],[89.71613,25.88108],[89.72796,25.8784],[89.73038,25.87684],[89.73296,25.87315],[89.73765,25.87154],[89.73829,25.86858],[89.74171,25.86597],[89.74162,25.86444],[89.74248,25.86334],[89.74899,25.86159],[89.75313,25.85835],[89.7569,25.85408],[89.75955,25.8462],[89.76311,25.84534],[89.77848,25.84755],[89.78657,25.84998],[89.79173,25.84643],[89.79728,25.8514],[89.80545,25.8548],[89.8103,25.85546],[89.81306,25.85559],[89.82428,25.85342],[89.83051,25.85329],[89.8309,25.83762],[89.82552,25.82921],[89.81453,25.81698],[89.81694,25.81296],[89.81748,25.80282],[89.81462,25.79741],[89.80863,25.79284],[89.80613,25.78975],[89.80621,25.78401],[89.79844,25.77743],[89.79694,25.77461],[89.79707,25.7675],[89.78831,25.76611],[89.78407,25.76401],[89.77511,25.76535],[89.77228,25.76511],[89.76785,25.76336],[89.76365,25.7636],[89.7552,25.7689],[89.74983,25.76756],[89.74809,25.76787],[89.74672,25.76931],[89.7461,25.77347],[89.74511,25.77394],[89.74348,25.77454],[89.73842,25.7724],[89.73347,25.77276],[89.73122,25.7774],[89.72731,25.78007],[89.71958,25.78036],[89.69933,25.7751],[89.68954,25.77149],[89.6899,25.76649],[89.69093,25.76472],[89.69144,25.75384],[89.68792,25.74958],[89.68256,25.74801],[89.67918,25.74522],[89.67597,25.74453],[89.67296,25.74514],[89.66747,25.74744],[89.66618,25.74927],[89.66393,25.75016],[89.65592,25.75176],[89.65469,25.75364],[89.65511,25.75581],[89.65446,25.75859],[89.65318,25.76079],[89.65125,25.76165],[89.64856,25.75875],[89.64546,25.76135],[89.64383,25.76126],[89.64188,25.75748],[89.63964,25.75848],[89.63475,25.7556],[89.63326,25.75619],[89.63261,25.75921],[89.63303,25.76108],[89.63437,25.76271],[89.63947,25.76406],[89.64031,25.76501],[89.63852,25.76708],[89.63583,25.76746],[89.63102,25.76554],[89.62923,25.76381],[89.62709,25.75941],[89.62486,25.75779],[89.62278,25.75708],[89.61973,25.75843],[89.61951,25.76009],[89.62059,25.76132],[89.62412,25.76286],[89.61995,25.76855],[89.61553,25.771],[89.61422,25.77261],[89.61523,25.77577],[89.61365,25.7783],[89.60787,25.77526],[89.60485,25.77496],[89.60081,25.77729],[89.5997,25.78305],[89.60217,25.78847],[89.60262,25.79268],[89.60212,25.79677],[89.60078,25.7998],[89.5975,25.80275],[89.59222,25.80249],[89.59112,25.80421],[89.59175,25.8088],[89.59096,25.81012],[89.58203,25.81406],[89.58299,25.81512],[89.58766,25.81659],[89.58884,25.81907],[89.5888,25.8209],[89.58738,25.82245],[89.58082,25.82499],[89.57871,25.82688],[89.57857,25.82974],[89.58121,25.83345],[89.58125,25.83612],[89.58046,25.83813],[89.57613,25.84262],[89.57516,25.8445],[89.57526,25.84683],[89.57609,25.84791],[89.57812,25.84845],[89.5801,25.84762],[89.58302,25.84457],[89.58472,25.84523],[89.58642,25.85356],[89.58715,25.85508],[89.59043,25.85691],[89.59161,25.85974],[89.59164,25.86212],[89.58652,25.8639],[89.58884,25.86756],[89.58846,25.87047],[89.59177,25.87411],[89.59347,25.87767],[89.59892,25.88095],[89.60162,25.88488],[89.60684,25.88862],[89.60825,25.89047],[89.60883,25.89552],[89.60785,25.89713],[89.61275,25.90473],[89.61625,25.90718],[89.61971,25.90669],[89.62188,25.90505],[89.62273,25.90282],[89.62218,25.90028],[89.61625,25.89132],[89.6154,25.88861],[89.61744,25.88306],[89.61686,25.87813],[89.6182,25.87561],[89.6197,25.8748],[89.62235,25.87549],[89.62401,25.87694],[89.63047,25.87583],[89.63312,25.87653],[89.63979,25.88063],[89.64654,25.88235],[89.64953,25.88424],[89.65062,25.8869],[89.64892,25.88925],[89.64241,25.88759],[89.64079,25.88807],[89.64017,25.88938],[89.64072,25.89148],[89.64212,25.89288],[89.64822,25.89654],[89.6492,25.89902]]]}},{"type":"Feature","properties":{"name":"Nageshwari","district_id":"kurigram","pcode":"554961","sql_upazila_id":"kurigram-nageshwari","sql_name_bn":"নাগেশ্বরী"},"geometry":{"type":"Polygon","coordinates":[[[89.60172,26.03803],[89.59507,26.04345],[89.59596,26.04424],[89.60201,26.0446],[89.6069,26.04766],[89.61559,26.0514],[89.61668,26.05297],[89.61442,26.05676],[89.60892,26.0594],[89.60789,26.06157],[89.60836,26.06361],[89.61033,26.06489],[89.61259,26.06451],[89.61553,26.05958],[89.61819,26.05983],[89.62106,26.05848],[89.62067,26.05366],[89.6216,26.05279],[89.62559,26.05444],[89.62942,26.05773],[89.63144,26.06151],[89.63371,26.06222],[89.63897,26.06026],[89.64429,26.06212],[89.6477,26.06241],[89.65577,26.05973],[89.65711,26.06091],[89.65513,26.06639],[89.6556,26.06849],[89.66109,26.06562],[89.66551,26.05834],[89.66689,26.05809],[89.6724,26.06369],[89.67293,26.06528],[89.67163,26.07063],[89.6729,26.07068],[89.67508,26.06939],[89.68021,26.06386],[89.67986,26.06119],[89.68536,26.05958],[89.68389,26.05795],[89.67987,26.05869],[89.67848,26.05815],[89.68113,26.05481],[89.68093,26.05396],[89.67487,26.05286],[89.67734,26.04982],[89.67712,26.04862],[89.67802,26.04769],[89.6799,26.04886],[89.68172,26.04822],[89.67707,26.0414],[89.67707,26.03765],[89.68109,26.03696],[89.68417,26.04078],[89.68791,26.03816],[89.69065,26.04017],[89.69286,26.0444],[89.69566,26.04646],[89.70008,26.04679],[89.7059,26.04494],[89.70943,26.04176],[89.70982,26.03425],[89.71162,26.03264],[89.71685,26.03301],[89.71762,26.03436],[89.71707,26.03915],[89.72029,26.03967],[89.72567,26.03765],[89.72708,26.03524],[89.72711,26.03314],[89.72438,26.02829],[89.72632,26.02735],[89.72897,26.02753],[89.73075,26.02871],[89.73409,26.03286],[89.7381,26.03524],[89.74341,26.03624],[89.75181,26.03407],[89.75647,26.03462],[89.75724,26.03512],[89.75779,26.03869],[89.75934,26.04026],[89.7644,26.04211],[89.76569,26.05079],[89.76775,26.0532],[89.77215,26.05301],[89.77433,26.05179],[89.77538,26.05018],[89.77549,26.04592],[89.77385,26.04185],[89.76903,26.03596],[89.76931,26.03402],[89.77334,26.03083],[89.77473,26.03098],[89.77901,26.03444],[89.78032,26.03374],[89.7812,26.03412],[89.78557,26.03861],[89.78766,26.0397],[89.79018,26.03961],[89.7916,26.0385],[89.79262,26.03506],[89.79575,26.03389],[89.79741,26.03557],[89.79768,26.03983],[89.79971,26.0411],[89.80204,26.04101],[89.80409,26.03938],[89.80469,26.0375],[89.80243,26.03083],[89.80107,26.02864],[89.79648,26.02552],[89.79706,26.02267],[89.79616,26.02149],[89.79234,26.01951],[89.79137,26.01799],[89.79351,26.01574],[89.79467,26.01566],[89.79861,26.01821],[89.80552,26.02753],[89.80814,26.03375],[89.80973,26.0414],[89.81095,26.04286],[89.81482,26.04075],[89.81744,26.03252],[89.82327,26.02368],[89.82044,26.02077],[89.82001,26.01804],[89.82608,26.00908],[89.82417,26.0036],[89.82321,25.99593],[89.82115,25.9933],[89.81821,25.99431],[89.81773,25.99233],[89.82037,25.98769],[89.82296,25.98491],[89.82887,25.98113],[89.83758,25.97945],[89.83975,25.98101],[89.83913,25.98477],[89.83612,25.98914],[89.83673,25.99158],[89.83432,25.99747],[89.83583,26.00119],[89.83656,26.00653],[89.83958,26.01046],[89.8414,26.00986],[89.84933,26.00291],[89.84999,26.00119],[89.84975,25.99472],[89.85313,25.98755],[89.86533,25.98236],[89.8699,25.97808],[89.87437,25.97766],[89.87643,25.97331],[89.8743,25.97056],[89.87208,25.9694],[89.86283,25.96631],[89.85918,25.96586],[89.85129,25.9682],[89.84402,25.9661],[89.84149,25.96392],[89.84966,25.95458],[89.84859,25.95119],[89.8513,25.94775],[89.85146,25.94644],[89.84882,25.94642],[89.84451,25.94785],[89.83859,25.95123],[89.83336,25.95144],[89.82963,25.94926],[89.82852,25.94742],[89.8282,25.94356],[89.8295,25.94218],[89.83194,25.94146],[89.84064,25.94223],[89.84364,25.94133],[89.84407,25.93734],[89.84606,25.93594],[89.84731,25.93598],[89.85387,25.9398],[89.87144,25.94144],[89.87733,25.94311],[89.88607,25.94359],[89.88988,25.94149],[89.89036,25.94023],[89.88641,25.93421],[89.88148,25.91934],[89.8696,25.90873],[89.86077,25.89728],[89.85516,25.89277],[89.8522,25.88923],[89.84913,25.88269],[89.84351,25.87454],[89.83809,25.86996],[89.83663,25.86572],[89.83973,25.85624],[89.83836,25.85365],[89.82428,25.85342],[89.81306,25.85559],[89.8103,25.85546],[89.80545,25.8548],[89.79728,25.8514],[89.79173,25.84643],[89.78657,25.84998],[89.77848,25.84755],[89.76311,25.84534],[89.75955,25.8462],[89.7569,25.85408],[89.75313,25.85835],[89.74899,25.86159],[89.74248,25.86334],[89.74162,25.86444],[89.74171,25.86597],[89.73829,25.86858],[89.73765,25.87154],[89.73296,25.87315],[89.73038,25.87684],[89.72796,25.8784],[89.71613,25.88108],[89.69663,25.88155],[89.69379,25.88074],[89.69186,25.87747],[89.69008,25.87647],[89.68272,25.87676],[89.6794,25.88459],[89.68095,25.8869],[89.68304,25.88795],[89.68637,25.88813],[89.69063,25.89056],[89.69163,25.89379],[89.69001,25.89535],[89.68432,25.89691],[89.6871,25.90199],[89.68559,25.90502],[89.68207,25.90638],[89.67963,25.91022],[89.67799,25.90944],[89.67728,25.90469],[89.6758,25.90306],[89.67467,25.90302],[89.67419,25.90428],[89.67418,25.91139],[89.67383,25.91287],[89.67264,25.91334],[89.67017,25.91241],[89.6686,25.90903],[89.6634,25.9062],[89.66295,25.90127],[89.66211,25.9002],[89.6492,25.89902],[89.64974,25.90555],[89.64882,25.90676],[89.64645,25.9081],[89.64186,25.90812],[89.64013,25.90973],[89.64224,25.91209],[89.64566,25.91369],[89.64956,25.91324],[89.65406,25.91549],[89.65599,25.91825],[89.65545,25.91968],[89.65264,25.92114],[89.65385,25.9226],[89.65739,25.92352],[89.65755,25.92494],[89.65135,25.93151],[89.64695,25.93072],[89.64589,25.9313],[89.64541,25.93279],[89.64823,25.93616],[89.64831,25.93735],[89.64689,25.93868],[89.64589,25.93921],[89.6417,25.93699],[89.63599,25.94213],[89.63348,25.94615],[89.62984,25.95445],[89.62994,25.95717],[89.6284,25.96226],[89.63132,25.96841],[89.62785,25.97181],[89.62352,25.9721],[89.62146,25.97736],[89.62208,25.98173],[89.62138,25.98407],[89.62027,25.98562],[89.61771,25.98685],[89.61804,25.98804],[89.62283,25.99189],[89.62193,26.00299],[89.618,26.00896],[89.6179,26.01493],[89.61987,26.02297],[89.61864,26.0252],[89.61028,26.03022],[89.60566,26.03582],[89.60172,26.03803]]]}},{"type":"Feature","properties":{"name":"Phulbari","district_id":"kurigram","pcode":"554918","sql_upazila_id":"kurigram-phulbari","sql_name_bn":"ফুলবাড়ী"},"geometry":{"type":"Polygon","coordinates":[[[89.48295,25.99733],[89.48897,25.99998],[89.49353,26.00634],[89.4961,26.00585],[89.50153,26.00271],[89.50829,26.00034],[89.51164,26.00132],[89.51707,26.0067],[89.52131,26.00829],[89.52367,26.00621],[89.52757,26.00569],[89.53262,26.00284],[89.53968,26.00314],[89.54235,26.00538],[89.54921,26.00079],[89.55229,26.00086],[89.55366,25.99988],[89.55287,25.99779],[89.55135,25.99666],[89.54469,25.99398],[89.54236,25.98946],[89.54117,25.98922],[89.54013,25.98547],[89.54501,25.98113],[89.54504,25.97925],[89.54328,25.97587],[89.54359,25.97051],[89.55006,25.96633],[89.5545,25.96462],[89.5579,25.96458],[89.56145,25.96606],[89.56261,25.96799],[89.56759,25.97194],[89.56931,25.97823],[89.57259,25.97795],[89.57275,25.96897],[89.57353,25.96745],[89.57693,25.96686],[89.58041,25.96818],[89.58134,25.97124],[89.58113,25.97368],[89.57796,25.97623],[89.57801,25.97941],[89.57885,25.98076],[89.58134,25.9784],[89.58523,25.97789],[89.59012,25.97529],[89.59121,25.97848],[89.59119,25.98087],[89.58848,25.98892],[89.59137,25.99207],[89.59177,25.99399],[89.589,25.99829],[89.58367,26.0032],[89.58409,26.00513],[89.58249,26.00787],[89.58412,26.01172],[89.58107,26.02205],[89.58148,26.02421],[89.58853,26.02422],[89.58862,26.02592],[89.58518,26.03133],[89.59006,26.03648],[89.59239,26.03673],[89.59449,26.03465],[89.60172,26.03803],[89.60566,26.03582],[89.61028,26.03022],[89.61864,26.0252],[89.61987,26.02297],[89.6179,26.01493],[89.618,26.00896],[89.62193,26.00299],[89.62283,25.99189],[89.61804,25.98804],[89.61771,25.98685],[89.62027,25.98562],[89.62138,25.98407],[89.62208,25.98173],[89.62146,25.97736],[89.62352,25.9721],[89.62785,25.97181],[89.63132,25.96841],[89.6284,25.96226],[89.62994,25.95717],[89.62984,25.95445],[89.63348,25.94615],[89.63599,25.94213],[89.6417,25.93699],[89.64589,25.93921],[89.64689,25.93868],[89.64831,25.93735],[89.64823,25.93616],[89.64541,25.93279],[89.64589,25.9313],[89.64695,25.93072],[89.65135,25.93151],[89.65755,25.92494],[89.65739,25.92352],[89.65385,25.9226],[89.65264,25.92114],[89.65545,25.91968],[89.65599,25.91825],[89.65406,25.91549],[89.64956,25.91324],[89.64566,25.91369],[89.64224,25.91209],[89.64013,25.90973],[89.64317,25.90775],[89.64796,25.90757],[89.64974,25.90555],[89.6492,25.89902],[89.64822,25.89654],[89.64212,25.89288],[89.64072,25.89148],[89.64017,25.88938],[89.64079,25.88807],[89.64241,25.88759],[89.64892,25.88925],[89.65062,25.8869],[89.64953,25.88424],[89.64654,25.88235],[89.63979,25.88063],[89.63312,25.87653],[89.63047,25.87583],[89.62401,25.87694],[89.62235,25.87549],[89.6197,25.8748],[89.6182,25.87561],[89.61686,25.87813],[89.61744,25.88306],[89.6154,25.88861],[89.61625,25.89132],[89.62218,25.90028],[89.62273,25.90282],[89.62188,25.90505],[89.61971,25.90669],[89.61625,25.90718],[89.61275,25.90473],[89.60785,25.89713],[89.60883,25.89552],[89.6086,25.89291],[89.60825,25.89047],[89.60684,25.88862],[89.60162,25.88488],[89.59892,25.88095],[89.59347,25.87767],[89.58983,25.87863],[89.58282,25.8847],[89.58184,25.88614],[89.5822,25.88897],[89.58131,25.88961],[89.57487,25.88686],[89.57034,25.88613],[89.5631,25.8864],[89.55517,25.88958],[89.55019,25.88897],[89.54807,25.88951],[89.54708,25.89498],[89.54597,25.89705],[89.5389,25.89914],[89.53551,25.90316],[89.53425,25.90722],[89.5348,25.91028],[89.5324,25.91418],[89.52357,25.91623],[89.52096,25.9182],[89.52048,25.9202],[89.52146,25.92661],[89.52038,25.92997],[89.51548,25.93436],[89.5153,25.93937],[89.51595,25.94083],[89.51481,25.9442],[89.51127,25.94738],[89.49796,25.9533],[89.49899,25.95522],[89.50299,25.95625],[89.50797,25.96181],[89.50491,25.96389],[89.50436,25.96527],[89.50796,25.96987],[89.50395,25.9709],[89.50166,25.96974],[89.49635,25.96305],[89.4947,25.96239],[89.48823,25.96299],[89.48588,25.96603],[89.48541,25.96877],[89.48162,25.97569],[89.48092,25.97928],[89.48317,25.98403],[89.48091,25.98724],[89.48458,25.98873],[89.48799,25.99255],[89.48849,25.99413],[89.48727,25.99551],[89.48295,25.99733]]]}},{"type":"Feature","properties":{"name":"Rajarhat","district_id":"kurigram","pcode":"554977","sql_upazila_id":"kurigram-rajarhat","sql_name_bn":"রাজারহাট"},"geometry":{"type":"Polygon","coordinates":[[[89.59347,25.87767],[89.59177,25.87411],[89.58846,25.87047],[89.58884,25.86756],[89.58652,25.8639],[89.59164,25.86212],[89.59161,25.85974],[89.59043,25.85691],[89.58715,25.85508],[89.58642,25.85356],[89.58472,25.84523],[89.58302,25.84457],[89.5801,25.84762],[89.57812,25.84845],[89.57609,25.84791],[89.57526,25.84683],[89.57516,25.8445],[89.57613,25.84262],[89.58046,25.83813],[89.58125,25.83612],[89.58121,25.83345],[89.57857,25.82974],[89.57871,25.82688],[89.58082,25.82499],[89.58738,25.82245],[89.5888,25.8209],[89.58884,25.81907],[89.58766,25.81659],[89.58299,25.81512],[89.58203,25.81406],[89.59096,25.81012],[89.59175,25.8088],[89.59112,25.80421],[89.59222,25.80249],[89.5975,25.80275],[89.60078,25.7998],[89.60212,25.79677],[89.60262,25.79268],[89.60217,25.78847],[89.5997,25.78305],[89.60081,25.77729],[89.60485,25.77496],[89.60787,25.77526],[89.61365,25.7783],[89.61523,25.77577],[89.61422,25.77261],[89.61553,25.771],[89.61995,25.76855],[89.62412,25.76286],[89.62059,25.76132],[89.61951,25.76009],[89.61973,25.75843],[89.62278,25.75708],[89.62486,25.75779],[89.63054,25.75049],[89.63027,25.74242],[89.62904,25.73988],[89.62669,25.73793],[89.62334,25.73678],[89.61629,25.7362],[89.60677,25.73367],[89.60471,25.73074],[89.60307,25.72542],[89.60022,25.72415],[89.59398,25.72669],[89.59045,25.72577],[89.58972,25.71959],[89.58482,25.71926],[89.57217,25.71342],[89.56905,25.71426],[89.55963,25.72264],[89.55626,25.72387],[89.55364,25.72067],[89.54363,25.71934],[89.54039,25.72046],[89.53697,25.7229],[89.53101,25.7227],[89.52403,25.7183],[89.51537,25.71444],[89.51321,25.71749],[89.51071,25.71798],[89.49875,25.71632],[89.49432,25.71735],[89.49295,25.71855],[89.48949,25.726],[89.48933,25.72782],[89.49164,25.73136],[89.50108,25.73374],[89.50256,25.73514],[89.50542,25.74215],[89.5049,25.74903],[89.49989,25.75007],[89.4968,25.75341],[89.49525,25.7544],[89.49135,25.75451],[89.48987,25.75663],[89.48807,25.75728],[89.48228,25.75725],[89.48169,25.75948],[89.48304,25.76513],[89.48212,25.76742],[89.47556,25.77416],[89.46968,25.78442],[89.46788,25.78643],[89.46589,25.78713],[89.46096,25.78488],[89.45921,25.78525],[89.45891,25.78638],[89.46304,25.79377],[89.46244,25.80015],[89.4588,25.80463],[89.4582,25.80685],[89.46293,25.81213],[89.46333,25.81412],[89.45976,25.81502],[89.45928,25.81656],[89.46,25.81837],[89.46255,25.82032],[89.46606,25.81977],[89.46916,25.81734],[89.4781,25.81812],[89.47865,25.8213],[89.48006,25.82293],[89.4856,25.82405],[89.50034,25.8135],[89.50373,25.81351],[89.50835,25.81538],[89.51149,25.81545],[89.51366,25.81366],[89.51541,25.81334],[89.51775,25.82269],[89.51886,25.82438],[89.52081,25.82538],[89.52689,25.82376],[89.53188,25.82636],[89.53616,25.8346],[89.53359,25.84316],[89.53342,25.86045],[89.53674,25.86455],[89.5401,25.86609],[89.54166,25.8655],[89.54343,25.86258],[89.54854,25.85904],[89.55168,25.85917],[89.55468,25.86146],[89.55666,25.86353],[89.55888,25.86924],[89.56081,25.87177],[89.56047,25.87848],[89.56142,25.88341],[89.5631,25.8864],[89.57034,25.88613],[89.57487,25.88686],[89.58131,25.88961],[89.5822,25.88897],[89.58184,25.88614],[89.58282,25.8847],[89.58983,25.87863],[89.59347,25.87767]]]}},{"type":"Feature","properties":{"name":"Raomari","district_id":"kurigram","pcode":"554979","sql_upazila_id":null,"sql_name_bn":null},"geometry":{"type":"Polygon","coordinates":[[[89.83779,25.71194],[89.8438,25.71048],[89.8497,25.71083],[89.85474,25.7086],[89.85566,25.70711],[89.85602,25.70261],[89.85416,25.69662],[89.85236,25.69414],[89.85206,25.69164],[89.85292,25.68743],[89.85444,25.68427],[89.86224,25.67454],[89.86751,25.6607],[89.87373,25.65759],[89.87618,25.65379],[89.87978,25.64214],[89.88306,25.63628],[89.88521,25.62983],[89.88668,25.62105],[89.88659,25.61269],[89.88638,25.60809],[89.88504,25.60305],[89.87868,25.58781],[89.87825,25.58492],[89.8797,25.57847],[89.87875,25.57474],[89.87669,25.57159],[89.87718,25.56754],[89.87653,25.56579],[89.87263,25.5621],[89.87177,25.55985],[89.8701,25.54422],[89.87406,25.5429],[89.874,25.54206],[89.87321,25.54009],[89.87095,25.53864],[89.87145,25.5373],[89.86533,25.53961],[89.86085,25.53802],[89.85857,25.53652],[89.85778,25.53483],[89.85827,25.53011],[89.86337,25.51746],[89.86411,25.51023],[89.86301,25.50468],[89.85792,25.50044],[89.85801,25.4985],[89.85988,25.49462],[89.85963,25.49143],[89.85513,25.48843],[89.85548,25.47956],[89.8548,25.47309],[89.85699,25.46606],[89.85667,25.46249],[89.85531,25.45967],[89.84821,25.45177],[89.84515,25.445],[89.83984,25.43856],[89.83387,25.42369],[89.83303,25.41523],[89.82988,25.41347],[89.81488,25.41473],[89.80193,25.42028],[89.79086,25.42796],[89.77689,25.43204],[89.77001,25.43232],[89.76211,25.43529],[89.75916,25.4355],[89.75779,25.43655],[89.76262,25.44352],[89.76541,25.44916],[89.77011,25.45273],[89.76865,25.45497],[89.76616,25.4562],[89.76315,25.45642],[89.76503,25.45957],[89.76481,25.46139],[89.76376,25.46238],[89.7651,25.46764],[89.76381,25.46903],[89.76157,25.4698],[89.76205,25.47582],[89.7608,25.48346],[89.75897,25.48633],[89.75622,25.48694],[89.75238,25.48575],[89.74989,25.48692],[89.74908,25.49069],[89.74705,25.49282],[89.74994,25.49653],[89.74918,25.50046],[89.74857,25.50172],[89.7443,25.50491],[89.74497,25.50723],[89.74722,25.51038],[89.75096,25.51209],[89.75635,25.51274],[89.75945,25.51457],[89.76239,25.51793],[89.76465,25.51807],[89.7717,25.51266],[89.77503,25.51313],[89.78072,25.51185],[89.78642,25.51233],[89.79214,25.50951],[89.79598,25.51036],[89.79736,25.51744],[89.79752,25.52682],[89.79852,25.53033],[89.8038,25.53473],[89.80941,25.53635],[89.81133,25.53871],[89.81141,25.54291],[89.80904,25.54738],[89.807,25.54901],[89.80135,25.55194],[89.79034,25.55405],[89.78912,25.55543],[89.79008,25.56014],[89.79314,25.56725],[89.80195,25.57949],[89.80442,25.58429],[89.80265,25.58983],[89.80684,25.60079],[89.80658,25.60376],[89.80277,25.60483],[89.80174,25.61065],[89.79895,25.61269],[89.79535,25.61826],[89.79198,25.61956],[89.79051,25.62135],[89.791,25.63066],[89.78934,25.63364],[89.78376,25.63748],[89.78541,25.64923],[89.78555,25.65695],[89.77933,25.66416],[89.77893,25.66644],[89.7813,25.67316],[89.78336,25.67603],[89.78917,25.67794],[89.79026,25.67973],[89.79025,25.68178],[89.78799,25.68602],[89.79312,25.68861],[89.79595,25.68879],[89.80224,25.68585],[89.80061,25.68161],[89.79723,25.67962],[89.79607,25.67765],[89.79623,25.67566],[89.79947,25.67475],[89.80875,25.6746],[89.80962,25.67351],[89.80941,25.66516],[89.81005,25.66231],[89.81335,25.66072],[89.81738,25.66128],[89.81569,25.66557],[89.81807,25.66928],[89.81683,25.6734],[89.81804,25.68129],[89.82158,25.68571],[89.82826,25.70215],[89.83466,25.7086],[89.83779,25.71194]]]}},{"type":"Feature","properties":{"name":"Ulipur","district_id":"kurigram","pcode":"554994","sql_upazila_id":"kurigram-ulipur","sql_name_bn":"উলিপুর"},"geometry":{"type":"Polygon","coordinates":[[[89.81694,25.81296],[89.82108,25.81436],[89.82327,25.81114],[89.82747,25.80982],[89.83116,25.8055],[89.83331,25.79894],[89.83371,25.79352],[89.83675,25.78767],[89.83809,25.78168],[89.84357,25.76824],[89.84494,25.75719],[89.84275,25.75052],[89.83816,25.74297],[89.83035,25.73503],[89.8318,25.725],[89.83469,25.71745],[89.83779,25.71194],[89.82826,25.70215],[89.82158,25.68571],[89.81804,25.68129],[89.81683,25.6734],[89.81807,25.66928],[89.81569,25.66557],[89.81738,25.66128],[89.81335,25.66072],[89.81005,25.66231],[89.80941,25.66516],[89.80962,25.67351],[89.80875,25.6746],[89.79947,25.67475],[89.79623,25.67566],[89.79607,25.67765],[89.79723,25.67962],[89.80061,25.68161],[89.80224,25.68585],[89.79595,25.68879],[89.79312,25.68861],[89.78927,25.68714],[89.78799,25.68602],[89.79025,25.68178],[89.79026,25.67973],[89.78917,25.67794],[89.78336,25.67603],[89.7813,25.67316],[89.77893,25.66644],[89.77933,25.66416],[89.78555,25.65695],[89.78541,25.64923],[89.78376,25.63748],[89.77178,25.63699],[89.75774,25.62777],[89.7515,25.62543],[89.75021,25.62334],[89.75024,25.62147],[89.7525,25.61836],[89.75089,25.61577],[89.74939,25.61585],[89.74634,25.62119],[89.74026,25.62526],[89.72464,25.64021],[89.72269,25.64372],[89.72146,25.64891],[89.71898,25.65065],[89.71384,25.65141],[89.70914,25.65535],[89.6998,25.65578],[89.68547,25.65435],[89.68445,25.65368],[89.6866,25.65018],[89.6862,25.64888],[89.68391,25.64715],[89.67793,25.64576],[89.67734,25.64458],[89.67879,25.64114],[89.67544,25.63966],[89.66984,25.63918],[89.6679,25.63511],[89.66603,25.63599],[89.66302,25.64037],[89.65801,25.64072],[89.65712,25.63992],[89.65913,25.6361],[89.6585,25.63213],[89.66601,25.63076],[89.66649,25.62984],[89.66476,25.62714],[89.66154,25.6264],[89.65869,25.62473],[89.65324,25.61032],[89.64538,25.60492],[89.64397,25.60267],[89.64665,25.59797],[89.64934,25.59713],[89.65099,25.59819],[89.6516,25.60119],[89.65356,25.60258],[89.65665,25.60305],[89.65842,25.60007],[89.65777,25.59866],[89.65767,25.59263],[89.65276,25.58423],[89.64567,25.58394],[89.64272,25.58001],[89.63761,25.57758],[89.63627,25.57595],[89.6348,25.56688],[89.63297,25.56151],[89.62045,25.56749],[89.61212,25.56801],[89.60529,25.56009],[89.60236,25.55792],[89.59915,25.55694],[89.59358,25.55742],[89.59104,25.55944],[89.58744,25.56541],[89.58373,25.56944],[89.58038,25.57176],[89.57353,25.58283],[89.56966,25.58476],[89.54978,25.58806],[89.54282,25.59174],[89.53812,25.60062],[89.53828,25.60266],[89.54053,25.60257],[89.54283,25.60106],[89.54542,25.60187],[89.5469,25.60424],[89.54823,25.60939],[89.55363,25.6096],[89.55427,25.61033],[89.55229,25.61656],[89.55547,25.62782],[89.55228,25.63617],[89.55123,25.63726],[89.5447,25.64139],[89.53808,25.64314],[89.53789,25.64707],[89.53439,25.6483],[89.53675,25.65059],[89.53381,25.65144],[89.53054,25.65108],[89.52557,25.64586],[89.52388,25.64617],[89.52298,25.65704],[89.51869,25.65602],[89.51822,25.66211],[89.52444,25.68345],[89.52103,25.6864],[89.51963,25.6892],[89.5189,25.70695],[89.51537,25.71444],[89.52403,25.7183],[89.53101,25.7227],[89.53697,25.7229],[89.54039,25.72046],[89.54363,25.71934],[89.55364,25.72067],[89.55626,25.72387],[89.55963,25.72264],[89.56905,25.71426],[89.57217,25.71342],[89.58482,25.71926],[89.58972,25.71959],[89.59045,25.72577],[89.59398,25.72669],[89.60022,25.72415],[89.60307,25.72542],[89.60471,25.73074],[89.60677,25.73367],[89.61629,25.7362],[89.62334,25.73678],[89.62669,25.73793],[89.62904,25.73988],[89.63027,25.74242],[89.63054,25.75049],[89.62486,25.75779],[89.62709,25.75941],[89.62923,25.76381],[89.63102,25.76554],[89.63583,25.76746],[89.63852,25.76708],[89.64031,25.76501],[89.63947,25.76406],[89.63437,25.76271],[89.63303,25.76108],[89.63261,25.75921],[89.63326,25.75619],[89.63475,25.7556],[89.63964,25.75848],[89.64188,25.75748],[89.64383,25.76126],[89.64546,25.76135],[89.64856,25.75875],[89.65125,25.76165],[89.65318,25.76079],[89.65446,25.75859],[89.65511,25.75581],[89.65469,25.75364],[89.65592,25.75176],[89.66393,25.75016],[89.66618,25.74927],[89.66909,25.74662],[89.67597,25.74453],[89.67918,25.74522],[89.68527,25.74927],[89.68792,25.74958],[89.69144,25.75384],[89.69093,25.76472],[89.6899,25.76649],[89.68954,25.77149],[89.71632,25.77995],[89.72731,25.78007],[89.73122,25.7774],[89.73347,25.77276],[89.73842,25.7724],[89.74348,25.77454],[89.7461,25.77347],[89.74672,25.76931],[89.74809,25.76787],[89.74983,25.76756],[89.7552,25.7689],[89.76365,25.7636],[89.76785,25.76336],[89.77228,25.76511],[89.77511,25.76535],[89.78407,25.76401],[89.78831,25.76611],[89.79593,25.76684],[89.79707,25.7675],[89.79694,25.77461],[89.79844,25.77743],[89.80621,25.78401],[89.80613,25.78975],[89.80863,25.79284],[89.81462,25.79741],[89.81702,25.8018],[89.8176,25.806],[89.81684,25.81289],[89.81694,25.81296]]]}}]}