{"type":"FeatureCollection","features":[{"type":"Feature","properties":{"name":"Bheramara","district_id":"kushtia","pcode":"405015","sql_upazila_id":"kushtia-bheramara","sql_name_bn":"ভেড়ামারা"},"geometry":{"type":"Polygon","coordinates":[[[88.92995,24.12622],[88.93868,24.13122],[88.94703,24.12719],[88.9557,24.12526],[88.97555,24.1233],[88.99063,24.12299],[88.99802,24.12198],[89.00438,24.11968],[89.0081,24.11946],[89.00896,24.12049],[89.01091,24.11989],[89.01511,24.11591],[89.03088,24.0769],[89.04029,24.04686],[89.04349,24.04251],[89.04971,24.02375],[89.05109,24.01477],[89.05448,24.00772],[89.05812,23.99717],[89.05259,23.99285],[89.04462,23.99049],[89.03625,23.9902],[89.02348,23.99344],[89.01877,23.98943],[89.01306,23.98928],[89.01099,23.9874],[89.00661,23.98813],[88.99346,23.98783],[88.98866,23.99269],[88.98495,24.00008],[88.98169,24.00443],[88.97866,24.00505],[88.97519,24.00797],[88.96579,24.0127],[88.96281,24.01526],[88.94625,24.01794],[88.94342,24.01912],[88.94307,24.02366],[88.93641,24.0256],[88.92447,24.02703],[88.92103,24.02829],[88.92122,24.03177],[88.92876,24.04436],[88.91519,24.05179],[88.9126,24.05588],[88.91302,24.05861],[88.91887,24.06346],[88.92297,24.07128],[88.92938,24.0761],[88.92999,24.08191],[88.9273,24.0843],[88.92793,24.09544],[88.93044,24.09702],[88.93137,24.10718],[88.92897,24.10841],[88.92944,24.11057],[88.93209,24.11288],[88.93345,24.11616],[88.93264,24.11899],[88.93048,24.12015],[88.92966,24.12281],[88.92995,24.12622]]]}},{"type":"Feature","properties":{"name":"Daulatpur","district_id":"kushtia","pcode":"405039","sql_upazila_id":"kushtia-daulatpur","sql_name_bn":"দৌলতপুর"},"geometry":{"type":"Polygon","coordinates":[[[88.73285,24.20972],[88.73779,24.20937],[88.74194,24.19328],[88.7458,24.18442],[88.75323,24.17299],[88.76161,24.16291],[88.78209,24.14399],[88.79575,24.13458],[88.80038,24.1326],[88.81062,24.12889],[88.82047,24.1273],[88.83225,24.12699],[88.85097,24.12312],[88.85748,24.12106],[88.86302,24.11594],[88.86736,24.11527],[88.87689,24.11968],[88.88105,24.12026],[88.88271,24.11859],[88.88324,24.11421],[88.8818,24.11168],[88.8763,24.1076],[88.87572,24.10556],[88.87808,24.10548],[88.90205,24.11488],[88.91058,24.11739],[88.91189,24.11873],[88.91224,24.12582],[88.9114,24.12748],[88.90991,24.12829],[88.90981,24.12977],[88.91212,24.13156],[88.92194,24.13433],[88.923,24.1338],[88.92063,24.12481],[88.92105,24.12321],[88.92378,24.12306],[88.92995,24.12622],[88.92966,24.12281],[88.93048,24.12015],[88.93264,24.11899],[88.93345,24.11616],[88.93209,24.11288],[88.92944,24.11057],[88.92897,24.10841],[88.93137,24.10718],[88.93044,24.09702],[88.92793,24.09544],[88.9273,24.0843],[88.92999,24.08191],[88.92938,24.0761],[88.92297,24.07128],[88.91887,24.06346],[88.91302,24.05861],[88.9126,24.05588],[88.91519,24.05179],[88.92876,24.04436],[88.92122,24.03177],[88.92103,24.02829],[88.92447,24.02703],[88.93641,24.0256],[88.94307,24.02366],[88.94342,24.01912],[88.94625,24.01794],[88.96281,24.01526],[88.96579,24.0127],[88.96709,24.00212],[88.96867,23.9972],[88.97037,23.99508],[88.97356,23.99343],[88.97456,23.99053],[88.97386,23.98626],[88.96664,23.98439],[88.95598,23.97387],[88.95306,23.96985],[88.95201,23.96662],[88.95471,23.95479],[88.95822,23.95049],[88.96166,23.94225],[88.96159,23.93149],[88.95885,23.927],[88.95052,23.91887],[88.94627,23.91655],[88.93484,23.91373],[88.92436,23.90978],[88.91615,23.91092],[88.91342,23.9105],[88.9088,23.90825],[88.89886,23.90594],[88.89449,23.90374],[88.89299,23.90001],[88.89309,23.8948],[88.88825,23.88752],[88.88509,23.8799],[88.87849,23.88097],[88.87421,23.88049],[88.86935,23.87853],[88.86139,23.8729],[88.85736,23.8716],[88.85426,23.8717],[88.84741,23.87708],[88.84466,23.88221],[88.84562,23.8843],[88.84843,23.88552],[88.85841,23.88336],[88.8643,23.88357],[88.87289,23.88636],[88.87617,23.89016],[88.87875,23.89585],[88.88058,23.90535],[88.87973,23.90979],[88.878,23.91339],[88.86728,23.92709],[88.8569,23.93482],[88.84207,23.94017],[88.83379,23.94159],[88.83054,23.93958],[88.8271,23.93065],[88.82499,23.93015],[88.82072,23.93429],[88.81686,23.93969],[88.81529,23.95016],[88.81576,23.95896],[88.81485,23.96775],[88.80934,23.97514],[88.8048,23.97775],[88.79794,23.97837],[88.79062,23.97421],[88.78744,23.96544],[88.7872,23.95874],[88.78523,23.95205],[88.78214,23.95181],[88.77747,23.9542],[88.77335,23.95994],[88.76986,23.9699],[88.76694,23.9724],[88.7616,23.97269],[88.75034,23.96847],[88.74356,23.96732],[88.73514,23.96787],[88.73496,23.97817],[88.73618,23.98023],[88.74108,23.98457],[88.7534,23.98619],[88.7689,23.98183],[88.77099,23.98478],[88.77132,23.98752],[88.76988,23.99078],[88.76569,23.99417],[88.76241,24.00525],[88.75874,24.00818],[88.74603,24.00388],[88.74215,24.00079],[88.73037,23.99469],[88.72719,23.9945],[88.72945,24.00511],[88.73176,24.00896],[88.73506,24.01079],[88.73777,24.01375],[88.73746,24.02325],[88.73917,24.03459],[88.73542,24.04656],[88.73343,24.04816],[88.72657,24.04893],[88.72329,24.0525],[88.7366,24.05563],[88.73734,24.05633],[88.73763,24.05943],[88.73561,24.06332],[88.73091,24.06242],[88.72424,24.06396],[88.72238,24.06577],[88.72222,24.07166],[88.72382,24.07345],[88.72438,24.07719],[88.72461,24.0891],[88.72596,24.09454],[88.72559,24.09589],[88.72161,24.09951],[88.71028,24.09809],[88.70389,24.09377],[88.69996,24.09487],[88.69787,24.09714],[88.69817,24.10753],[88.69469,24.1134],[88.69469,24.11615],[88.69763,24.11817],[88.7038,24.11959],[88.7102,24.11892],[88.70822,24.12459],[88.70758,24.13886],[88.70657,24.14476],[88.70535,24.14727],[88.69891,24.15445],[88.69952,24.16603],[88.70406,24.16721],[88.71101,24.17669],[88.71625,24.18899],[88.71725,24.20022],[88.71989,24.19774],[88.72444,24.19706],[88.73198,24.1974],[88.7322,24.20974],[88.73285,24.20972]]]}},{"type":"Feature","properties":{"name":"Khoksa","district_id":"kushtia","pcode":"405063","sql_upazila_id":"kushtia-khoksa","sql_name_bn":"খোকসা"},"geometry":{"type":"Polygon","coordinates":[[[89.2484,23.76057],[89.25167,23.76863],[89.25183,23.77115],[89.25002,23.77281],[89.24832,23.7778],[89.24994,23.78129],[89.25132,23.7884],[89.2516,23.79606],[89.25359,23.79616],[89.25505,23.7984],[89.25449,23.80116],[89.25207,23.80367],[89.258,23.8094],[89.26304,23.82256],[89.26324,23.82673],[89.26601,23.82897],[89.26849,23.82911],[89.27098,23.82393],[89.27576,23.82456],[89.28067,23.82266],[89.28255,23.82403],[89.28503,23.82399],[89.28834,23.82256],[89.29035,23.82432],[89.29385,23.83478],[89.29932,23.83865],[89.29372,23.84601],[89.29781,23.8497],[89.2922,23.85333],[89.29155,23.85496],[89.29333,23.85719],[89.29533,23.8582],[89.30118,23.85982],[89.3044,23.86577],[89.30389,23.86791],[89.30598,23.8699],[89.31419,23.86914],[89.31763,23.86782],[89.32566,23.86145],[89.33072,23.86379],[89.33219,23.86253],[89.3325,23.85702],[89.33575,23.85553],[89.33971,23.85556],[89.3416,23.85755],[89.34078,23.86497],[89.34111,23.86936],[89.34363,23.87105],[89.34528,23.87065],[89.34788,23.8674],[89.34979,23.86704],[89.35328,23.86806],[89.35567,23.86723],[89.35658,23.86067],[89.35924,23.86034],[89.35529,23.85488],[89.35426,23.85028],[89.35471,23.83972],[89.35299,23.83721],[89.34305,23.82967],[89.34378,23.82604],[89.34025,23.82308],[89.34064,23.81831],[89.33983,23.81221],[89.33543,23.80608],[89.32809,23.78969],[89.33234,23.78283],[89.33273,23.78037],[89.33031,23.77443],[89.32766,23.77235],[89.31527,23.7708],[89.31355,23.76548],[89.3158,23.76392],[89.32462,23.76285],[89.3244,23.76115],[89.31725,23.75058],[89.3183,23.7475],[89.31824,23.74487],[89.30968,23.74066],[89.30128,23.73513],[89.29872,23.73092],[89.28836,23.73193],[89.27998,23.73578],[89.27159,23.73694],[89.26868,23.73951],[89.26087,23.75365],[89.25798,23.7573],[89.25329,23.76067],[89.2484,23.76057]]]}},{"type":"Feature","properties":{"name":"Kumarkhali","district_id":"kushtia","pcode":"405071","sql_upazila_id":"kushtia-kumarkhali","sql_name_bn":"কুমারখালী"},"geometry":{"type":"Polygon","coordinates":[[[89.36909,23.90472],[89.36854,23.89853],[89.37036,23.894],[89.36992,23.89075],[89.3675,23.88781],[89.36613,23.88734],[89.36408,23.8924],[89.36193,23.89339],[89.36126,23.8909],[89.36134,23.88368],[89.35951,23.87895],[89.3624,23.87774],[89.36409,23.87585],[89.3634,23.87273],[89.36694,23.86739],[89.36652,23.86546],[89.35924,23.86034],[89.35658,23.86067],[89.35567,23.86723],[89.35328,23.86806],[89.34979,23.86704],[89.34788,23.8674],[89.34528,23.87065],[89.34363,23.87105],[89.34111,23.86936],[89.34078,23.86497],[89.3416,23.85755],[89.33971,23.85556],[89.33575,23.85553],[89.3325,23.85702],[89.33219,23.86253],[89.33072,23.86379],[89.32566,23.86145],[89.31763,23.86782],[89.31419,23.86914],[89.30598,23.8699],[89.30389,23.86791],[89.3044,23.86577],[89.30118,23.85982],[89.29533,23.8582],[89.29333,23.85719],[89.29155,23.85496],[89.2922,23.85333],[89.29781,23.8497],[89.29372,23.84601],[89.29932,23.83865],[89.29385,23.83478],[89.29035,23.82432],[89.28834,23.82256],[89.28503,23.82399],[89.28255,23.82403],[89.28067,23.82266],[89.27576,23.82456],[89.27098,23.82393],[89.26849,23.82911],[89.26601,23.82897],[89.26324,23.82673],[89.26304,23.82256],[89.258,23.8094],[89.25207,23.80367],[89.25449,23.80116],[89.25505,23.7984],[89.25359,23.79616],[89.2516,23.79606],[89.25132,23.7884],[89.24994,23.78129],[89.24832,23.7778],[89.25002,23.77281],[89.25183,23.77115],[89.25167,23.76863],[89.2484,23.76057],[89.24084,23.75671],[89.23703,23.7517],[89.22315,23.75631],[89.21931,23.75571],[89.21645,23.75203],[89.21377,23.75098],[89.20864,23.7451],[89.20563,23.74303],[89.19878,23.74041],[89.19527,23.74088],[89.1854,23.74558],[89.18144,23.74509],[89.17819,23.7436],[89.17577,23.73676],[89.17447,23.73646],[89.16901,23.74146],[89.16205,23.74601],[89.15276,23.75429],[89.14832,23.75496],[89.1455,23.75661],[89.14421,23.76261],[89.14499,23.77139],[89.14596,23.77674],[89.14823,23.78244],[89.15701,23.78219],[89.16289,23.78525],[89.16355,23.78751],[89.16696,23.7914],[89.16711,23.79283],[89.16385,23.79368],[89.16071,23.79712],[89.15934,23.80003],[89.15542,23.80154],[89.15511,23.80447],[89.15752,23.81108],[89.15532,23.81855],[89.15041,23.81729],[89.14814,23.81834],[89.148,23.82081],[89.1568,23.82479],[89.1596,23.82853],[89.16325,23.83149],[89.16385,23.83387],[89.16241,23.83622],[89.15979,23.83837],[89.16243,23.84343],[89.16168,23.84586],[89.1544,23.85007],[89.15302,23.85269],[89.1564,23.86396],[89.15417,23.86679],[89.15212,23.86652],[89.15253,23.86851],[89.15704,23.87425],[89.16008,23.87494],[89.16056,23.87693],[89.16042,23.87911],[89.15423,23.88854],[89.15401,23.89302],[89.15617,23.90256],[89.15275,23.90456],[89.14644,23.90456],[89.13953,23.90956],[89.13995,23.91132],[89.14261,23.91409],[89.14617,23.91642],[89.15415,23.91941],[89.15656,23.92207],[89.15938,23.92374],[89.16367,23.92462],[89.16679,23.92617],[89.16833,23.92858],[89.16873,23.93641],[89.18224,23.93971],[89.18707,23.94287],[89.19083,23.94823],[89.19321,23.94991],[89.19676,23.9479],[89.19824,23.94121],[89.20284,23.92999],[89.2066,23.92625],[89.20981,23.9254],[89.2128,23.9262],[89.22444,23.93524],[89.23367,23.9388],[89.23859,23.94933],[89.24206,23.96409],[89.24659,23.97378],[89.24924,23.97591],[89.2575,23.97403],[89.26717,23.9688],[89.28063,23.96385],[89.30373,23.95798],[89.31274,23.95336],[89.31895,23.94506],[89.3242,23.93571],[89.32899,23.93118],[89.3429,23.92701],[89.34704,23.92354],[89.35052,23.91837],[89.3596,23.90871],[89.36615,23.90543],[89.36909,23.90472]]]}},{"type":"Feature","properties":{"name":"Kushtia S.","district_id":"kushtia","pcode":"405079","sql_upazila_id":null,"sql_name_bn":null},"geometry":{"type":"Polygon","coordinates":[[[89.15796,23.94948],[89.16471,23.94881],[89.17081,23.95071],[89.17564,23.95346],[89.18543,23.96926],[89.1884,23.96915],[89.19071,23.96717],[89.19291,23.96258],[89.19676,23.9479],[89.19321,23.94991],[89.19083,23.94823],[89.18707,23.94287],[89.18224,23.93971],[89.16873,23.93641],[89.16833,23.92858],[89.16679,23.92617],[89.16367,23.92462],[89.15938,23.92374],[89.15656,23.92207],[89.15415,23.91941],[89.14617,23.91642],[89.14261,23.91409],[89.13995,23.91132],[89.13953,23.90956],[89.14644,23.90456],[89.15275,23.90456],[89.15617,23.90256],[89.15401,23.89302],[89.15423,23.88854],[89.16042,23.87911],[89.16056,23.87693],[89.16008,23.87494],[89.15704,23.87425],[89.15253,23.86851],[89.15212,23.86652],[89.15417,23.86679],[89.1564,23.86396],[89.15302,23.85269],[89.1544,23.85007],[89.16168,23.84586],[89.16243,23.84343],[89.15979,23.83837],[89.16241,23.83622],[89.16385,23.83387],[89.16325,23.83149],[89.1596,23.82853],[89.1568,23.82479],[89.148,23.82081],[89.14814,23.81834],[89.15041,23.81729],[89.15532,23.81855],[89.15752,23.81108],[89.15511,23.80447],[89.15542,23.80154],[89.15934,23.80003],[89.16071,23.79712],[89.16385,23.79368],[89.16711,23.79283],[89.16696,23.7914],[89.16355,23.78751],[89.16289,23.78525],[89.15701,23.78219],[89.14823,23.78244],[89.14596,23.77674],[89.14421,23.76261],[89.1455,23.75661],[89.14832,23.75496],[89.15276,23.75429],[89.16205,23.74601],[89.16901,23.74146],[89.17447,23.73646],[89.17225,23.73368],[89.16533,23.73101],[89.1635,23.72878],[89.16216,23.72018],[89.16013,23.71751],[89.15523,23.71682],[89.14728,23.72116],[89.14351,23.72113],[89.13904,23.71704],[89.13595,23.71721],[89.13395,23.71591],[89.13222,23.71271],[89.12634,23.70913],[89.12635,23.70661],[89.12928,23.69838],[89.1245,23.69117],[89.11915,23.69857],[89.11781,23.70583],[89.12234,23.71695],[89.12351,23.72292],[89.1239,23.72702],[89.12115,23.73141],[89.11694,23.73116],[89.11079,23.72319],[89.10726,23.72308],[89.10438,23.72421],[89.10232,23.7264],[89.10196,23.73008],[89.1028,23.73532],[89.1013,23.73766],[89.09837,23.73936],[89.0881,23.74218],[89.0877,23.74449],[89.09083,23.75251],[89.08957,23.75432],[89.08797,23.75467],[89.07947,23.7533],[89.07595,23.75377],[89.07496,23.75672],[89.07806,23.76354],[89.07874,23.76678],[89.0771,23.76844],[89.07372,23.76907],[89.0692,23.76923],[89.06554,23.76833],[89.06235,23.76666],[89.06031,23.76364],[89.05974,23.75955],[89.06023,23.75597],[89.06606,23.73739],[89.06919,23.73282],[89.07814,23.72879],[89.08001,23.72655],[89.08015,23.72408],[89.07232,23.71891],[89.06487,23.71718],[89.06191,23.71739],[89.05627,23.72273],[89.05266,23.72481],[89.04652,23.72404],[89.04464,23.72239],[89.0446,23.72085],[89.04784,23.71856],[89.05675,23.7155],[89.0585,23.71361],[89.05701,23.71006],[89.05424,23.70718],[89.04871,23.69603],[89.04619,23.69343],[89.04119,23.69045],[89.03811,23.69056],[89.03114,23.69469],[89.02325,23.70212],[89.01549,23.71687],[89.01379,23.72534],[89.01455,23.72989],[89.01431,23.73711],[89.01165,23.74671],[89.00916,23.74908],[88.99802,23.75187],[88.99622,23.75439],[89.00792,23.77225],[89.01165,23.7834],[89.01028,23.78643],[89.00805,23.7861],[89.00441,23.78027],[88.99104,23.79264],[88.99183,23.79477],[88.99377,23.79668],[88.99509,23.80383],[89.00198,23.81573],[89.00491,23.82331],[89.00679,23.82479],[89.00977,23.82543],[89.01416,23.82522],[89.01525,23.82747],[89.01373,23.83268],[89.01456,23.83391],[89.02076,23.83427],[89.02328,23.85004],[89.03911,23.86232],[89.04476,23.86304],[89.04945,23.86603],[89.05534,23.86359],[89.06178,23.86761],[89.06138,23.86854],[89.05788,23.87015],[89.05783,23.8772],[89.05981,23.88038],[89.06369,23.87911],[89.06974,23.88187],[89.07264,23.88149],[89.07415,23.87966],[89.07691,23.87835],[89.08089,23.87903],[89.08495,23.88135],[89.08805,23.88141],[89.09144,23.88374],[89.09074,23.88573],[89.08927,23.88704],[89.07899,23.89318],[89.07626,23.89607],[89.07637,23.89876],[89.08804,23.90712],[89.09278,23.90873],[89.09475,23.91118],[89.09412,23.91332],[89.08758,23.91801],[89.08376,23.9194],[89.0827,23.92179],[89.08602,23.94354],[89.08828,23.94547],[89.09141,23.94667],[89.10094,23.94612],[89.10461,23.94742],[89.10501,23.95519],[89.09734,23.95574],[89.09534,23.95765],[89.09662,23.96287],[89.09814,23.96207],[89.11039,23.9609],[89.12279,23.9623],[89.12829,23.96091],[89.13258,23.95898],[89.13575,23.95646],[89.14916,23.9513],[89.15796,23.94948]]]}},{"type":"Feature","properties":{"name":"Mirpur","district_id":"kushtia","pcode":"405094","sql_upazila_id":"kushtia-mirpur","sql_name_bn":"মিরপুর"},"geometry":{"type":"Polygon","coordinates":[[[89.05812,23.99717],[89.0632,23.98406],[89.0668,23.98102],[89.07257,23.97779],[89.08008,23.97564],[89.09534,23.97374],[89.09662,23.96287],[89.09534,23.95765],[89.09734,23.95574],[89.10501,23.95519],[89.10461,23.94742],[89.10094,23.94612],[89.09141,23.94667],[89.08828,23.94547],[89.08602,23.94354],[89.0827,23.92179],[89.08376,23.9194],[89.08758,23.91801],[89.09412,23.91332],[89.09475,23.91118],[89.09278,23.90873],[89.08804,23.90712],[89.07637,23.89876],[89.07626,23.89607],[89.07899,23.89318],[89.08927,23.88704],[89.09074,23.88573],[89.09144,23.88374],[89.08805,23.88141],[89.08495,23.88135],[89.08089,23.87903],[89.07691,23.87835],[89.07415,23.87966],[89.07264,23.88149],[89.06974,23.88187],[89.06369,23.87911],[89.05981,23.88038],[89.05783,23.8772],[89.05788,23.87015],[89.06138,23.86854],[89.06178,23.86761],[89.05534,23.86359],[89.04945,23.86603],[89.04476,23.86304],[89.03911,23.86232],[89.02328,23.85004],[89.02076,23.83427],[89.01456,23.83391],[89.01373,23.83268],[89.01525,23.82747],[89.01416,23.82522],[89.00977,23.82543],[89.00679,23.82479],[89.00491,23.82331],[89.00198,23.81573],[88.99509,23.80383],[88.99377,23.79668],[88.99183,23.79477],[88.99104,23.79264],[89.00441,23.78027],[89.00264,23.77409],[89.00079,23.77101],[88.99873,23.77056],[88.99538,23.77268],[88.98918,23.77873],[88.98512,23.7795],[88.9825,23.77844],[88.97684,23.77033],[88.97045,23.75521],[88.96644,23.7522],[88.96335,23.75259],[88.96024,23.75458],[88.95082,23.77076],[88.94624,23.77715],[88.94475,23.78052],[88.94704,23.79069],[88.94618,23.79377],[88.94044,23.79859],[88.93815,23.79826],[88.93565,23.79342],[88.93262,23.79015],[88.92357,23.78553],[88.9183,23.78508],[88.91735,23.7862],[88.91632,23.78851],[88.92081,23.79724],[88.9229,23.80651],[88.92751,23.81522],[88.92839,23.81983],[88.9268,23.82441],[88.92381,23.82702],[88.92037,23.82811],[88.91763,23.83061],[88.91522,23.83762],[88.91284,23.83958],[88.90794,23.83563],[88.90263,23.82968],[88.90054,23.82928],[88.8948,23.83051],[88.88474,23.83543],[88.88147,23.83588],[88.87361,23.83196],[88.86884,23.83195],[88.86477,23.83644],[88.86787,23.84652],[88.8679,23.85236],[88.87003,23.85676],[88.87278,23.8589],[88.88013,23.86209],[88.88466,23.86572],[88.88889,23.87061],[88.88957,23.87454],[88.8881,23.8786],[88.88509,23.8799],[88.88825,23.88752],[88.89309,23.8948],[88.89299,23.90001],[88.89449,23.90374],[88.89886,23.90594],[88.9088,23.90825],[88.91342,23.9105],[88.91615,23.91092],[88.92436,23.90978],[88.93484,23.91373],[88.94627,23.91655],[88.95052,23.91887],[88.95885,23.927],[88.96159,23.93149],[88.96166,23.94225],[88.95822,23.95049],[88.95471,23.95479],[88.95201,23.96662],[88.95306,23.96985],[88.95598,23.97387],[88.96664,23.98439],[88.97386,23.98626],[88.97456,23.99053],[88.97356,23.99343],[88.97037,23.99508],[88.96867,23.9972],[88.96709,24.00212],[88.96579,24.0127],[88.97519,24.00797],[88.97866,24.00505],[88.98169,24.00443],[88.98495,24.00008],[88.98866,23.99269],[88.99346,23.98783],[89.00661,23.98813],[89.01099,23.9874],[89.01306,23.98928],[89.01877,23.98943],[89.02348,23.99344],[89.03625,23.9902],[89.04462,23.99049],[89.05259,23.99285],[89.05812,23.99717]]]}}]}