{"type":"FeatureCollection","features":[{"type":"Feature","properties":{"name":"Lakshmipur Sadar","district_id":"lakshmipur","pcode":"205143","sql_upazila_id":"lakshmipur-lakshmipur-sadar","sql_name_bn":"লক্ষ্মীপুর সদর"},"geometry":{"type":"MultiPolygon","coordinates":[[[[90.74111,22.83639],[90.74667,22.83583],[90.74667,22.835],[90.75027,22.83361],[90.7525,22.83167],[90.75445,22.82861],[90.75139,22.82667],[90.75056,22.82944],[90.74944,22.83055],[90.74973,22.83139],[90.74917,22.83139],[90.74778,22.83055],[90.74917,22.83028],[90.74917,22.82861],[90.7475,22.82472],[90.74445,22.82472],[90.745,22.82583],[90.74361,22.825],[90.74722,22.82167],[90.74722,22.82028],[90.74611,22.81889],[90.74695,22.81889],[90.74778,22.82028],[90.74861,22.82],[90.74861,22.81833],[90.7475,22.81694],[90.74583,22.81694],[90.74223,22.825],[90.73861,22.83667],[90.74055,22.83667],[90.74111,22.83639]]],[[[90.8315,23.05033],[90.83279,23.04842],[90.83867,23.04919],[90.84142,23.04836],[90.84788,23.04272],[90.84946,23.04068],[90.84994,23.03835],[90.84737,23.03549],[90.8474,23.03317],[90.84914,23.02984],[90.85421,23.03035],[90.86004,23.02766],[90.86048,23.02307],[90.85889,23.01826],[90.86037,23.0168],[90.87122,23.01807],[90.87378,23.02229],[90.8735,23.02484],[90.87483,23.02751],[90.87734,23.02861],[90.87909,23.02759],[90.8821,23.02376],[90.88351,23.02366],[90.88489,23.02429],[90.88608,23.02985],[90.89185,23.0292],[90.89338,23.01863],[90.89662,23.01445],[90.89885,23.01466],[90.90083,23.01618],[90.90119,23.01803],[90.90813,23.01887],[90.91402,23.01658],[90.91624,23.01656],[90.91835,23.01502],[90.91876,23.01116],[90.92149,23.00977],[90.92242,23.00838],[90.92611,23.00803],[90.92803,23.00666],[90.92861,23.00568],[90.92802,22.99965],[90.92979,22.99739],[90.93291,22.99666],[90.93164,22.99093],[90.93264,22.98954],[90.93761,22.99074],[90.9387,22.99324],[90.94096,22.99299],[90.94589,23.00108],[90.9527,22.99502],[90.95332,22.99342],[90.95196,22.99166],[90.95264,22.9901],[90.95832,22.99031],[90.95964,22.98772],[90.96197,22.98594],[90.96252,22.98388],[90.96452,22.9828],[90.97103,22.98411],[90.97124,22.98806],[90.9731,22.98992],[90.97507,22.98979],[90.97808,22.98454],[90.97979,22.97906],[90.98259,22.97653],[90.98669,22.97587],[90.98866,22.98034],[90.99011,22.98159],[90.99732,22.97982],[90.99645,22.9747],[90.99499,22.97181],[90.99747,22.96731],[90.9932,22.96351],[90.99836,22.9614],[90.99754,22.95775],[90.99839,22.9523],[90.99553,22.94832],[90.99201,22.94646],[90.98904,22.94288],[90.98942,22.9349],[90.98659,22.92651],[90.98244,22.92286],[90.97939,22.9189],[90.97964,22.91736],[90.98299,22.91606],[90.98319,22.91498],[90.98074,22.91359],[90.98135,22.90854],[90.98682,22.90648],[90.98925,22.90408],[90.9894,22.90294],[90.98835,22.90145],[90.98558,22.8998],[90.98257,22.89656],[90.98301,22.89519],[90.97919,22.89029],[90.98299,22.88631],[90.98617,22.87761],[90.98518,22.87753],[90.98495,22.87448],[90.98016,22.87329],[90.97691,22.87391],[90.97546,22.87108],[90.96988,22.86861],[90.9638,22.86412],[90.95474,22.86562],[90.95219,22.86414],[90.95211,22.85953],[90.94381,22.86152],[90.94128,22.86127],[90.9392,22.85834],[90.93822,22.85351],[90.9508,22.84737],[90.95376,22.84416],[90.95496,22.83677],[90.9537,22.82612],[90.95087,22.81757],[90.947,22.81119],[90.9393,22.80286],[90.93636,22.79657],[90.92294,22.78792],[90.92137,22.79063],[90.91207,22.79548],[90.89867,22.80107],[90.87712,22.81457],[90.87447,22.818],[90.86285,22.82659],[90.85218,22.83159],[90.84783,22.83552],[90.83755,22.84089],[90.82188,22.85503],[90.8153,22.85904],[90.81095,22.86297],[90.80743,22.86433],[90.80241,22.86354],[90.79971,22.86186],[90.79245,22.85391],[90.78709,22.85013],[90.78487,22.84686],[90.78595,22.83547],[90.78166,22.83096],[90.78133,22.83405],[90.7775,22.84389],[90.77321,22.85023],[90.76472,22.86],[90.76171,22.86605],[90.76195,22.86695],[90.765,22.86639],[90.77,22.8675],[90.77306,22.86917],[90.77361,22.87028],[90.76709,22.86806],[90.76195,22.86778],[90.74673,22.88842],[90.74139,22.89083],[90.73833,22.89417],[90.73361,22.90222],[90.72969,22.91278],[90.72619,22.91922],[90.72758,22.91789],[90.73437,22.91824],[90.73527,22.91934],[90.73516,22.92149],[90.73786,22.9248],[90.75063,22.93026],[90.75347,22.93057],[90.75717,22.92875],[90.75886,22.92942],[90.76012,22.93199],[90.75999,22.93347],[90.75626,22.93783],[90.75755,22.94616],[90.75739,22.95091],[90.75374,22.95205],[90.75251,22.95373],[90.74973,22.96247],[90.7476,22.96328],[90.74161,22.9629],[90.7354,22.96718],[90.73557,22.96955],[90.74271,22.9748],[90.74368,22.97754],[90.74355,22.98269],[90.74496,22.98451],[90.75072,22.98155],[90.75394,22.97868],[90.75671,22.97994],[90.75668,22.98273],[90.75465,22.98799],[90.75305,22.98996],[90.75431,22.99252],[90.75629,22.9928],[90.75843,22.99046],[90.76353,22.98815],[90.76576,22.98864],[90.77009,22.99398],[90.78522,22.9949],[90.79167,22.99582],[90.79431,22.99726],[90.79483,23.00154],[90.79916,23.00332],[90.8051,23.01099],[90.80931,23.02182],[90.81885,23.03627],[90.8217,23.03866],[90.8259,23.0405],[90.82925,23.04096],[90.83128,23.04287],[90.83038,23.04844],[90.8315,23.05033]]]]}},{"type":"Feature","properties":{"name":"Raipur","district_id":"lakshmipur","pcode":"205158","sql_upazila_id":"lakshmipur-raipur","sql_name_bn":"রায়পুর"},"geometry":{"type":"MultiPolygon","coordinates":[[[[90.72722,22.90944],[90.72611,22.90833],[90.72472,22.90944],[90.72027,22.92262],[90.72166,22.92139],[90.72722,22.91],[90.72722,22.90944]]],[[[90.71796,22.92792],[90.71638,22.93],[90.71782,22.92846],[90.71796,22.92792]]],[[[90.68036,22.97934],[90.68555,22.97889],[90.68861,22.97694],[90.69583,22.96472],[90.70333,22.95583],[90.70639,22.95],[90.71028,22.94611],[90.71361,22.94084],[90.71591,22.93205],[90.71167,22.93611],[90.70695,22.9375],[90.70055,22.94333],[90.69889,22.94583],[90.69806,22.94528],[90.69861,22.94333],[90.70167,22.93972],[90.71083,22.93361],[90.71611,22.92861],[90.71972,22.9175],[90.71917,22.91611],[90.71972,22.91389],[90.72556,22.9025],[90.73306,22.89194],[90.73333,22.88806],[90.73167,22.88361],[90.72889,22.88056],[90.72389,22.88972],[90.72111,22.89722],[90.71917,22.90028],[90.71861,22.90083],[90.71806,22.90028],[90.72195,22.89056],[90.72166,22.88917],[90.72722,22.88083],[90.725,22.87667],[90.72361,22.87639],[90.72,22.88028],[90.71778,22.88556],[90.71306,22.89278],[90.71167,22.89722],[90.70361,22.90722],[90.695,22.92194],[90.69473,22.92361],[90.69722,22.9325],[90.69666,22.93306],[90.69527,22.93265],[90.69334,22.93472],[90.69222,22.93667],[90.69201,22.93972],[90.69111,22.93972],[90.69083,22.93722],[90.69195,22.93472],[90.695,22.93111],[90.69453,22.92604],[90.6925,22.92389],[90.67764,22.94535],[90.67627,22.94596],[90.68027,22.93944],[90.67973,22.93861],[90.67528,22.94333],[90.67306,22.95167],[90.66695,22.96333],[90.66556,22.96445],[90.66611,22.96695],[90.67167,22.97472],[90.67821,22.97927],[90.67993,22.9794],[90.68036,22.97934]]],[[[90.79554,23.07674],[90.79968,23.07321],[90.81121,23.0678],[90.82941,23.05735],[90.8315,23.05033],[90.83038,23.04844],[90.83128,23.04287],[90.82925,23.04096],[90.8259,23.0405],[90.8217,23.03866],[90.81885,23.03627],[90.80931,23.02182],[90.8051,23.01099],[90.79916,23.00332],[90.79483,23.00154],[90.79431,22.99726],[90.79167,22.99582],[90.78522,22.9949],[90.77009,22.99398],[90.76576,22.98864],[90.76353,22.98815],[90.75843,22.99046],[90.75629,22.9928],[90.75431,22.99252],[90.75305,22.98996],[90.75465,22.98799],[90.75668,22.98273],[90.75671,22.97994],[90.75394,22.97868],[90.75072,22.98155],[90.74496,22.98451],[90.74355,22.98269],[90.74368,22.97754],[90.74271,22.9748],[90.73557,22.96955],[90.7354,22.96718],[90.74161,22.9629],[90.7476,22.96328],[90.74973,22.96247],[90.75251,22.95373],[90.75374,22.95205],[90.75739,22.95091],[90.75755,22.94616],[90.75626,22.93783],[90.75999,22.93347],[90.76012,22.93199],[90.75886,22.92942],[90.75717,22.92875],[90.75347,22.93057],[90.75063,22.93026],[90.73786,22.9248],[90.73516,22.92149],[90.73527,22.91934],[90.73437,22.91824],[90.72758,22.91789],[90.7254,22.92034],[90.72037,22.92948],[90.71494,22.94378],[90.71098,22.94766],[90.70556,22.95583],[90.69945,22.9625],[90.68861,22.97833],[90.68607,22.97964],[90.67889,22.98025],[90.67445,22.97889],[90.67028,22.97528],[90.66528,22.9675],[90.6625,22.96722],[90.65444,22.97528],[90.65083,22.98],[90.64615,22.98819],[90.65425,22.99439],[90.65718,22.99537],[90.66054,22.99786],[90.66223,23.00058],[90.66602,23.00317],[90.66817,23.0065],[90.66856,23.00903],[90.66791,23.01143],[90.66902,23.01648],[90.67531,23.0168],[90.6758,23.01836],[90.67582,23.02067],[90.67464,23.02235],[90.66886,23.02304],[90.66693,23.02401],[90.66611,23.0254],[90.66776,23.02851],[90.67244,23.03351],[90.67116,23.03909],[90.66834,23.04325],[90.66734,23.04849],[90.6699,23.05095],[90.6741,23.05325],[90.67601,23.05279],[90.67852,23.05408],[90.68715,23.06092],[90.69159,23.06253],[90.69592,23.06284],[90.69636,23.06141],[90.70094,23.06018],[90.70368,23.06084],[90.70692,23.05654],[90.7088,23.05728],[90.71123,23.05652],[90.71383,23.05299],[90.71664,23.05239],[90.71976,23.04805],[90.72442,23.04529],[90.72595,23.04327],[90.72839,23.04262],[90.73539,23.04341],[90.73746,23.04436],[90.73943,23.04764],[90.7476,23.05399],[90.75318,23.05601],[90.75879,23.05962],[90.75925,23.06045],[90.75692,23.06427],[90.75819,23.06552],[90.77333,23.07299],[90.77769,23.07405],[90.7916,23.07512],[90.79472,23.07609],[90.79554,23.07674]]]]}},{"type":"Feature","properties":{"name":"Ramganj","district_id":"lakshmipur","pcode":"205165","sql_upazila_id":"lakshmipur-ramganj","sql_name_bn":"রামগঞ্জ"},"geometry":{"type":"Polygon","coordinates":[[[90.96721,23.12982],[90.96178,23.12193],[90.95905,23.11952],[90.95945,23.11215],[90.95329,23.10399],[90.94767,23.09904],[90.94719,23.09617],[90.9482,23.09184],[90.94812,23.08793],[90.94568,23.08525],[90.94447,23.08427],[90.94096,23.08467],[90.93971,23.08584],[90.93501,23.08708],[90.93306,23.08612],[90.93465,23.08092],[90.93417,23.0794],[90.93221,23.07829],[90.92458,23.07878],[90.91851,23.07819],[90.91654,23.07662],[90.91929,23.07409],[90.91999,23.07135],[90.91933,23.0686],[90.91806,23.06757],[90.9071,23.06975],[90.90511,23.06762],[90.90487,23.06457],[90.90948,23.0609],[90.91117,23.05813],[90.91175,23.05495],[90.91442,23.05248],[90.91508,23.05013],[90.91897,23.04537],[90.91964,23.04348],[90.90856,23.04589],[90.90609,23.04575],[90.90534,23.04357],[90.90685,23.04096],[90.90678,23.03741],[90.89573,23.03716],[90.89185,23.0292],[90.88608,23.02985],[90.88489,23.02429],[90.88351,23.02366],[90.8821,23.02376],[90.87909,23.02759],[90.87734,23.02861],[90.87483,23.02751],[90.8735,23.02484],[90.87378,23.02229],[90.87122,23.01807],[90.86037,23.0168],[90.85889,23.01826],[90.86048,23.02307],[90.86004,23.02766],[90.85421,23.03035],[90.84914,23.02984],[90.8474,23.03317],[90.84737,23.03549],[90.84994,23.03835],[90.84946,23.04068],[90.84788,23.04272],[90.84142,23.04836],[90.83867,23.04919],[90.83279,23.04842],[90.8315,23.05033],[90.82941,23.05735],[90.81121,23.0678],[90.79968,23.07321],[90.79554,23.07674],[90.79605,23.07865],[90.79541,23.08489],[90.79661,23.09757],[90.79849,23.10538],[90.80107,23.11055],[90.80148,23.11489],[90.80286,23.11699],[90.80538,23.1185],[90.80626,23.11717],[90.81097,23.11786],[90.81448,23.11921],[90.81709,23.12167],[90.82182,23.12271],[90.82201,23.12451],[90.82407,23.12693],[90.82828,23.12707],[90.83922,23.13096],[90.84445,23.14068],[90.85023,23.14348],[90.85412,23.1468],[90.85155,23.15243],[90.85074,23.15749],[90.85428,23.15969],[90.8554,23.15988],[90.8564,23.159],[90.85952,23.15969],[90.86373,23.16327],[90.86813,23.16529],[90.8737,23.166],[90.87486,23.1654],[90.88132,23.16665],[90.88258,23.16548],[90.88727,23.16385],[90.89155,23.16411],[90.89929,23.15994],[90.90531,23.15047],[90.90749,23.14932],[90.9112,23.14965],[90.91481,23.15207],[90.91843,23.15133],[90.91908,23.15068],[90.91757,23.14627],[90.92029,23.14482],[90.92513,23.14567],[90.93114,23.14292],[90.93592,23.14327],[90.93812,23.14121],[90.94386,23.14108],[90.94487,23.14178],[90.94682,23.1412],[90.95917,23.14271],[90.96097,23.14146],[90.96129,23.13839],[90.96301,23.13669],[90.96381,23.1331],[90.96548,23.13174],[90.96721,23.12982]]]}},{"type":"Feature","properties":{"name":"Ramgati","district_id":"lakshmipur","pcode":"205173","sql_upazila_id":"lakshmipur-ramgati","sql_name_bn":"রামগতি"},"geometry":{"type":"MultiPolygon","coordinates":[[[[90.83285,22.63287],[90.83342,22.63239],[90.83311,22.63072],[90.83228,22.63091],[90.83251,22.63287],[90.83285,22.63287]]],[[[90.85182,22.66472],[90.85369,22.66452],[90.85341,22.66238],[90.85168,22.66271],[90.84917,22.66479],[90.85104,22.66586],[90.85146,22.66506],[90.85182,22.66472]]],[[[90.94109,22.77435],[90.96078,22.75938],[90.96407,22.75842],[90.96597,22.75491],[90.96799,22.74981],[90.96793,22.74144],[90.96574,22.72908],[90.96719,22.71998],[90.96919,22.71743],[90.97125,22.71667],[90.97484,22.71548],[90.9808,22.71544],[90.99265,22.7113],[90.99546,22.70759],[90.99757,22.70644],[91.0024,22.69751],[91.00459,22.69161],[91.00376,22.6878],[91.0044,22.68529],[91.00388,22.68276],[90.99317,22.66863],[90.98949,22.66647],[90.98443,22.66081],[90.98138,22.65317],[90.97443,22.64165],[90.97361,22.63789],[90.9748,22.63502],[90.97821,22.63259],[90.98253,22.62803],[90.9842,22.62497],[90.99009,22.61963],[90.99201,22.6152],[90.99399,22.61373],[90.99557,22.6083],[90.99822,22.6055],[90.99957,22.59697],[91.00198,22.59406],[91.00351,22.58909],[91.00246,22.58206],[91.00369,22.57242],[90.9983,22.57656],[90.99779,22.57778],[90.99938,22.57966],[90.99781,22.57975],[90.99601,22.57868],[90.99277,22.57917],[90.97305,22.595],[90.96639,22.60167],[90.95778,22.60556],[90.95167,22.61],[90.94666,22.61194],[90.94222,22.615],[90.93389,22.61889],[90.90139,22.63972],[90.89389,22.64805],[90.89278,22.65195],[90.89306,22.65556],[90.89056,22.65833],[90.88333,22.66056],[90.88194,22.66],[90.87972,22.66083],[90.87139,22.66111],[90.8625,22.66361],[90.85917,22.66694],[90.85778,22.67083],[90.855,22.67389],[90.85555,22.67528],[90.85416,22.67722],[90.84917,22.68111],[90.84834,22.68028],[90.84861,22.67945],[90.85361,22.67472],[90.85389,22.6725],[90.85583,22.66972],[90.85583,22.66806],[90.85472,22.66667],[90.84611,22.66917],[90.84167,22.67278],[90.83278,22.6825],[90.83139,22.68583],[90.82472,22.69583],[90.81889,22.70306],[90.81611,22.70972],[90.81277,22.71389],[90.81055,22.71861],[90.79833,22.73583],[90.78611,22.75861],[90.78445,22.76333],[90.78222,22.76667],[90.78167,22.77056],[90.77917,22.77389],[90.77889,22.77611],[90.7775,22.77806],[90.77639,22.78417],[90.77666,22.78889],[90.7775,22.79],[90.7775,22.795],[90.77861,22.79611],[90.77834,22.79722],[90.78083,22.8025],[90.78167,22.8075],[90.7825,22.80861],[90.78306,22.82167],[90.78166,22.83096],[90.78595,22.83547],[90.78487,22.84686],[90.78786,22.85101],[90.79245,22.85391],[90.79971,22.86186],[90.80241,22.86354],[90.80743,22.86433],[90.81095,22.86297],[90.8153,22.85904],[90.82188,22.85503],[90.83755,22.84089],[90.84783,22.83552],[90.85218,22.83159],[90.86285,22.82659],[90.87447,22.818],[90.87712,22.81457],[90.88727,22.8079],[90.89867,22.80107],[90.91207,22.79548],[90.92137,22.79063],[90.92469,22.78572],[90.93013,22.78112],[90.93719,22.77743],[90.93855,22.77569],[90.94109,22.77435]]]]}}]}