{"type":"FeatureCollection","features":[{"type":"Feature","properties":{"name":"Aditmari","district_id":"lalmonirhat","pcode":"555202","sql_upazila_id":"lalmonirhat-aditmari","sql_name_bn":"আদিতমারী"},"geometry":{"type":"Polygon","coordinates":[[[89.38072,26.00943],[89.3915,26.01024],[89.39742,26.00678],[89.39841,26.00688],[89.40141,26.01217],[89.39706,26.02013],[89.41189,26.03038],[89.41322,26.03308],[89.41366,26.03943],[89.42653,26.04237],[89.42954,26.04562],[89.43496,26.04208],[89.4389,26.03595],[89.4396,26.03179],[89.43404,26.01959],[89.43298,26.01552],[89.43392,26.01192],[89.43851,26.0086],[89.44508,26.00698],[89.45286,26.00619],[89.45541,26.0048],[89.45838,26.00151],[89.46146,26.00047],[89.45055,25.99883],[89.44613,25.9973],[89.44415,25.99568],[89.44363,25.99404],[89.44518,25.98941],[89.4432,25.98705],[89.44208,25.98372],[89.44203,25.97297],[89.43886,25.96351],[89.44097,25.95814],[89.44154,25.9463],[89.44032,25.9362],[89.43835,25.9311],[89.43116,25.92148],[89.43013,25.92024],[89.42692,25.91977],[89.42576,25.91831],[89.42602,25.91467],[89.42474,25.91269],[89.4201,25.91002],[89.41906,25.9072],[89.41907,25.90356],[89.41727,25.90131],[89.40824,25.89852],[89.40305,25.89513],[89.394,25.8944],[89.39667,25.88738],[89.39474,25.88405],[89.3931,25.88288],[89.38499,25.88106],[89.38262,25.8757],[89.38086,25.87459],[89.35796,25.87534],[89.35596,25.87644],[89.35341,25.88288],[89.35017,25.88361],[89.34977,25.87936],[89.35195,25.87639],[89.35332,25.87053],[89.35088,25.8661],[89.35419,25.86277],[89.35263,25.86109],[89.34389,25.86021],[89.34189,25.8574],[89.33916,25.84654],[89.33418,25.85098],[89.32261,25.85472],[89.31851,25.85896],[89.31315,25.861],[89.30506,25.87035],[89.29825,25.88048],[89.29929,25.88491],[89.2965,25.88837],[89.28711,25.8938],[89.28317,25.8947],[89.28379,25.91601],[89.28504,25.91898],[89.28553,25.92553],[89.28503,25.93403],[89.2858,25.93623],[89.28951,25.93811],[89.30086,25.93524],[89.30613,25.9354],[89.30877,25.93701],[89.30896,25.94399],[89.31079,25.9447],[89.317,25.94445],[89.32124,25.9469],[89.32801,25.9592],[89.33288,25.96448],[89.33945,25.98638],[89.34093,25.98762],[89.3434,25.98788],[89.34933,25.98656],[89.35289,25.98704],[89.3708,25.99285],[89.37379,25.99573],[89.37614,26.00647],[89.38072,26.00943]]]}},{"type":"Feature","properties":{"name":"Hatibandha","district_id":"lalmonirhat","pcode":"555233","sql_upazila_id":"lalmonirhat-hatibandha","sql_name_bn":"হাতীবান্ধা"},"geometry":{"type":"Polygon","coordinates":[[[89.02405,26.24605],[89.0332,26.24771],[89.03617,26.24974],[89.03781,26.24999],[89.03876,26.24993],[89.04256,26.24466],[89.04479,26.24674],[89.04713,26.24677],[89.04984,26.24438],[89.05183,26.24383],[89.05206,26.24087],[89.0554,26.23742],[89.06503,26.23395],[89.07311,26.22919],[89.07413,26.22616],[89.0743,26.22109],[89.07991,26.21431],[89.08274,26.21439],[89.0832,26.21524],[89.08418,26.21807],[89.08385,26.22092],[89.08665,26.23186],[89.09003,26.23529],[89.0911,26.23534],[89.09428,26.23252],[89.0985,26.23708],[89.10059,26.2374],[89.10537,26.2361],[89.10956,26.23657],[89.1116,26.23791],[89.11208,26.23962],[89.11153,26.24116],[89.10996,26.24248],[89.1017,26.24472],[89.10309,26.24892],[89.10641,26.25184],[89.10819,26.25751],[89.11111,26.25776],[89.11681,26.25635],[89.11875,26.25463],[89.12109,26.24875],[89.12562,26.24586],[89.12703,26.2429],[89.12861,26.2431],[89.13112,26.24598],[89.13252,26.25149],[89.13683,26.2483],[89.13757,26.24715],[89.13761,26.24259],[89.13902,26.24041],[89.14057,26.2388],[89.14511,26.23755],[89.14688,26.23536],[89.14615,26.22973],[89.14834,26.2232],[89.1474,26.21729],[89.14905,26.21408],[89.15536,26.20865],[89.15099,26.20245],[89.14844,26.20038],[89.14622,26.19971],[89.14571,26.19454],[89.14149,26.18617],[89.14037,26.18231],[89.14059,26.1801],[89.14512,26.17561],[89.14641,26.17127],[89.14846,26.16933],[89.15441,26.16919],[89.15685,26.16813],[89.16217,26.16074],[89.16183,26.15926],[89.16026,26.15877],[89.15535,26.159],[89.15414,26.15827],[89.15492,26.15514],[89.15777,26.15107],[89.16005,26.14229],[89.16239,26.13873],[89.17066,26.13068],[89.17346,26.129],[89.17725,26.13026],[89.18166,26.12992],[89.18508,26.12675],[89.19213,26.1265],[89.19463,26.12528],[89.19778,26.12194],[89.20117,26.12474],[89.20501,26.12453],[89.20692,26.12649],[89.20837,26.12687],[89.21076,26.12656],[89.21714,26.12308],[89.22245,26.12432],[89.22621,26.1229],[89.23017,26.12264],[89.23396,26.1185],[89.23717,26.11329],[89.23955,26.11156],[89.24133,26.11193],[89.24382,26.11083],[89.24648,26.10619],[89.25406,26.10218],[89.25743,26.09221],[89.26848,26.0931],[89.27131,26.09267],[89.2722,26.09164],[89.27212,26.08999],[89.27077,26.08723],[89.26283,26.0791],[89.26161,26.07491],[89.26081,26.06636],[89.26157,26.06392],[89.27724,26.06083],[89.28022,26.06148],[89.28514,26.06595],[89.28641,26.0648],[89.28797,26.05804],[89.28259,26.04975],[89.28305,26.04902],[89.28582,26.04848],[89.2837,26.04247],[89.28375,26.03632],[89.28459,26.03459],[89.28774,26.03238],[89.28764,26.03107],[89.28555,26.0306],[89.28477,26.02957],[89.28529,26.02613],[89.28444,26.0246],[89.27967,26.02774],[89.26918,26.02602],[89.26648,26.03215],[89.26547,26.03296],[89.26109,26.03277],[89.25848,26.02978],[89.25786,26.0274],[89.26064,26.02138],[89.26036,26.01995],[89.25562,26.01733],[89.25372,26.02008],[89.24922,26.02001],[89.24414,26.02223],[89.24395,26.02974],[89.24002,26.03798],[89.23584,26.04183],[89.23389,26.04315],[89.22562,26.04369],[89.22449,26.04484],[89.22397,26.04809],[89.22166,26.0501],[89.22267,26.05521],[89.22224,26.05715],[89.22063,26.05869],[89.21761,26.05941],[89.21419,26.05843],[89.21085,26.05358],[89.20889,26.05235],[89.20593,26.05374],[89.20359,26.05702],[89.20081,26.05648],[89.19674,26.05835],[89.19181,26.05636],[89.18535,26.05769],[89.18446,26.05741],[89.18535,26.05246],[89.18489,26.05064],[89.18166,26.04915],[89.18035,26.04462],[89.1796,26.044],[89.17646,26.04471],[89.17407,26.04435],[89.16737,26.04036],[89.16679,26.03882],[89.16892,26.03204],[89.16763,26.02649],[89.16655,26.02508],[89.16183,26.02321],[89.14334,26.02509],[89.14095,26.02364],[89.14063,26.02138],[89.14224,26.01808],[89.1423,26.01615],[89.14111,26.01202],[89.14597,26.00675],[89.14814,25.9998],[89.14544,25.99848],[89.14468,25.99701],[89.14541,25.99382],[89.14465,25.99276],[89.13895,25.99141],[89.13434,25.98738],[89.13258,25.98684],[89.12808,25.98848],[89.12582,25.98823],[89.12075,25.99208],[89.11819,25.99773],[89.11563,26.00727],[89.11103,26.01746],[89.10865,26.02037],[89.10784,26.0236],[89.10799,26.02759],[89.10188,26.03481],[89.10238,26.03941],[89.10104,26.04721],[89.09962,26.05281],[89.09798,26.05562],[89.09786,26.05898],[89.0999,26.0714],[89.10128,26.07378],[89.10409,26.07574],[89.10538,26.07812],[89.10016,26.08797],[89.09538,26.09479],[89.0956,26.09916],[89.09866,26.10887],[89.09853,26.11086],[89.09481,26.1131],[89.09525,26.11395],[89.10488,26.11758],[89.10658,26.11937],[89.10703,26.12186],[89.10395,26.13494],[89.10309,26.14495],[89.10144,26.14984],[89.09902,26.15277],[89.0929,26.15665],[89.09171,26.1582],[89.09085,26.15945],[89.09116,26.16382],[89.0905,26.16702],[89.08527,26.17146],[89.08289,26.17234],[89.07603,26.17282],[89.06799,26.16949],[89.05733,26.17735],[89.05515,26.17811],[89.05091,26.17674],[89.04745,26.17717],[89.04144,26.17946],[89.04183,26.18042],[89.04449,26.1817],[89.04406,26.18239],[89.03886,26.18415],[89.03756,26.18564],[89.03608,26.19203],[89.03484,26.19341],[89.02989,26.19563],[89.02835,26.19758],[89.02839,26.20014],[89.03265,26.203],[89.03949,26.20504],[89.04072,26.20695],[89.04112,26.21589],[89.0425,26.21923],[89.04304,26.22509],[89.03994,26.22871],[89.03725,26.23021],[89.02991,26.23234],[89.02719,26.23613],[89.02396,26.23895],[89.02325,26.24208],[89.02405,26.24605]]]}},{"type":"Feature","properties":{"name":"Kaliganj","district_id":"lalmonirhat","pcode":"555239","sql_upazila_id":"lalmonirhat-kaliganj","sql_name_bn":"কালীগঞ্জ"},"geometry":{"type":"Polygon","coordinates":[[[89.28582,26.04848],[89.29184,26.04942],[89.29929,26.04567],[89.30286,26.04698],[89.30463,26.04928],[89.30865,26.0479],[89.31775,26.04082],[89.32264,26.03835],[89.32838,26.03708],[89.33295,26.03241],[89.33497,26.0275],[89.33857,26.02762],[89.342,26.02429],[89.33999,26.01981],[89.34371,26.0191],[89.34665,26.01476],[89.34927,26.01649],[89.35086,26.01625],[89.35214,26.01505],[89.35119,26.01166],[89.35245,26.01051],[89.35915,26.01033],[89.36313,26.00762],[89.37162,26.00925],[89.37535,26.0091],[89.37911,26.01053],[89.38072,26.00943],[89.37614,26.00647],[89.37379,25.99573],[89.3708,25.99285],[89.35289,25.98704],[89.34933,25.98656],[89.3434,25.98788],[89.34093,25.98762],[89.33945,25.98638],[89.33288,25.96448],[89.32801,25.9592],[89.32124,25.9469],[89.317,25.94445],[89.31079,25.9447],[89.30896,25.94399],[89.30877,25.93701],[89.30795,25.93634],[89.30613,25.9354],[89.30086,25.93524],[89.28951,25.93811],[89.2858,25.93623],[89.28503,25.93403],[89.28504,25.91898],[89.28379,25.91601],[89.28317,25.8947],[89.28004,25.8919],[89.2749,25.89064],[89.27221,25.88879],[89.2691,25.8891],[89.26842,25.89009],[89.26885,25.89366],[89.26729,25.89566],[89.26915,25.9075],[89.26725,25.90927],[89.26167,25.91142],[89.2579,25.90867],[89.25657,25.90028],[89.25521,25.89881],[89.25228,25.89868],[89.24956,25.90028],[89.24761,25.90251],[89.24451,25.90379],[89.23969,25.90861],[89.23438,25.91219],[89.23329,25.91528],[89.23316,25.91903],[89.23167,25.9203],[89.22996,25.91958],[89.22722,25.91991],[89.22447,25.92353],[89.22261,25.92441],[89.22201,25.92539],[89.22272,25.92966],[89.21991,25.93266],[89.22058,25.93447],[89.21906,25.93626],[89.21385,25.93686],[89.21023,25.93902],[89.20601,25.94341],[89.20252,25.94437],[89.19099,25.95309],[89.18501,25.95638],[89.17816,25.95486],[89.16673,25.95658],[89.15771,25.96006],[89.12732,25.98299],[89.12582,25.98823],[89.12808,25.98848],[89.13258,25.98684],[89.13434,25.98738],[89.13895,25.99141],[89.14465,25.99276],[89.14541,25.99382],[89.14468,25.99701],[89.14544,25.99848],[89.14814,25.9998],[89.14597,26.00675],[89.14111,26.01202],[89.1423,26.01615],[89.14224,26.01808],[89.14063,26.02138],[89.14095,26.02364],[89.14334,26.02509],[89.16183,26.02321],[89.16655,26.02508],[89.16763,26.02649],[89.16892,26.03204],[89.16679,26.03882],[89.16737,26.04036],[89.17407,26.04435],[89.17646,26.04471],[89.1796,26.044],[89.18035,26.04462],[89.18166,26.04915],[89.18489,26.05064],[89.18535,26.05246],[89.18446,26.05741],[89.19181,26.05636],[89.19674,26.05835],[89.20081,26.05648],[89.20359,26.05702],[89.20593,26.05374],[89.20889,26.05235],[89.21085,26.05358],[89.21419,26.05843],[89.21761,26.05941],[89.22063,26.05869],[89.22224,26.05715],[89.22267,26.05521],[89.22166,26.0501],[89.22397,26.04809],[89.22449,26.04484],[89.22562,26.04369],[89.23389,26.04315],[89.23584,26.04183],[89.24002,26.03798],[89.24395,26.02974],[89.24414,26.02223],[89.24922,26.02001],[89.25372,26.02008],[89.25562,26.01733],[89.26036,26.01995],[89.26064,26.02138],[89.25786,26.0274],[89.25848,26.02978],[89.26109,26.03277],[89.26547,26.03296],[89.26648,26.03215],[89.26918,26.02602],[89.27967,26.02774],[89.28444,26.0246],[89.28529,26.02613],[89.28477,26.02957],[89.28555,26.0306],[89.28764,26.03107],[89.28774,26.03238],[89.28459,26.03459],[89.28375,26.03632],[89.2837,26.04247],[89.28437,26.0444],[89.28582,26.04848]]]}},{"type":"Feature","properties":{"name":"Lalhonirhat S.","district_id":"lalmonirhat","pcode":"555255","sql_upazila_id":null,"sql_name_bn":null},"geometry":{"type":"Polygon","coordinates":[[[89.46146,26.00047],[89.46735,25.998],[89.47834,25.99671],[89.48295,25.99733],[89.48727,25.99551],[89.48849,25.99413],[89.48799,25.99255],[89.48458,25.98873],[89.48091,25.98724],[89.48317,25.98403],[89.48092,25.97928],[89.48162,25.97569],[89.48541,25.96877],[89.48698,25.96419],[89.48823,25.96299],[89.4947,25.96239],[89.49635,25.96305],[89.50166,25.96974],[89.50395,25.9709],[89.50796,25.96987],[89.50436,25.96527],[89.50491,25.96389],[89.50797,25.96181],[89.50299,25.95625],[89.49899,25.95522],[89.49796,25.9533],[89.51127,25.94738],[89.51481,25.9442],[89.51595,25.94083],[89.5153,25.93937],[89.51548,25.93436],[89.52038,25.92997],[89.52146,25.92661],[89.52048,25.9202],[89.52096,25.9182],[89.52357,25.91623],[89.5324,25.91418],[89.5348,25.91028],[89.53425,25.90722],[89.53551,25.90316],[89.5389,25.89914],[89.54597,25.89705],[89.54708,25.89498],[89.54807,25.88951],[89.55019,25.88897],[89.55517,25.88958],[89.5631,25.8864],[89.56142,25.88341],[89.56047,25.87848],[89.56081,25.87177],[89.55888,25.86924],[89.55666,25.86353],[89.55468,25.86146],[89.55168,25.85917],[89.54854,25.85904],[89.54585,25.86033],[89.54166,25.8655],[89.5401,25.86609],[89.53674,25.86455],[89.53342,25.86045],[89.53359,25.84316],[89.53616,25.8346],[89.53188,25.82636],[89.52689,25.82376],[89.52081,25.82538],[89.51886,25.82438],[89.51775,25.82269],[89.51541,25.81334],[89.51366,25.81366],[89.51149,25.81545],[89.50835,25.81538],[89.50373,25.81351],[89.50034,25.8135],[89.4856,25.82405],[89.48006,25.82293],[89.47865,25.8213],[89.4781,25.81812],[89.46916,25.81734],[89.46606,25.81977],[89.46255,25.82032],[89.46,25.81837],[89.45928,25.81656],[89.45976,25.81502],[89.46333,25.81412],[89.46293,25.81213],[89.4582,25.80685],[89.4588,25.80463],[89.46244,25.80015],[89.46304,25.79377],[89.45961,25.79297],[89.45795,25.79128],[89.4539,25.79321],[89.44819,25.79016],[89.44675,25.79023],[89.43321,25.7928],[89.4318,25.79919],[89.42415,25.79997],[89.41721,25.7987],[89.41497,25.79896],[89.41022,25.80107],[89.39291,25.80307],[89.3839,25.80753],[89.37738,25.81326],[89.37442,25.82161],[89.37234,25.82397],[89.36472,25.82484],[89.35622,25.82858],[89.35298,25.83131],[89.3497,25.8374],[89.3429,25.84098],[89.33916,25.84654],[89.34189,25.8574],[89.34389,25.86021],[89.35263,25.86109],[89.35419,25.86277],[89.35088,25.8661],[89.35332,25.87053],[89.35195,25.87639],[89.34977,25.87936],[89.35017,25.88361],[89.35341,25.88288],[89.35596,25.87644],[89.35796,25.87534],[89.38086,25.87459],[89.38262,25.8757],[89.38499,25.88106],[89.3931,25.88288],[89.39474,25.88405],[89.39667,25.88738],[89.394,25.8944],[89.40305,25.89513],[89.40824,25.89852],[89.41727,25.90131],[89.41907,25.90356],[89.41906,25.9072],[89.4201,25.91002],[89.42474,25.91269],[89.42602,25.91467],[89.42576,25.91831],[89.42692,25.91977],[89.43013,25.92024],[89.43116,25.92148],[89.43835,25.9311],[89.44032,25.9362],[89.44154,25.9463],[89.44097,25.95814],[89.43886,25.96351],[89.44203,25.97297],[89.44208,25.98372],[89.4432,25.98705],[89.44518,25.98941],[89.44363,25.99404],[89.44415,25.99568],[89.44613,25.9973],[89.45055,25.99883],[89.45992,26.00028],[89.46146,26.00047]]]}},{"type":"Feature","properties":{"name":"Patgram","district_id":"lalmonirhat","pcode":"555270","sql_upazila_id":"lalmonirhat-patgram","sql_name_bn":"পাটগ্রাম"},"geometry":{"type":"Polygon","coordinates":[[[89.04724,26.40235],[89.04998,26.40278],[89.05855,26.40144],[89.064,26.39814],[89.0678,26.39969],[89.07063,26.39899],[89.07184,26.39902],[89.07286,26.40014],[89.07607,26.39988],[89.07846,26.39906],[89.08133,26.39687],[89.08169,26.39499],[89.08327,26.39474],[89.08537,26.39751],[89.09127,26.39949],[89.09354,26.39923],[89.09351,26.39685],[89.08981,26.39263],[89.09093,26.3921],[89.10093,26.39427],[89.10243,26.39351],[89.10229,26.39164],[89.09713,26.38771],[89.09975,26.38479],[89.09678,26.37897],[89.09681,26.37601],[89.09811,26.37367],[89.09675,26.37067],[89.09376,26.36825],[89.08795,26.36821],[89.08685,26.36612],[89.08766,26.36475],[89.08949,26.36439],[89.09328,26.36537],[89.10013,26.36222],[89.1029,26.36191],[89.10389,26.36036],[89.10332,26.35429],[89.10661,26.34869],[89.10567,26.34358],[89.10713,26.338],[89.10425,26.33303],[89.09975,26.33161],[89.09668,26.32687],[89.09212,26.32584],[89.09022,26.32433],[89.09114,26.32188],[89.10049,26.32354],[89.10471,26.32968],[89.10592,26.3295],[89.10696,26.32596],[89.10884,26.32492],[89.11195,26.32551],[89.11442,26.32747],[89.11713,26.32659],[89.11858,26.32521],[89.1203,26.31975],[89.12202,26.31923],[89.127,26.32086],[89.13042,26.32297],[89.13471,26.32401],[89.13584,26.32326],[89.13457,26.32117],[89.13544,26.31969],[89.13878,26.31965],[89.14131,26.32132],[89.14371,26.32182],[89.14445,26.32078],[89.14463,26.31947],[89.14172,26.31621],[89.14008,26.31578],[89.13876,26.31313],[89.14183,26.3123],[89.1432,26.30996],[89.14194,26.30839],[89.1398,26.30768],[89.13477,26.30779],[89.13408,26.30684],[89.13483,26.30564],[89.13904,26.30372],[89.14053,26.29967],[89.13303,26.2958],[89.13216,26.29041],[89.1305,26.2885],[89.12628,26.28974],[89.1246,26.29282],[89.12225,26.30277],[89.12062,26.3063],[89.11709,26.30861],[89.11553,26.3139],[89.11372,26.31687],[89.11252,26.31699],[89.11156,26.31569],[89.10885,26.30687],[89.1101,26.30493],[89.1151,26.3025],[89.11509,26.3008],[89.11182,26.2964],[89.11502,26.29234],[89.11364,26.29013],[89.11009,26.28875],[89.10843,26.28234],[89.11211,26.2822],[89.11364,26.28298],[89.11351,26.27792],[89.11599,26.2746],[89.12561,26.27057],[89.13206,26.26482],[89.13224,26.2638],[89.12807,26.25488],[89.12831,26.25374],[89.13252,26.25149],[89.13112,26.24598],[89.12861,26.2431],[89.12703,26.2429],[89.12562,26.24586],[89.12109,26.24875],[89.11875,26.25463],[89.11681,26.25635],[89.11111,26.25776],[89.10819,26.25751],[89.10641,26.25184],[89.10309,26.24892],[89.1017,26.24472],[89.10996,26.24248],[89.11153,26.24116],[89.11208,26.23962],[89.1116,26.23791],[89.10956,26.23657],[89.10537,26.2361],[89.10059,26.2374],[89.0985,26.23708],[89.09428,26.23252],[89.0911,26.23534],[89.09003,26.23529],[89.08665,26.23186],[89.08385,26.22092],[89.08418,26.21807],[89.08274,26.21439],[89.07991,26.21431],[89.0743,26.22109],[89.07413,26.22616],[89.07311,26.22919],[89.06503,26.23395],[89.0554,26.23742],[89.05206,26.24087],[89.05183,26.24383],[89.05568,26.24367],[89.05746,26.24502],[89.05654,26.24974],[89.05695,26.25252],[89.06107,26.2582],[89.06359,26.25795],[89.06745,26.25531],[89.0697,26.25533],[89.06856,26.2588],[89.0673,26.27403],[89.06574,26.27621],[89.06173,26.27812],[89.063,26.27959],[89.0686,26.27959],[89.06951,26.28122],[89.06902,26.28361],[89.06584,26.28671],[89.06687,26.28926],[89.0666,26.29289],[89.06516,26.29394],[89.06069,26.29393],[89.05927,26.29582],[89.05589,26.29717],[89.05348,26.29657],[89.05132,26.29325],[89.0508,26.29126],[89.05216,26.28914],[89.05209,26.28756],[89.05051,26.28671],[89.04661,26.28694],[89.04447,26.28498],[89.03895,26.28641],[89.03335,26.28556],[89.03201,26.28865],[89.02837,26.29034],[89.02814,26.29222],[89.02943,26.29527],[89.02928,26.29947],[89.03323,26.30624],[89.03229,26.30784],[89.02689,26.30966],[89.02562,26.3087],[89.02325,26.30306],[89.0256,26.29582],[89.02482,26.29339],[89.02361,26.29238],[89.02128,26.29286],[89.01991,26.29424],[89.01894,26.29885],[89.01587,26.30421],[89.0129,26.30469],[89.01125,26.30386],[89.01051,26.29881],[89.00801,26.29486],[89.0059,26.29329],[89.00211,26.29395],[89.00332,26.30183],[88.99611,26.30292],[88.99189,26.30478],[88.99114,26.30608],[88.9905,26.3124],[88.99217,26.31562],[88.99118,26.31819],[88.99221,26.32022],[88.99366,26.32026],[89.00033,26.31662],[89.00229,26.3166],[89.00337,26.31796],[89.00269,26.31972],[88.99944,26.3231],[89.00002,26.32475],[89.00405,26.32471],[89.00659,26.32661],[89.00763,26.32864],[89.00726,26.33131],[89.00665,26.3328],[89.0037,26.33465],[89.00079,26.33502],[88.99798,26.33749],[88.99367,26.33566],[88.99247,26.33669],[88.98907,26.34366],[88.99048,26.34455],[88.99274,26.34368],[88.99422,26.34167],[88.99593,26.34143],[88.99546,26.34484],[88.99287,26.35095],[88.99143,26.35221],[88.98561,26.35],[88.98173,26.35351],[88.97435,26.35319],[88.97207,26.35219],[88.96919,26.35455],[88.96837,26.35427],[88.96753,26.35225],[88.96888,26.34903],[88.96913,26.34182],[88.96662,26.33719],[88.96786,26.33473],[88.96575,26.33242],[88.9638,26.33267],[88.96207,26.33536],[88.95917,26.33613],[88.95856,26.33807],[88.95869,26.34477],[88.964,26.34562],[88.96464,26.34687],[88.9625,26.34832],[88.95625,26.34673],[88.95403,26.34699],[88.95362,26.34897],[88.95621,26.35627],[88.96415,26.36136],[88.9655,26.36419],[88.96087,26.3677],[88.95677,26.36803],[88.95568,26.36611],[88.9548,26.36038],[88.95184,26.35939],[88.9454,26.36019],[88.93768,26.36294],[88.9352,26.36762],[88.93254,26.36714],[88.92917,26.36365],[88.92638,26.36254],[88.92576,26.36368],[88.92686,26.36663],[88.92663,26.36828],[88.92214,26.36866],[88.91989,26.36994],[88.91773,26.37473],[88.92022,26.3776],[88.92609,26.37857],[88.92801,26.38111],[88.9267,26.38231],[88.9219,26.38185],[88.91592,26.38333],[88.91677,26.38491],[88.92221,26.38776],[88.92482,26.39029],[88.92583,26.39647],[88.9252,26.40443],[88.92403,26.40621],[88.92245,26.40668],[88.91789,26.4049],[88.91644,26.40526],[88.91364,26.40886],[88.91145,26.41025],[88.91127,26.41207],[88.91417,26.41108],[88.92036,26.41237],[88.93095,26.41045],[88.93374,26.41219],[88.93526,26.41371],[88.93701,26.41852],[88.93633,26.41989],[88.93195,26.42289],[88.93143,26.42801],[88.93195,26.42885],[88.93756,26.4292],[88.93922,26.4306],[88.93913,26.43154],[88.93331,26.43339],[88.93295,26.43475],[88.93378,26.43634],[88.94167,26.43552],[88.94646,26.43005],[88.94879,26.42903],[88.95145,26.42917],[88.95285,26.43745],[88.9562,26.4377],[88.95805,26.4395],[88.95594,26.44321],[88.95698,26.44664],[88.9531,26.4508],[88.9533,26.45159],[88.95508,26.45294],[88.95869,26.45364],[88.96073,26.45663],[88.96684,26.45378],[88.97031,26.45432],[88.97052,26.4563],[88.96983,26.45722],[88.96718,26.45736],[88.96457,26.4608],[88.96434,26.46313],[88.96649,26.4635],[88.97002,26.4625],[88.97582,26.45602],[88.98073,26.45438],[88.9831,26.45225],[88.98558,26.45393],[88.98684,26.45352],[88.99003,26.45025],[88.98923,26.44685],[88.99104,26.44359],[88.99045,26.44229],[88.98716,26.44164],[88.98589,26.44006],[88.98637,26.43852],[88.99006,26.43439],[88.98944,26.43008],[88.99611,26.42319],[88.99776,26.42266],[89.0005,26.41996],[89.00336,26.41996],[89.00349,26.41788],[89.0049,26.41713],[89.00603,26.41741],[89.00568,26.41917],[89.00176,26.42512],[89.00196,26.42609],[89.01122,26.42496],[89.0124,26.42279],[89.01303,26.41699],[89.0146,26.4155],[89.02666,26.41724],[89.02892,26.41632],[89.02988,26.41141],[89.03749,26.40866],[89.03832,26.40439],[89.04101,26.40158],[89.04104,26.39792],[89.04472,26.39723],[89.04582,26.39794],[89.04682,26.40214],[89.04724,26.40235]]]}}]}