{"type":"FeatureCollection","features":[{"type":"Feature","properties":{"name":"Kalkini","district_id":"madaripur","pcode":"305440","sql_upazila_id":"madaripur-kalkini","sql_name_bn":"কালকিনি"},"geometry":{"type":"Polygon","coordinates":[[[90.35626,23.14035],[90.35033,23.13205],[90.34921,23.12471],[90.34933,23.11983],[90.35274,23.11456],[90.3525,23.10274],[90.34807,23.09223],[90.34476,23.07678],[90.33913,23.07307],[90.33772,23.07091],[90.33847,23.06871],[90.34272,23.06504],[90.34323,23.0545],[90.32665,23.05564],[90.32098,23.0545],[90.31667,23.0517],[90.31361,23.04618],[90.31175,23.03554],[90.31168,23.03103],[90.31472,23.02621],[90.31858,23.02452],[90.32082,23.02253],[90.32129,23.01932],[90.32412,23.01411],[90.32821,23.00087],[90.33044,22.98962],[90.3259,22.98042],[90.32736,22.9773],[90.32575,22.97523],[90.32223,22.97337],[90.31375,22.9762],[90.30634,22.97752],[90.29027,22.97487],[90.28678,22.97239],[90.28282,22.97271],[90.27909,22.97445],[90.27573,22.97864],[90.2736,22.97755],[90.26567,22.96717],[90.26308,22.96512],[90.25837,22.96317],[90.2561,22.96369],[90.2546,22.96572],[90.25439,22.96961],[90.25893,22.96973],[90.26046,22.97152],[90.26228,22.97451],[90.26033,22.97791],[90.2561,22.97528],[90.25463,22.976],[90.24946,22.97498],[90.24605,22.97512],[90.24321,22.97798],[90.24108,22.97489],[90.24081,22.97181],[90.23889,22.96911],[90.23729,22.96767],[90.23593,22.96793],[90.2323,22.97354],[90.23098,22.9773],[90.23434,22.98019],[90.23194,22.98761],[90.2266,22.98974],[90.22878,22.99922],[90.23329,22.99843],[90.23459,23.00057],[90.236,23.00682],[90.23623,23.00819],[90.23195,23.01046],[90.23077,23.01289],[90.23116,23.02007],[90.23566,23.02151],[90.23445,23.02491],[90.23441,23.02811],[90.23208,23.03119],[90.23286,23.03483],[90.23534,23.03672],[90.23684,23.03948],[90.23704,23.04222],[90.23515,23.04809],[90.22706,23.0541],[90.22569,23.05831],[90.22171,23.06513],[90.21567,23.07116],[90.21343,23.07116],[90.20499,23.06667],[90.20329,23.06128],[90.20021,23.0573],[90.19759,23.05913],[90.1925,23.05679],[90.19184,23.05983],[90.18939,23.06132],[90.18622,23.06082],[90.17986,23.06194],[90.17659,23.06521],[90.17363,23.06596],[90.1691,23.06606],[90.16251,23.06782],[90.15881,23.06636],[90.15557,23.06398],[90.15604,23.05785],[90.15214,23.05377],[90.14283,23.05387],[90.1347,23.04898],[90.13698,23.04716],[90.14184,23.04686],[90.14148,23.04416],[90.14261,23.04313],[90.1394,23.04154],[90.13486,23.0364],[90.12998,23.02299],[90.12347,23.02551],[90.11768,23.03242],[90.11697,23.04437],[90.11401,23.05772],[90.11334,23.06399],[90.11379,23.06714],[90.11504,23.06753],[90.12663,23.06394],[90.13046,23.06579],[90.12789,23.07299],[90.1245,23.0766],[90.12289,23.0765],[90.12168,23.0752],[90.11991,23.07131],[90.11386,23.0727],[90.11048,23.07671],[90.11005,23.07976],[90.11335,23.09046],[90.11189,23.09714],[90.11251,23.09954],[90.11671,23.10689],[90.13269,23.10744],[90.14185,23.1091],[90.14376,23.11356],[90.14234,23.12455],[90.141,23.1279],[90.14467,23.12847],[90.14841,23.13147],[90.15091,23.1296],[90.15766,23.12876],[90.15932,23.13076],[90.15988,23.13356],[90.1625,23.13393],[90.16489,23.14016],[90.16772,23.14201],[90.174,23.13987],[90.17718,23.14006],[90.17907,23.13877],[90.1792,23.13371],[90.18222,23.13305],[90.185,23.13307],[90.19051,23.13949],[90.19246,23.14028],[90.19469,23.13764],[90.19766,23.13716],[90.1956,23.13431],[90.19729,23.1297],[90.19613,23.12535],[90.19801,23.12366],[90.2064,23.12384],[90.20817,23.12226],[90.20849,23.12059],[90.2076,23.11739],[90.2106,23.11815],[90.21307,23.12002],[90.21667,23.12026],[90.21783,23.12145],[90.21929,23.12051],[90.21859,23.11449],[90.221,23.11423],[90.22241,23.11622],[90.22266,23.1188],[90.22485,23.11923],[90.22958,23.11755],[90.23412,23.11779],[90.23788,23.11917],[90.2398,23.12116],[90.23831,23.1257],[90.2384,23.12766],[90.23515,23.13178],[90.23459,23.13391],[90.2361,23.14228],[90.23462,23.15298],[90.23603,23.15474],[90.2389,23.15528],[90.24218,23.15477],[90.24849,23.14665],[90.25245,23.14556],[90.2586,23.14571],[90.26321,23.1515],[90.26482,23.15137],[90.26773,23.14852],[90.26997,23.14854],[90.27104,23.15427],[90.27084,23.15819],[90.27261,23.1597],[90.27714,23.15953],[90.27899,23.16168],[90.28326,23.16381],[90.28462,23.16586],[90.28665,23.16703],[90.29343,23.16792],[90.29327,23.16132],[90.297,23.15156],[90.29987,23.14986],[90.30515,23.15002],[90.30946,23.15116],[90.31174,23.15027],[90.31132,23.14086],[90.31202,23.13918],[90.31956,23.13971],[90.32285,23.1376],[90.32595,23.13997],[90.33041,23.14186],[90.33575,23.14207],[90.34025,23.13828],[90.34423,23.14356],[90.35075,23.14319],[90.35519,23.14438],[90.35657,23.1427],[90.35626,23.14035]]]}},{"type":"Feature","properties":{"name":"Madaripur S.","district_id":"madaripur","pcode":"305454","sql_upazila_id":null,"sql_name_bn":null},"geometry":{"type":"Polygon","coordinates":[[[90.09566,23.28239],[90.1002,23.29302],[90.10079,23.29726],[90.10186,23.29781],[90.11267,23.29728],[90.11536,23.29828],[90.11878,23.30324],[90.12228,23.30147],[90.12655,23.3005],[90.13166,23.30101],[90.13349,23.29972],[90.1377,23.28555],[90.12679,23.27701],[90.12526,23.27255],[90.12637,23.27242],[90.13829,23.27922],[90.14421,23.28012],[90.16067,23.26378],[90.16328,23.26386],[90.16758,23.26932],[90.1716,23.27116],[90.17379,23.26953],[90.17267,23.26403],[90.1736,23.25896],[90.17779,23.25747],[90.18069,23.25899],[90.18187,23.26173],[90.1813,23.26639],[90.18173,23.27138],[90.18558,23.28373],[90.1859,23.29171],[90.18698,23.29278],[90.18891,23.29286],[90.19357,23.29528],[90.20155,23.29375],[90.20264,23.28713],[90.20172,23.27284],[90.20511,23.26883],[90.2075,23.26731],[90.21095,23.26646],[90.21691,23.26627],[90.22655,23.26861],[90.23512,23.26861],[90.23518,23.26317],[90.2386,23.26282],[90.24058,23.26056],[90.2424,23.25628],[90.24432,23.24581],[90.24362,23.23811],[90.24493,23.23581],[90.24691,23.23527],[90.25233,23.23824],[90.25775,23.23615],[90.26199,23.23673],[90.26412,23.2328],[90.27049,23.23627],[90.27254,23.23355],[90.27604,23.22718],[90.2759,23.22161],[90.28025,23.21685],[90.28093,23.21391],[90.27975,23.20428],[90.28801,23.19923],[90.28915,23.19766],[90.28946,23.19513],[90.28764,23.19194],[90.28831,23.18636],[90.2889,23.18285],[90.29191,23.17862],[90.29194,23.17529],[90.29388,23.17084],[90.29343,23.16792],[90.28665,23.16703],[90.28462,23.16586],[90.28326,23.16381],[90.27899,23.16168],[90.27714,23.15953],[90.27261,23.1597],[90.27084,23.15819],[90.27104,23.15427],[90.26997,23.14854],[90.26773,23.14852],[90.26482,23.15137],[90.26321,23.1515],[90.2586,23.14571],[90.25245,23.14556],[90.24849,23.14665],[90.24218,23.15477],[90.2389,23.15528],[90.23603,23.15474],[90.23462,23.15298],[90.2361,23.14228],[90.23459,23.13391],[90.23515,23.13178],[90.2384,23.12766],[90.23831,23.1257],[90.2398,23.12116],[90.23788,23.11917],[90.23412,23.11779],[90.22958,23.11755],[90.22485,23.11923],[90.22266,23.1188],[90.22241,23.11622],[90.221,23.11423],[90.21859,23.11449],[90.21929,23.12051],[90.21783,23.12145],[90.21667,23.12026],[90.21307,23.12002],[90.2106,23.11815],[90.2076,23.11739],[90.20849,23.12059],[90.20817,23.12226],[90.2064,23.12384],[90.19801,23.12366],[90.19613,23.12535],[90.19729,23.1297],[90.1956,23.13431],[90.19766,23.13716],[90.19469,23.13764],[90.19246,23.14028],[90.19051,23.13949],[90.185,23.13307],[90.18222,23.13305],[90.1792,23.13371],[90.17907,23.13877],[90.17718,23.14006],[90.174,23.13987],[90.16772,23.14201],[90.16489,23.14016],[90.1625,23.13393],[90.15988,23.13356],[90.15932,23.13076],[90.15766,23.12876],[90.15091,23.1296],[90.14841,23.13147],[90.14467,23.12847],[90.141,23.1279],[90.14234,23.12455],[90.14376,23.11356],[90.14185,23.1091],[90.13269,23.10744],[90.11671,23.10689],[90.11771,23.10923],[90.11655,23.11051],[90.11211,23.11108],[90.11084,23.11271],[90.11183,23.11539],[90.10979,23.11571],[90.09286,23.11114],[90.08411,23.1108],[90.08344,23.11184],[90.08353,23.11511],[90.08699,23.12288],[90.08495,23.12577],[90.08561,23.13283],[90.08719,23.1339],[90.08875,23.1395],[90.09122,23.14143],[90.09421,23.14208],[90.09836,23.14427],[90.10173,23.14687],[90.1012,23.15124],[90.10157,23.15416],[90.10273,23.15587],[90.10722,23.15644],[90.10782,23.15917],[90.11301,23.16005],[90.11355,23.16148],[90.11237,23.16689],[90.11073,23.16822],[90.09972,23.17066],[90.09717,23.17265],[90.09258,23.17856],[90.09302,23.18114],[90.0981,23.18584],[90.09835,23.19118],[90.09972,23.19369],[90.09914,23.19564],[90.09995,23.20103],[90.0995,23.2058],[90.09551,23.21573],[90.09497,23.21889],[90.09589,23.22135],[90.10135,23.22611],[90.10681,23.22604],[90.10934,23.22762],[90.10962,23.22905],[90.11327,23.23101],[90.10966,23.23611],[90.10795,23.23722],[90.10578,23.23736],[90.10111,23.23455],[90.09676,23.23426],[90.09341,23.23476],[90.09184,23.23644],[90.09203,23.24207],[90.09383,23.25008],[90.0977,23.25314],[90.09963,23.25599],[90.10021,23.25948],[90.09959,23.2623],[90.09379,23.26639],[90.09016,23.27046],[90.08899,23.27374],[90.09716,23.27502],[90.09845,23.27702],[90.09566,23.28239]]]}},{"type":"Feature","properties":{"name":"Rajoir","district_id":"madaripur","pcode":"305480","sql_upazila_id":"madaripur-rajoir","sql_name_bn":"রাজৈর"},"geometry":{"type":"Polygon","coordinates":[[[90.08171,23.30806],[90.08518,23.29951],[90.08963,23.29337],[90.08782,23.28484],[90.09566,23.28239],[90.09845,23.27702],[90.09716,23.27502],[90.08899,23.27374],[90.09016,23.27046],[90.09379,23.26639],[90.09959,23.2623],[90.10021,23.25948],[90.09963,23.25599],[90.0977,23.25314],[90.09383,23.25008],[90.09203,23.24207],[90.09184,23.23644],[90.09341,23.23476],[90.09676,23.23426],[90.10111,23.23455],[90.10578,23.23736],[90.10795,23.23722],[90.10966,23.23611],[90.11327,23.23101],[90.10962,23.22905],[90.10934,23.22762],[90.10681,23.22604],[90.10135,23.22611],[90.09589,23.22135],[90.09497,23.21889],[90.09551,23.21573],[90.0995,23.2058],[90.09995,23.20103],[90.09914,23.19564],[90.09972,23.19369],[90.09835,23.19118],[90.0981,23.18584],[90.09302,23.18114],[90.09258,23.17856],[90.09717,23.17265],[90.09972,23.17066],[90.11073,23.16822],[90.11237,23.16689],[90.1133,23.16452],[90.11301,23.16005],[90.10782,23.15917],[90.10722,23.15644],[90.10273,23.15587],[90.10157,23.15416],[90.1012,23.15124],[90.10173,23.14687],[90.09836,23.14427],[90.09421,23.14208],[90.09122,23.14143],[90.08875,23.1395],[90.08719,23.1339],[90.08561,23.13283],[90.08495,23.12577],[90.08008,23.11951],[90.07612,23.11727],[90.06515,23.11786],[90.06251,23.11399],[90.0555,23.10873],[90.05436,23.10513],[90.05173,23.1043],[90.04677,23.1043],[90.04494,23.1053],[90.04387,23.10772],[90.04467,23.11311],[90.04816,23.11898],[90.03874,23.12242],[90.0199,23.12643],[90.0198,23.13264],[90.01366,23.13598],[90.01147,23.13531],[90.0054,23.13028],[90.00258,23.12928],[89.99471,23.12971],[89.9902,23.11168],[89.98763,23.10769],[89.98142,23.10793],[89.97096,23.10673],[89.96415,23.11255],[89.95929,23.11192],[89.95733,23.11297],[89.95581,23.11156],[89.93811,23.11416],[89.93942,23.12006],[89.94349,23.12404],[89.94323,23.12938],[89.94517,23.13544],[89.94276,23.13892],[89.94565,23.14307],[89.94672,23.14916],[89.94585,23.15237],[89.94689,23.15414],[89.95033,23.15479],[89.95166,23.15925],[89.96239,23.15832],[89.96568,23.15881],[89.96683,23.15983],[89.96859,23.1636],[89.96972,23.16967],[89.97181,23.17154],[89.97418,23.1776],[89.97909,23.18013],[89.97701,23.18469],[89.97903,23.19121],[89.98454,23.19626],[89.98421,23.20637],[89.98837,23.21172],[89.987,23.21426],[89.99407,23.2163],[90.00033,23.21566],[90.00233,23.21655],[90.00546,23.22226],[90.01585,23.23144],[90.01899,23.23272],[90.02195,23.23182],[90.02469,23.2326],[90.02643,23.23476],[90.02727,23.23894],[90.0267,23.24383],[90.0303,23.24608],[90.02988,23.24982],[90.02674,23.25365],[90.02773,23.25587],[90.03395,23.2617],[90.03495,23.26457],[90.03124,23.26571],[90.03051,23.26939],[90.02891,23.27211],[90.02535,23.27439],[90.02806,23.28131],[90.02684,23.28752],[90.02888,23.30599],[90.03019,23.3089],[90.03614,23.31618],[90.03868,23.32074],[90.03919,23.32447],[90.03854,23.33143],[90.03477,23.34043],[90.03601,23.34294],[90.04081,23.34334],[90.04339,23.34176],[90.04964,23.33554],[90.06281,23.32156],[90.06955,23.30861],[90.07262,23.30713],[90.07592,23.30755],[90.07851,23.30924],[90.08056,23.30927],[90.08171,23.30806]]]}},{"type":"Feature","properties":{"name":"Shibchar","district_id":"madaripur","pcode":"305487","sql_upazila_id":"madaripur-shibchar","sql_name_bn":"শিবচর"},"geometry":{"type":"Polygon","coordinates":[[[90.26232,23.46293],[90.25426,23.45556],[90.24613,23.44642],[90.24083,23.4384],[90.2411,23.43472],[90.24533,23.42932],[90.24532,23.42146],[90.24303,23.41936],[90.23406,23.41661],[90.2326,23.41531],[90.21941,23.41301],[90.21919,23.40911],[90.21655,23.40776],[90.21449,23.40515],[90.21198,23.40443],[90.21033,23.40291],[90.20929,23.39867],[90.21245,23.39053],[90.2148,23.3874],[90.21475,23.38551],[90.21208,23.38319],[90.20271,23.37912],[90.20157,23.37551],[90.20147,23.37173],[90.20255,23.36735],[90.20457,23.36336],[90.20655,23.36086],[90.20901,23.35974],[90.2131,23.35372],[90.21403,23.34583],[90.22208,23.33717],[90.22608,23.33465],[90.23257,23.32882],[90.23596,23.32757],[90.2404,23.33108],[90.24229,23.32973],[90.24599,23.32084],[90.24586,23.31056],[90.24837,23.30915],[90.24717,23.3056],[90.24289,23.30089],[90.24297,23.29165],[90.23969,23.28957],[90.23875,23.28711],[90.23512,23.26861],[90.22655,23.26861],[90.21691,23.26627],[90.21095,23.26646],[90.2075,23.26731],[90.20511,23.26883],[90.20172,23.27284],[90.20264,23.28713],[90.20155,23.29375],[90.19357,23.29528],[90.18891,23.29286],[90.18698,23.29278],[90.1859,23.29171],[90.18558,23.28373],[90.18173,23.27138],[90.1813,23.26639],[90.18187,23.26173],[90.18069,23.25899],[90.17779,23.25747],[90.1736,23.25896],[90.17267,23.26403],[90.17379,23.26953],[90.1716,23.27116],[90.16758,23.26932],[90.16328,23.26386],[90.16067,23.26378],[90.14421,23.28012],[90.13829,23.27922],[90.12637,23.27242],[90.12526,23.27255],[90.12679,23.27701],[90.1377,23.28555],[90.13779,23.28676],[90.13519,23.29269],[90.13349,23.29972],[90.13166,23.30101],[90.12655,23.3005],[90.12228,23.30147],[90.11878,23.30324],[90.11536,23.29828],[90.11267,23.29728],[90.10186,23.29781],[90.10079,23.29726],[90.1002,23.29302],[90.09566,23.28239],[90.0883,23.2842],[90.08782,23.28484],[90.08963,23.29337],[90.08518,23.29951],[90.08171,23.30806],[90.08791,23.30729],[90.09175,23.30914],[90.09418,23.31192],[90.09665,23.31907],[90.09586,23.32782],[90.09759,23.33003],[90.10009,23.33068],[90.10196,23.33336],[90.10402,23.3338],[90.10579,23.33544],[90.10577,23.33669],[90.10296,23.34133],[90.10352,23.34408],[90.10268,23.34541],[90.09834,23.34615],[90.09726,23.35023],[90.09431,23.35189],[90.08984,23.35183],[90.08932,23.3539],[90.08994,23.35653],[90.09286,23.36144],[90.09364,23.37366],[90.09924,23.38152],[90.10503,23.38673],[90.10487,23.38799],[90.10042,23.3919],[90.10135,23.40722],[90.10311,23.41075],[90.1122,23.41684],[90.11353,23.41976],[90.10941,23.42165],[90.10406,23.422],[90.09719,23.42122],[90.09636,23.42255],[90.10071,23.42721],[90.11376,23.43744],[90.11409,23.44077],[90.10947,23.44812],[90.10938,23.45201],[90.11433,23.46402],[90.11619,23.46612],[90.12197,23.46582],[90.12987,23.46779],[90.13999,23.47474],[90.14545,23.4819],[90.14745,23.48153],[90.15143,23.47906],[90.15274,23.47675],[90.15611,23.47447],[90.15942,23.47454],[90.16328,23.47725],[90.16509,23.48033],[90.16842,23.49378],[90.17028,23.49658],[90.1735,23.4982],[90.17573,23.49753],[90.17822,23.49796],[90.18157,23.4997],[90.18773,23.50693],[90.19453,23.50545],[90.19787,23.50391],[90.19914,23.50239],[90.20137,23.49451],[90.20558,23.49106],[90.20341,23.48604],[90.20338,23.48277],[90.20512,23.47499],[90.20655,23.4725],[90.21388,23.47418],[90.21606,23.47393],[90.21888,23.46976],[90.22172,23.46863],[90.22866,23.46997],[90.23133,23.46971],[90.23346,23.46773],[90.23841,23.45882],[90.24169,23.45803],[90.24291,23.46238],[90.24709,23.4649],[90.24834,23.46782],[90.25389,23.46763],[90.26302,23.4635],[90.26232,23.46293]]]}}]}