{"type":"FeatureCollection","features":[{"type":"Feature","properties":{"name":"Magura S.","district_id":"magura","pcode":"405557","sql_upazila_id":null,"sql_name_bn":null},"geometry":{"type":"Polygon","coordinates":[[[89.32515,23.55989],[89.33224,23.56272],[89.33875,23.56413],[89.34119,23.55964],[89.35567,23.55556],[89.35828,23.55615],[89.3608,23.55881],[89.36359,23.55911],[89.37402,23.55379],[89.38229,23.55304],[89.38543,23.55578],[89.38851,23.55006],[89.39746,23.55293],[89.40109,23.55251],[89.41051,23.54867],[89.41485,23.54359],[89.41785,23.53432],[89.42478,23.53251],[89.4269,23.53009],[89.43974,23.52778],[89.44926,23.53424],[89.45219,23.53521],[89.46332,23.52764],[89.46403,23.52641],[89.46365,23.52339],[89.46447,23.5213],[89.45691,23.51134],[89.45758,23.50828],[89.45992,23.5083],[89.464,23.51107],[89.47037,23.52228],[89.47217,23.5233],[89.48253,23.5177],[89.48562,23.5177],[89.48799,23.51899],[89.49396,23.52597],[89.49667,23.52639],[89.50798,23.51875],[89.49854,23.51355],[89.49358,23.50979],[89.48935,23.49976],[89.49114,23.497],[89.48997,23.48617],[89.49063,23.47996],[89.4938,23.47028],[89.49671,23.46782],[89.50711,23.46663],[89.51034,23.4649],[89.51156,23.46154],[89.5083,23.45657],[89.50066,23.45148],[89.49487,23.44391],[89.49128,23.43758],[89.49254,23.43587],[89.49793,23.43458],[89.49918,23.43275],[89.49816,23.43113],[89.49199,23.43079],[89.49005,23.42966],[89.49325,23.4209],[89.49323,23.41684],[89.49181,23.41214],[89.49203,23.41047],[89.5029,23.40862],[89.50276,23.40532],[89.50053,23.40185],[89.50059,23.39922],[89.50488,23.39304],[89.50481,23.38944],[89.50596,23.38585],[89.50801,23.38405],[89.51491,23.38362],[89.51984,23.37542],[89.52435,23.37084],[89.52377,23.3692],[89.51571,23.35915],[89.51439,23.35536],[89.51502,23.35076],[89.51717,23.34472],[89.51801,23.33817],[89.51665,23.33301],[89.51493,23.32981],[89.51318,23.32931],[89.5027,23.33446],[89.50102,23.33383],[89.49836,23.33038],[89.49724,23.32699],[89.49915,23.31599],[89.49895,23.31336],[89.49651,23.31122],[89.49249,23.31023],[89.48766,23.31247],[89.48619,23.31539],[89.48435,23.31563],[89.48157,23.31304],[89.47565,23.3151],[89.4731,23.31119],[89.46948,23.30915],[89.46832,23.30679],[89.46531,23.3045],[89.46185,23.30366],[89.45177,23.30483],[89.45052,23.30935],[89.45103,23.31305],[89.44928,23.31769],[89.45002,23.3203],[89.45409,23.32066],[89.45083,23.32925],[89.44882,23.32957],[89.44569,23.32795],[89.44182,23.32833],[89.44032,23.33056],[89.43339,23.33471],[89.42767,23.34065],[89.42197,23.34471],[89.42178,23.34716],[89.42371,23.35419],[89.42216,23.35619],[89.41418,23.35523],[89.41105,23.35832],[89.40527,23.35882],[89.40231,23.3618],[89.40031,23.36628],[89.3962,23.36974],[89.39856,23.37642],[89.39909,23.38058],[89.3973,23.38659],[89.39537,23.38833],[89.39315,23.38835],[89.39207,23.38656],[89.39249,23.38374],[89.39139,23.38092],[89.3868,23.37702],[89.38084,23.37775],[89.37886,23.37743],[89.37682,23.37459],[89.37128,23.37479],[89.36797,23.37818],[89.36822,23.38418],[89.36723,23.38702],[89.36354,23.39014],[89.35938,23.39114],[89.35715,23.39397],[89.35496,23.40373],[89.3532,23.40527],[89.34373,23.40648],[89.34081,23.40814],[89.33295,23.40969],[89.33052,23.41155],[89.32874,23.41436],[89.32861,23.42295],[89.32549,23.42707],[89.31757,23.42622],[89.30562,23.43512],[89.29597,23.43084],[89.29512,23.43173],[89.29755,23.43541],[89.29538,23.43801],[89.28931,23.43955],[89.29529,23.4426],[89.29922,23.44766],[89.30207,23.44853],[89.30058,23.45122],[89.30245,23.45212],[89.3062,23.45113],[89.30647,23.46131],[89.30902,23.46804],[89.30939,23.48312],[89.30586,23.49098],[89.30264,23.49344],[89.30283,23.49601],[89.31,23.49678],[89.31248,23.50059],[89.31116,23.50556],[89.30883,23.50581],[89.3056,23.50759],[89.30962,23.51357],[89.30795,23.51695],[89.30511,23.51969],[89.30562,23.52654],[89.30831,23.5308],[89.3086,23.53313],[89.31589,23.53927],[89.31576,23.54781],[89.32028,23.55165],[89.32251,23.55483],[89.32515,23.55989]]]}},{"type":"Feature","properties":{"name":"Mohammadpur","district_id":"magura","pcode":"405566","sql_upazila_id":"magura-mohammadpur","sql_name_bn":"মহম্মদপুর"},"geometry":{"type":"Polygon","coordinates":[[[89.60699,23.4587],[89.60475,23.43531],[89.60621,23.41574],[89.60964,23.40187],[89.61945,23.38351],[89.61834,23.38109],[89.61578,23.3793],[89.61197,23.38031],[89.60785,23.38305],[89.60278,23.38502],[89.59785,23.38532],[89.59438,23.3843],[89.5939,23.38232],[89.59451,23.37949],[89.59909,23.37165],[89.60031,23.36656],[89.60178,23.35557],[89.60044,23.34309],[89.60124,23.33791],[89.60841,23.32538],[89.61276,23.30907],[89.6166,23.30474],[89.62962,23.29783],[89.63697,23.28816],[89.63283,23.28752],[89.62621,23.29132],[89.62211,23.29532],[89.61652,23.2957],[89.61292,23.29716],[89.61161,23.29928],[89.60516,23.30267],[89.60332,23.30577],[89.60488,23.3092],[89.60008,23.31214],[89.5946,23.30971],[89.59141,23.30995],[89.58855,23.31183],[89.57784,23.31448],[89.5759,23.31089],[89.57262,23.30964],[89.56878,23.30905],[89.5618,23.31097],[89.55865,23.30274],[89.5552,23.29989],[89.55041,23.30013],[89.5468,23.29941],[89.54391,23.2962],[89.5366,23.29436],[89.53457,23.29186],[89.53255,23.28702],[89.52969,23.28581],[89.52824,23.27911],[89.52179,23.27151],[89.51945,23.27172],[89.51733,23.27329],[89.51527,23.2772],[89.51086,23.28091],[89.50436,23.28242],[89.5007,23.2841],[89.49902,23.28881],[89.49249,23.28825],[89.49026,23.29098],[89.48729,23.29022],[89.48283,23.29193],[89.48521,23.30232],[89.48737,23.30509],[89.48776,23.30875],[89.49651,23.31122],[89.49895,23.31336],[89.49915,23.31599],[89.49724,23.32699],[89.49836,23.33038],[89.50102,23.33383],[89.5027,23.33446],[89.51318,23.32931],[89.51493,23.32981],[89.51665,23.33301],[89.51801,23.33817],[89.51717,23.34472],[89.51502,23.35076],[89.51439,23.35536],[89.51571,23.35915],[89.52377,23.3692],[89.52435,23.37084],[89.51984,23.37542],[89.51491,23.38362],[89.50801,23.38405],[89.50596,23.38585],[89.50481,23.38944],[89.50488,23.39304],[89.50059,23.39922],[89.50053,23.40185],[89.50276,23.40532],[89.5029,23.40862],[89.49203,23.41047],[89.49325,23.4209],[89.49005,23.42966],[89.49199,23.43079],[89.49816,23.43113],[89.49918,23.43275],[89.49793,23.43458],[89.49254,23.43587],[89.49128,23.43758],[89.49487,23.44391],[89.50066,23.45148],[89.5083,23.45657],[89.51156,23.46154],[89.51034,23.4649],[89.50711,23.46663],[89.49671,23.46782],[89.4938,23.47028],[89.49181,23.47476],[89.48997,23.48617],[89.49114,23.497],[89.49711,23.49649],[89.50095,23.49749],[89.51592,23.50459],[89.52251,23.50658],[89.52783,23.507],[89.53218,23.50581],[89.54131,23.50266],[89.54581,23.49985],[89.55102,23.49845],[89.56304,23.49284],[89.56815,23.4895],[89.57682,23.48596],[89.59938,23.47187],[89.60684,23.4638],[89.60719,23.46001],[89.60699,23.4587]]]}},{"type":"Feature","properties":{"name":"Shalikha","district_id":"magura","pcode":"405585","sql_upazila_id":"magura-shalikha","sql_name_bn":"শালিখা"},"geometry":{"type":"Polygon","coordinates":[[[89.28931,23.43955],[89.29538,23.43801],[89.29755,23.43541],[89.29512,23.43173],[89.29597,23.43084],[89.30562,23.43512],[89.31757,23.42622],[89.32549,23.42707],[89.32861,23.42295],[89.32874,23.41436],[89.33052,23.41155],[89.33295,23.40969],[89.34081,23.40814],[89.34373,23.40648],[89.3532,23.40527],[89.35496,23.40373],[89.35715,23.39397],[89.35938,23.39114],[89.36354,23.39014],[89.36723,23.38702],[89.36822,23.38418],[89.36797,23.37818],[89.37128,23.37479],[89.37682,23.37459],[89.37886,23.37743],[89.38084,23.37775],[89.3868,23.37702],[89.39139,23.38092],[89.39249,23.38374],[89.39207,23.38656],[89.39315,23.38835],[89.39537,23.38833],[89.3973,23.38659],[89.39909,23.38058],[89.39856,23.37642],[89.3962,23.36974],[89.40031,23.36628],[89.40231,23.3618],[89.40527,23.35882],[89.41105,23.35832],[89.41418,23.35523],[89.42216,23.35619],[89.42371,23.35419],[89.42178,23.34716],[89.42197,23.34471],[89.42767,23.34065],[89.43339,23.33471],[89.44032,23.33056],[89.44182,23.32833],[89.44569,23.32795],[89.44882,23.32957],[89.45083,23.32925],[89.45409,23.32066],[89.45002,23.3203],[89.44928,23.31769],[89.45103,23.31305],[89.45052,23.30935],[89.45177,23.30483],[89.46185,23.30366],[89.46531,23.3045],[89.46832,23.30679],[89.46948,23.30915],[89.4731,23.31119],[89.47565,23.3151],[89.48157,23.31304],[89.48435,23.31563],[89.48619,23.31539],[89.48766,23.31247],[89.49249,23.31023],[89.48776,23.30875],[89.48737,23.30509],[89.48521,23.30232],[89.48283,23.29193],[89.48101,23.29046],[89.47952,23.27849],[89.47203,23.27975],[89.46906,23.27952],[89.46631,23.27727],[89.4634,23.27401],[89.46083,23.26912],[89.46095,23.26026],[89.45895,23.25935],[89.45785,23.25693],[89.45479,23.25716],[89.45442,23.25231],[89.45219,23.25187],[89.44778,23.25256],[89.43899,23.25042],[89.43508,23.252],[89.4269,23.25242],[89.42163,23.25891],[89.41709,23.26257],[89.41351,23.26242],[89.41027,23.2634],[89.40929,23.26624],[89.40257,23.26861],[89.39425,23.27681],[89.38401,23.282],[89.37558,23.28472],[89.37147,23.29712],[89.36894,23.29727],[89.36466,23.29262],[89.36117,23.29091],[89.35208,23.28352],[89.3474,23.281],[89.34438,23.28077],[89.34356,23.2824],[89.34466,23.28786],[89.33965,23.29846],[89.33672,23.30001],[89.32689,23.29519],[89.32494,23.29596],[89.32528,23.30625],[89.3242,23.31076],[89.32143,23.314],[89.32041,23.31805],[89.31763,23.3205],[89.3156,23.32051],[89.31214,23.31703],[89.30825,23.31683],[89.30317,23.32394],[89.30129,23.32848],[89.29523,23.3303],[89.29042,23.33316],[89.28621,23.3379],[89.28608,23.34672],[89.28312,23.34619],[89.27863,23.35025],[89.27558,23.35436],[89.27541,23.35826],[89.27886,23.36117],[89.27705,23.36301],[89.27191,23.36474],[89.26778,23.36741],[89.25995,23.36752],[89.25658,23.37102],[89.25352,23.37245],[89.24877,23.37256],[89.24876,23.37473],[89.25167,23.37789],[89.25333,23.38155],[89.25046,23.38854],[89.2557,23.39149],[89.25605,23.39347],[89.25298,23.39656],[89.2532,23.39907],[89.25548,23.40162],[89.26199,23.40334],[89.26468,23.40536],[89.26001,23.40913],[89.26024,23.41135],[89.27488,23.42467],[89.26856,23.42565],[89.2672,23.42908],[89.26013,23.43019],[89.2599,23.43661],[89.26194,23.43728],[89.2692,23.4361],[89.27539,23.43176],[89.28181,23.43507],[89.28337,23.43301],[89.28474,23.43348],[89.28931,23.43955]]]}},{"type":"Feature","properties":{"name":"Sreepur","district_id":"magura","pcode":"405595","sql_upazila_id":"magura-sreepur","sql_name_bn":"শ্রীপুর"},"geometry":{"type":"Polygon","coordinates":[[[89.37877,23.6597],[89.38284,23.66167],[89.38732,23.6662],[89.40209,23.67476],[89.40686,23.67544],[89.4118,23.67508],[89.41539,23.67249],[89.42096,23.66473],[89.44086,23.6507],[89.44167,23.64852],[89.43934,23.64436],[89.43874,23.64115],[89.44141,23.6374],[89.44393,23.63537],[89.44921,23.63447],[89.46448,23.63395],[89.47023,23.63138],[89.48438,23.62799],[89.48709,23.62642],[89.49028,23.62346],[89.49184,23.62035],[89.49239,23.61322],[89.49007,23.60934],[89.4761,23.59883],[89.47309,23.5942],[89.47419,23.59252],[89.49006,23.58826],[89.49383,23.58329],[89.50307,23.57443],[89.50552,23.56569],[89.50614,23.55224],[89.50812,23.54786],[89.51061,23.54468],[89.51502,23.54086],[89.51891,23.53899],[89.53518,23.53627],[89.53716,23.53499],[89.53811,23.53286],[89.53769,23.53062],[89.53416,23.52824],[89.51955,23.52635],[89.50496,23.52099],[89.4993,23.5252],[89.49667,23.52639],[89.49396,23.52597],[89.48799,23.51899],[89.48562,23.5177],[89.48253,23.5177],[89.47217,23.5233],[89.47037,23.52228],[89.464,23.51107],[89.45992,23.5083],[89.45758,23.50828],[89.45691,23.51134],[89.46447,23.5213],[89.46365,23.52339],[89.46403,23.52641],[89.46332,23.52764],[89.45219,23.53521],[89.44926,23.53424],[89.43974,23.52778],[89.4269,23.53009],[89.42478,23.53251],[89.41785,23.53432],[89.41485,23.54359],[89.41051,23.54867],[89.40109,23.55251],[89.39746,23.55293],[89.38851,23.55006],[89.38543,23.55578],[89.38229,23.55304],[89.37631,23.55354],[89.37402,23.55379],[89.36359,23.55911],[89.3608,23.55881],[89.35828,23.55615],[89.35567,23.55556],[89.34119,23.55964],[89.33875,23.56413],[89.3439,23.57088],[89.34676,23.58062],[89.34187,23.58315],[89.34721,23.59274],[89.34895,23.60527],[89.35137,23.60856],[89.35458,23.61119],[89.35835,23.62839],[89.35767,23.63134],[89.35972,23.6351],[89.36152,23.64127],[89.36414,23.64227],[89.36707,23.64095],[89.36768,23.64614],[89.37132,23.64893],[89.3735,23.65285],[89.37877,23.6597]]]}}]}