{"type":"FeatureCollection","features":[{"type":"Feature","properties":{"name":"Daulatpur","district_id":"manikganj","pcode":"305610","sql_upazila_id":null,"sql_name_bn":null},"geometry":{"type":"Polygon","coordinates":[[[89.73227,24.01638],[89.74625,24.02655],[89.74978,24.02597],[89.75275,24.02762],[89.76297,24.02547],[89.76708,24.02585],[89.77185,24.02724],[89.77899,24.0307],[89.78289,24.02705],[89.78296,24.01999],[89.77593,23.99382],[89.77359,23.99005],[89.77384,23.98534],[89.77273,23.98317],[89.76447,23.97951],[89.76254,23.97769],[89.76254,23.97528],[89.76981,23.97137],[89.77497,23.97328],[89.7815,23.98223],[89.78329,23.984],[89.78625,23.985],[89.7882,23.98326],[89.78842,23.97965],[89.78973,23.977],[89.79177,23.97618],[89.79783,23.97698],[89.79992,23.97507],[89.80088,23.97133],[89.80233,23.96954],[89.80637,23.9691],[89.80808,23.97001],[89.80863,23.97442],[89.81163,23.97457],[89.81306,23.97696],[89.81643,23.97923],[89.82468,23.97514],[89.83083,23.97365],[89.83533,23.96678],[89.83825,23.96411],[89.84215,23.96758],[89.84428,23.9679],[89.84631,23.96691],[89.84644,23.96249],[89.84784,23.96104],[89.8546,23.96161],[89.86232,23.9636],[89.86391,23.96491],[89.86439,23.96835],[89.86211,23.97222],[89.86568,23.97741],[89.86523,23.97942],[89.86264,23.98065],[89.86082,23.98279],[89.86145,23.98514],[89.86844,23.98754],[89.87086,23.98953],[89.87249,23.98986],[89.87471,23.98898],[89.87534,23.98696],[89.8746,23.98444],[89.87246,23.98153],[89.8765,23.97834],[89.8743,23.97319],[89.87539,23.96928],[89.8778,23.96622],[89.8918,23.96477],[89.89112,23.96741],[89.88584,23.97073],[89.88454,23.97339],[89.88539,23.97505],[89.88802,23.97553],[89.89014,23.97758],[89.89,23.98],[89.89994,23.98237],[89.90204,23.9909],[89.90385,23.99134],[89.90754,23.9889],[89.9107,23.98806],[89.91437,23.99228],[89.91998,23.99558],[89.92706,23.99271],[89.92472,23.98875],[89.92474,23.98709],[89.92646,23.98615],[89.92873,23.98712],[89.9304,23.98692],[89.93281,23.98195],[89.93484,23.98036],[89.94051,23.98099],[89.94244,23.98306],[89.94379,23.98738],[89.9521,23.98874],[89.95445,23.98812],[89.95564,23.98592],[89.9549,23.98377],[89.95177,23.98069],[89.95182,23.97263],[89.94966,23.96586],[89.94909,23.95816],[89.94651,23.95461],[89.94672,23.95089],[89.94873,23.94902],[89.95208,23.94838],[89.95251,23.94602],[89.95063,23.94263],[89.95081,23.93743],[89.94957,23.93545],[89.94601,23.93255],[89.93768,23.93268],[89.93268,23.93633],[89.93105,23.93572],[89.92722,23.93192],[89.92465,23.93152],[89.92168,23.93193],[89.91431,23.93603],[89.9097,23.93555],[89.90631,23.93677],[89.90474,23.93869],[89.8979,23.93889],[89.89124,23.94394],[89.88784,23.9447],[89.87466,23.94481],[89.8727,23.94376],[89.86895,23.93801],[89.86712,23.93696],[89.86583,23.93801],[89.86491,23.94061],[89.86251,23.94174],[89.86034,23.94201],[89.85403,23.94066],[89.85127,23.93528],[89.84923,23.93321],[89.84355,23.92991],[89.84273,23.92637],[89.84322,23.91618],[89.8407,23.91469],[89.83974,23.91082],[89.84109,23.90971],[89.84357,23.90971],[89.84542,23.90682],[89.84426,23.90501],[89.83697,23.89927],[89.8339,23.89836],[89.83066,23.89826],[89.82391,23.90154],[89.82416,23.9044],[89.82295,23.90591],[89.81185,23.90995],[89.80768,23.90959],[89.80078,23.90487],[89.79166,23.90569],[89.78774,23.90308],[89.78552,23.90404],[89.79186,23.9118],[89.79123,23.91364],[89.78523,23.91268],[89.78448,23.90983],[89.78279,23.90941],[89.77856,23.9119],[89.77464,23.90637],[89.77248,23.9047],[89.7687,23.90523],[89.76155,23.90807],[89.75036,23.908],[89.74417,23.9095],[89.7365,23.90839],[89.72983,23.91121],[89.71257,23.91184],[89.70628,23.9139],[89.70589,23.92134],[89.70463,23.92589],[89.70148,23.92732],[89.69668,23.92644],[89.69364,23.92719],[89.69197,23.93014],[89.69353,23.93577],[89.69307,23.94012],[89.69364,23.94325],[89.69843,23.94871],[89.69806,23.96735],[89.70055,23.99411],[89.71061,24.00417],[89.72689,24.01361],[89.73227,24.01638]]]}},{"type":"Feature","properties":{"name":"Ghior","district_id":"manikganj","pcode":"305622","sql_upazila_id":null,"sql_name_bn":null},"geometry":{"type":"Polygon","coordinates":[[[89.95095,23.92353],[89.94776,23.91788],[89.94451,23.91498],[89.9446,23.91315],[89.9474,23.9112],[89.94982,23.91092],[89.95172,23.90973],[89.95347,23.90501],[89.95692,23.89155],[89.95333,23.8822],[89.95426,23.87715],[89.9569,23.87589],[89.95908,23.87373],[89.96033,23.86924],[89.9634,23.86689],[89.96382,23.86436],[89.96069,23.85837],[89.96191,23.84788],[89.96298,23.84597],[89.96586,23.84482],[89.97732,23.84748],[89.97974,23.84738],[89.97497,23.84314],[89.97234,23.84262],[89.97118,23.8411],[89.97438,23.83716],[89.97282,23.83444],[89.97112,23.83356],[89.97015,23.82706],[89.9706,23.82305],[89.96539,23.81847],[89.96404,23.81656],[89.96444,23.81512],[89.96654,23.81472],[89.97099,23.81612],[89.97419,23.81497],[89.98387,23.81671],[89.98602,23.81603],[89.98878,23.80962],[89.98725,23.79588],[89.9861,23.79276],[89.98005,23.78883],[89.94858,23.79248],[89.94673,23.79326],[89.95146,23.79796],[89.95151,23.80013],[89.94772,23.80262],[89.9453,23.80284],[89.94107,23.80041],[89.93979,23.8037],[89.93353,23.80406],[89.92715,23.80265],[89.92789,23.80784],[89.93191,23.8117],[89.93163,23.81279],[89.927,23.81598],[89.92775,23.81922],[89.92629,23.82325],[89.92899,23.82909],[89.92561,23.83076],[89.92289,23.82613],[89.92113,23.82571],[89.92053,23.82646],[89.9183,23.83411],[89.91576,23.8368],[89.91666,23.83831],[89.91887,23.83942],[89.92155,23.8397],[89.92151,23.84073],[89.91802,23.84281],[89.91305,23.84297],[89.90691,23.84133],[89.90507,23.84194],[89.90499,23.84377],[89.90346,23.84473],[89.9,23.84296],[89.89791,23.84415],[89.89335,23.85351],[89.89221,23.85748],[89.89249,23.86141],[89.89489,23.86514],[89.89488,23.86971],[89.89261,23.8733],[89.88969,23.87331],[89.88698,23.87445],[89.88575,23.87779],[89.88385,23.87875],[89.87989,23.87717],[89.88087,23.87372],[89.87995,23.87191],[89.8745,23.87031],[89.87444,23.86522],[89.87286,23.86457],[89.87059,23.86542],[89.86964,23.87012],[89.86629,23.87037],[89.86356,23.86287],[89.85364,23.86399],[89.85077,23.86091],[89.84923,23.85402],[89.84741,23.85337],[89.8384,23.85596],[89.83376,23.85406],[89.82934,23.85392],[89.82115,23.85472],[89.81914,23.8563],[89.82034,23.85971],[89.82829,23.87229],[89.82345,23.87245],[89.82018,23.87136],[89.81805,23.87319],[89.8189,23.87997],[89.81754,23.88555],[89.82257,23.88773],[89.82169,23.88981],[89.81805,23.8936],[89.81873,23.89593],[89.82272,23.89905],[89.82391,23.90154],[89.83066,23.89826],[89.8339,23.89836],[89.83697,23.89927],[89.84426,23.90501],[89.84542,23.90682],[89.84357,23.90971],[89.84109,23.90971],[89.83974,23.91082],[89.8407,23.91469],[89.84322,23.91618],[89.84273,23.92637],[89.84355,23.92991],[89.84923,23.93321],[89.85127,23.93528],[89.85403,23.94066],[89.86034,23.94201],[89.86251,23.94174],[89.86491,23.94061],[89.86583,23.93801],[89.86712,23.93696],[89.86895,23.93801],[89.8727,23.94376],[89.87466,23.94481],[89.88784,23.9447],[89.89124,23.94394],[89.8979,23.93889],[89.90474,23.93869],[89.90631,23.93677],[89.9097,23.93555],[89.91431,23.93603],[89.92168,23.93193],[89.92722,23.93192],[89.93105,23.93572],[89.93268,23.93633],[89.93768,23.93268],[89.94601,23.93255],[89.94865,23.92592],[89.95095,23.92353]]]}},{"type":"Feature","properties":{"name":"Harirampur","district_id":"manikganj","pcode":"305628","sql_upazila_id":"manikganj-harirampur","sql_name_bn":"হরিরামপুর"},"geometry":{"type":"Polygon","coordinates":[[[89.92715,23.80265],[89.93353,23.80406],[89.93979,23.8037],[89.94107,23.80041],[89.9453,23.80284],[89.94772,23.80262],[89.95151,23.80013],[89.95146,23.79796],[89.94673,23.79326],[89.94858,23.79248],[89.98005,23.78883],[89.9861,23.79276],[89.98633,23.78418],[89.98721,23.7821],[89.98843,23.78116],[89.99206,23.78228],[89.99372,23.78168],[89.99872,23.77555],[90.00155,23.77401],[90.00465,23.77435],[90.01416,23.77923],[90.01609,23.77924],[90.01839,23.77696],[90.0201,23.77332],[90.01839,23.76987],[90.01819,23.76667],[90.01693,23.76373],[90.01428,23.75984],[90.01921,23.75585],[90.02628,23.75266],[90.02911,23.74455],[90.03204,23.74024],[90.03584,23.74045],[90.03983,23.7391],[90.04465,23.73556],[90.04554,23.73389],[90.043,23.72931],[90.03423,23.7263],[90.03333,23.72043],[90.03403,23.7187],[90.04411,23.7174],[90.04914,23.71483],[90.04728,23.71235],[90.04564,23.70684],[90.04133,23.70328],[90.04465,23.69943],[90.04273,23.69536],[90.04107,23.68859],[90.03732,23.68256],[90.03145,23.67674],[90.02291,23.67293],[90.0227,23.66955],[90.02588,23.66291],[90.02579,23.65737],[90.02393,23.65467],[90.01899,23.65078],[90.01472,23.64909],[90.01311,23.64696],[90.01145,23.62984],[89.99641,23.62971],[89.98775,23.63054],[89.96379,23.63528],[89.94917,23.64101],[89.94098,23.64321],[89.92722,23.64955],[89.92365,23.65238],[89.92085,23.65734],[89.90841,23.66904],[89.89211,23.68779],[89.88225,23.70309],[89.87911,23.70447],[89.87549,23.70855],[89.87237,23.71543],[89.86899,23.71949],[89.85426,23.73414],[89.84559,23.74055],[89.85397,23.74764],[89.85699,23.75673],[89.85921,23.75851],[89.86726,23.76057],[89.86947,23.76207],[89.86968,23.76778],[89.86841,23.76912],[89.86507,23.77005],[89.85861,23.77001],[89.85567,23.77179],[89.85678,23.77628],[89.85172,23.77965],[89.85101,23.78195],[89.86067,23.79078],[89.87672,23.79651],[89.88417,23.80356],[89.88617,23.80403],[89.8886,23.80169],[89.89395,23.80215],[89.89493,23.79882],[89.89745,23.79819],[89.9066,23.80143],[89.91048,23.80186],[89.91864,23.80037],[89.9233,23.80068],[89.92715,23.80265]]]}},{"type":"Feature","properties":{"name":"Manikganj S.","district_id":"manikganj","pcode":"305646","sql_upazila_id":null,"sql_name_bn":null},"geometry":{"type":"Polygon","coordinates":[[[90.11283,23.85205],[90.1012,23.84483],[90.09385,23.8375],[90.07958,23.83336],[90.07573,23.8311],[90.07361,23.82429],[90.07282,23.81276],[90.07164,23.81044],[90.064,23.80363],[90.06347,23.80193],[90.06411,23.79562],[90.06273,23.79291],[90.05624,23.78716],[90.05504,23.78382],[90.05445,23.7804],[90.05478,23.77616],[90.0555,23.77518],[90.05721,23.77434],[90.06541,23.77621],[90.06795,23.77598],[90.07032,23.77422],[90.07561,23.77222],[90.07686,23.77001],[90.07861,23.76369],[90.07745,23.75971],[90.08335,23.75003],[90.08234,23.7373],[90.08088,23.73174],[90.08171,23.73017],[90.08692,23.72759],[90.08526,23.72592],[90.08578,23.72425],[90.0801,23.7234],[90.07288,23.72721],[90.06356,23.72714],[90.05756,23.72831],[90.05585,23.72714],[90.05427,23.7186],[90.04914,23.71483],[90.04411,23.7174],[90.03403,23.7187],[90.03333,23.72043],[90.03423,23.7263],[90.043,23.72931],[90.04554,23.73389],[90.04465,23.73556],[90.03983,23.7391],[90.03584,23.74045],[90.03204,23.74024],[90.02911,23.74455],[90.02628,23.75266],[90.01921,23.75585],[90.01428,23.75984],[90.01693,23.76373],[90.01819,23.76667],[90.01839,23.76987],[90.0201,23.77332],[90.01839,23.77696],[90.01609,23.77924],[90.01416,23.77923],[90.00465,23.77435],[90.00155,23.77401],[89.99872,23.77555],[89.99372,23.78168],[89.99206,23.78228],[89.98843,23.78116],[89.98633,23.78418],[89.9861,23.79276],[89.98725,23.79588],[89.98878,23.80962],[89.98602,23.81603],[89.98387,23.81671],[89.97419,23.81497],[89.97099,23.81612],[89.96654,23.81472],[89.96444,23.81512],[89.96404,23.81656],[89.96539,23.81847],[89.9706,23.82305],[89.97015,23.82706],[89.97112,23.83356],[89.97282,23.83444],[89.97438,23.83716],[89.97118,23.8411],[89.97234,23.84262],[89.97497,23.84314],[89.97974,23.84738],[89.97732,23.84748],[89.96586,23.84482],[89.96298,23.84597],[89.96191,23.84788],[89.96069,23.85837],[89.96382,23.86436],[89.9634,23.86689],[89.96033,23.86924],[89.95908,23.87373],[89.9569,23.87589],[89.95426,23.87715],[89.95333,23.8822],[89.95692,23.89155],[89.95172,23.90973],[89.94982,23.91092],[89.9474,23.9112],[89.9446,23.91315],[89.94451,23.91498],[89.94776,23.91788],[89.95095,23.92353],[89.95882,23.91964],[89.96204,23.9194],[89.96426,23.9209],[89.96814,23.91945],[89.97672,23.91937],[89.97794,23.92078],[89.98038,23.9213],[89.98115,23.91768],[89.98279,23.9157],[89.98499,23.91685],[89.98531,23.9197],[89.98425,23.92442],[89.98473,23.92595],[89.98737,23.92709],[89.99096,23.92404],[89.99276,23.92366],[89.9958,23.92822],[89.99694,23.92929],[89.99818,23.92926],[89.99882,23.92479],[90.0031,23.92189],[90.00648,23.91805],[90.00687,23.91603],[90.0107,23.91281],[90.02859,23.90727],[90.03152,23.9048],[90.05519,23.90148],[90.05713,23.89938],[90.05581,23.89404],[90.05303,23.89038],[90.05468,23.88926],[90.06481,23.89361],[90.07852,23.89233],[90.0788,23.89112],[90.07303,23.88691],[90.07455,23.88573],[90.08181,23.88745],[90.08253,23.88658],[90.08161,23.88443],[90.07715,23.88276],[90.07634,23.88032],[90.07874,23.87935],[90.08379,23.8754],[90.08159,23.87185],[90.08248,23.87046],[90.08918,23.86974],[90.0933,23.86799],[90.09989,23.86098],[90.10788,23.85977],[90.11345,23.85633],[90.11283,23.85205]]]}},{"type":"Feature","properties":{"name":"Saturia","district_id":"manikganj","pcode":"305670","sql_upazila_id":"manikganj-saturia","sql_name_bn":"সাটুরিয়া"},"geometry":{"type":"Polygon","coordinates":[[[89.91998,23.99558],[89.92808,23.99869],[89.93221,23.9994],[89.93565,23.99948],[89.94279,23.9978],[89.94524,23.99841],[89.94646,23.99989],[89.9458,24.00093],[89.93957,24.00346],[89.93919,24.00576],[89.94222,24.00946],[89.94437,24.01059],[89.94501,24.01322],[89.94433,24.01828],[89.94728,24.02129],[89.94988,24.0204],[89.95153,24.01447],[89.9556,24.01248],[89.95825,24.0089],[89.96095,24.00727],[89.9638,24.00661],[89.96569,24.00716],[89.96753,24.01053],[89.96675,24.01375],[89.96822,24.02217],[89.97269,24.02391],[89.97439,24.02872],[89.97547,24.0298],[89.97846,24.02931],[89.98071,24.02727],[89.98109,24.0252],[89.97973,24.02085],[89.98002,24.01781],[89.98409,24.01157],[89.98393,24.0095],[89.97705,24.00963],[89.97543,24.00741],[89.9763,24.00482],[89.97972,24.00226],[89.98466,24.00249],[89.98862,24.00113],[89.99395,23.9954],[89.99663,23.99508],[89.99865,23.99374],[90.00051,23.99321],[90.00574,23.99529],[90.00605,23.99723],[90.005,24.00223],[90.00706,24.00244],[90.00767,24.00398],[90.00378,24.00793],[90.00433,24.00969],[90.00648,24.01083],[90.01318,24.01105],[90.01783,24.00808],[90.02393,24.01292],[90.02485,24.01451],[90.02724,24.01583],[90.02854,24.01551],[90.02934,24.00806],[90.03065,24.00597],[90.03262,24.00467],[90.03829,24.00746],[90.0411,24.00769],[90.0469,24.00563],[90.04994,24.00057],[90.05229,24.00012],[90.05946,24.0027],[90.0602,24.00018],[90.05562,23.99639],[90.05499,23.99331],[90.05355,23.99117],[90.04882,23.98882],[90.04282,23.98329],[90.04235,23.9816],[90.04405,23.97767],[90.0412,23.97343],[90.04372,23.97218],[90.04332,23.96863],[90.0457,23.96682],[90.05051,23.96025],[90.05344,23.96287],[90.06374,23.96196],[90.06702,23.9592],[90.07511,23.96142],[90.07385,23.95858],[90.07372,23.95545],[90.07,23.95153],[90.07194,23.9472],[90.06933,23.94491],[90.06938,23.93993],[90.06792,23.93619],[90.06995,23.93318],[90.06965,23.93095],[90.07885,23.93064],[90.07627,23.92737],[90.06796,23.92138],[90.07021,23.91893],[90.07233,23.91225],[90.07475,23.90974],[90.077,23.90986],[90.0861,23.91555],[90.09193,23.9104],[90.10432,23.90388],[90.1087,23.89978],[90.11513,23.8962],[90.11592,23.89327],[90.11301,23.89127],[90.11741,23.89066],[90.11855,23.88949],[90.11557,23.88464],[90.11954,23.88461],[90.12089,23.88349],[90.12377,23.87514],[90.12955,23.8706],[90.12672,23.86695],[90.12782,23.86149],[90.12375,23.86033],[90.12264,23.85864],[90.12497,23.85235],[90.12226,23.8511],[90.11804,23.8532],[90.11692,23.85133],[90.11283,23.85205],[90.11345,23.85633],[90.11198,23.85769],[90.10788,23.85977],[90.09989,23.86098],[90.0933,23.86799],[90.08918,23.86974],[90.08248,23.87046],[90.08159,23.87185],[90.08379,23.8754],[90.07874,23.87935],[90.07634,23.88032],[90.07715,23.88276],[90.08161,23.88443],[90.08253,23.88658],[90.08181,23.88745],[90.07455,23.88573],[90.07303,23.88691],[90.0788,23.89112],[90.07852,23.89233],[90.06481,23.89361],[90.05468,23.88926],[90.05303,23.89038],[90.05581,23.89404],[90.05713,23.89938],[90.05519,23.90148],[90.03152,23.9048],[90.02859,23.90727],[90.0107,23.91281],[90.00687,23.91603],[90.00648,23.91805],[90.0031,23.92189],[89.99882,23.92479],[89.99818,23.92926],[89.99694,23.92929],[89.9958,23.92822],[89.99276,23.92366],[89.99096,23.92404],[89.98737,23.92709],[89.98473,23.92595],[89.98425,23.92442],[89.98531,23.9197],[89.98499,23.91685],[89.98279,23.9157],[89.98115,23.91768],[89.98038,23.9213],[89.97794,23.92078],[89.97672,23.91937],[89.96814,23.91945],[89.96426,23.9209],[89.96204,23.9194],[89.95882,23.91964],[89.95095,23.92353],[89.94865,23.92592],[89.94601,23.93255],[89.94957,23.93545],[89.95081,23.93743],[89.95063,23.94263],[89.95251,23.94602],[89.95208,23.94838],[89.94873,23.94902],[89.94672,23.95089],[89.94651,23.95461],[89.94909,23.95816],[89.94966,23.96586],[89.95182,23.97263],[89.95177,23.98069],[89.9549,23.98377],[89.95564,23.98592],[89.95445,23.98812],[89.9521,23.98874],[89.94637,23.98818],[89.94379,23.98738],[89.94244,23.98306],[89.94051,23.98099],[89.93484,23.98036],[89.93281,23.98195],[89.9304,23.98692],[89.92873,23.98712],[89.92646,23.98615],[89.92474,23.98709],[89.92472,23.98875],[89.92706,23.99271],[89.91998,23.99558]]]}},{"type":"Feature","properties":{"name":"Shivalaya","district_id":"manikganj","pcode":"305678","sql_upazila_id":null,"sql_name_bn":null},"geometry":{"type":"Polygon","coordinates":[[[89.82391,23.90154],[89.82272,23.89905],[89.81873,23.89593],[89.81805,23.8936],[89.82169,23.88981],[89.82257,23.88773],[89.81754,23.88555],[89.8189,23.87997],[89.81805,23.87319],[89.82018,23.87136],[89.82345,23.87245],[89.82829,23.87229],[89.82034,23.85971],[89.81914,23.8563],[89.82115,23.85472],[89.82934,23.85392],[89.83376,23.85406],[89.8384,23.85596],[89.84741,23.85337],[89.84923,23.85402],[89.85077,23.86091],[89.85364,23.86399],[89.86356,23.86287],[89.86629,23.87037],[89.86964,23.87012],[89.87059,23.86542],[89.87286,23.86457],[89.87444,23.86522],[89.8745,23.87031],[89.87995,23.87191],[89.88087,23.87372],[89.87989,23.87717],[89.88385,23.87875],[89.88575,23.87779],[89.88698,23.87445],[89.88969,23.87331],[89.89261,23.8733],[89.89488,23.86971],[89.89489,23.86514],[89.89249,23.86141],[89.89221,23.85748],[89.89335,23.85351],[89.89791,23.84415],[89.9,23.84296],[89.90346,23.84473],[89.90499,23.84377],[89.90507,23.84194],[89.90691,23.84133],[89.91305,23.84297],[89.91802,23.84281],[89.92151,23.84073],[89.92155,23.8397],[89.91887,23.83942],[89.91666,23.83831],[89.91576,23.8368],[89.9183,23.83411],[89.92113,23.82571],[89.92289,23.82613],[89.92561,23.83076],[89.92899,23.82909],[89.92629,23.82325],[89.92775,23.81922],[89.927,23.81598],[89.93163,23.81279],[89.93191,23.8117],[89.92789,23.80784],[89.92715,23.80265],[89.9233,23.80068],[89.91864,23.80037],[89.91048,23.80186],[89.9066,23.80143],[89.89745,23.79819],[89.89493,23.79882],[89.89395,23.80215],[89.8886,23.80169],[89.88617,23.80403],[89.88417,23.80356],[89.87672,23.79651],[89.86067,23.79078],[89.85101,23.78195],[89.85172,23.77965],[89.85678,23.77628],[89.85567,23.77179],[89.85861,23.77001],[89.86507,23.77005],[89.86841,23.76912],[89.86968,23.76778],[89.86947,23.76207],[89.86726,23.76057],[89.85921,23.75851],[89.85699,23.75673],[89.85397,23.74764],[89.84559,23.74055],[89.8279,23.75115],[89.81937,23.7579],[89.80112,23.77399],[89.79575,23.78314],[89.79038,23.78479],[89.78752,23.78702],[89.7864,23.79231],[89.77871,23.80578],[89.77637,23.81721],[89.77255,23.8186],[89.77209,23.82804],[89.77096,23.83012],[89.74444,23.83117],[89.73973,23.83266],[89.73463,23.84211],[89.72768,23.85065],[89.72232,23.85544],[89.71647,23.86305],[89.71487,23.86634],[89.715,23.86902],[89.71114,23.87413],[89.71049,23.88118],[89.70888,23.88103],[89.70728,23.87947],[89.70322,23.868],[89.70164,23.86957],[89.70154,23.87592],[89.70229,23.87864],[89.70591,23.88487],[89.70563,23.89413],[89.70791,23.89609],[89.7089,23.89859],[89.70737,23.90205],[89.70759,23.90622],[89.70628,23.9139],[89.71257,23.91184],[89.72983,23.91121],[89.7365,23.90839],[89.74417,23.9095],[89.75036,23.908],[89.76155,23.90807],[89.7687,23.90523],[89.77248,23.9047],[89.77464,23.90637],[89.77856,23.9119],[89.78279,23.90941],[89.78448,23.90983],[89.78523,23.91268],[89.79123,23.91364],[89.79186,23.9118],[89.78552,23.90404],[89.78774,23.90308],[89.79166,23.90569],[89.80078,23.90487],[89.80768,23.90959],[89.81185,23.90995],[89.82295,23.90591],[89.82416,23.9044],[89.82391,23.90154]]]}},{"type":"Feature","properties":{"name":"Singair","district_id":"manikganj","pcode":"305682","sql_upazila_id":null,"sql_name_bn":null},"geometry":{"type":"Polygon","coordinates":[[[90.11283,23.85205],[90.11692,23.85133],[90.11804,23.8532],[90.12226,23.8511],[90.12497,23.85235],[90.12264,23.85864],[90.12375,23.86033],[90.12782,23.86149],[90.12672,23.86695],[90.12955,23.8706],[90.13289,23.86961],[90.13483,23.86568],[90.14663,23.85358],[90.15269,23.84332],[90.15354,23.83987],[90.1535,23.83141],[90.15527,23.83057],[90.15722,23.83115],[90.15946,23.83362],[90.16355,23.83552],[90.16743,23.83441],[90.17282,23.83114],[90.1737,23.82912],[90.17379,23.82323],[90.17492,23.82154],[90.17775,23.82262],[90.18211,23.82298],[90.18654,23.82116],[90.1916,23.82442],[90.19736,23.82411],[90.19965,23.82572],[90.20136,23.83374],[90.20448,23.83394],[90.20681,23.83533],[90.20839,23.84061],[90.21185,23.83774],[90.21658,23.84219],[90.22327,23.84169],[90.23603,23.8378],[90.24724,23.83845],[90.25089,23.83116],[90.24963,23.81466],[90.24551,23.80287],[90.24256,23.78172],[90.23067,23.7653],[90.22961,23.76287],[90.2292,23.75699],[90.22397,23.7518],[90.22359,23.74969],[90.2249,23.74274],[90.22677,23.74064],[90.24268,23.73632],[90.24831,23.73345],[90.2547,23.72878],[90.25645,23.72702],[90.2569,23.72541],[90.25682,23.72233],[90.25525,23.71945],[90.24939,23.71867],[90.24469,23.71712],[90.24273,23.71591],[90.23925,23.71136],[90.23736,23.71038],[90.23344,23.71218],[90.22847,23.71218],[90.22269,23.71438],[90.2202,23.71655],[90.21507,23.72399],[90.21165,23.7267],[90.20859,23.72345],[90.19847,23.72569],[90.18922,23.72367],[90.17953,23.7279],[90.16869,23.72889],[90.16159,23.733],[90.16031,23.73623],[90.16271,23.74229],[90.1616,23.74695],[90.15857,23.74994],[90.14649,23.74883],[90.1424,23.74916],[90.14013,23.74795],[90.13858,23.74576],[90.13654,23.73877],[90.13557,23.73765],[90.12938,23.73647],[90.12684,23.73396],[90.12032,23.72016],[90.11725,23.71902],[90.11045,23.72026],[90.1092,23.72223],[90.10912,23.72407],[90.11169,23.72744],[90.11218,23.72949],[90.10514,23.73073],[90.08692,23.72759],[90.08171,23.73017],[90.08088,23.73174],[90.08234,23.7373],[90.08335,23.75003],[90.07745,23.75971],[90.07861,23.76369],[90.07686,23.77001],[90.07561,23.77222],[90.07032,23.77422],[90.06795,23.77598],[90.06541,23.77621],[90.05721,23.77434],[90.0555,23.77518],[90.05478,23.77616],[90.05445,23.7804],[90.05504,23.78382],[90.05624,23.78716],[90.06273,23.79291],[90.06411,23.79562],[90.06347,23.80193],[90.064,23.80363],[90.07164,23.81044],[90.07282,23.81276],[90.07361,23.82429],[90.07573,23.8311],[90.07958,23.83336],[90.09385,23.8375],[90.1012,23.84483],[90.10891,23.84928],[90.11283,23.85205]]]}}]}