{"type":"FeatureCollection","features":[{"type":"Feature","properties":{"name":"Gangni","district_id":"meherpur","pcode":"405747","sql_upazila_id":"meherpur-gangni","sql_name_bn":"গাংনী"},"geometry":{"type":"Polygon","coordinates":[[[88.88509,23.8799],[88.8881,23.8786],[88.88957,23.87454],[88.88889,23.87061],[88.88466,23.86572],[88.88013,23.86209],[88.87278,23.8589],[88.87003,23.85676],[88.8679,23.85236],[88.86787,23.84652],[88.86477,23.83644],[88.85556,23.83646],[88.85262,23.83455],[88.85149,23.83024],[88.84705,23.82357],[88.84033,23.82139],[88.83759,23.81656],[88.83453,23.80733],[88.82845,23.79562],[88.82514,23.7793],[88.82362,23.77683],[88.82169,23.77649],[88.81745,23.77819],[88.81071,23.77445],[88.80389,23.77347],[88.80059,23.77518],[88.79908,23.77741],[88.79684,23.77622],[88.79234,23.75856],[88.79344,23.75011],[88.79293,23.7463],[88.78797,23.74188],[88.78401,23.74544],[88.77953,23.74742],[88.77583,23.74777],[88.76814,23.74275],[88.76398,23.74094],[88.76199,23.74106],[88.75934,23.74476],[88.75818,23.74943],[88.75644,23.75275],[88.75424,23.75442],[88.747,23.75409],[88.744,23.75539],[88.74188,23.75854],[88.74053,23.75922],[88.73736,23.758],[88.73527,23.75492],[88.7326,23.75381],[88.72964,23.75476],[88.72512,23.76166],[88.719,23.76564],[88.71616,23.76601],[88.71042,23.76259],[88.70882,23.76316],[88.70867,23.76552],[88.71316,23.77155],[88.7114,23.78122],[88.71279,23.78329],[88.71197,23.78607],[88.70986,23.78894],[88.71154,23.79404],[88.71101,23.796],[88.70619,23.79604],[88.70061,23.79845],[88.69988,23.79974],[88.70056,23.80349],[88.69991,23.80929],[88.69752,23.81401],[88.69811,23.81645],[88.70399,23.8126],[88.70541,23.81267],[88.7077,23.82444],[88.70684,23.8287],[88.70343,23.83591],[88.69911,23.84063],[88.69907,23.84241],[88.70027,23.84357],[88.70219,23.84328],[88.70446,23.85025],[88.70438,23.85248],[88.69929,23.85545],[88.69846,23.86133],[88.67888,23.86372],[88.67643,23.86162],[88.67613,23.85819],[88.67696,23.85622],[88.68314,23.8519],[88.68402,23.84878],[88.68352,23.84817],[88.67968,23.84795],[88.67451,23.85023],[88.67004,23.84505],[88.66315,23.8471],[88.6609,23.84597],[88.65681,23.8457],[88.65417,23.84693],[88.65197,23.85209],[88.65432,23.85614],[88.65812,23.85773],[88.65878,23.86046],[88.6569,23.86716],[88.65376,23.86749],[88.65334,23.86824],[88.65862,23.86806],[88.66356,23.86992],[88.66475,23.87216],[88.66448,23.88076],[88.66631,23.88351],[88.67948,23.88652],[88.68536,23.88902],[88.69208,23.89967],[88.69788,23.90062],[88.70378,23.89883],[88.70493,23.90003],[88.70559,23.90158],[88.7045,23.90562],[88.70066,23.90967],[88.70103,23.91172],[88.70212,23.91288],[88.70446,23.91399],[88.71308,23.91402],[88.72097,23.91567],[88.73106,23.91277],[88.73326,23.91434],[88.73374,23.92159],[88.73248,23.92658],[88.73297,23.92973],[88.73588,23.93224],[88.7408,23.93273],[88.74229,23.93588],[88.74227,23.9386],[88.73978,23.9447],[88.73975,23.94742],[88.74086,23.94901],[88.74047,23.95287],[88.73382,23.96009],[88.73527,23.96507],[88.73514,23.96787],[88.74356,23.96732],[88.75034,23.96847],[88.7616,23.97269],[88.76694,23.9724],[88.76986,23.9699],[88.77335,23.95994],[88.77747,23.9542],[88.78214,23.95181],[88.78523,23.95205],[88.7872,23.95874],[88.78744,23.96544],[88.79062,23.97421],[88.79794,23.97837],[88.8048,23.97775],[88.80934,23.97514],[88.81485,23.96775],[88.81576,23.95896],[88.81529,23.95016],[88.81686,23.93969],[88.82072,23.93429],[88.82499,23.93015],[88.8271,23.93065],[88.83054,23.93958],[88.83379,23.94159],[88.84207,23.94017],[88.8569,23.93482],[88.86246,23.93074],[88.86728,23.92709],[88.878,23.91339],[88.87973,23.90979],[88.88058,23.90535],[88.87875,23.89585],[88.87617,23.89016],[88.87289,23.88636],[88.8643,23.88357],[88.85841,23.88336],[88.84843,23.88552],[88.84562,23.8843],[88.84466,23.88221],[88.84741,23.87708],[88.85426,23.8717],[88.85736,23.8716],[88.86558,23.87528],[88.86935,23.87853],[88.87421,23.88049],[88.87849,23.88097],[88.88509,23.8799]]]}},{"type":"Feature","properties":{"name":"Meherpur S.","district_id":"meherpur","pcode":"405787","sql_upazila_id":null,"sql_name_bn":null},"geometry":{"type":"Polygon","coordinates":[[[88.65334,23.86824],[88.65376,23.86749],[88.6569,23.86716],[88.65878,23.86046],[88.65812,23.85773],[88.65432,23.85614],[88.65197,23.85209],[88.65417,23.84693],[88.65681,23.8457],[88.6609,23.84597],[88.66315,23.8471],[88.67004,23.84505],[88.67451,23.85023],[88.67968,23.84795],[88.68352,23.84817],[88.68402,23.84878],[88.68314,23.8519],[88.67696,23.85622],[88.67613,23.85819],[88.67643,23.86162],[88.67888,23.86372],[88.69846,23.86133],[88.69929,23.85545],[88.70438,23.85248],[88.7036,23.84638],[88.70219,23.84328],[88.70027,23.84357],[88.69907,23.84241],[88.69911,23.84063],[88.70343,23.83591],[88.70684,23.8287],[88.7077,23.82444],[88.7068,23.81835],[88.70541,23.81267],[88.70399,23.8126],[88.69811,23.81645],[88.69752,23.81401],[88.69991,23.80929],[88.70056,23.80349],[88.69988,23.79974],[88.70061,23.79845],[88.70619,23.79604],[88.71101,23.796],[88.71154,23.79404],[88.70986,23.78894],[88.71197,23.78607],[88.71279,23.78329],[88.7114,23.78122],[88.71316,23.77155],[88.70867,23.76552],[88.70882,23.76316],[88.71042,23.76259],[88.71616,23.76601],[88.719,23.76564],[88.72512,23.76166],[88.72964,23.75476],[88.7326,23.75381],[88.73527,23.75492],[88.73736,23.758],[88.74053,23.75922],[88.74188,23.75854],[88.744,23.75539],[88.747,23.75409],[88.75424,23.75442],[88.75644,23.75275],[88.75818,23.74943],[88.75934,23.74476],[88.76199,23.74106],[88.76398,23.74094],[88.76814,23.74275],[88.77583,23.74777],[88.77953,23.74742],[88.78401,23.74544],[88.78797,23.74188],[88.78559,23.72914],[88.78628,23.72551],[88.78902,23.72353],[88.79084,23.72089],[88.78889,23.71901],[88.78778,23.71573],[88.78818,23.71412],[88.78056,23.70497],[88.75608,23.70073],[88.74799,23.69332],[88.73092,23.68082],[88.70525,23.67112],[88.70297,23.66432],[88.70123,23.66329],[88.69854,23.66532],[88.69559,23.66588],[88.693,23.66241],[88.6922,23.65866],[88.69006,23.65592],[88.68192,23.65349],[88.67961,23.65585],[88.67346,23.65702],[88.67058,23.65879],[88.66696,23.65683],[88.66121,23.6561],[88.65828,23.65052],[88.65491,23.64851],[88.65711,23.64295],[88.65129,23.6338],[88.65229,23.63085],[88.65748,23.63086],[88.65726,23.62886],[88.65314,23.6263],[88.64521,23.62399],[88.64313,23.62124],[88.64732,23.61664],[88.64705,23.61505],[88.64452,23.61511],[88.62424,23.60398],[88.62085,23.60273],[88.60712,23.60087],[88.6022,23.59812],[88.60073,23.59858],[88.60072,23.60263],[88.599,23.60354],[88.59238,23.60259],[88.58743,23.59995],[88.58086,23.60074],[88.58167,23.60261],[88.5818,23.60663],[88.58283,23.60822],[88.58474,23.61095],[88.59035,23.6148],[88.59323,23.62638],[88.59242,23.63657],[88.58975,23.63768],[88.57807,23.63629],[88.56854,23.63756],[88.56245,23.64005],[88.56168,23.64207],[88.56168,23.64571],[88.56838,23.65796],[88.56795,23.66428],[88.56895,23.66588],[88.57383,23.66774],[88.57078,23.68832],[88.56584,23.7042],[88.56422,23.71478],[88.57133,23.72456],[88.5747,23.73633],[88.5739,23.74856],[88.57582,23.75287],[88.57864,23.75673],[88.5788,23.76534],[88.57786,23.76602],[88.57622,23.77009],[88.57302,23.77278],[88.56021,23.78065],[88.55928,23.78413],[88.55957,23.78537],[88.56359,23.78657],[88.57517,23.7865],[88.58032,23.788],[88.58197,23.79615],[88.58397,23.79773],[88.58844,23.79861],[88.59218,23.80074],[88.59203,23.80435],[88.58733,23.8084],[88.58672,23.81226],[88.58928,23.8134],[88.59588,23.81382],[88.60173,23.81685],[88.59949,23.82179],[88.59142,23.82632],[88.58767,23.83444],[88.58811,23.84486],[88.58689,23.85075],[88.58095,23.85208],[88.57553,23.85434],[88.57598,23.85975],[88.58115,23.86204],[88.58337,23.8641],[88.58479,23.86794],[88.58727,23.86976],[88.5912,23.8707],[88.60009,23.86484],[88.60376,23.86441],[88.60745,23.86691],[88.61221,23.87419],[88.61798,23.87558],[88.62243,23.87356],[88.62408,23.86678],[88.62592,23.86364],[88.62938,23.86181],[88.63308,23.86136],[88.63797,23.86323],[88.64141,23.86665],[88.64558,23.86811],[88.65334,23.86824]]]}}]}