{"type":"FeatureCollection","features":[{"type":"Feature","properties":{"name":"Barlekha","district_id":"moulvibazar","pcode":"605814","sql_upazila_id":"moulvibazar-barlekha","sql_name_bn":"বড়লেখা"},"geometry":{"type":"Polygon","coordinates":[[[92.25462,24.83424],[92.27778,24.83041],[92.27966,24.82804],[92.28204,24.80583],[92.28493,24.79521],[92.28684,24.79231],[92.29013,24.79028],[92.29341,24.7894],[92.29311,24.7836],[92.28719,24.7722],[92.28666,24.76941],[92.28857,24.76635],[92.29219,24.76465],[92.29427,24.7625],[92.28819,24.75476],[92.28534,24.74874],[92.28506,24.7437],[92.28856,24.74079],[92.29754,24.73817],[92.29827,24.73655],[92.29029,24.72413],[92.286,24.7204],[92.27911,24.71179],[92.27726,24.70653],[92.27264,24.69926],[92.26865,24.69421],[92.26275,24.68864],[92.26139,24.68227],[92.2593,24.68086],[92.25841,24.67826],[92.25958,24.67327],[92.25814,24.66868],[92.25598,24.66372],[92.25223,24.66054],[92.25091,24.65709],[92.25065,24.65355],[92.2529,24.65098],[92.25317,24.64913],[92.25108,24.63602],[92.24953,24.62954],[92.23932,24.6],[92.23572,24.57993],[92.22099,24.57244],[92.20177,24.56806],[92.19172,24.56807],[92.17583,24.56131],[92.16492,24.56766],[92.16018,24.56729],[92.14625,24.56263],[92.14259,24.56249],[92.1401,24.56392],[92.13876,24.56822],[92.13738,24.5696],[92.12842,24.57128],[92.1245,24.5731],[92.12278,24.57627],[92.13055,24.58887],[92.12157,24.60549],[92.1226,24.61675],[92.12793,24.63526],[92.12807,24.64013],[92.12692,24.64333],[92.1217,24.64682],[92.11431,24.64872],[92.10741,24.6478],[92.10604,24.65043],[92.10412,24.65114],[92.09889,24.64837],[92.0929,24.65389],[92.08912,24.65393],[92.08315,24.65262],[92.07973,24.65362],[92.07866,24.65584],[92.07896,24.66255],[92.08299,24.67238],[92.08479,24.68017],[92.08414,24.68341],[92.08094,24.68578],[92.07691,24.68697],[92.07381,24.68675],[92.07077,24.68274],[92.05744,24.65881],[92.04977,24.6481],[92.04404,24.64333],[92.0399,24.63868],[92.03713,24.63747],[92.03439,24.63786],[92.03223,24.63996],[92.02865,24.65778],[92.03426,24.65802],[92.03646,24.66166],[92.03761,24.66569],[92.03832,24.67416],[92.03754,24.68832],[92.03882,24.69096],[92.03886,24.69297],[92.03004,24.6974],[92.02959,24.69983],[92.03101,24.70167],[92.04049,24.7072],[92.0435,24.70582],[92.04286,24.70205],[92.04467,24.70055],[92.05762,24.70043],[92.0667,24.70432],[92.06995,24.70644],[92.07184,24.70882],[92.07876,24.72066],[92.08669,24.72665],[92.08772,24.72943],[92.08511,24.73361],[92.08825,24.73612],[92.08901,24.7385],[92.08956,24.75013],[92.08918,24.75239],[92.08167,24.75304],[92.08091,24.75542],[92.08074,24.76651],[92.08228,24.76828],[92.09808,24.76466],[92.103,24.7601],[92.10637,24.75962],[92.10831,24.76058],[92.11108,24.75817],[92.11974,24.7635],[92.12157,24.76595],[92.12275,24.76941],[92.12493,24.77133],[92.13216,24.77115],[92.14212,24.76439],[92.1446,24.76491],[92.14639,24.76644],[92.14899,24.76674],[92.15246,24.76579],[92.15479,24.76949],[92.16307,24.77237],[92.16502,24.77246],[92.16796,24.76964],[92.17535,24.77261],[92.1807,24.77136],[92.18397,24.77358],[92.19559,24.77093],[92.19822,24.76818],[92.20085,24.76922],[92.20397,24.77805],[92.19976,24.78041],[92.1962,24.79025],[92.19903,24.79369],[92.20049,24.79845],[92.20355,24.80396],[92.20209,24.80723],[92.20469,24.81],[92.20657,24.81078],[92.20906,24.81034],[92.21091,24.80739],[92.21208,24.80338],[92.21755,24.80683],[92.21842,24.81231],[92.21608,24.81556],[92.22166,24.81872],[92.22666,24.82035],[92.23038,24.81796],[92.23494,24.81967],[92.23914,24.82041],[92.24201,24.82006],[92.24322,24.82369],[92.24491,24.82351],[92.2463,24.82477],[92.24577,24.82773],[92.24249,24.82992],[92.24477,24.83126],[92.25064,24.83056],[92.25186,24.8317],[92.25462,24.83424]]]}},{"type":"Feature","properties":{"name":"Kamalganj","district_id":"moulvibazar","pcode":"605856","sql_upazila_id":"moulvibazar-kamolganj","sql_name_bn":"কমলগঞ্জ"},"geometry":{"type":"Polygon","coordinates":[[[91.90716,24.44872],[91.91652,24.43424],[91.92236,24.42702],[91.92333,24.42278],[91.92075,24.40681],[91.9221,24.40239],[91.92416,24.40099],[91.93367,24.40532],[91.93571,24.40474],[91.93652,24.40217],[91.9353,24.38568],[91.92587,24.35143],[91.92043,24.33575],[91.94186,24.26758],[91.93221,24.23949],[91.92777,24.22273],[91.91193,24.17169],[91.91485,24.1674],[91.91428,24.16012],[91.9125,24.15812],[91.9127,24.15496],[91.9099,24.15019],[91.91132,24.14755],[91.91128,24.14537],[91.90987,24.14227],[91.90263,24.13784],[91.89566,24.14001],[91.89447,24.13994],[91.89186,24.13786],[91.88825,24.13703],[91.88325,24.14204],[91.88155,24.14544],[91.87853,24.14785],[91.87729,24.15421],[91.87531,24.15716],[91.87198,24.17411],[91.86253,24.18159],[91.85796,24.18148],[91.85505,24.18228],[91.85456,24.18615],[91.847,24.19396],[91.84175,24.19772],[91.84138,24.20164],[91.84467,24.20369],[91.84668,24.19994],[91.84999,24.20228],[91.85043,24.20709],[91.84772,24.20696],[91.84914,24.21397],[91.85087,24.2147],[91.85686,24.21418],[91.85258,24.21877],[91.8514,24.22151],[91.8466,24.22049],[91.84354,24.22073],[91.84258,24.22174],[91.84447,24.22557],[91.84749,24.22832],[91.84396,24.22909],[91.83991,24.22723],[91.8377,24.22422],[91.83741,24.2197],[91.83291,24.21758],[91.83062,24.21434],[91.81808,24.20919],[91.81556,24.20895],[91.81105,24.21394],[91.80775,24.21935],[91.80482,24.21963],[91.80321,24.22102],[91.79111,24.22096],[91.74347,24.24713],[91.74202,24.26548],[91.74846,24.28888],[91.74922,24.29545],[91.74907,24.31365],[91.75605,24.33417],[91.75896,24.34852],[91.76217,24.39748],[91.76558,24.41164],[91.76619,24.41891],[91.76909,24.4328],[91.77018,24.44453],[91.77485,24.46387],[91.77764,24.4807],[91.78156,24.48847],[91.78472,24.48909],[91.787,24.48809],[91.78931,24.48433],[91.7915,24.47781],[91.79368,24.47629],[91.79763,24.47626],[91.80581,24.479],[91.81092,24.47833],[91.82148,24.46484],[91.82704,24.46285],[91.83923,24.45962],[91.84608,24.45976],[91.85294,24.45887],[91.86425,24.46153],[91.86995,24.46131],[91.87391,24.4592],[91.8765,24.45072],[91.8814,24.44335],[91.8839,24.44182],[91.88589,24.44158],[91.88866,24.44296],[91.89315,24.44847],[91.89949,24.44977],[91.90716,24.44872]]]}},{"type":"Feature","properties":{"name":"Kulaura","district_id":"moulvibazar","pcode":"605865","sql_upazila_id":"moulvibazar-kulaura","sql_name_bn":"কুলাউড়া"},"geometry":{"type":"Polygon","coordinates":[[[91.94617,24.65582],[91.95617,24.65089],[91.96044,24.64969],[91.96468,24.64527],[91.97126,24.64249],[91.97752,24.64442],[91.98682,24.64428],[91.99428,24.64617],[91.99273,24.65065],[91.99394,24.65302],[91.99682,24.65497],[92.00009,24.65404],[91.99838,24.65146],[91.99994,24.6487],[92.00334,24.64891],[92.00909,24.65305],[92.01765,24.64972],[92.01998,24.64969],[92.02144,24.65221],[92.01808,24.6551],[92.01881,24.65726],[92.02172,24.65869],[92.02865,24.65778],[92.03223,24.63996],[92.03439,24.63786],[92.03713,24.63747],[92.0399,24.63868],[92.04404,24.64333],[92.04977,24.6481],[92.05744,24.65881],[92.07077,24.68274],[92.07381,24.68675],[92.07691,24.68697],[92.08094,24.68578],[92.08414,24.68341],[92.08479,24.68017],[92.08299,24.67238],[92.07896,24.66255],[92.07866,24.65584],[92.07973,24.65362],[92.08315,24.65262],[92.08912,24.65393],[92.0929,24.65389],[92.09889,24.64837],[92.10412,24.65114],[92.10604,24.65043],[92.10741,24.6478],[92.11431,24.64872],[92.1217,24.64682],[92.12692,24.64333],[92.12807,24.64013],[92.12793,24.63526],[92.1226,24.61675],[92.12157,24.60549],[92.13055,24.58887],[92.12278,24.57627],[92.1245,24.5731],[92.12842,24.57128],[92.13738,24.5696],[92.13876,24.56822],[92.1401,24.56392],[92.14259,24.56249],[92.14625,24.56263],[92.16018,24.56729],[92.16492,24.56766],[92.17583,24.56131],[92.19172,24.56807],[92.20177,24.56806],[92.22099,24.57244],[92.23572,24.57993],[92.23383,24.56179],[92.23338,24.54127],[92.23137,24.51936],[92.23087,24.49963],[92.22148,24.50151],[92.22031,24.50627],[92.21161,24.50933],[92.20725,24.50663],[92.19984,24.51119],[92.19987,24.51526],[92.19705,24.51658],[92.19273,24.52147],[92.18896,24.52019],[92.1852,24.52287],[92.17858,24.52348],[92.17954,24.52855],[92.17336,24.53397],[92.16652,24.52938],[92.16418,24.52901],[92.16132,24.52597],[92.15588,24.52423],[92.15511,24.51932],[92.15606,24.5159],[92.15913,24.51325],[92.16146,24.5123],[92.16058,24.50774],[92.15606,24.50764],[92.1524,24.50027],[92.15643,24.49822],[92.15704,24.4941],[92.1562,24.48914],[92.15307,24.48812],[92.15513,24.47954],[92.15944,24.47696],[92.15971,24.47283],[92.16352,24.46864],[92.15967,24.46592],[92.15781,24.46278],[92.15765,24.46077],[92.15977,24.4596],[92.16064,24.45716],[92.16445,24.45551],[92.16452,24.45212],[92.16681,24.44686],[92.16282,24.44381],[92.16314,24.4392],[92.1728,24.43089],[92.16687,24.42211],[92.16377,24.42172],[92.1598,24.42487],[92.15573,24.42642],[92.14796,24.42421],[92.14278,24.42488],[92.13913,24.42445],[92.1357,24.41552],[92.13571,24.41334],[92.13755,24.41022],[92.13269,24.40611],[92.13184,24.40419],[92.12963,24.40285],[92.12793,24.39919],[92.123,24.39502],[92.12167,24.39232],[92.12383,24.39045],[92.12372,24.3873],[92.11921,24.38381],[92.11597,24.3844],[92.10821,24.38213],[92.10532,24.38351],[92.10309,24.3828],[92.10004,24.37861],[92.09655,24.37548],[92.08904,24.37342],[92.08371,24.37697],[92.0804,24.37585],[92.07189,24.37533],[92.04857,24.37683],[92.04458,24.37596],[92.04095,24.37853],[92.03732,24.37993],[92.03434,24.37947],[92.03201,24.38041],[92.02832,24.37948],[92.02502,24.38002],[92.02167,24.38302],[92.01787,24.38472],[92.01292,24.38365],[92.01013,24.38198],[92.00668,24.38303],[92.00668,24.38677],[92.00092,24.39067],[92.00005,24.39203],[91.99409,24.38721],[91.98979,24.38894],[91.9861,24.38546],[91.98534,24.38171],[91.98637,24.3761],[91.98407,24.37659],[91.98164,24.37927],[91.97844,24.38054],[91.97824,24.3852],[91.97409,24.38864],[91.9669,24.38438],[91.96458,24.38184],[91.96658,24.37923],[91.96963,24.37877],[91.97356,24.37115],[91.97806,24.37074],[91.97937,24.36707],[91.98494,24.36077],[91.98153,24.36021],[91.97997,24.35798],[91.98355,24.35462],[91.98909,24.34648],[91.99831,24.33929],[91.9995,24.33447],[91.99586,24.33204],[91.99767,24.32353],[91.99543,24.32126],[91.98608,24.32605],[91.98284,24.33112],[91.97452,24.33156],[91.97083,24.339],[91.9754,24.34146],[91.97404,24.34536],[91.97108,24.34875],[91.96614,24.35032],[91.95711,24.35625],[91.94828,24.35045],[91.94366,24.3485],[91.94033,24.34353],[91.93057,24.34022],[91.92608,24.33725],[91.92043,24.33575],[91.92587,24.35143],[91.9353,24.38568],[91.93652,24.40217],[91.93571,24.40474],[91.93367,24.40532],[91.92416,24.40099],[91.9221,24.40239],[91.92075,24.40681],[91.92333,24.42278],[91.92236,24.42702],[91.91652,24.43424],[91.90323,24.45416],[91.90263,24.45717],[91.90504,24.4662],[91.91534,24.46856],[91.91805,24.46994],[91.91981,24.47251],[91.91878,24.47565],[91.91614,24.47954],[91.9156,24.48244],[91.91748,24.48466],[91.92454,24.48869],[91.92719,24.49282],[91.9283,24.50209],[91.92726,24.51241],[91.93095,24.54251],[91.94378,24.55619],[91.94577,24.55944],[91.94794,24.56631],[91.95408,24.5803],[91.95588,24.58959],[91.95662,24.60139],[91.95454,24.62563],[91.94714,24.64527],[91.94142,24.6564],[91.94617,24.65582]]]}},{"type":"Feature","properties":{"name":"Maulvibazar S.","district_id":"moulvibazar","pcode":"605874","sql_upazila_id":null,"sql_name_bn":null},"geometry":{"type":"Polygon","coordinates":[[[91.69999,24.60348],[91.71164,24.59651],[91.71549,24.60073],[91.72678,24.59754],[91.72807,24.59313],[91.73463,24.5926],[91.73801,24.59362],[91.73843,24.58924],[91.73421,24.58148],[91.73368,24.57719],[91.73531,24.57472],[91.7375,24.57435],[91.74086,24.57635],[91.7496,24.57895],[91.75122,24.57624],[91.75152,24.57089],[91.75084,24.5661],[91.75153,24.56229],[91.75397,24.55978],[91.76547,24.55475],[91.77874,24.55109],[91.77723,24.54512],[91.77943,24.54377],[91.78761,24.54145],[91.78944,24.53799],[91.79046,24.53072],[91.79219,24.52756],[91.80137,24.51905],[91.79831,24.51446],[91.79862,24.5133],[91.80524,24.50633],[91.80834,24.50421],[91.81033,24.50137],[91.81577,24.49824],[91.81541,24.4924],[91.81642,24.49023],[91.81849,24.4901],[91.82053,24.49186],[91.82021,24.4956],[91.82326,24.49749],[91.8261,24.49773],[91.82843,24.49666],[91.82813,24.49449],[91.82471,24.494],[91.82425,24.49223],[91.82656,24.48577],[91.83183,24.47855],[91.84454,24.46636],[91.84705,24.46282],[91.84608,24.45976],[91.83923,24.45962],[91.82148,24.46484],[91.81092,24.47833],[91.80581,24.479],[91.79763,24.47626],[91.79368,24.47629],[91.7915,24.47781],[91.78931,24.48433],[91.787,24.48809],[91.78472,24.48909],[91.78156,24.48847],[91.77764,24.4807],[91.77485,24.46387],[91.77018,24.44453],[91.76909,24.4328],[91.76619,24.41891],[91.76558,24.41164],[91.76217,24.39748],[91.75398,24.4006],[91.7477,24.40411],[91.74065,24.40621],[91.73738,24.40622],[91.72867,24.40374],[91.72012,24.40481],[91.71574,24.40245],[91.71299,24.39888],[91.70915,24.39615],[91.70255,24.39588],[91.69956,24.39759],[91.69746,24.40072],[91.69691,24.40367],[91.68884,24.40409],[91.68489,24.40544],[91.67989,24.41212],[91.67475,24.41105],[91.66891,24.4057],[91.66438,24.403],[91.66115,24.40237],[91.65527,24.40781],[91.65123,24.40865],[91.64796,24.40722],[91.64216,24.40147],[91.6386,24.40045],[91.63499,24.40231],[91.63324,24.40507],[91.63246,24.40849],[91.63542,24.42916],[91.63378,24.43404],[91.63503,24.43532],[91.63299,24.43836],[91.63255,24.44235],[91.62698,24.45283],[91.61752,24.46587],[91.61044,24.46996],[91.6073,24.47393],[91.60677,24.47734],[91.60766,24.48248],[91.60683,24.48474],[91.60181,24.4874],[91.60155,24.49131],[91.59966,24.49758],[91.60046,24.49956],[91.60704,24.50201],[91.61471,24.50213],[91.61913,24.50386],[91.62404,24.50931],[91.62411,24.51585],[91.63534,24.52071],[91.63737,24.52621],[91.63967,24.52847],[91.6411,24.53186],[91.63957,24.53536],[91.63162,24.53727],[91.63197,24.53926],[91.63547,24.54516],[91.64298,24.54861],[91.64872,24.54645],[91.65247,24.54608],[91.65504,24.54834],[91.65526,24.55028],[91.64843,24.55065],[91.64525,24.55754],[91.64491,24.56352],[91.64329,24.56496],[91.6359,24.56552],[91.63465,24.56821],[91.63765,24.57814],[91.63708,24.58299],[91.62597,24.58845],[91.62207,24.5883],[91.61705,24.58602],[91.61416,24.58332],[91.61201,24.58299],[91.61009,24.58364],[91.6106,24.58748],[91.61544,24.59285],[91.62885,24.60482],[91.63102,24.60801],[91.63694,24.61089],[91.64094,24.61034],[91.64429,24.60706],[91.64589,24.60401],[91.64498,24.60187],[91.63841,24.6],[91.63186,24.59954],[91.63049,24.59855],[91.63076,24.59648],[91.64362,24.59348],[91.64676,24.5894],[91.65266,24.58953],[91.65851,24.58816],[91.66434,24.58938],[91.6664,24.58132],[91.66878,24.57985],[91.67134,24.57574],[91.675,24.57842],[91.67809,24.58261],[91.67929,24.58537],[91.67672,24.588],[91.67926,24.59232],[91.68549,24.59628],[91.68878,24.59421],[91.69405,24.59534],[91.69685,24.5985],[91.69999,24.60348]]]}},{"type":"Feature","properties":{"name":"Rajnagar","district_id":"moulvibazar","pcode":"605880","sql_upazila_id":"moulvibazar-rajnagar","sql_name_bn":"রাজনগর"},"geometry":{"type":"Polygon","coordinates":[[[91.94142,24.6564],[91.94714,24.64527],[91.95454,24.62563],[91.95662,24.60139],[91.95588,24.58959],[91.95408,24.5803],[91.94794,24.56631],[91.94577,24.55944],[91.94378,24.55619],[91.93095,24.54251],[91.92726,24.51241],[91.9283,24.50209],[91.92719,24.49282],[91.92454,24.48869],[91.91748,24.48466],[91.9156,24.48244],[91.91614,24.47954],[91.91878,24.47565],[91.91981,24.47251],[91.91805,24.46994],[91.91534,24.46856],[91.90504,24.4662],[91.90263,24.45717],[91.90323,24.45416],[91.90716,24.44872],[91.89949,24.44977],[91.89315,24.44847],[91.88866,24.44296],[91.88589,24.44158],[91.8839,24.44182],[91.8814,24.44335],[91.8765,24.45072],[91.87391,24.4592],[91.86995,24.46131],[91.86425,24.46153],[91.85294,24.45887],[91.84608,24.45976],[91.84705,24.46282],[91.84454,24.46636],[91.83183,24.47855],[91.8248,24.48934],[91.82471,24.494],[91.82813,24.49449],[91.82843,24.49666],[91.8261,24.49773],[91.82326,24.49749],[91.82021,24.4956],[91.82053,24.49186],[91.81849,24.4901],[91.81642,24.49023],[91.81541,24.4924],[91.81577,24.49824],[91.81033,24.50137],[91.80834,24.50421],[91.80524,24.50633],[91.79862,24.5133],[91.79831,24.51446],[91.80137,24.51905],[91.79219,24.52756],[91.79046,24.53072],[91.78944,24.53799],[91.78761,24.54145],[91.77943,24.54377],[91.77723,24.54512],[91.77874,24.55109],[91.76547,24.55475],[91.75397,24.55978],[91.75153,24.56229],[91.75084,24.5661],[91.75152,24.57089],[91.75122,24.57624],[91.7496,24.57895],[91.74086,24.57635],[91.7375,24.57435],[91.73531,24.57472],[91.73368,24.57719],[91.73421,24.58148],[91.73843,24.58924],[91.73801,24.59362],[91.7411,24.59614],[91.73896,24.6011],[91.74615,24.6018],[91.75072,24.60123],[91.75233,24.60233],[91.75789,24.60148],[91.75878,24.60661],[91.7633,24.61023],[91.76109,24.61502],[91.77172,24.62144],[91.77735,24.62094],[91.77819,24.6239],[91.78365,24.62375],[91.78356,24.62943],[91.78208,24.63259],[91.78179,24.63547],[91.78326,24.64087],[91.78569,24.64412],[91.78899,24.64616],[91.79475,24.6468],[91.79508,24.64226],[91.79768,24.63774],[91.8014,24.63438],[91.80348,24.63918],[91.80763,24.64051],[91.81409,24.64503],[91.81876,24.64163],[91.82851,24.64809],[91.82632,24.65335],[91.83052,24.65559],[91.83862,24.65505],[91.83791,24.64986],[91.84313,24.64747],[91.84736,24.64284],[91.85143,24.64618],[91.86328,24.65175],[91.87058,24.65038],[91.87153,24.65333],[91.88084,24.65348],[91.8838,24.65469],[91.88825,24.65205],[91.89395,24.6528],[91.8957,24.64762],[91.9018,24.65014],[91.90626,24.6475],[91.91008,24.65338],[91.90949,24.65782],[91.90422,24.65941],[91.90461,24.66444],[91.90842,24.66642],[91.91356,24.66605],[91.91595,24.66366],[91.91691,24.65782],[91.92545,24.65513],[91.92812,24.65469],[91.93357,24.65895],[91.93455,24.66459],[91.93625,24.66321],[91.93909,24.65741],[91.94142,24.6564]]]}},{"type":"Feature","properties":{"name":"Sreemangal","district_id":"moulvibazar","pcode":"605883","sql_upazila_id":"moulvibazar-sreemangal","sql_name_bn":"শ্রীমঙ্গল"},"geometry":{"type":"Polygon","coordinates":[[[91.61044,24.46996],[91.61752,24.46587],[91.62698,24.45283],[91.63255,24.44235],[91.63299,24.43836],[91.63503,24.43532],[91.63378,24.43404],[91.63542,24.42916],[91.63246,24.40849],[91.63324,24.40507],[91.63499,24.40231],[91.6386,24.40045],[91.64216,24.40147],[91.64796,24.40722],[91.65123,24.40865],[91.65527,24.40781],[91.66115,24.40237],[91.66438,24.403],[91.66891,24.4057],[91.67475,24.41105],[91.67826,24.41218],[91.67989,24.41212],[91.68489,24.40544],[91.68884,24.40409],[91.69691,24.40367],[91.69746,24.40072],[91.69956,24.39759],[91.70255,24.39588],[91.70915,24.39615],[91.71299,24.39888],[91.71574,24.40245],[91.72012,24.40481],[91.72867,24.40374],[91.73738,24.40622],[91.74065,24.40621],[91.7477,24.40411],[91.75398,24.4006],[91.76217,24.39748],[91.75896,24.34852],[91.75605,24.33417],[91.74907,24.31365],[91.74922,24.29545],[91.74846,24.28888],[91.74202,24.26548],[91.74333,24.24781],[91.75237,24.20419],[91.75278,24.19717],[91.75465,24.18964],[91.75507,24.18308],[91.75706,24.17531],[91.76223,24.14343],[91.7612,24.14158],[91.75256,24.14294],[91.74754,24.14119],[91.74288,24.14067],[91.74033,24.14122],[91.73844,24.14342],[91.73176,24.14241],[91.72713,24.14499],[91.72532,24.14764],[91.72065,24.14954],[91.71007,24.15195],[91.70586,24.15693],[91.70568,24.15952],[91.70277,24.16261],[91.69477,24.15907],[91.6924,24.15933],[91.68494,24.16937],[91.68257,24.17714],[91.68232,24.18215],[91.68011,24.18704],[91.6795,24.19224],[91.67736,24.19461],[91.67699,24.19865],[91.67403,24.2006],[91.67364,24.20422],[91.66833,24.20977],[91.66859,24.21251],[91.66728,24.21508],[91.66909,24.21875],[91.66875,24.2272],[91.66753,24.2304],[91.65906,24.22744],[91.65612,24.22497],[91.6547,24.22175],[91.64809,24.21437],[91.65183,24.20791],[91.65393,24.20221],[91.65276,24.19611],[91.65882,24.1933],[91.66023,24.18757],[91.65648,24.17623],[91.6535,24.17548],[91.64767,24.17799],[91.64494,24.18492],[91.64545,24.18904],[91.64165,24.19308],[91.63869,24.19795],[91.63546,24.19853],[91.63311,24.20155],[91.6333,24.20814],[91.62769,24.21375],[91.62215,24.22715],[91.61783,24.23368],[91.61744,24.24242],[91.61523,24.24985],[91.61761,24.26256],[91.61367,24.2743],[91.61468,24.28586],[91.61047,24.30122],[91.60798,24.3144],[91.60727,24.32803],[91.60635,24.33243],[91.60884,24.33968],[91.60799,24.34407],[91.60013,24.35527],[91.60119,24.36436],[91.60081,24.37063],[91.60836,24.37999],[91.60838,24.38429],[91.60737,24.38789],[91.60706,24.39588],[91.60184,24.39946],[91.60194,24.40795],[91.59879,24.41259],[91.59838,24.41595],[91.60313,24.41922],[91.59709,24.42558],[91.60094,24.43881],[91.60119,24.45304],[91.60925,24.45601],[91.61244,24.45968],[91.61356,24.46337],[91.6128,24.46696],[91.61044,24.46996]]]}}]}