{"type":"FeatureCollection","features":[{"type":"Feature","properties":{"name":"Gazaria","district_id":"munshiganj","pcode":"305924","sql_upazila_id":null,"sql_name_bn":null},"geometry":{"type":"Polygon","coordinates":[[[90.65218,23.61645],[90.65733,23.61461],[90.66022,23.61105],[90.66375,23.60132],[90.66609,23.59818],[90.66772,23.59385],[90.66874,23.5904],[90.66865,23.58749],[90.66031,23.58752],[90.65721,23.58868],[90.65498,23.58771],[90.65082,23.5825],[90.65073,23.57594],[90.64635,23.57398],[90.64977,23.56893],[90.65608,23.56662],[90.65883,23.57003],[90.66408,23.56966],[90.67617,23.56527],[90.67949,23.56176],[90.6854,23.55779],[90.68769,23.55488],[90.69033,23.5491],[90.69106,23.54223],[90.70287,23.5231],[90.708,23.51898],[90.71187,23.51248],[90.71281,23.50846],[90.71154,23.50404],[90.70634,23.49829],[90.69592,23.49351],[90.69154,23.4898],[90.68511,23.48858],[90.68079,23.48856],[90.66737,23.49198],[90.649,23.5019],[90.64471,23.50303],[90.63724,23.50236],[90.63173,23.49878],[90.62546,23.4923],[90.62164,23.49034],[90.60932,23.49069],[90.60113,23.48963],[90.59314,23.48685],[90.59002,23.48431],[90.58562,23.48888],[90.58127,23.50883],[90.58297,23.53617],[90.58177,23.54152],[90.57985,23.54369],[90.58302,23.54795],[90.57958,23.55536],[90.56686,23.57124],[90.56498,23.57689],[90.5636,23.58647],[90.5652,23.59392],[90.5677,23.59917],[90.57236,23.60163],[90.58583,23.60564],[90.59193,23.60621],[90.59901,23.60437],[90.61263,23.6055],[90.62354,23.61316],[90.62971,23.61917],[90.63323,23.61639],[90.64021,23.61502],[90.64845,23.61569],[90.65218,23.61645]]]}},{"type":"Feature","properties":{"name":"Lohajang","district_id":"munshiganj","pcode":"305944","sql_upazila_id":null,"sql_name_bn":null},"geometry":{"type":"Polygon","coordinates":[[[90.36474,23.52896],[90.37273,23.52459],[90.37463,23.52146],[90.37434,23.51988],[90.37172,23.51713],[90.36678,23.51359],[90.36529,23.509],[90.36758,23.50683],[90.3746,23.50511],[90.37875,23.50713],[90.38546,23.50359],[90.38763,23.50348],[90.39008,23.50445],[90.39424,23.50937],[90.39681,23.52538],[90.39895,23.5283],[90.40687,23.52987],[90.40879,23.52988],[90.4108,23.52869],[90.41021,23.51899],[90.41322,23.51823],[90.41364,23.52611],[90.41278,23.52859],[90.41359,23.53062],[90.41608,23.53125],[90.42529,23.52982],[90.4229,23.52273],[90.41952,23.52144],[90.41968,23.51629],[90.41925,23.51449],[90.41779,23.51308],[90.41714,23.51024],[90.41705,23.50064],[90.416,23.49844],[90.41071,23.49336],[90.40945,23.49071],[90.40976,23.48641],[90.40759,23.48395],[90.4044,23.48294],[90.40229,23.47659],[90.39551,23.47144],[90.39474,23.46877],[90.39777,23.46635],[90.39674,23.46267],[90.39783,23.46167],[90.40031,23.46406],[90.40926,23.46922],[90.41267,23.46908],[90.41685,23.46577],[90.42345,23.46464],[90.42638,23.46531],[90.43256,23.46458],[90.43532,23.46349],[90.43632,23.45969],[90.43541,23.45634],[90.43006,23.44944],[90.43118,23.44724],[90.4349,23.44514],[90.43374,23.4414],[90.43024,23.44046],[90.42817,23.44177],[90.42184,23.43934],[90.42016,23.43711],[90.41828,23.43195],[90.4171,23.42775],[90.42267,23.4231],[90.42368,23.4193],[90.41983,23.41711],[90.40897,23.41394],[90.40331,23.4134],[90.39645,23.41391],[90.39079,23.41553],[90.36004,23.43177],[90.34804,23.43464],[90.33383,23.43579],[90.32736,23.43726],[90.32025,23.44023],[90.31653,23.4422],[90.30792,23.45116],[90.30488,23.4529],[90.30165,23.45246],[90.29427,23.44834],[90.2886,23.44739],[90.28419,23.44882],[90.27746,23.45188],[90.26232,23.46293],[90.26302,23.4635],[90.26081,23.46617],[90.25107,23.47446],[90.2443,23.47873],[90.23823,23.48082],[90.23476,23.48319],[90.23837,23.49036],[90.24178,23.49503],[90.25067,23.49825],[90.2597,23.49546],[90.26465,23.49489],[90.27262,23.49647],[90.27622,23.49633],[90.2817,23.49494],[90.2872,23.49224],[90.29286,23.49307],[90.29397,23.49494],[90.29694,23.4971],[90.29984,23.4968],[90.30016,23.49484],[90.30434,23.49332],[90.30941,23.49954],[90.31123,23.5003],[90.31359,23.49824],[90.31494,23.49581],[90.31696,23.49501],[90.32176,23.4981],[90.32433,23.50135],[90.33154,23.50164],[90.33581,23.49936],[90.33739,23.49584],[90.33945,23.49436],[90.34428,23.49407],[90.3517,23.49583],[90.35208,23.49823],[90.35101,23.49997],[90.34614,23.50072],[90.34497,23.50331],[90.34711,23.50452],[90.35085,23.50918],[90.35257,23.51314],[90.35548,23.52593],[90.35791,23.52644],[90.36539,23.52586],[90.36474,23.52896]]]}},{"type":"Feature","properties":{"name":"Munshiganj S.","district_id":"munshiganj","pcode":"305956","sql_upazila_id":null,"sql_name_bn":null},"geometry":{"type":"Polygon","coordinates":[[[90.54571,23.57133],[90.5579,23.56003],[90.56659,23.54397],[90.572,23.5424],[90.57985,23.54369],[90.58177,23.54152],[90.58297,23.53617],[90.58127,23.50883],[90.58562,23.48888],[90.59002,23.48431],[90.58727,23.481],[90.58167,23.46753],[90.58069,23.46218],[90.57642,23.44944],[90.56276,23.4268],[90.55112,23.41017],[90.54459,23.39942],[90.5392,23.3843],[90.5402,23.37767],[90.53164,23.37759],[90.52686,23.37915],[90.51797,23.38435],[90.50912,23.38646],[90.5018,23.39665],[90.5009,23.3997],[90.50009,23.41001],[90.49657,23.41255],[90.48997,23.42176],[90.49368,23.42567],[90.49446,23.43319],[90.48946,23.43583],[90.49255,23.44575],[90.49843,23.44578],[90.50218,23.45523],[90.49948,23.45816],[90.50092,23.46287],[90.50563,23.46932],[90.51019,23.46824],[90.51173,23.47208],[90.51093,23.47851],[90.50688,23.47981],[90.50621,23.48451],[90.50684,23.4953],[90.5051,23.49689],[90.49812,23.49821],[90.49507,23.50372],[90.49337,23.50496],[90.49059,23.50326],[90.48749,23.503],[90.48666,23.50456],[90.48489,23.50524],[90.48203,23.50485],[90.47997,23.5065],[90.48126,23.51047],[90.48083,23.51706],[90.47684,23.52064],[90.47638,23.52552],[90.47935,23.5383],[90.48446,23.55162],[90.48412,23.55465],[90.47445,23.55289],[90.47188,23.55404],[90.4707,23.55607],[90.47167,23.55754],[90.4769,23.55798],[90.47873,23.55924],[90.47455,23.56249],[90.479,23.56822],[90.48256,23.56692],[90.48684,23.5671],[90.49104,23.57043],[90.49129,23.57511],[90.49387,23.57607],[90.51981,23.58056],[90.52427,23.57822],[90.53101,23.57759],[90.53985,23.5745],[90.54571,23.57133]]]}},{"type":"Feature","properties":{"name":"Sirajdikhan","district_id":"munshiganj","pcode":"305974","sql_upazila_id":"munshiganj-sirajdikhan","sql_name_bn":"সিরাজদিখান"},"geometry":{"type":"Polygon","coordinates":[[[90.29037,23.67419],[90.30508,23.66744],[90.31757,23.65885],[90.323,23.65363],[90.32782,23.65078],[90.33083,23.64733],[90.34131,23.64256],[90.34549,23.64343],[90.3555,23.64193],[90.35886,23.64264],[90.36693,23.65097],[90.36781,23.65329],[90.37091,23.65562],[90.38022,23.65562],[90.39185,23.65419],[90.39557,23.65176],[90.40359,23.64384],[90.41094,23.63828],[90.41901,23.6298],[90.4269,23.6192],[90.43189,23.61415],[90.43173,23.6085],[90.43386,23.60021],[90.43361,23.57501],[90.43653,23.5647],[90.44004,23.55941],[90.44224,23.55827],[90.44129,23.55321],[90.44339,23.54898],[90.4348,23.54148],[90.42529,23.52982],[90.41608,23.53125],[90.41359,23.53062],[90.41278,23.52859],[90.41364,23.52611],[90.41322,23.51823],[90.41021,23.51899],[90.4108,23.52869],[90.40879,23.52988],[90.40687,23.52987],[90.39895,23.5283],[90.39681,23.52538],[90.39424,23.50937],[90.39008,23.50445],[90.38763,23.50348],[90.38546,23.50359],[90.37875,23.50713],[90.3746,23.50511],[90.36758,23.50683],[90.36529,23.509],[90.36678,23.51359],[90.37172,23.51713],[90.37434,23.51988],[90.37463,23.52146],[90.37273,23.52459],[90.36474,23.52896],[90.36575,23.5342],[90.36794,23.53706],[90.37115,23.53852],[90.37196,23.54074],[90.37159,23.54309],[90.36961,23.54525],[90.36545,23.54712],[90.365,23.54897],[90.36335,23.5498],[90.35725,23.54921],[90.35471,23.5515],[90.34981,23.55111],[90.34407,23.55428],[90.33993,23.55529],[90.33671,23.55931],[90.33632,23.56098],[90.33109,23.56225],[90.33107,23.56396],[90.33598,23.56636],[90.33756,23.57421],[90.33949,23.57645],[90.34109,23.58047],[90.34415,23.5816],[90.35098,23.58143],[90.35149,23.58428],[90.35048,23.58779],[90.34545,23.59192],[90.34509,23.59472],[90.34325,23.5974],[90.34184,23.59789],[90.33778,23.59708],[90.33506,23.58862],[90.33187,23.58573],[90.32895,23.58534],[90.32623,23.5878],[90.3268,23.59037],[90.32595,23.59364],[90.32259,23.59538],[90.32291,23.59795],[90.31838,23.60234],[90.31507,23.60791],[90.3082,23.61265],[90.30367,23.61293],[90.29964,23.60645],[90.29737,23.60752],[90.29495,23.60714],[90.28452,23.6115],[90.27504,23.60768],[90.2707,23.60983],[90.26839,23.60965],[90.26646,23.61107],[90.26558,23.61326],[90.26581,23.61909],[90.256,23.61709],[90.25231,23.62027],[90.24818,23.62099],[90.24683,23.62834],[90.24371,23.63442],[90.24767,23.63431],[90.25108,23.6363],[90.25173,23.65521],[90.25657,23.65755],[90.271,23.6543],[90.27279,23.65814],[90.27489,23.66027],[90.27679,23.666],[90.28181,23.66559],[90.28573,23.67024],[90.29037,23.67419]]]}},{"type":"Feature","properties":{"name":"Sreenagar","district_id":"munshiganj","pcode":"305984","sql_upazila_id":"munshiganj-sreenagar","sql_name_bn":"শ্রীনগর"},"geometry":{"type":"Polygon","coordinates":[[[90.24371,23.63442],[90.24683,23.62834],[90.24818,23.62099],[90.25231,23.62027],[90.256,23.61709],[90.26581,23.61909],[90.26558,23.61326],[90.26646,23.61107],[90.26839,23.60965],[90.2707,23.60983],[90.27504,23.60768],[90.28452,23.6115],[90.29495,23.60714],[90.29737,23.60752],[90.29964,23.60645],[90.30367,23.61293],[90.3082,23.61265],[90.31507,23.60791],[90.31838,23.60234],[90.32291,23.59795],[90.32259,23.59538],[90.32595,23.59364],[90.3268,23.59037],[90.32623,23.5878],[90.32895,23.58534],[90.33187,23.58573],[90.33506,23.58862],[90.33778,23.59708],[90.34184,23.59789],[90.34325,23.5974],[90.34509,23.59472],[90.34545,23.59192],[90.35048,23.58779],[90.35149,23.58428],[90.35098,23.58143],[90.34415,23.5816],[90.34109,23.58047],[90.33949,23.57645],[90.33756,23.57421],[90.33598,23.56636],[90.33107,23.56396],[90.33109,23.56225],[90.33632,23.56098],[90.33671,23.55931],[90.33993,23.55529],[90.34407,23.55428],[90.34981,23.55111],[90.35471,23.5515],[90.35725,23.54921],[90.36335,23.5498],[90.365,23.54897],[90.36545,23.54712],[90.36961,23.54525],[90.37159,23.54309],[90.37196,23.54074],[90.37115,23.53852],[90.36794,23.53706],[90.36575,23.5342],[90.36474,23.52896],[90.36539,23.52586],[90.35791,23.52644],[90.35548,23.52593],[90.35257,23.51314],[90.35085,23.50918],[90.34711,23.50452],[90.34497,23.50331],[90.34614,23.50072],[90.35101,23.49997],[90.35208,23.49823],[90.3517,23.49583],[90.34428,23.49407],[90.33945,23.49436],[90.33739,23.49584],[90.33581,23.49936],[90.33154,23.50164],[90.32433,23.50135],[90.32176,23.4981],[90.31696,23.49501],[90.31494,23.49581],[90.31359,23.49824],[90.31123,23.5003],[90.30941,23.49954],[90.30434,23.49332],[90.30016,23.49484],[90.29984,23.4968],[90.29694,23.4971],[90.29397,23.49494],[90.29286,23.49307],[90.2872,23.49224],[90.2817,23.49494],[90.27622,23.49633],[90.27262,23.49647],[90.26465,23.49489],[90.2597,23.49546],[90.25067,23.49825],[90.24899,23.49806],[90.24178,23.49503],[90.23837,23.49036],[90.23476,23.48319],[90.23823,23.48082],[90.2443,23.47873],[90.25107,23.47446],[90.26302,23.4635],[90.25389,23.46763],[90.24834,23.46782],[90.24709,23.4649],[90.24291,23.46238],[90.24169,23.45803],[90.23841,23.45882],[90.23346,23.46773],[90.23133,23.46971],[90.22866,23.46997],[90.22172,23.46863],[90.21888,23.46976],[90.21606,23.47393],[90.21388,23.47418],[90.20655,23.4725],[90.20512,23.47499],[90.20338,23.48277],[90.20341,23.48604],[90.20558,23.49106],[90.20137,23.49451],[90.19914,23.50239],[90.19787,23.50391],[90.19453,23.50545],[90.18773,23.50693],[90.18054,23.52961],[90.18254,23.53248],[90.18674,23.5453],[90.18654,23.54948],[90.18475,23.55461],[90.18646,23.56028],[90.18884,23.56332],[90.19186,23.56451],[90.19688,23.5625],[90.20052,23.56396],[90.20849,23.56972],[90.21112,23.57303],[90.21267,23.58466],[90.21232,23.5873],[90.21868,23.59533],[90.22523,23.59912],[90.23091,23.6047],[90.23312,23.61729],[90.23972,23.62239],[90.241,23.62425],[90.24198,23.62823],[90.24371,23.63442]]]}},{"type":"Feature","properties":{"name":"Tongibari","district_id":"munshiganj","pcode":"305994","sql_upazila_id":"munshiganj-tongibari","sql_name_bn":"টংগীবাড়ি"},"geometry":{"type":"Polygon","coordinates":[[[90.47455,23.56249],[90.47873,23.55924],[90.4769,23.55798],[90.47167,23.55754],[90.4707,23.55607],[90.47188,23.55404],[90.47445,23.55289],[90.48412,23.55465],[90.48446,23.55162],[90.47935,23.5383],[90.47638,23.52552],[90.47684,23.52064],[90.48083,23.51706],[90.48126,23.51047],[90.47997,23.5065],[90.48203,23.50485],[90.48489,23.50524],[90.48666,23.50456],[90.48749,23.503],[90.49059,23.50326],[90.49337,23.50496],[90.49507,23.50372],[90.49812,23.49821],[90.5051,23.49689],[90.50684,23.4953],[90.50621,23.48451],[90.50688,23.47981],[90.51093,23.47851],[90.51173,23.47208],[90.51019,23.46824],[90.50563,23.46932],[90.50092,23.46287],[90.49948,23.45816],[90.50218,23.45523],[90.50055,23.45041],[90.49843,23.44578],[90.49255,23.44575],[90.48946,23.43583],[90.49446,23.43319],[90.49368,23.42567],[90.48997,23.42176],[90.49657,23.41255],[90.50009,23.41001],[90.50047,23.40623],[90.4938,23.40862],[90.48146,23.41071],[90.46884,23.41531],[90.45335,23.4193],[90.44404,23.42068],[90.42368,23.4193],[90.42267,23.4231],[90.4171,23.42775],[90.42016,23.43711],[90.42184,23.43934],[90.42817,23.44177],[90.43024,23.44046],[90.43374,23.4414],[90.4349,23.44514],[90.43118,23.44724],[90.43006,23.44944],[90.43541,23.45634],[90.43632,23.45969],[90.43532,23.46349],[90.43256,23.46458],[90.42638,23.46531],[90.42345,23.46464],[90.41685,23.46577],[90.41267,23.46908],[90.40926,23.46922],[90.40031,23.46406],[90.39783,23.46167],[90.39674,23.46267],[90.39777,23.46635],[90.39474,23.46877],[90.39551,23.47144],[90.40229,23.47659],[90.4044,23.48294],[90.40759,23.48395],[90.40976,23.48641],[90.40945,23.49071],[90.41071,23.49336],[90.41426,23.49636],[90.41705,23.50064],[90.4167,23.50762],[90.41779,23.51308],[90.41925,23.51449],[90.41968,23.51629],[90.41952,23.52144],[90.4229,23.52273],[90.42529,23.52982],[90.43069,23.53677],[90.43825,23.54488],[90.44339,23.54898],[90.45037,23.54595],[90.45359,23.54587],[90.45899,23.55225],[90.46677,23.55508],[90.46964,23.55776],[90.47455,23.56249]]]}}]}