{"type":"FeatureCollection","features":[{"type":"Feature","properties":{"name":"Bhaluka","district_id":"mymensingh","pcode":"456113","sql_upazila_id":"mymensingh-bhaluka","sql_name_bn":"ভালুকা"},"geometry":{"type":"Polygon","coordinates":[[[90.46032,24.45756],[90.46483,24.4569],[90.46693,24.4507],[90.46779,24.44562],[90.46372,24.43215],[90.46828,24.42482],[90.46809,24.4226],[90.46677,24.42029],[90.46772,24.4186],[90.47076,24.41695],[90.47121,24.40908],[90.47286,24.40822],[90.47771,24.40847],[90.48172,24.40387],[90.48502,24.40216],[90.4846,24.40062],[90.48214,24.39932],[90.47607,24.39746],[90.4762,24.39567],[90.4743,24.392],[90.47471,24.38074],[90.47572,24.37726],[90.48159,24.37277],[90.48592,24.37224],[90.48874,24.36962],[90.49054,24.36538],[90.48976,24.36029],[90.49626,24.3516],[90.49928,24.35093],[90.5015,24.34868],[90.50217,24.3463],[90.49638,24.34086],[90.49442,24.34012],[90.491,24.33329],[90.49039,24.32717],[90.49578,24.31707],[90.49298,24.31223],[90.48847,24.3127],[90.48405,24.31813],[90.4792,24.31972],[90.47708,24.32128],[90.47298,24.32697],[90.45892,24.33723],[90.45483,24.33902],[90.44758,24.33931],[90.44233,24.33764],[90.43922,24.3376],[90.43169,24.33415],[90.42729,24.33106],[90.4263,24.32925],[90.42679,24.31391],[90.42575,24.30622],[90.42217,24.30751],[90.41953,24.30689],[90.41226,24.29929],[90.40613,24.29023],[90.39761,24.28272],[90.39362,24.28275],[90.38553,24.28993],[90.38298,24.29033],[90.38086,24.29033],[90.37669,24.28654],[90.37189,24.28414],[90.36825,24.2836],[90.3646,24.2846],[90.36035,24.28888],[90.35952,24.29679],[90.3584,24.29911],[90.35535,24.30124],[90.35345,24.3006],[90.34916,24.29687],[90.34434,24.29619],[90.34103,24.29638],[90.32903,24.29993],[90.32208,24.29924],[90.3001,24.28535],[90.29159,24.27855],[90.28468,24.28238],[90.27964,24.28368],[90.27124,24.28422],[90.26724,24.28537],[90.26434,24.28758],[90.26216,24.29167],[90.2615,24.29673],[90.26232,24.29998],[90.26167,24.3028],[90.24949,24.33009],[90.24091,24.33332],[90.23838,24.33587],[90.23607,24.33961],[90.23467,24.34923],[90.23783,24.36526],[90.24481,24.38226],[90.25299,24.411],[90.24924,24.41208],[90.2436,24.41196],[90.23624,24.41469],[90.23718,24.41862],[90.23591,24.42415],[90.23334,24.42769],[90.22846,24.43205],[90.22744,24.43417],[90.2277,24.43711],[90.22681,24.43935],[90.22073,24.44553],[90.22546,24.44865],[90.22854,24.44768],[90.23161,24.44404],[90.23872,24.44131],[90.24416,24.44097],[90.24849,24.43896],[90.25102,24.44025],[90.25264,24.44485],[90.25651,24.44784],[90.25771,24.45101],[90.25826,24.45713],[90.25716,24.47105],[90.2588,24.47226],[90.26595,24.47313],[90.26879,24.47483],[90.27042,24.47747],[90.27509,24.48078],[90.28191,24.4804],[90.28553,24.4769],[90.29123,24.47667],[90.29448,24.47548],[90.30428,24.46698],[90.30748,24.46585],[90.31854,24.46902],[90.32085,24.46935],[90.32336,24.46829],[90.33218,24.47107],[90.33504,24.47115],[90.33618,24.47002],[90.33711,24.46586],[90.34128,24.46189],[90.34775,24.45837],[90.3585,24.45907],[90.36549,24.45656],[90.36822,24.45211],[90.37027,24.45257],[90.37253,24.45973],[90.37536,24.46331],[90.3818,24.46707],[90.38579,24.46786],[90.38671,24.46554],[90.38991,24.4647],[90.38998,24.45838],[90.39188,24.45809],[90.39416,24.45933],[90.39592,24.46451],[90.39462,24.46891],[90.39318,24.47056],[90.39305,24.47257],[90.3955,24.47571],[90.39928,24.47782],[90.40756,24.47878],[90.40922,24.4762],[90.4139,24.47525],[90.41652,24.47144],[90.42288,24.47067],[90.42768,24.46731],[90.42935,24.46507],[90.42964,24.46224],[90.43376,24.45679],[90.43215,24.45271],[90.43302,24.45067],[90.43577,24.44921],[90.43757,24.44921],[90.43996,24.45068],[90.45135,24.4501],[90.45448,24.45075],[90.45973,24.45448],[90.46032,24.45756]]]}},{"type":"Feature","properties":{"name":"Dhobaura","district_id":"mymensingh","pcode":"456116","sql_upazila_id":"mymensingh-dhobaura","sql_name_bn":"ধোবাউড়া"},"geometry":{"type":"Polygon","coordinates":[[[90.4651,25.15328],[90.49403,25.16144],[90.49757,25.16506],[90.5026,25.16639],[90.50812,25.17138],[90.51574,25.16982],[90.51664,25.17059],[90.5167,25.17507],[90.52479,25.172],[90.53201,25.1736],[90.54072,25.17293],[90.55929,25.17411],[90.56077,25.17177],[90.5687,25.17192],[90.57147,25.17102],[90.57359,25.17302],[90.57596,25.17295],[90.58282,25.17077],[90.58557,25.17298],[90.59204,25.17289],[90.59644,25.17567],[90.60482,25.17609],[90.6134,25.17535],[90.61618,25.17842],[90.62036,25.17432],[90.61573,25.16604],[90.61471,25.16132],[90.61272,25.1437],[90.61133,25.14076],[90.61167,25.12594],[90.60824,25.11773],[90.60462,25.09369],[90.59807,25.08718],[90.59412,25.08054],[90.59363,25.06472],[90.5956,25.0619],[90.59711,25.0626],[90.59894,25.065],[90.59909,25.06804],[90.60246,25.07465],[90.60644,25.07779],[90.60847,25.07716],[90.60997,25.07525],[90.61114,25.06673],[90.6134,25.05914],[90.61231,25.05642],[90.60993,25.05386],[90.60886,25.04575],[90.60728,25.04241],[90.60715,25.03868],[90.60825,25.034],[90.60741,25.02708],[90.60008,25.02761],[90.60197,25.03053],[90.60068,25.03476],[90.5985,25.03679],[90.59651,25.03702],[90.59425,25.03468],[90.59584,25.03159],[90.59395,25.02884],[90.59143,25.02795],[90.58746,25.02859],[90.58845,25.03235],[90.58004,25.03641],[90.57901,25.03322],[90.56878,25.03292],[90.56988,25.03627],[90.56509,25.03849],[90.56348,25.04084],[90.56488,25.04584],[90.55872,25.04817],[90.55685,25.05018],[90.55637,25.05277],[90.55393,25.05664],[90.55138,25.0589],[90.54614,25.05666],[90.54483,25.0586],[90.54654,25.06152],[90.55103,25.06345],[90.55156,25.06462],[90.55026,25.06703],[90.53732,25.06773],[90.53452,25.06569],[90.53406,25.05888],[90.53277,25.05743],[90.52131,25.05957],[90.51696,25.05805],[90.5092,25.05898],[90.50689,25.0547],[90.49915,25.05213],[90.49642,25.05279],[90.49563,25.0554],[90.49464,25.05583],[90.48631,25.05603],[90.48291,25.05729],[90.46391,25.05507],[90.46242,25.05139],[90.46334,25.04884],[90.46344,25.04373],[90.46444,25.04163],[90.47038,25.04253],[90.48112,25.03933],[90.48443,25.03727],[90.48086,25.03256],[90.48531,25.02496],[90.48895,25.02387],[90.49338,25.02419],[90.49708,25.02275],[90.49853,25.01909],[90.49298,25.01686],[90.48972,25.01845],[90.48692,25.01636],[90.48956,25.00911],[90.48995,25.00559],[90.48384,25.00722],[90.48043,25.00991],[90.48129,25.01366],[90.47789,25.01447],[90.47013,25.01115],[90.4697,25.00744],[90.45866,25.01094],[90.45978,25.01486],[90.45626,25.01612],[90.45419,25.01567],[90.45256,25.01325],[90.45454,25.00849],[90.45481,25.00308],[90.44828,25.00541],[90.44378,25.00492],[90.44056,25.00766],[90.43929,25.00701],[90.43782,25.0035],[90.4373,24.99858],[90.44047,24.99613],[90.43913,24.99301],[90.42873,24.99116],[90.42516,24.99247],[90.42266,24.99203],[90.41952,24.99334],[90.41585,24.9934],[90.41311,24.99136],[90.411,24.98701],[90.40812,24.98887],[90.40714,24.99177],[90.40027,24.99302],[90.40228,25.00421],[90.40096,25.00826],[90.39613,25.01111],[90.3923,25.0188],[90.3928,25.0227],[90.39587,25.02547],[90.40204,25.02785],[90.40372,25.03015],[90.40305,25.03683],[90.40533,25.04009],[90.41195,25.04074],[90.41704,25.04219],[90.41965,25.04412],[90.42165,25.04842],[90.41824,25.05145],[90.40588,25.05488],[90.4052,25.05731],[90.41206,25.06582],[90.41335,25.07536],[90.43002,25.08293],[90.43491,25.08617],[90.43781,25.08917],[90.44077,25.09425],[90.44195,25.10259],[90.4402,25.10666],[90.43511,25.10952],[90.42879,25.1127],[90.41024,25.1162],[90.40778,25.11736],[90.40737,25.12031],[90.40901,25.12312],[90.41408,25.12566],[90.42487,25.12785],[90.44877,25.13072],[90.45406,25.13262],[90.45847,25.13559],[90.46175,25.13938],[90.46488,25.15211],[90.4651,25.15328]]]}},{"type":"Feature","properties":{"name":"Gaffargaon","district_id":"mymensingh","pcode":"456122","sql_upazila_id":null,"sql_name_bn":null},"geometry":{"type":"Polygon","coordinates":[[[90.5482,24.51111],[90.55374,24.50588],[90.56385,24.50177],[90.56739,24.49775],[90.56801,24.49159],[90.57067,24.48531],[90.57743,24.47696],[90.57663,24.46945],[90.57889,24.4641],[90.57968,24.4596],[90.58193,24.45431],[90.58976,24.44464],[90.60316,24.43921],[90.62018,24.43407],[90.62878,24.43357],[90.63306,24.43164],[90.63657,24.42906],[90.64436,24.4163],[90.64588,24.41544],[90.64697,24.41254],[90.64675,24.40772],[90.64217,24.38997],[90.6409,24.3771],[90.63642,24.36842],[90.63659,24.36393],[90.63575,24.36081],[90.63379,24.35748],[90.63113,24.35556],[90.62801,24.35113],[90.62598,24.34529],[90.6217,24.33963],[90.6217,24.33728],[90.62421,24.33255],[90.62818,24.32864],[90.63327,24.32113],[90.63615,24.31828],[90.63949,24.31208],[90.64497,24.30909],[90.64637,24.30612],[90.64549,24.29594],[90.64608,24.28112],[90.64696,24.27741],[90.6533,24.26642],[90.65386,24.26106],[90.64598,24.26195],[90.63435,24.26819],[90.62691,24.26981],[90.62393,24.2695],[90.60896,24.26575],[90.603,24.26164],[90.59579,24.25866],[90.58663,24.25058],[90.58012,24.24798],[90.57502,24.2474],[90.57246,24.24834],[90.56741,24.25528],[90.56523,24.25695],[90.55865,24.25803],[90.548,24.26646],[90.54689,24.2685],[90.54765,24.27319],[90.54694,24.27464],[90.53962,24.27792],[90.53577,24.28177],[90.52676,24.28424],[90.52345,24.2859],[90.52313,24.28751],[90.52379,24.28887],[90.52954,24.29477],[90.53184,24.29894],[90.53177,24.30089],[90.53026,24.30215],[90.52555,24.30201],[90.51891,24.30791],[90.51243,24.31053],[90.49298,24.31223],[90.49578,24.31707],[90.49039,24.32717],[90.491,24.33329],[90.49442,24.34012],[90.49638,24.34086],[90.50217,24.3463],[90.5015,24.34868],[90.49928,24.35093],[90.49626,24.3516],[90.48976,24.36029],[90.49054,24.36538],[90.48874,24.36962],[90.48592,24.37224],[90.48159,24.37277],[90.47572,24.37726],[90.47471,24.38074],[90.4743,24.392],[90.4762,24.39567],[90.47607,24.39746],[90.48214,24.39932],[90.4846,24.40062],[90.48502,24.40216],[90.48172,24.40387],[90.47771,24.40847],[90.47286,24.40822],[90.47121,24.40908],[90.47076,24.41695],[90.46772,24.4186],[90.46677,24.42029],[90.46809,24.4226],[90.46828,24.42482],[90.46372,24.43215],[90.46779,24.44562],[90.46483,24.4569],[90.46032,24.45756],[90.45689,24.461],[90.44756,24.46433],[90.44527,24.46675],[90.44131,24.48346],[90.44314,24.48455],[90.44984,24.48463],[90.45123,24.48533],[90.45099,24.4901],[90.45203,24.49552],[90.45205,24.49844],[90.45123,24.50026],[90.44669,24.5039],[90.44556,24.50553],[90.4458,24.50679],[90.44816,24.51159],[90.44816,24.51584],[90.45341,24.52324],[90.46175,24.52212],[90.46585,24.52027],[90.46803,24.52066],[90.46729,24.52912],[90.46838,24.53459],[90.46548,24.53732],[90.4654,24.53859],[90.47059,24.5421],[90.47807,24.54336],[90.48316,24.54325],[90.48411,24.54167],[90.48528,24.53548],[90.48734,24.53181],[90.49394,24.52426],[90.49776,24.52139],[90.50263,24.52019],[90.5075,24.51706],[90.5114,24.51682],[90.51385,24.52001],[90.52341,24.51988],[90.52809,24.52105],[90.53196,24.51966],[90.54014,24.51366],[90.5482,24.51111]]]}},{"type":"Feature","properties":{"name":"Gauripur","district_id":"mymensingh","pcode":"456123","sql_upazila_id":null,"sql_name_bn":null},"geometry":{"type":"Polygon","coordinates":[[[90.70963,24.7908],[90.70553,24.78893],[90.70563,24.78594],[90.70939,24.78318],[90.71906,24.7785],[90.7215,24.77273],[90.72126,24.7693],[90.71943,24.76649],[90.71621,24.76499],[90.71252,24.7646],[90.71024,24.76479],[90.70792,24.7663],[90.70557,24.77051],[90.70205,24.77131],[90.69836,24.77046],[90.69618,24.76858],[90.69615,24.76583],[90.69787,24.7609],[90.69772,24.75849],[90.69489,24.75508],[90.70458,24.75114],[90.70947,24.75064],[90.71254,24.74933],[90.71465,24.74731],[90.71384,24.74131],[90.71427,24.73946],[90.72088,24.73798],[90.72173,24.73531],[90.72202,24.72859],[90.7211,24.72546],[90.71844,24.72383],[90.71056,24.72426],[90.70749,24.72144],[90.70377,24.71393],[90.70131,24.71074],[90.69769,24.70845],[90.69627,24.70499],[90.6969,24.69912],[90.69644,24.69655],[90.69827,24.69523],[90.69236,24.69336],[90.68715,24.69353],[90.68315,24.69487],[90.67664,24.69893],[90.67042,24.70068],[90.66427,24.7068],[90.65674,24.70836],[90.646,24.70872],[90.63831,24.71907],[90.63577,24.71921],[90.63404,24.71754],[90.63311,24.71166],[90.63047,24.70877],[90.62665,24.70573],[90.62057,24.70427],[90.61143,24.70784],[90.60377,24.70935],[90.59972,24.70913],[90.57707,24.70395],[90.56905,24.70553],[90.55407,24.71348],[90.54704,24.71324],[90.54427,24.71195],[90.54256,24.70919],[90.54761,24.70335],[90.5473,24.70164],[90.54585,24.70094],[90.53428,24.69821],[90.52776,24.70066],[90.52308,24.69978],[90.51993,24.70022],[90.51416,24.7027],[90.5077,24.7028],[90.50469,24.70203],[90.49393,24.69112],[90.48631,24.6858],[90.46931,24.68007],[90.4633,24.68291],[90.46277,24.694],[90.45836,24.70441],[90.45787,24.70724],[90.45847,24.71037],[90.46014,24.7121],[90.46774,24.71071],[90.47035,24.71092],[90.47345,24.71472],[90.4794,24.71637],[90.48392,24.72185],[90.48908,24.72203],[90.49583,24.72107],[90.49892,24.72264],[90.49497,24.72999],[90.49522,24.73389],[90.49857,24.73993],[90.50303,24.74162],[90.50758,24.73808],[90.50998,24.73715],[90.5126,24.7377],[90.51485,24.73975],[90.51903,24.74667],[90.521,24.74787],[90.52398,24.746],[90.52709,24.74607],[90.52986,24.74713],[90.53217,24.74925],[90.53092,24.75347],[90.53512,24.7585],[90.53178,24.76554],[90.52885,24.7692],[90.52825,24.77197],[90.53195,24.78127],[90.53451,24.7813],[90.54346,24.77722],[90.54761,24.77675],[90.55146,24.78075],[90.55299,24.79],[90.55033,24.79881],[90.55705,24.80898],[90.55446,24.81767],[90.55605,24.82302],[90.5563,24.82737],[90.55846,24.83269],[90.56094,24.83451],[90.56177,24.83907],[90.56395,24.84135],[90.56921,24.8382],[90.57062,24.83769],[90.57381,24.83851],[90.57556,24.83662],[90.57743,24.83627],[90.58094,24.8396],[90.58318,24.83976],[90.58955,24.83858],[90.59119,24.83703],[90.59102,24.83164],[90.58547,24.83131],[90.58483,24.82863],[90.58317,24.82713],[90.58167,24.82265],[90.57993,24.82076],[90.56941,24.81673],[90.56686,24.81469],[90.56648,24.81252],[90.56966,24.8084],[90.57286,24.80945],[90.57921,24.8159],[90.58358,24.81823],[90.58434,24.81659],[90.58393,24.81362],[90.58549,24.80966],[90.59796,24.81059],[90.60266,24.80602],[90.60505,24.80668],[90.60744,24.80953],[90.60933,24.81039],[90.61131,24.81021],[90.61563,24.80496],[90.61542,24.80216],[90.62099,24.80158],[90.6232,24.80047],[90.62538,24.79466],[90.62736,24.79242],[90.6326,24.79282],[90.63713,24.79612],[90.64136,24.79649],[90.64536,24.78942],[90.64924,24.78815],[90.65335,24.7883],[90.65772,24.78907],[90.66522,24.79238],[90.66972,24.7966],[90.67592,24.80012],[90.67728,24.79996],[90.67696,24.7955],[90.68134,24.79845],[90.69538,24.79816],[90.69833,24.79685],[90.70784,24.79884],[90.7082,24.79636],[90.7094,24.79506],[90.71125,24.79459],[90.71162,24.7924],[90.70963,24.7908]]]}},{"type":"Feature","properties":{"name":"Haluaghat","district_id":"mymensingh","pcode":"456124","sql_upazila_id":"mymensingh-haluaghat","sql_name_bn":"হালুয়াঘাট"},"geometry":{"type":"Polygon","coordinates":[[[90.26819,25.19986],[90.27872,25.20021],[90.28175,25.1996],[90.2949,25.19668],[90.31808,25.18966],[90.32874,25.19365],[90.33737,25.19419],[90.34153,25.1935],[90.34507,25.19085],[90.355,25.18011],[90.3702,25.17122],[90.37955,25.16426],[90.38274,25.16307],[90.41447,25.16002],[90.41639,25.15933],[90.42405,25.15296],[90.45236,25.1445],[90.45498,25.14443],[90.45658,25.14597],[90.45964,25.15225],[90.4651,25.15328],[90.46175,25.13938],[90.45847,25.13559],[90.45406,25.13262],[90.44877,25.13072],[90.42487,25.12785],[90.41408,25.12566],[90.40901,25.12312],[90.40737,25.12031],[90.40778,25.11736],[90.41024,25.1162],[90.42879,25.1127],[90.43511,25.10952],[90.4402,25.10666],[90.44195,25.10259],[90.44077,25.09425],[90.43781,25.08917],[90.43491,25.08617],[90.43002,25.08293],[90.41335,25.07536],[90.41206,25.06582],[90.4052,25.05731],[90.40588,25.05488],[90.41824,25.05145],[90.42165,25.04842],[90.41965,25.04412],[90.41704,25.04219],[90.41195,25.04074],[90.40533,25.04009],[90.40305,25.03683],[90.40372,25.03015],[90.40204,25.02785],[90.39587,25.02547],[90.3928,25.0227],[90.3923,25.0188],[90.39613,25.01111],[90.37584,25.00949],[90.37323,25.00785],[90.3659,24.99775],[90.36302,24.99502],[90.35665,24.99453],[90.3527,24.99138],[90.35001,24.99106],[90.34829,24.99175],[90.35078,24.99592],[90.35095,24.99987],[90.3495,25.00141],[90.34702,25.0016],[90.34582,25.00118],[90.34582,24.99687],[90.34411,24.99589],[90.34079,24.99731],[90.33988,25.0071],[90.33527,25.00672],[90.33197,25.00476],[90.32925,25.00111],[90.32666,24.99975],[90.3227,25.00079],[90.32019,25.00443],[90.32001,25.00701],[90.31901,25.00871],[90.31611,25.00966],[90.30939,25.00814],[90.30602,25.0095],[90.30727,25.01193],[90.30701,25.01619],[90.30312,25.01751],[90.30032,25.0173],[90.29645,25.01496],[90.29469,25.01633],[90.29071,25.01674],[90.2905,25.02248],[90.28792,25.02147],[90.28522,25.01903],[90.27988,25.01287],[90.27701,25.01239],[90.25635,25.01593],[90.25336,25.01534],[90.24786,25.01056],[90.24625,25.01939],[90.24204,25.02514],[90.24161,25.02739],[90.24387,25.03255],[90.24339,25.03537],[90.23863,25.03805],[90.23643,25.04238],[90.24077,25.05117],[90.24366,25.0528],[90.247,25.05276],[90.24956,25.05405],[90.25149,25.05753],[90.25412,25.05922],[90.25651,25.06569],[90.25833,25.06744],[90.26017,25.06794],[90.26128,25.06505],[90.26017,25.06162],[90.26255,25.05901],[90.26219,25.05545],[90.26745,25.05239],[90.27617,25.05552],[90.28023,25.05857],[90.28474,25.05984],[90.28655,25.06578],[90.2888,25.06702],[90.29024,25.06907],[90.28911,25.07971],[90.30072,25.08244],[90.30741,25.08092],[90.30903,25.08234],[90.30962,25.08537],[90.30873,25.08706],[90.30611,25.08812],[90.30141,25.09299],[90.29871,25.09136],[90.29313,25.08563],[90.29134,25.08485],[90.28892,25.08585],[90.28107,25.09542],[90.27831,25.09758],[90.27035,25.09894],[90.26596,25.1018],[90.26487,25.10538],[90.26891,25.12461],[90.26989,25.13415],[90.27166,25.13883],[90.27344,25.14749],[90.27288,25.1522],[90.26751,25.15605],[90.26653,25.15882],[90.26796,25.16259],[90.26483,25.16751],[90.26439,25.17188],[90.26748,25.18034],[90.26984,25.18996],[90.26779,25.19727],[90.26819,25.19986]]]}},{"type":"Feature","properties":{"name":"Ishwarganj","district_id":"mymensingh","pcode":"456131","sql_upazila_id":null,"sql_name_bn":null},"geometry":{"type":"Polygon","coordinates":[[[90.69827,24.69523],[90.70387,24.69349],[90.70592,24.69182],[90.70701,24.68909],[90.70397,24.68339],[90.69991,24.67096],[90.70073,24.66714],[90.70262,24.66416],[90.70727,24.65999],[90.70723,24.65694],[90.71132,24.65647],[90.71277,24.65315],[90.71691,24.64882],[90.718,24.64597],[90.72047,24.64359],[90.72288,24.64351],[90.72736,24.64543],[90.72968,24.64202],[90.73213,24.64121],[90.73591,24.64273],[90.7382,24.64248],[90.73972,24.63975],[90.74236,24.62896],[90.74435,24.62707],[90.74744,24.62846],[90.75358,24.62648],[90.7591,24.62629],[90.76013,24.61977],[90.75379,24.61775],[90.74421,24.62094],[90.73076,24.61961],[90.72134,24.61631],[90.7196,24.61424],[90.71671,24.60768],[90.71507,24.60676],[90.7106,24.6088],[90.70723,24.61196],[90.70278,24.61084],[90.70153,24.61249],[90.70444,24.62014],[90.70216,24.62234],[90.69623,24.62334],[90.68475,24.62946],[90.68135,24.62997],[90.67966,24.62939],[90.67616,24.62492],[90.67648,24.62118],[90.67461,24.61705],[90.67313,24.61526],[90.67008,24.61519],[90.66823,24.61359],[90.66755,24.60805],[90.66367,24.60496],[90.66293,24.5989],[90.66176,24.59733],[90.65382,24.59587],[90.64742,24.58753],[90.62761,24.5852],[90.61773,24.58873],[90.61687,24.58698],[90.61647,24.58218],[90.61685,24.58056],[90.61938,24.578],[90.61932,24.57617],[90.61802,24.57421],[90.61419,24.57686],[90.61229,24.57359],[90.61053,24.57267],[90.60484,24.57337],[90.6022,24.57243],[90.59544,24.57248],[90.59158,24.57019],[90.58978,24.57025],[90.58819,24.56921],[90.5875,24.5667],[90.58789,24.56314],[90.59058,24.56173],[90.5918,24.55923],[90.59052,24.55593],[90.58685,24.55732],[90.58553,24.55684],[90.58395,24.55408],[90.57668,24.55805],[90.57531,24.5597],[90.57484,24.56258],[90.57267,24.56472],[90.57056,24.56491],[90.56936,24.56396],[90.5699,24.5574],[90.5685,24.55619],[90.5658,24.55513],[90.5621,24.55605],[90.55999,24.56002],[90.56064,24.56706],[90.55997,24.56966],[90.55441,24.57047],[90.54745,24.56811],[90.54429,24.56804],[90.54288,24.57078],[90.54058,24.57281],[90.53711,24.5708],[90.53522,24.57223],[90.5304,24.58238],[90.52882,24.5838],[90.52769,24.58338],[90.52415,24.57517],[90.52504,24.56768],[90.52412,24.56605],[90.51875,24.56467],[90.51828,24.57622],[90.52152,24.58047],[90.52121,24.59081],[90.51958,24.59643],[90.5117,24.60872],[90.49871,24.62286],[90.47942,24.62772],[90.46833,24.63495],[90.4622,24.64186],[90.46361,24.64927],[90.46621,24.65326],[90.46609,24.65775],[90.46942,24.66516],[90.46931,24.68007],[90.48631,24.6858],[90.49393,24.69112],[90.50469,24.70203],[90.51112,24.70309],[90.51416,24.7027],[90.51993,24.70022],[90.52308,24.69978],[90.52776,24.70066],[90.53428,24.69821],[90.54585,24.70094],[90.5473,24.70164],[90.54761,24.70335],[90.54256,24.70919],[90.54427,24.71195],[90.54704,24.71324],[90.55407,24.71348],[90.56905,24.70553],[90.57707,24.70395],[90.59972,24.70913],[90.60377,24.70935],[90.61143,24.70784],[90.62057,24.70427],[90.62665,24.70573],[90.63047,24.70877],[90.63311,24.71166],[90.63404,24.71754],[90.63577,24.71921],[90.63831,24.71907],[90.646,24.70872],[90.65674,24.70836],[90.66427,24.7068],[90.67042,24.70068],[90.67664,24.69893],[90.68315,24.69487],[90.68715,24.69353],[90.69236,24.69336],[90.69827,24.69523]]]}},{"type":"Feature","properties":{"name":"Muktagachha","district_id":"mymensingh","pcode":"456165","sql_upazila_id":null,"sql_name_bn":null},"geometry":{"type":"Polygon","coordinates":[[[90.20513,24.86202],[90.20776,24.85844],[90.20827,24.85642],[90.21285,24.85347],[90.21614,24.85314],[90.225,24.84731],[90.22769,24.83685],[90.22466,24.83085],[90.2246,24.8285],[90.22785,24.82697],[90.22773,24.82239],[90.23143,24.81912],[90.23496,24.81844],[90.23717,24.82004],[90.23978,24.82633],[90.24268,24.82801],[90.24364,24.82661],[90.24647,24.81649],[90.24677,24.81172],[90.24277,24.80455],[90.24409,24.80273],[90.24571,24.80286],[90.24825,24.80479],[90.25309,24.81107],[90.25626,24.81068],[90.25806,24.80845],[90.25945,24.8048],[90.26177,24.80346],[90.26774,24.80351],[90.27633,24.79947],[90.27885,24.80043],[90.28438,24.80468],[90.28642,24.8041],[90.28867,24.80461],[90.29521,24.8032],[90.29745,24.80514],[90.31081,24.80084],[90.30775,24.79795],[90.31016,24.79512],[90.31455,24.79235],[90.31519,24.79055],[90.30928,24.78195],[90.30972,24.77964],[90.31234,24.77795],[90.32502,24.77343],[90.32673,24.77034],[90.32624,24.76863],[90.3214,24.76425],[90.32198,24.76056],[90.3244,24.75859],[90.33383,24.75802],[90.33566,24.7544],[90.33907,24.75395],[90.3407,24.75241],[90.34121,24.74855],[90.3407,24.7461],[90.33289,24.74261],[90.33238,24.73999],[90.3339,24.73644],[90.33347,24.7345],[90.33189,24.73369],[90.32648,24.73323],[90.32198,24.72814],[90.31593,24.725],[90.3148,24.72067],[90.31332,24.71865],[90.30684,24.71799],[90.3037,24.72129],[90.30134,24.72119],[90.2953,24.7122],[90.29007,24.70082],[90.28785,24.69905],[90.27593,24.69729],[90.26513,24.69314],[90.25806,24.69375],[90.25282,24.69035],[90.25138,24.69028],[90.24976,24.69211],[90.24873,24.69512],[90.24651,24.696],[90.24299,24.69444],[90.2382,24.69446],[90.23509,24.69226],[90.23441,24.68981],[90.23019,24.68529],[90.22591,24.6837],[90.21063,24.68174],[90.20357,24.68207],[90.20056,24.68107],[90.19918,24.67835],[90.20037,24.67407],[90.20267,24.67194],[90.20571,24.67179],[90.20731,24.66876],[90.20398,24.66101],[90.20403,24.65583],[90.19933,24.65018],[90.1942,24.64838],[90.18902,24.64974],[90.18664,24.64912],[90.18498,24.64745],[90.18668,24.64132],[90.18589,24.63778],[90.18864,24.63632],[90.18997,24.63451],[90.18648,24.62956],[90.18434,24.6287],[90.18446,24.62623],[90.18362,24.62517],[90.17947,24.62299],[90.17605,24.61621],[90.17659,24.61321],[90.17313,24.607],[90.17102,24.60471],[90.16752,24.6039],[90.1648,24.60449],[90.15821,24.61065],[90.15491,24.61264],[90.14756,24.61418],[90.14361,24.61722],[90.14696,24.61919],[90.15041,24.62333],[90.15502,24.62555],[90.15575,24.63012],[90.15453,24.64915],[90.15051,24.65385],[90.14927,24.65642],[90.15044,24.66309],[90.14898,24.67559],[90.14667,24.68191],[90.14354,24.6855],[90.14069,24.69069],[90.14003,24.69363],[90.14151,24.70008],[90.1348,24.71582],[90.13657,24.72639],[90.13924,24.73084],[90.13804,24.73482],[90.13459,24.73826],[90.11808,24.73903],[90.11041,24.73805],[90.10352,24.73813],[90.10098,24.73878],[90.09801,24.74368],[90.09825,24.75269],[90.10364,24.7566],[90.10371,24.75947],[90.10215,24.76594],[90.09679,24.77711],[90.08797,24.7866],[90.08679,24.78916],[90.08804,24.79122],[90.09137,24.79299],[90.09747,24.79344],[90.10328,24.79179],[90.10928,24.78628],[90.11703,24.78542],[90.12125,24.78989],[90.13185,24.7909],[90.13679,24.78966],[90.14354,24.78184],[90.14667,24.78243],[90.14812,24.78348],[90.1498,24.78779],[90.15303,24.79246],[90.16548,24.79526],[90.1669,24.79728],[90.16602,24.8035],[90.16949,24.81917],[90.17492,24.82665],[90.17764,24.828],[90.18672,24.8283],[90.19483,24.82709],[90.19655,24.8283],[90.1961,24.83004],[90.19106,24.83449],[90.18861,24.84053],[90.18913,24.84356],[90.19507,24.84682],[90.19569,24.84881],[90.19534,24.85238],[90.1963,24.85528],[90.20061,24.85819],[90.20513,24.86202]]]}},{"type":"Feature","properties":{"name":"Mymensingh S.","district_id":"mymensingh","pcode":"456152","sql_upazila_id":null,"sql_name_bn":null},"geometry":{"type":"Polygon","coordinates":[[[90.24524,24.89261],[90.25341,24.89557],[90.25713,24.89478],[90.26286,24.89054],[90.26575,24.88964],[90.27646,24.88944],[90.28564,24.89083],[90.29428,24.89074],[90.29893,24.88985],[90.30207,24.88889],[90.30566,24.88625],[90.31004,24.87821],[90.31586,24.87528],[90.31841,24.87514],[90.31991,24.87091],[90.3224,24.87078],[90.32681,24.8773],[90.32851,24.87793],[90.33169,24.87583],[90.33783,24.86669],[90.34061,24.86396],[90.3453,24.86044],[90.34956,24.85933],[90.34901,24.85734],[90.34766,24.85617],[90.35145,24.85336],[90.35133,24.85136],[90.35242,24.84857],[90.35452,24.84592],[90.3595,24.84175],[90.36414,24.8384],[90.36633,24.8389],[90.36813,24.84327],[90.37044,24.84331],[90.38351,24.8351],[90.38363,24.83286],[90.38088,24.82836],[90.38194,24.82631],[90.38709,24.82145],[90.39006,24.82084],[90.39354,24.82515],[90.39646,24.82495],[90.41729,24.81845],[90.43388,24.81186],[90.43797,24.80897],[90.44411,24.80235],[90.45161,24.79718],[90.45509,24.79093],[90.45716,24.78937],[90.46056,24.78881],[90.46768,24.78594],[90.47544,24.78134],[90.48493,24.77857],[90.49354,24.77325],[90.49608,24.7707],[90.50112,24.77111],[90.50449,24.76946],[90.50685,24.76726],[90.50831,24.76411],[90.50791,24.76126],[90.50947,24.75323],[90.50947,24.74904],[90.50351,24.74521],[90.5039,24.7437],[90.50303,24.74162],[90.49857,24.73993],[90.49522,24.73389],[90.49497,24.72999],[90.49892,24.72264],[90.49583,24.72107],[90.48908,24.72203],[90.48392,24.72185],[90.4794,24.71637],[90.47345,24.71472],[90.47035,24.71092],[90.46774,24.71071],[90.46014,24.7121],[90.45847,24.71037],[90.45787,24.70724],[90.45836,24.70441],[90.46277,24.694],[90.4633,24.68291],[90.46931,24.68007],[90.46976,24.67869],[90.46942,24.66516],[90.46609,24.65775],[90.46621,24.65326],[90.46361,24.64927],[90.4622,24.64186],[90.45107,24.64519],[90.44839,24.64505],[90.44471,24.64235],[90.44118,24.64872],[90.41963,24.65742],[90.41525,24.66054],[90.40314,24.66672],[90.39715,24.66587],[90.38501,24.66705],[90.37923,24.66935],[90.3663,24.67703],[90.36303,24.67811],[90.35849,24.67791],[90.35054,24.67574],[90.34407,24.67761],[90.34028,24.68179],[90.3402,24.68558],[90.34487,24.69439],[90.34561,24.69661],[90.34487,24.69887],[90.34229,24.69992],[90.33839,24.7001],[90.33713,24.7018],[90.33389,24.70362],[90.32366,24.70674],[90.31799,24.70583],[90.31299,24.70322],[90.31008,24.70314],[90.30789,24.70499],[90.30656,24.70835],[90.30684,24.71799],[90.31332,24.71865],[90.3148,24.72067],[90.31593,24.725],[90.32198,24.72814],[90.32648,24.73323],[90.33189,24.73369],[90.33347,24.7345],[90.3339,24.73644],[90.33238,24.73999],[90.33289,24.74261],[90.3407,24.7461],[90.34121,24.74855],[90.3407,24.75241],[90.33907,24.75395],[90.33566,24.7544],[90.33383,24.75802],[90.3244,24.75859],[90.32198,24.76056],[90.3214,24.76425],[90.32624,24.76863],[90.32673,24.77034],[90.32502,24.77343],[90.31234,24.77795],[90.30972,24.77964],[90.30928,24.78195],[90.31519,24.79055],[90.31455,24.79235],[90.31016,24.79512],[90.30775,24.79795],[90.31081,24.80084],[90.29745,24.80514],[90.29521,24.8032],[90.28867,24.80461],[90.28642,24.8041],[90.28438,24.80468],[90.27885,24.80043],[90.27633,24.79947],[90.26774,24.80351],[90.26177,24.80346],[90.25945,24.8048],[90.25806,24.80845],[90.25626,24.81068],[90.25309,24.81107],[90.24825,24.80479],[90.24571,24.80286],[90.24409,24.80273],[90.24277,24.80455],[90.24677,24.81172],[90.24647,24.81649],[90.24268,24.82801],[90.23978,24.82633],[90.23717,24.82004],[90.23496,24.81844],[90.23143,24.81912],[90.22773,24.82239],[90.22785,24.82697],[90.2246,24.8285],[90.22466,24.83085],[90.22769,24.83685],[90.225,24.84731],[90.21614,24.85314],[90.21285,24.85347],[90.20827,24.85642],[90.20776,24.85844],[90.20513,24.86202],[90.20628,24.86514],[90.20537,24.86626],[90.20308,24.86673],[90.19543,24.86454],[90.19122,24.8653],[90.19146,24.86719],[90.19357,24.86907],[90.1977,24.87021],[90.19904,24.87144],[90.20621,24.88545],[90.21255,24.88532],[90.21843,24.88394],[90.22854,24.88318],[90.23341,24.88344],[90.23735,24.88408],[90.24322,24.88918],[90.24524,24.89261]]]}},{"type":"Feature","properties":{"name":"Nandail","district_id":"mymensingh","pcode":"456172","sql_upazila_id":"mymensingh-nandail","sql_name_bn":"নান্দাইল"},"geometry":{"type":"Polygon","coordinates":[[[90.76013,24.61977],[90.75895,24.60811],[90.75734,24.60259],[90.75935,24.60155],[90.76974,24.60029],[90.77629,24.6011],[90.77706,24.60325],[90.77465,24.60609],[90.77657,24.60964],[90.77921,24.60863],[90.78311,24.6027],[90.79326,24.59794],[90.79455,24.59176],[90.79628,24.58975],[90.79674,24.58663],[90.7943,24.58413],[90.79396,24.58145],[90.79015,24.57693],[90.7896,24.57528],[90.79026,24.5744],[90.79284,24.57546],[90.7955,24.5752],[90.79575,24.57347],[90.79474,24.5708],[90.79514,24.56792],[90.7968,24.56753],[90.79888,24.57044],[90.80762,24.57198],[90.80598,24.57691],[90.80774,24.57754],[90.81215,24.57383],[90.81471,24.57443],[90.81555,24.57733],[90.81838,24.5785],[90.82153,24.57414],[90.81902,24.57141],[90.8194,24.56756],[90.81078,24.55861],[90.81072,24.55684],[90.8144,24.55355],[90.81432,24.55103],[90.81137,24.54803],[90.80965,24.54482],[90.81099,24.54018],[90.80804,24.53184],[90.8056,24.5367],[90.80467,24.53678],[90.80138,24.53116],[90.804,24.52556],[90.79935,24.52015],[90.79855,24.5126],[90.79447,24.51125],[90.79457,24.50275],[90.79333,24.50108],[90.78423,24.50333],[90.7722,24.50157],[90.75911,24.50533],[90.75645,24.50169],[90.75633,24.49612],[90.75437,24.4951],[90.75098,24.49596],[90.74612,24.50284],[90.74483,24.50121],[90.7439,24.49138],[90.73993,24.48164],[90.73753,24.47839],[90.73306,24.47647],[90.72974,24.4697],[90.7272,24.46766],[90.72414,24.46708],[90.71874,24.47081],[90.71728,24.47367],[90.71658,24.4846],[90.71508,24.4862],[90.712,24.48699],[90.71092,24.48816],[90.71081,24.49042],[90.70518,24.4929],[90.70549,24.49478],[90.70831,24.49939],[90.70682,24.50346],[90.7073,24.50539],[90.70536,24.50643],[90.70002,24.50644],[90.69536,24.50189],[90.6905,24.50125],[90.68826,24.49707],[90.6824,24.49469],[90.68225,24.49159],[90.68495,24.4907],[90.68345,24.48633],[90.68555,24.48196],[90.68531,24.47847],[90.68324,24.47578],[90.68059,24.47604],[90.67958,24.47383],[90.68246,24.46886],[90.68291,24.46512],[90.681,24.46168],[90.67397,24.45864],[90.67117,24.45856],[90.67183,24.46187],[90.66786,24.46189],[90.664,24.46345],[90.66135,24.466],[90.64939,24.47225],[90.63962,24.4709],[90.63956,24.47314],[90.64156,24.47566],[90.63973,24.47658],[90.63361,24.475],[90.62631,24.48373],[90.61831,24.48772],[90.61765,24.49033],[90.6149,24.49162],[90.61247,24.49136],[90.60513,24.49475],[90.60046,24.49198],[90.59844,24.49313],[90.59387,24.49357],[90.59153,24.49198],[90.58894,24.48874],[90.58385,24.48047],[90.57743,24.47696],[90.57067,24.48531],[90.56801,24.49159],[90.56739,24.49775],[90.56596,24.49975],[90.56385,24.50177],[90.55374,24.50588],[90.5482,24.51111],[90.54194,24.52147],[90.5295,24.53265],[90.51993,24.54661],[90.51649,24.55407],[90.51631,24.56016],[90.51875,24.56467],[90.52412,24.56605],[90.52504,24.56768],[90.52415,24.57517],[90.52769,24.58338],[90.52882,24.5838],[90.5304,24.58238],[90.53522,24.57223],[90.53711,24.5708],[90.54058,24.57281],[90.54288,24.57078],[90.54429,24.56804],[90.54745,24.56811],[90.55441,24.57047],[90.55997,24.56966],[90.56064,24.56706],[90.55999,24.56002],[90.5621,24.55605],[90.5658,24.55513],[90.5699,24.5574],[90.56936,24.56396],[90.57056,24.56491],[90.57267,24.56472],[90.57484,24.56258],[90.57531,24.5597],[90.57668,24.55805],[90.58253,24.55436],[90.58395,24.55408],[90.58553,24.55684],[90.58685,24.55732],[90.59052,24.55593],[90.5918,24.55923],[90.59058,24.56173],[90.58789,24.56314],[90.5875,24.5667],[90.58819,24.56921],[90.58978,24.57025],[90.59158,24.57019],[90.59544,24.57248],[90.6022,24.57243],[90.60484,24.57337],[90.61053,24.57267],[90.61229,24.57359],[90.61419,24.57686],[90.61802,24.57421],[90.61932,24.57617],[90.61938,24.578],[90.61685,24.58056],[90.61647,24.58218],[90.61687,24.58698],[90.61773,24.58873],[90.62761,24.5852],[90.64742,24.58753],[90.65382,24.59587],[90.66176,24.59733],[90.66293,24.5989],[90.66367,24.60496],[90.66755,24.60805],[90.66823,24.61359],[90.67008,24.61519],[90.67313,24.61526],[90.67461,24.61705],[90.67648,24.62118],[90.67616,24.62492],[90.67966,24.62939],[90.68135,24.62997],[90.68475,24.62946],[90.69623,24.62334],[90.70216,24.62234],[90.70344,24.62149],[90.70444,24.62014],[90.70153,24.61249],[90.70278,24.61084],[90.70723,24.61196],[90.7106,24.6088],[90.71507,24.60676],[90.71671,24.60768],[90.7196,24.61424],[90.72134,24.61631],[90.73076,24.61961],[90.74421,24.62094],[90.75379,24.61775],[90.76013,24.61977]]]}},{"type":"Feature","properties":{"name":"Phulpur","district_id":"mymensingh","pcode":"456181","sql_upazila_id":"mymensingh-phulpur","sql_name_bn":"ফুলপুর"},"geometry":{"type":"Polygon","coordinates":[[[90.39613,25.01111],[90.40096,25.00826],[90.40228,25.00421],[90.40027,24.99302],[90.40714,24.99177],[90.40812,24.98887],[90.411,24.98701],[90.41311,24.99136],[90.41585,24.9934],[90.41952,24.99334],[90.42266,24.99203],[90.42516,24.99247],[90.42873,24.99116],[90.43913,24.99301],[90.44047,24.99613],[90.4373,24.99858],[90.43782,25.0035],[90.43929,25.00701],[90.44056,25.00766],[90.44378,25.00492],[90.44828,25.00541],[90.45481,25.00308],[90.45454,25.00849],[90.45256,25.01325],[90.45419,25.01567],[90.45626,25.01612],[90.45978,25.01486],[90.45866,25.01094],[90.4697,25.00744],[90.47013,25.01115],[90.47789,25.01447],[90.48129,25.01366],[90.48043,25.00991],[90.48384,25.00722],[90.48995,25.00559],[90.48956,25.00911],[90.48692,25.01636],[90.48972,25.01845],[90.49298,25.01686],[90.49853,25.01909],[90.50683,25.01975],[90.50923,25.01887],[90.51016,25.01632],[90.50875,25.0132],[90.50219,25.00853],[90.49979,25.0054],[90.49908,25.00295],[90.50104,25.0014],[90.50867,25.00242],[90.51089,25.00177],[90.51003,24.99583],[90.51198,24.99238],[90.50998,24.98614],[90.51085,24.98387],[90.51667,24.98288],[90.51715,24.97787],[90.51973,24.97504],[90.52787,24.9764],[90.52341,24.97067],[90.51912,24.96284],[90.51766,24.95806],[90.5177,24.95301],[90.52138,24.94291],[90.52362,24.94295],[90.52997,24.947],[90.53444,24.94875],[90.53529,24.94624],[90.53417,24.94416],[90.5315,24.94218],[90.53178,24.93919],[90.53999,24.93899],[90.54225,24.93742],[90.5472,24.93646],[90.54784,24.93506],[90.54573,24.92905],[90.54404,24.93099],[90.54111,24.93092],[90.53944,24.92913],[90.53857,24.92503],[90.53857,24.91699],[90.53967,24.91409],[90.54187,24.91275],[90.54469,24.90538],[90.54343,24.90083],[90.54378,24.89766],[90.5385,24.89393],[90.53773,24.8916],[90.54271,24.88507],[90.54491,24.88414],[90.55105,24.8851],[90.55601,24.88258],[90.56218,24.88491],[90.56565,24.88462],[90.56924,24.88416],[90.57061,24.88182],[90.57048,24.87575],[90.5746,24.86999],[90.57121,24.86918],[90.57057,24.86455],[90.57117,24.86132],[90.57507,24.85299],[90.57135,24.85328],[90.56993,24.85172],[90.57157,24.84633],[90.57028,24.84499],[90.56393,24.8449],[90.56316,24.84402],[90.56395,24.84135],[90.56177,24.83907],[90.56094,24.83451],[90.55846,24.83269],[90.5563,24.82737],[90.55605,24.82302],[90.55446,24.81767],[90.55705,24.80898],[90.55033,24.79881],[90.55299,24.79],[90.55146,24.78075],[90.54761,24.77675],[90.54346,24.77722],[90.53451,24.7813],[90.53195,24.78127],[90.52825,24.77197],[90.52885,24.7692],[90.53178,24.76554],[90.53512,24.7585],[90.53092,24.75347],[90.53217,24.74925],[90.52986,24.74713],[90.52709,24.74607],[90.52398,24.746],[90.521,24.74787],[90.51903,24.74667],[90.51485,24.73975],[90.5126,24.7377],[90.50998,24.73715],[90.50758,24.73808],[90.50303,24.74162],[90.5039,24.7437],[90.50351,24.74521],[90.50947,24.74904],[90.50947,24.75323],[90.50791,24.76126],[90.50831,24.76411],[90.50685,24.76726],[90.50449,24.76946],[90.50112,24.77111],[90.49608,24.7707],[90.49354,24.77325],[90.48493,24.77857],[90.47544,24.78134],[90.46768,24.78594],[90.46056,24.78881],[90.45716,24.78937],[90.45509,24.79093],[90.45161,24.79718],[90.44411,24.80235],[90.43797,24.80897],[90.43388,24.81186],[90.41729,24.81845],[90.39646,24.82495],[90.39354,24.82515],[90.39006,24.82084],[90.38709,24.82145],[90.38194,24.82631],[90.38088,24.82836],[90.38363,24.83286],[90.38351,24.8351],[90.37044,24.84331],[90.36813,24.84327],[90.36633,24.8389],[90.36414,24.8384],[90.3595,24.84175],[90.35452,24.84592],[90.35242,24.84857],[90.35133,24.85136],[90.35145,24.85336],[90.34766,24.85617],[90.34901,24.85734],[90.34956,24.85933],[90.3453,24.86044],[90.34061,24.86396],[90.33783,24.86669],[90.33169,24.87583],[90.32851,24.87793],[90.32681,24.8773],[90.3224,24.87078],[90.31991,24.87091],[90.31841,24.87514],[90.31586,24.87528],[90.31004,24.87821],[90.30566,24.88625],[90.30207,24.88889],[90.29893,24.88985],[90.29428,24.89074],[90.28564,24.89083],[90.27646,24.88944],[90.26575,24.88964],[90.26286,24.89054],[90.25713,24.89478],[90.25341,24.89557],[90.24524,24.89261],[90.2468,24.90628],[90.25265,24.92378],[90.25314,24.92772],[90.24531,24.9349],[90.24168,24.94098],[90.24113,24.94352],[90.24403,24.94733],[90.2489,24.94983],[90.26041,24.94724],[90.26415,24.94765],[90.26669,24.94981],[90.26558,24.95415],[90.2627,24.95802],[90.25584,24.96207],[90.2506,24.96355],[90.24887,24.96888],[90.2476,24.96983],[90.24604,24.97005],[90.24496,24.96928],[90.24316,24.96515],[90.24102,24.96429],[90.2387,24.96574],[90.23599,24.97143],[90.23576,24.9765],[90.24115,24.98437],[90.24199,24.98985],[90.24605,24.99461],[90.24863,25.00458],[90.24786,25.01056],[90.25336,25.01534],[90.25996,25.0156],[90.27701,25.01239],[90.27988,25.01287],[90.28522,25.01903],[90.28792,25.02147],[90.2905,25.02248],[90.29071,25.01674],[90.29469,25.01633],[90.29645,25.01496],[90.30032,25.0173],[90.30312,25.01751],[90.30701,25.01619],[90.30727,25.01193],[90.30602,25.0095],[90.30939,25.00814],[90.31611,25.00966],[90.31901,25.00871],[90.32001,25.00701],[90.32019,25.00443],[90.3227,25.00079],[90.32666,24.99975],[90.32925,25.00111],[90.33197,25.00476],[90.33527,25.00672],[90.33988,25.0071],[90.34079,24.99731],[90.34411,24.99589],[90.34582,24.99687],[90.34582,25.00118],[90.34702,25.0016],[90.3495,25.00141],[90.35095,24.99987],[90.35078,24.99592],[90.34829,24.99175],[90.35001,24.99106],[90.3527,24.99138],[90.35665,24.99453],[90.36302,24.99502],[90.3659,24.99775],[90.37323,25.00785],[90.37584,25.00949],[90.38889,25.01058],[90.39613,25.01111]]]}},{"type":"Feature","properties":{"name":"Trishal","district_id":"mymensingh","pcode":"456194","sql_upazila_id":"mymensingh-trishal","sql_name_bn":"ত্রিশাল"},"geometry":{"type":"Polygon","coordinates":[[[90.4622,24.64186],[90.46833,24.63495],[90.47942,24.62772],[90.49871,24.62286],[90.5117,24.60872],[90.51568,24.60287],[90.51958,24.59643],[90.52181,24.58586],[90.52152,24.58047],[90.51828,24.57622],[90.51875,24.56467],[90.51631,24.56016],[90.51649,24.55407],[90.51993,24.54661],[90.5295,24.53265],[90.54194,24.52147],[90.5482,24.51111],[90.54014,24.51366],[90.53196,24.51966],[90.52809,24.52105],[90.52341,24.51988],[90.51385,24.52001],[90.5114,24.51682],[90.5075,24.51706],[90.50263,24.52019],[90.49776,24.52139],[90.49394,24.52426],[90.48734,24.53181],[90.48528,24.53548],[90.48411,24.54167],[90.48316,24.54325],[90.47807,24.54336],[90.47059,24.5421],[90.4654,24.53859],[90.46548,24.53732],[90.46838,24.53459],[90.46729,24.52912],[90.46803,24.52066],[90.46585,24.52027],[90.46175,24.52212],[90.45341,24.52324],[90.44816,24.51584],[90.44816,24.51159],[90.44556,24.50553],[90.45123,24.50026],[90.45205,24.49844],[90.45099,24.4901],[90.45123,24.48533],[90.44984,24.48463],[90.44314,24.48455],[90.44131,24.48346],[90.44527,24.46675],[90.44756,24.46433],[90.45689,24.461],[90.46032,24.45756],[90.45973,24.45448],[90.45448,24.45075],[90.45135,24.4501],[90.43996,24.45068],[90.43757,24.44921],[90.43577,24.44921],[90.43302,24.45067],[90.43215,24.45271],[90.43376,24.45679],[90.42964,24.46224],[90.42935,24.46507],[90.42768,24.46731],[90.42288,24.47067],[90.41652,24.47144],[90.4139,24.47525],[90.40922,24.4762],[90.40756,24.47878],[90.39928,24.47782],[90.3955,24.47571],[90.39305,24.47257],[90.39318,24.47056],[90.39462,24.46891],[90.39592,24.46451],[90.39416,24.45933],[90.39188,24.45809],[90.38998,24.45838],[90.38991,24.4647],[90.38671,24.46554],[90.38579,24.46786],[90.3818,24.46707],[90.37536,24.46331],[90.37253,24.45973],[90.37027,24.45257],[90.36822,24.45211],[90.36549,24.45656],[90.3585,24.45907],[90.34775,24.45837],[90.34128,24.46189],[90.33711,24.46586],[90.33618,24.47002],[90.33504,24.47115],[90.33218,24.47107],[90.32336,24.46829],[90.32085,24.46935],[90.31854,24.46902],[90.30748,24.46585],[90.30428,24.46698],[90.30138,24.46948],[90.3069,24.47385],[90.30833,24.47621],[90.30799,24.47955],[90.30888,24.48239],[90.31061,24.48429],[90.3138,24.48534],[90.32253,24.48468],[90.32448,24.48587],[90.32579,24.49714],[90.32375,24.50179],[90.32518,24.50387],[90.32693,24.51099],[90.32871,24.5146],[90.33166,24.51767],[90.33406,24.51926],[90.3399,24.51971],[90.3381,24.52206],[90.33721,24.52529],[90.33955,24.52925],[90.34675,24.53144],[90.34723,24.53297],[90.34731,24.53572],[90.34506,24.53728],[90.34007,24.5387],[90.33241,24.53945],[90.33209,24.5417],[90.32664,24.54646],[90.32511,24.54897],[90.32879,24.55402],[90.32951,24.55773],[90.32871,24.56005],[90.32635,24.5623],[90.32888,24.56577],[90.33264,24.56721],[90.34215,24.5675],[90.34417,24.56893],[90.34476,24.5743],[90.33942,24.57837],[90.3396,24.58272],[90.34223,24.58557],[90.35297,24.59207],[90.35429,24.59495],[90.35973,24.60057],[90.36057,24.60377],[90.36075,24.61231],[90.35944,24.6143],[90.3569,24.61398],[90.35588,24.61561],[90.35471,24.62036],[90.35194,24.62297],[90.35084,24.62558],[90.35044,24.63133],[90.34814,24.63358],[90.34312,24.63586],[90.33613,24.64336],[90.33501,24.65171],[90.33535,24.65515],[90.33136,24.65889],[90.33088,24.66165],[90.3324,24.66465],[90.34647,24.66789],[90.3497,24.66997],[90.35054,24.67574],[90.35849,24.67791],[90.36303,24.67811],[90.3663,24.67703],[90.37923,24.66935],[90.38501,24.66705],[90.39715,24.66587],[90.40314,24.66672],[90.41525,24.66054],[90.41963,24.65742],[90.44118,24.64872],[90.44471,24.64235],[90.44839,24.64505],[90.45107,24.64519],[90.4622,24.64186]]]}}]}