{"type":"FeatureCollection","features":[{"type":"Feature","properties":{"name":"Atrai","district_id":"naogaon","pcode":"506403","sql_upazila_id":"naogaon-atrai","sql_name_bn":"আত্রাই"},"geometry":{"type":"Polygon","coordinates":[[[88.84404,24.69476],[88.85495,24.69361],[88.86061,24.69189],[88.87204,24.68573],[88.87453,24.68564],[88.87733,24.68402],[88.879,24.68196],[88.87977,24.67712],[88.88119,24.67517],[88.88498,24.67381],[88.88778,24.67515],[88.88857,24.67764],[88.88809,24.68088],[88.89008,24.68824],[88.88882,24.69398],[88.88971,24.69625],[88.89555,24.7006],[88.90136,24.6949],[88.9108,24.69104],[88.91389,24.68719],[88.91622,24.68206],[88.92403,24.67617],[88.92607,24.6733],[88.92616,24.6687],[88.92327,24.66647],[88.92156,24.66342],[88.92447,24.66276],[88.93206,24.66528],[88.93707,24.66164],[88.93928,24.66445],[88.94071,24.66488],[88.94306,24.66156],[88.94602,24.65914],[88.94796,24.65866],[88.95036,24.66277],[88.94479,24.6759],[88.94384,24.6804],[88.94499,24.68413],[88.9472,24.68643],[88.95169,24.68796],[88.96116,24.68625],[88.97697,24.69081],[88.97796,24.68858],[88.98348,24.6855],[88.98666,24.67808],[88.98816,24.6717],[88.99014,24.6702],[88.99087,24.6674],[88.99366,24.66555],[89.00234,24.66731],[89.00483,24.6666],[89.00858,24.66723],[89.01642,24.66576],[89.01777,24.66336],[89.01747,24.65797],[89.01588,24.65492],[89.01693,24.65298],[89.02418,24.6484],[89.02892,24.64919],[89.03162,24.65057],[89.04626,24.64265],[89.04871,24.64432],[89.05182,24.64412],[89.05318,24.64307],[89.05341,24.64011],[89.0527,24.63802],[89.05399,24.6359],[89.05778,24.63409],[89.06226,24.63346],[89.06613,24.63414],[89.06933,24.6362],[89.07104,24.63862],[89.07366,24.64608],[89.07339,24.65091],[89.07625,24.65621],[89.07667,24.66046],[89.07813,24.66396],[89.08051,24.66574],[89.09268,24.66631],[89.09568,24.65417],[89.09189,24.64872],[89.09232,24.6415],[89.0958,24.64015],[89.09893,24.64163],[89.10097,24.63997],[89.09845,24.63688],[89.09858,24.63142],[89.1016,24.6215],[89.10108,24.61913],[89.09938,24.61694],[89.09907,24.6028],[89.09789,24.59856],[89.09537,24.59518],[89.0959,24.59229],[89.10043,24.58961],[89.10455,24.58462],[89.105,24.57308],[89.10397,24.56958],[89.10468,24.56514],[89.10419,24.56026],[89.09924,24.55687],[89.09822,24.55495],[89.09907,24.55205],[89.09447,24.54025],[89.09203,24.53943],[89.08668,24.54115],[89.07791,24.53435],[89.07454,24.53359],[89.05744,24.53718],[89.05331,24.53531],[89.05151,24.53527],[89.04131,24.54473],[89.03802,24.54569],[89.03536,24.54764],[89.03212,24.55439],[89.02985,24.55737],[89.02718,24.55854],[89.0235,24.55785],[89.01834,24.55247],[89.0159,24.55114],[89.01216,24.55137],[89.00826,24.55323],[89.00661,24.55603],[89.00637,24.55905],[89.00838,24.56118],[89.01169,24.56182],[89.01152,24.56352],[89.00262,24.57113],[88.99427,24.57113],[88.99023,24.57209],[88.98186,24.57777],[88.96778,24.58522],[88.96579,24.58496],[88.96171,24.58166],[88.95956,24.58453],[88.95348,24.58052],[88.94618,24.58544],[88.94073,24.5913],[88.93417,24.58934],[88.93211,24.59579],[88.92901,24.59855],[88.92667,24.60199],[88.92248,24.61555],[88.91337,24.62946],[88.91216,24.63322],[88.91208,24.63907],[88.91029,24.6416],[88.90582,24.64313],[88.90063,24.64285],[88.8927,24.64023],[88.88995,24.64032],[88.88425,24.64459],[88.88239,24.64485],[88.88088,24.64389],[88.88134,24.63918],[88.88014,24.63658],[88.87702,24.63622],[88.87054,24.64516],[88.86754,24.64605],[88.85703,24.65429],[88.85075,24.65709],[88.8437,24.65741],[88.81898,24.65209],[88.81406,24.65425],[88.81085,24.6586],[88.81464,24.66571],[88.81482,24.67235],[88.8236,24.67133],[88.82926,24.67524],[88.83174,24.67606],[88.83469,24.67921],[88.83614,24.67965],[88.84097,24.67635],[88.84403,24.67688],[88.84756,24.68115],[88.84739,24.68308],[88.84473,24.68607],[88.84399,24.68853],[88.84404,24.69476]]]}},{"type":"Feature","properties":{"name":"Badalgachhi","district_id":"naogaon","pcode":"506406","sql_upazila_id":null,"sql_name_bn":null},"geometry":{"type":"Polygon","coordinates":[[[89.01475,25.0454],[89.01503,25.04295],[89.01142,25.03806],[89.01154,25.03607],[89.01264,25.03407],[89.01772,25.02917],[89.01814,25.0269],[89.01638,25.02505],[89.0089,25.02117],[89.0097,25.02003],[89.01602,25.02074],[89.01652,25.01959],[89.01514,25.01297],[89.01099,25.01002],[89.00684,24.99996],[89.00768,24.99598],[89.01167,24.98876],[89.01225,24.98381],[89.01115,24.97867],[89.00237,24.9768],[89.00098,24.97455],[89.00258,24.97084],[89.0035,24.96259],[89.00484,24.95883],[89.00394,24.95583],[89.0001,24.95236],[89.00415,24.93686],[89.00291,24.92325],[89.00024,24.91148],[89.00202,24.90827],[88.99534,24.90104],[88.99286,24.89562],[88.99014,24.89311],[88.98317,24.88787],[88.97339,24.88361],[88.96534,24.88491],[88.95563,24.88277],[88.94953,24.8833],[88.94194,24.88044],[88.9377,24.8814],[88.93491,24.88371],[88.93228,24.88386],[88.92934,24.88248],[88.92944,24.87969],[88.92675,24.87905],[88.92277,24.88125],[88.92061,24.88481],[88.91983,24.88879],[88.92162,24.89246],[88.92286,24.89971],[88.92144,24.90256],[88.9192,24.9039],[88.91727,24.90398],[88.91485,24.90611],[88.90918,24.90783],[88.90423,24.908],[88.90246,24.90377],[88.90026,24.90238],[88.89758,24.90309],[88.8942,24.90813],[88.89057,24.90942],[88.88608,24.90993],[88.87881,24.90792],[88.87577,24.9104],[88.87315,24.91129],[88.86516,24.91156],[88.85899,24.91368],[88.85979,24.9198],[88.86217,24.92119],[88.86181,24.92318],[88.8594,24.9265],[88.8539,24.92663],[88.85503,24.93462],[88.85981,24.93978],[88.86084,24.94341],[88.86055,24.9471],[88.85895,24.95064],[88.85152,24.95896],[88.84985,24.96194],[88.85075,24.96539],[88.85041,24.96914],[88.84808,24.97541],[88.85213,24.9824],[88.85445,24.9838],[88.85998,24.98475],[88.86211,24.98711],[88.86373,24.99436],[88.86519,24.99684],[88.86933,24.99906],[88.87837,24.99639],[88.89006,24.99516],[88.89488,24.98829],[88.8967,24.98827],[88.8989,24.98989],[88.90093,24.99418],[88.90627,24.9982],[88.8956,25.01525],[88.89618,25.01854],[88.89977,25.02065],[88.90009,25.02173],[88.89998,25.02423],[88.89727,25.02909],[88.89792,25.03243],[88.89893,25.03372],[88.90419,25.03451],[88.908,25.03344],[88.91086,25.03141],[88.91383,25.02729],[88.91774,25.02383],[88.92083,25.01925],[88.9222,25.01838],[88.92732,25.01814],[88.92834,25.02006],[88.93041,25.02129],[88.93095,25.0252],[88.92929,25.02743],[88.92886,25.03016],[88.93523,25.03621],[88.94303,25.04179],[88.94382,25.03968],[88.94737,25.03776],[88.94849,25.03627],[88.94965,25.03244],[88.95224,25.02929],[88.95399,25.02797],[88.95631,25.02873],[88.95627,25.0318],[88.95259,25.03877],[88.95766,25.04149],[88.95663,25.04536],[88.95368,25.05102],[88.95583,25.05332],[88.96973,25.0549],[88.97372,25.05457],[88.98028,25.05266],[88.98456,25.04903],[88.98979,25.04675],[88.99299,25.04699],[88.99517,25.04622],[88.99628,25.04405],[88.99747,25.04364],[89.00188,25.04772],[89.00488,25.04825],[89.01213,25.04719],[89.01475,25.0454]]]}},{"type":"Feature","properties":{"name":"Dhamoirhat","district_id":"naogaon","pcode":"506428","sql_upazila_id":"naogaon-dhamoirhat","sql_name_bn":"ধামইরহাট"},"geometry":{"type":"Polygon","coordinates":[[[88.6704,25.20066],[88.6763,25.20292],[88.68009,25.20862],[88.68217,25.21007],[88.68487,25.21055],[88.69901,25.20914],[88.70923,25.2096],[88.71266,25.2086],[88.71902,25.20421],[88.72353,25.20268],[88.72808,25.19996],[88.73028,25.20084],[88.73241,25.20059],[88.73463,25.19671],[88.73526,25.1883],[88.74709,25.18544],[88.75204,25.17783],[88.7543,25.17821],[88.75911,25.18626],[88.7625,25.18742],[88.766,25.18609],[88.76768,25.18731],[88.77018,25.18741],[88.77066,25.18925],[88.77299,25.19104],[88.77398,25.19007],[88.77649,25.18124],[88.77779,25.18037],[88.79478,25.17449],[88.80379,25.17229],[88.8147,25.17562],[88.81591,25.17731],[88.81742,25.18717],[88.82246,25.19108],[88.8285,25.19436],[88.82996,25.19644],[88.83159,25.20625],[88.84246,25.21117],[88.84491,25.2112],[88.84784,25.21014],[88.8494,25.20853],[88.85018,25.20499],[88.85335,25.20093],[88.85943,25.20176],[88.86581,25.20123],[88.86655,25.19083],[88.87163,25.19156],[88.8738,25.1908],[88.87505,25.18919],[88.87588,25.18197],[88.87693,25.18105],[88.88988,25.18009],[88.89096,25.18122],[88.89087,25.18542],[88.89368,25.18556],[88.89762,25.18454],[88.90556,25.18075],[88.91274,25.17964],[88.91343,25.17174],[88.91441,25.17008],[88.92303,25.16713],[88.92507,25.162],[88.92403,25.15213],[88.92245,25.14846],[88.9243,25.14645],[88.92686,25.14568],[88.92816,25.14316],[88.92801,25.13998],[88.92422,25.13498],[88.92513,25.13207],[88.9357,25.12263],[88.93723,25.11988],[88.9396,25.11082],[88.94055,25.10507],[88.9403,25.09702],[88.93459,25.08028],[88.93262,25.07707],[88.93177,25.07237],[88.93828,25.05707],[88.94406,25.05325],[88.94467,25.05103],[88.94303,25.04179],[88.93523,25.03621],[88.92886,25.03016],[88.92929,25.02743],[88.93095,25.0252],[88.93041,25.02129],[88.92834,25.02006],[88.92732,25.01814],[88.9222,25.01838],[88.91086,25.03141],[88.908,25.03344],[88.90419,25.03451],[88.89893,25.03372],[88.89792,25.03243],[88.89727,25.02909],[88.89148,25.03296],[88.88463,25.03606],[88.87856,25.04476],[88.87865,25.04851],[88.87693,25.05137],[88.86858,25.05579],[88.85928,25.05942],[88.85572,25.05964],[88.84366,25.05422],[88.83617,25.05522],[88.82703,25.05345],[88.82196,25.05374],[88.81712,25.05124],[88.81525,25.05206],[88.81451,25.05355],[88.8166,25.05602],[88.81413,25.06002],[88.80856,25.06123],[88.80608,25.06387],[88.8073,25.06737],[88.80725,25.06993],[88.80813,25.07247],[88.81237,25.07668],[88.81371,25.07996],[88.82596,25.08799],[88.82579,25.08986],[88.82306,25.09303],[88.8223,25.10007],[88.81887,25.10215],[88.81075,25.10304],[88.80875,25.10557],[88.8084,25.10772],[88.80174,25.11235],[88.79778,25.11047],[88.79197,25.1044],[88.78791,25.10468],[88.77998,25.10693],[88.77779,25.10633],[88.77526,25.10415],[88.77399,25.10166],[88.77373,25.0986],[88.77208,25.09629],[88.76623,25.09096],[88.76466,25.09076],[88.76093,25.09347],[88.7578,25.09384],[88.75733,25.09737],[88.75804,25.10253],[88.75707,25.10748],[88.75259,25.10969],[88.74821,25.11002],[88.74409,25.11263],[88.74152,25.11214],[88.73028,25.11482],[88.72356,25.11246],[88.71999,25.11227],[88.71631,25.11294],[88.71368,25.11416],[88.71146,25.11646],[88.70802,25.11774],[88.70551,25.11743],[88.70023,25.11413],[88.69347,25.11433],[88.68229,25.11769],[88.684,25.12023],[88.68042,25.12918],[88.68396,25.13442],[88.68596,25.15404],[88.68862,25.15924],[88.68669,25.16147],[88.68538,25.16189],[88.68354,25.15856],[88.68205,25.15908],[88.67833,25.16548],[88.67609,25.1675],[88.67184,25.16941],[88.67116,25.17056],[88.67359,25.18098],[88.67204,25.18281],[88.66623,25.18447],[88.66599,25.18663],[88.67142,25.19281],[88.67149,25.19434],[88.6704,25.20066]]]}},{"type":"Feature","properties":{"name":"Mahadevpur","district_id":"naogaon","pcode":"506450","sql_upazila_id":null,"sql_name_bn":null},"geometry":{"type":"Polygon","coordinates":[[[88.86933,24.99906],[88.86519,24.99684],[88.86373,24.99436],[88.86211,24.98711],[88.85998,24.98475],[88.85445,24.9838],[88.85213,24.9824],[88.84808,24.97541],[88.85041,24.96914],[88.85075,24.96539],[88.84985,24.96194],[88.85152,24.95896],[88.85895,24.95064],[88.86055,24.9471],[88.86084,24.94341],[88.85981,24.93978],[88.85503,24.93462],[88.8539,24.92663],[88.8594,24.9265],[88.86181,24.92318],[88.86217,24.92119],[88.85979,24.9198],[88.85899,24.91368],[88.86516,24.91156],[88.85987,24.90623],[88.85819,24.89972],[88.86084,24.89463],[88.86119,24.89116],[88.86042,24.88737],[88.86121,24.88469],[88.86357,24.8841],[88.86809,24.88563],[88.87113,24.88355],[88.8765,24.88399],[88.87742,24.88114],[88.87453,24.88061],[88.87347,24.87938],[88.87572,24.87867],[88.87676,24.87718],[88.87045,24.86897],[88.86795,24.86826],[88.86572,24.863],[88.86584,24.8613],[88.86914,24.86069],[88.87392,24.85758],[88.87675,24.8589],[88.87893,24.85864],[88.87973,24.85687],[88.87749,24.85003],[88.87875,24.84359],[88.87427,24.8373],[88.8731,24.83208],[88.87158,24.82909],[88.85599,24.81407],[88.85241,24.81162],[88.84766,24.81055],[88.83949,24.81149],[88.83368,24.81128],[88.83356,24.81293],[88.83689,24.81532],[88.83698,24.81975],[88.83308,24.82389],[88.82959,24.82478],[88.82358,24.82911],[88.82046,24.83011],[88.81708,24.82925],[88.81308,24.83066],[88.80992,24.83296],[88.80844,24.83514],[88.80821,24.83838],[88.81206,24.84503],[88.81274,24.85082],[88.81578,24.85771],[88.81506,24.8605],[88.8135,24.8616],[88.807,24.86059],[88.80455,24.85881],[88.7998,24.85733],[88.79871,24.85507],[88.79939,24.85347],[88.79082,24.8412],[88.78867,24.8398],[88.78431,24.84008],[88.78058,24.84189],[88.77564,24.84245],[88.76703,24.84193],[88.7636,24.84299],[88.76091,24.8424],[88.75471,24.83077],[88.7524,24.82228],[88.74876,24.81847],[88.745,24.81686],[88.73788,24.81655],[88.73527,24.8176],[88.73297,24.81933],[88.73209,24.82797],[88.73077,24.82747],[88.72895,24.82471],[88.72739,24.81542],[88.73117,24.81072],[88.7304,24.80783],[88.72839,24.80531],[88.72345,24.80473],[88.7201,24.80755],[88.71561,24.80862],[88.71384,24.81574],[88.70441,24.81374],[88.70571,24.82304],[88.70129,24.82457],[88.70099,24.82713],[88.702,24.82893],[88.7067,24.832],[88.7086,24.8355],[88.70982,24.8402],[88.71258,24.8425],[88.72247,24.84574],[88.72391,24.84736],[88.72367,24.84856],[88.7205,24.85053],[88.71839,24.85367],[88.72088,24.86125],[88.71852,24.86406],[88.71249,24.86697],[88.70406,24.86683],[88.69962,24.86779],[88.68929,24.87342],[88.68174,24.87514],[88.67887,24.87438],[88.67397,24.87109],[88.67257,24.86843],[88.67207,24.86475],[88.66843,24.86303],[88.66021,24.86709],[88.65562,24.87169],[88.65193,24.87195],[88.6524,24.87654],[88.65141,24.87871],[88.65186,24.88024],[88.65575,24.88379],[88.65655,24.89268],[88.66144,24.89484],[88.66364,24.89783],[88.66296,24.89966],[88.65814,24.89755],[88.65733,24.89818],[88.65672,24.9012],[88.66232,24.9176],[88.66108,24.91898],[88.65459,24.92058],[88.65487,24.92563],[88.65344,24.92706],[88.65421,24.92961],[88.65366,24.93126],[88.64883,24.92944],[88.64654,24.93316],[88.64674,24.93435],[88.64862,24.9358],[88.64875,24.9379],[88.64513,24.93715],[88.64432,24.93994],[88.64082,24.93895],[88.63667,24.94354],[88.63519,24.94713],[88.6356,24.95218],[88.6394,24.95271],[88.63982,24.96009],[88.64265,24.96318],[88.63975,24.96832],[88.63884,24.97383],[88.63904,24.97616],[88.64288,24.98021],[88.64384,24.98565],[88.64288,24.98991],[88.63851,24.99257],[88.63759,24.99565],[88.63161,25.00031],[88.63325,25.00092],[88.64359,24.9957],[88.64777,24.99269],[88.64927,24.99297],[88.65968,24.98792],[88.67212,24.98869],[88.67697,24.98489],[88.67947,24.9848],[88.68411,24.99713],[88.68669,24.9996],[88.69363,24.99981],[88.69925,24.99742],[88.70313,24.99686],[88.70619,24.99796],[88.70759,25.0013],[88.70638,25.00846],[88.70653,25.01142],[88.7076,25.01271],[88.71121,25.01114],[88.71357,25.00771],[88.71525,25.00661],[88.71783,25.00885],[88.72102,25.00858],[88.72455,25.00605],[88.72667,25.00301],[88.73341,24.99948],[88.73627,24.9999],[88.7499,24.99713],[88.75646,24.99836],[88.75886,25.0006],[88.76025,25.00382],[88.75938,25.01394],[88.76046,25.01591],[88.76463,25.01309],[88.7677,25.01413],[88.77158,25.01322],[88.77518,25.0099],[88.78118,25.01011],[88.78349,25.00878],[88.78686,25.00827],[88.78856,25.00974],[88.79225,25.01026],[88.79549,25.00943],[88.80196,25.00463],[88.81761,25.00445],[88.82858,25.00199],[88.8517,25.00802],[88.85703,25.00841],[88.86501,25.00683],[88.86794,25.00549],[88.8693,25.0028],[88.86933,24.99906]]]}},{"type":"Feature","properties":{"name":"Manda","district_id":"naogaon","pcode":"506447","sql_upazila_id":"naogaon-manda","sql_name_bn":"মান্দা"},"geometry":{"type":"Polygon","coordinates":[[[88.78431,24.84008],[88.78385,24.83749],[88.79089,24.8349],[88.79237,24.83272],[88.79652,24.81927],[88.80043,24.81417],[88.79916,24.80357],[88.79644,24.79804],[88.79834,24.79342],[88.79752,24.79189],[88.7939,24.79206],[88.79201,24.78923],[88.79363,24.78087],[88.79494,24.78006],[88.80036,24.77937],[88.80216,24.77753],[88.80203,24.77526],[88.79874,24.77099],[88.79612,24.77034],[88.79586,24.76937],[88.80146,24.76687],[88.80434,24.76797],[88.80602,24.76761],[88.80704,24.7626],[88.8129,24.76105],[88.81467,24.75518],[88.81831,24.75031],[88.8186,24.74702],[88.81543,24.74831],[88.81387,24.7477],[88.81342,24.74606],[88.81385,24.73742],[88.81619,24.73319],[88.82414,24.73633],[88.82754,24.73198],[88.82932,24.72804],[88.83288,24.72856],[88.83469,24.72803],[88.83723,24.72618],[88.83925,24.72156],[88.84174,24.71937],[88.84525,24.72177],[88.84787,24.72236],[88.84979,24.72132],[88.84956,24.71593],[88.84829,24.71196],[88.84532,24.70741],[88.84635,24.70291],[88.84595,24.70064],[88.84464,24.699],[88.84404,24.69476],[88.84399,24.68853],[88.84473,24.68607],[88.84739,24.68308],[88.84756,24.68115],[88.84403,24.67688],[88.84097,24.67635],[88.83614,24.67965],[88.83469,24.67921],[88.83174,24.67606],[88.82926,24.67524],[88.8236,24.67133],[88.81482,24.67235],[88.80742,24.67431],[88.80412,24.67685],[88.80238,24.68584],[88.80077,24.6879],[88.79673,24.68909],[88.78947,24.68582],[88.78632,24.68132],[88.7825,24.67824],[88.77531,24.6757],[88.77041,24.67026],[88.76822,24.66995],[88.75751,24.67229],[88.74344,24.68431],[88.74119,24.68394],[88.73788,24.68171],[88.73655,24.6794],[88.73627,24.6748],[88.73756,24.67138],[88.73759,24.66809],[88.73534,24.66635],[88.72686,24.66594],[88.72486,24.66431],[88.72229,24.6636],[88.7181,24.67126],[88.71635,24.67122],[88.70966,24.6671],[88.70554,24.66658],[88.70303,24.66513],[88.70183,24.66213],[88.70404,24.65683],[88.7044,24.65364],[88.70104,24.64647],[88.69685,24.64362],[88.6964,24.64187],[88.70232,24.64078],[88.70418,24.63832],[88.70364,24.63225],[88.69784,24.63192],[88.69501,24.62956],[88.69247,24.6301],[88.69467,24.63411],[88.69431,24.63599],[88.68846,24.63742],[88.68753,24.63901],[88.68467,24.63905],[88.67654,24.63545],[88.67393,24.63638],[88.67168,24.63612],[88.65662,24.62862],[88.65315,24.63349],[88.65116,24.63379],[88.64866,24.63234],[88.64694,24.62617],[88.64293,24.62292],[88.63757,24.62156],[88.63415,24.62308],[88.63125,24.62901],[88.62845,24.62961],[88.62402,24.63976],[88.6262,24.64031],[88.62883,24.64261],[88.62522,24.65446],[88.62404,24.65515],[88.62446,24.66372],[88.62553,24.66592],[88.62952,24.66616],[88.62986,24.66985],[88.62963,24.67331],[88.62708,24.67567],[88.62347,24.6761],[88.62255,24.67776],[88.62185,24.68685],[88.62579,24.68982],[88.6244,24.69664],[88.62291,24.69762],[88.61823,24.6975],[88.61668,24.69974],[88.61401,24.70147],[88.60517,24.70184],[88.60159,24.70024],[88.59404,24.69997],[88.59065,24.69501],[88.59025,24.7024],[88.59389,24.70611],[88.5968,24.71458],[88.59663,24.71749],[88.59411,24.72297],[88.59789,24.73036],[88.59964,24.73188],[88.60699,24.73021],[88.60999,24.73069],[88.61306,24.73259],[88.61545,24.73591],[88.62044,24.7383],[88.62359,24.74111],[88.62748,24.7451],[88.62893,24.74826],[88.62945,24.75142],[88.62809,24.7536],[88.6251,24.75619],[88.62332,24.76064],[88.61897,24.76341],[88.61871,24.77114],[88.6216,24.77621],[88.61842,24.77744],[88.61737,24.77892],[88.61757,24.78148],[88.61897,24.78498],[88.6211,24.78667],[88.62597,24.7869],[88.62743,24.79398],[88.62964,24.79515],[88.63344,24.79494],[88.63651,24.79604],[88.63789,24.79801],[88.63803,24.80102],[88.6368,24.80319],[88.63444,24.8056],[88.63065,24.80746],[88.62971,24.80957],[88.63051,24.81756],[88.63254,24.82078],[88.63779,24.8247],[88.63586,24.83676],[88.63715,24.84213],[88.63895,24.84296],[88.64077,24.84232],[88.65388,24.8428],[88.65556,24.84159],[88.65642,24.83784],[88.66063,24.83376],[88.66148,24.82893],[88.66296,24.82732],[88.66534,24.82803],[88.66667,24.8304],[88.66658,24.83562],[88.66365,24.84701],[88.66017,24.85023],[88.65456,24.85171],[88.65226,24.85327],[88.64823,24.8591],[88.64845,24.86501],[88.64987,24.86959],[88.65193,24.87195],[88.65562,24.87169],[88.66021,24.86709],[88.66843,24.86303],[88.67207,24.86475],[88.67257,24.86843],[88.67397,24.87109],[88.67887,24.87438],[88.68174,24.87514],[88.68512,24.87488],[88.69259,24.87196],[88.69962,24.86779],[88.70406,24.86683],[88.71249,24.86697],[88.71852,24.86406],[88.72088,24.86125],[88.71839,24.85367],[88.7205,24.85053],[88.72367,24.84856],[88.72391,24.84736],[88.72247,24.84574],[88.71258,24.8425],[88.70982,24.8402],[88.7086,24.8355],[88.7067,24.832],[88.702,24.82893],[88.70099,24.82713],[88.70129,24.82457],[88.70571,24.82304],[88.70441,24.81374],[88.71384,24.81574],[88.71561,24.80862],[88.7201,24.80755],[88.72345,24.80473],[88.72839,24.80531],[88.7304,24.80783],[88.73117,24.81072],[88.72739,24.81542],[88.72895,24.82471],[88.73077,24.82747],[88.73209,24.82797],[88.73297,24.81933],[88.73527,24.8176],[88.73788,24.81655],[88.745,24.81686],[88.74876,24.81847],[88.7524,24.82228],[88.75471,24.83077],[88.76091,24.8424],[88.7636,24.84299],[88.76703,24.84193],[88.77564,24.84245],[88.78058,24.84189],[88.78431,24.84008]]]}},{"type":"Feature","properties":{"name":"Naogaon S.","district_id":"naogaon","pcode":"506460","sql_upazila_id":null,"sql_name_bn":null},"geometry":{"type":"Polygon","coordinates":[[[89.00202,24.90827],[89.0077,24.89963],[89.00834,24.89655],[88.99993,24.88321],[88.99245,24.87848],[88.99087,24.8764],[88.9903,24.87448],[88.9938,24.8683],[88.992,24.86196],[88.98888,24.85525],[88.98518,24.85376],[88.9825,24.85363],[88.97968,24.85213],[88.97778,24.84983],[88.97732,24.84695],[88.98143,24.83099],[88.98766,24.82875],[88.98933,24.82731],[88.98912,24.82511],[88.98704,24.82245],[88.98479,24.82203],[88.97969,24.82545],[88.97618,24.82158],[88.97404,24.81507],[88.97427,24.81246],[88.97649,24.80897],[88.97836,24.80701],[88.98402,24.80546],[88.98438,24.8034],[88.97978,24.79927],[88.97901,24.7973],[88.97941,24.79207],[88.97795,24.78942],[88.97462,24.78793],[88.97762,24.7813],[88.97796,24.77585],[88.97636,24.77127],[88.96868,24.75661],[88.96619,24.74943],[88.96577,24.74427],[88.95579,24.74501],[88.95291,24.74414],[88.9492,24.7404],[88.94498,24.74255],[88.93871,24.73076],[88.93167,24.72552],[88.92249,24.72388],[88.91314,24.72456],[88.90417,24.72655],[88.9027,24.72271],[88.90114,24.72205],[88.89641,24.72387],[88.89034,24.7282],[88.88357,24.72408],[88.8763,24.72094],[88.87621,24.71747],[88.8737,24.71467],[88.87165,24.71583],[88.86974,24.71841],[88.86824,24.71859],[88.86491,24.71563],[88.86292,24.71599],[88.86443,24.7188],[88.86413,24.71961],[88.86139,24.72016],[88.85912,24.72444],[88.85618,24.7251],[88.85314,24.72491],[88.85031,24.72364],[88.84979,24.72132],[88.84787,24.72236],[88.84525,24.72177],[88.84174,24.71937],[88.83925,24.72156],[88.83723,24.72618],[88.83469,24.72803],[88.83288,24.72856],[88.82932,24.72804],[88.82754,24.73198],[88.82414,24.73633],[88.81619,24.73319],[88.81385,24.73742],[88.81342,24.74606],[88.81387,24.7477],[88.81543,24.74831],[88.8186,24.74702],[88.81831,24.75031],[88.81467,24.75518],[88.8129,24.76105],[88.80704,24.7626],[88.80602,24.76761],[88.80434,24.76797],[88.80146,24.76687],[88.79586,24.76937],[88.79612,24.77034],[88.79874,24.77099],[88.80203,24.77526],[88.80216,24.77753],[88.80036,24.77937],[88.79494,24.78006],[88.79363,24.78087],[88.79242,24.78577],[88.79201,24.78923],[88.79264,24.7906],[88.7939,24.79206],[88.79752,24.79189],[88.79834,24.79342],[88.79644,24.79804],[88.79916,24.80357],[88.80043,24.81417],[88.79652,24.81927],[88.79342,24.83027],[88.79089,24.8349],[88.78385,24.83749],[88.78431,24.84008],[88.78867,24.8398],[88.79082,24.8412],[88.79939,24.85347],[88.79871,24.85507],[88.7998,24.85733],[88.80455,24.85881],[88.807,24.86059],[88.8135,24.8616],[88.81506,24.8605],[88.81578,24.85771],[88.81274,24.85082],[88.81206,24.84503],[88.80821,24.83838],[88.80844,24.83514],[88.80992,24.83296],[88.81308,24.83066],[88.81708,24.82925],[88.82046,24.83011],[88.82358,24.82911],[88.82959,24.82478],[88.83308,24.82389],[88.83698,24.81975],[88.83689,24.81532],[88.83356,24.81293],[88.83368,24.81128],[88.83949,24.81149],[88.84766,24.81055],[88.85241,24.81162],[88.85599,24.81407],[88.87158,24.82909],[88.8731,24.83208],[88.87427,24.8373],[88.87875,24.84359],[88.87749,24.85003],[88.87973,24.85687],[88.87893,24.85864],[88.87675,24.8589],[88.87392,24.85758],[88.86914,24.86069],[88.86584,24.8613],[88.86572,24.863],[88.86795,24.86826],[88.87045,24.86897],[88.87676,24.87718],[88.87572,24.87867],[88.87347,24.87938],[88.87453,24.88061],[88.87742,24.88114],[88.8765,24.88399],[88.87113,24.88355],[88.86809,24.88563],[88.86357,24.8841],[88.86121,24.88469],[88.86042,24.88737],[88.86119,24.89116],[88.86084,24.89463],[88.85819,24.89972],[88.85987,24.90623],[88.86516,24.91156],[88.87315,24.91129],[88.87577,24.9104],[88.87881,24.90792],[88.88608,24.90993],[88.89057,24.90942],[88.8942,24.90813],[88.89758,24.90309],[88.90026,24.90238],[88.90246,24.90377],[88.90423,24.908],[88.90918,24.90783],[88.91485,24.90611],[88.91727,24.90398],[88.9192,24.9039],[88.92144,24.90256],[88.92286,24.89971],[88.92162,24.89246],[88.91983,24.88879],[88.92061,24.88481],[88.92277,24.88125],[88.92675,24.87905],[88.92944,24.87969],[88.92934,24.88248],[88.93228,24.88386],[88.93491,24.88371],[88.9377,24.8814],[88.94194,24.88044],[88.94953,24.8833],[88.95563,24.88277],[88.96534,24.88491],[88.97339,24.88361],[88.98317,24.88787],[88.99014,24.89311],[88.99286,24.89562],[88.99534,24.90104],[89.00202,24.90827]]]}},{"type":"Feature","properties":{"name":"Niamatpur","district_id":"naogaon","pcode":"506469","sql_upazila_id":"naogaon-niamatpur","sql_name_bn":"নিয়ামতপুর"},"geometry":{"type":"Polygon","coordinates":[[[88.6356,24.95218],[88.63519,24.94713],[88.63667,24.94354],[88.64082,24.93895],[88.64432,24.93994],[88.64513,24.93715],[88.64875,24.9379],[88.64862,24.9358],[88.64674,24.93435],[88.64654,24.93316],[88.64883,24.92944],[88.65366,24.93126],[88.65421,24.92961],[88.65344,24.92706],[88.65487,24.92563],[88.65459,24.92058],[88.66108,24.91898],[88.66232,24.9176],[88.65672,24.9012],[88.65733,24.89818],[88.65814,24.89755],[88.66296,24.89966],[88.66364,24.89783],[88.66144,24.89484],[88.65655,24.89268],[88.65575,24.88379],[88.65186,24.88024],[88.65141,24.87871],[88.6524,24.87654],[88.65193,24.87195],[88.64987,24.86959],[88.64903,24.86716],[88.64823,24.8591],[88.65226,24.85327],[88.65456,24.85171],[88.66017,24.85023],[88.66365,24.84701],[88.66658,24.83562],[88.66667,24.8304],[88.66534,24.82803],[88.66296,24.82732],[88.66148,24.82893],[88.66063,24.83376],[88.65642,24.83784],[88.65556,24.84159],[88.65388,24.8428],[88.64077,24.84232],[88.63895,24.84296],[88.63715,24.84213],[88.63586,24.83676],[88.63779,24.8247],[88.63254,24.82078],[88.63051,24.81756],[88.62971,24.80957],[88.63065,24.80746],[88.63444,24.8056],[88.6368,24.80319],[88.63803,24.80102],[88.63789,24.79801],[88.63651,24.79604],[88.63344,24.79494],[88.62964,24.79515],[88.62743,24.79398],[88.62597,24.7869],[88.6211,24.78667],[88.61897,24.78498],[88.61757,24.78148],[88.61737,24.77892],[88.61842,24.77744],[88.6216,24.77621],[88.61871,24.77114],[88.61897,24.76341],[88.62332,24.76064],[88.6251,24.75619],[88.62809,24.7536],[88.62945,24.75142],[88.62893,24.74826],[88.62748,24.7451],[88.62359,24.74111],[88.62044,24.7383],[88.61545,24.73591],[88.61306,24.73259],[88.60999,24.73069],[88.60699,24.73021],[88.59964,24.73188],[88.59789,24.73036],[88.59411,24.72297],[88.59663,24.71749],[88.5968,24.71458],[88.59389,24.70611],[88.59025,24.7024],[88.59065,24.69501],[88.58962,24.69037],[88.58362,24.68492],[88.57798,24.68129],[88.57436,24.6819],[88.57188,24.68408],[88.5714,24.68647],[88.57467,24.69246],[88.57519,24.69619],[88.56537,24.70311],[88.55858,24.70488],[88.55103,24.70479],[88.54317,24.70293],[88.52019,24.71032],[88.51035,24.71535],[88.50855,24.71719],[88.50703,24.72328],[88.50672,24.72623],[88.50855,24.73144],[88.508,24.73332],[88.50582,24.73436],[88.49586,24.73747],[88.49211,24.73711],[88.48885,24.73385],[88.48592,24.73302],[88.48,24.73518],[88.47663,24.73544],[88.46626,24.73122],[88.4634,24.73415],[88.46223,24.73744],[88.46493,24.74361],[88.46546,24.74849],[88.46472,24.75031],[88.45867,24.75145],[88.45744,24.75498],[88.45914,24.75764],[88.46595,24.76092],[88.46895,24.76112],[88.47505,24.75964],[88.4766,24.75724],[88.47477,24.75226],[88.47614,24.74873],[88.48248,24.74464],[88.48679,24.74528],[88.48842,24.74725],[88.49117,24.74824],[88.49274,24.7505],[88.4897,24.75587],[88.49467,24.76535],[88.49538,24.76853],[88.49477,24.77075],[88.48708,24.76957],[88.48428,24.77091],[88.48217,24.77354],[88.48055,24.77435],[88.47861,24.77261],[88.47752,24.76569],[88.47614,24.76343],[88.47233,24.76404],[88.46854,24.76964],[88.46156,24.77101],[88.45809,24.77689],[88.45142,24.77922],[88.44437,24.7781],[88.43719,24.77885],[88.43299,24.77412],[88.42,24.7702],[88.41669,24.77052],[88.41551,24.77246],[88.41571,24.77479],[88.42166,24.78035],[88.42274,24.78358],[88.42512,24.78588],[88.42774,24.78779],[88.43099,24.78844],[88.43273,24.78655],[88.43437,24.78705],[88.43277,24.79495],[88.43498,24.8022],[88.43642,24.80458],[88.44305,24.8061],[88.44256,24.80928],[88.44327,24.81507],[88.44571,24.81953],[88.44517,24.82027],[88.44148,24.82076],[88.43774,24.81995],[88.43585,24.81786],[88.43504,24.8156],[88.43122,24.81546],[88.42829,24.81652],[88.42569,24.82119],[88.41646,24.81997],[88.41283,24.82194],[88.41379,24.8267],[88.41806,24.83285],[88.41901,24.83603],[88.41845,24.83738],[88.41633,24.83882],[88.41469,24.8343],[88.412,24.83211],[88.40487,24.82956],[88.39846,24.83631],[88.39941,24.83744],[88.40302,24.83679],[88.40527,24.83728],[88.40616,24.84069],[88.40556,24.84573],[88.40806,24.84621],[88.41617,24.84331],[88.41911,24.84771],[88.42167,24.84661],[88.42428,24.84352],[88.42445,24.8404],[88.42632,24.83907],[88.42889,24.83911],[88.43075,24.83693],[88.43381,24.83605],[88.43607,24.84063],[88.43884,24.84406],[88.4505,24.8431],[88.45432,24.84437],[88.45309,24.84779],[88.44893,24.85152],[88.44437,24.85372],[88.44263,24.85652],[88.44427,24.85877],[88.45064,24.8594],[88.45979,24.85465],[88.46222,24.85196],[88.46687,24.84323],[88.46992,24.84315],[88.47281,24.84511],[88.47401,24.85003],[88.4741,24.85565],[88.47269,24.86214],[88.47401,24.86383],[88.4799,24.86735],[88.4831,24.87107],[88.48727,24.88045],[88.49039,24.88212],[88.49078,24.88337],[88.48682,24.89238],[88.48679,24.89652],[88.48298,24.89946],[88.48361,24.90195],[88.48606,24.90493],[88.4942,24.90853],[88.49858,24.90691],[88.50232,24.90727],[88.50924,24.90527],[88.51218,24.90559],[88.51873,24.90331],[88.5203,24.90539],[88.52032,24.90846],[88.51615,24.9123],[88.51572,24.91486],[88.52214,24.92348],[88.5274,24.92565],[88.52778,24.92757],[88.52306,24.93301],[88.52383,24.93829],[88.52122,24.94189],[88.51968,24.94747],[88.51495,24.94854],[88.51433,24.94996],[88.51711,24.95743],[88.51795,24.96202],[88.52122,24.96642],[88.52837,24.97095],[88.52999,24.97076],[88.53186,24.96909],[88.53204,24.96688],[88.53083,24.96399],[88.53053,24.95293],[88.53831,24.94547],[88.54052,24.93694],[88.54201,24.93572],[88.547,24.93532],[88.55016,24.93024],[88.55298,24.93073],[88.55456,24.93343],[88.55656,24.9333],[88.55925,24.93526],[88.56482,24.93595],[88.5675,24.93546],[88.57102,24.939],[88.58102,24.93913],[88.58296,24.94098],[88.58613,24.94725],[88.58744,24.94803],[88.59312,24.94724],[88.59631,24.94805],[88.597,24.94901],[88.59677,24.9506],[88.59435,24.95403],[88.59048,24.95584],[88.59263,24.9603],[88.59213,24.96138],[88.58734,24.96386],[88.58433,24.96453],[88.58234,24.96466],[88.57996,24.96287],[88.57758,24.96226],[88.57565,24.9632],[88.57741,24.96579],[88.57906,24.97054],[88.58368,24.96897],[88.58668,24.96893],[88.58649,24.97047],[88.58358,24.97425],[88.58803,24.97676],[88.59084,24.97587],[88.59342,24.96705],[88.59682,24.96145],[88.60976,24.94979],[88.61413,24.94804],[88.61649,24.94568],[88.61911,24.94446],[88.62254,24.94493],[88.62582,24.94803],[88.6271,24.95425],[88.62917,24.95446],[88.6356,24.95218]]]}},{"type":"Feature","properties":{"name":"Patnitala","district_id":"naogaon","pcode":"506475","sql_upazila_id":"naogaon-patnitala","sql_name_bn":"পত্নিতলা"},"geometry":{"type":"Polygon","coordinates":[[[88.5759,25.17855],[88.58003,25.17942],[88.58243,25.18195],[88.59077,25.18629],[88.59145,25.19395],[88.59302,25.19484],[88.59821,25.19405],[88.60078,25.19464],[88.606,25.1972],[88.61387,25.20535],[88.61707,25.20611],[88.62114,25.20658],[88.63284,25.20504],[88.64119,25.20773],[88.65652,25.20399],[88.6656,25.20313],[88.66845,25.20075],[88.6704,25.20066],[88.67142,25.19281],[88.66599,25.18663],[88.66623,25.18447],[88.67204,25.18281],[88.67359,25.18098],[88.67116,25.17056],[88.67184,25.16941],[88.67609,25.1675],[88.67833,25.16548],[88.68205,25.15908],[88.68354,25.15856],[88.68538,25.16189],[88.68669,25.16147],[88.68862,25.15924],[88.68596,25.15404],[88.68396,25.13442],[88.68042,25.12918],[88.684,25.12023],[88.68229,25.11769],[88.69347,25.11433],[88.70023,25.11413],[88.70551,25.11743],[88.70802,25.11774],[88.71146,25.11646],[88.71368,25.11416],[88.71631,25.11294],[88.71999,25.11227],[88.72356,25.11246],[88.73028,25.11482],[88.74152,25.11214],[88.74409,25.11263],[88.74821,25.11002],[88.75259,25.10969],[88.75707,25.10748],[88.75804,25.10253],[88.75733,25.09737],[88.7578,25.09384],[88.76093,25.09347],[88.76466,25.09076],[88.76623,25.09096],[88.77208,25.09629],[88.77373,25.0986],[88.77399,25.10166],[88.77526,25.10415],[88.77779,25.10633],[88.77998,25.10693],[88.78791,25.10468],[88.79197,25.1044],[88.79778,25.11047],[88.80174,25.11235],[88.8084,25.10772],[88.80875,25.10557],[88.81075,25.10304],[88.81887,25.10215],[88.8223,25.10007],[88.82306,25.09303],[88.82579,25.08986],[88.82596,25.08799],[88.81371,25.07996],[88.81237,25.07668],[88.80813,25.07247],[88.80725,25.06993],[88.8073,25.06737],[88.80608,25.06387],[88.80856,25.06123],[88.81413,25.06002],[88.8166,25.05602],[88.81451,25.05355],[88.81525,25.05206],[88.81712,25.05124],[88.82196,25.05374],[88.82703,25.05345],[88.83617,25.05522],[88.84366,25.05422],[88.85572,25.05964],[88.85928,25.05942],[88.86384,25.05766],[88.87693,25.05137],[88.87865,25.04851],[88.87856,25.04476],[88.88463,25.03606],[88.89148,25.03296],[88.89727,25.02909],[88.89998,25.02423],[88.89977,25.02065],[88.89618,25.01854],[88.8956,25.01525],[88.90627,24.9982],[88.90093,24.99418],[88.8989,24.98989],[88.8967,24.98827],[88.89488,24.98829],[88.89006,24.99516],[88.87837,24.99639],[88.86933,24.99906],[88.8693,25.0028],[88.86794,25.00549],[88.86501,25.00683],[88.85703,25.00841],[88.8517,25.00802],[88.83479,25.00323],[88.82858,25.00199],[88.82521,25.00226],[88.81761,25.00445],[88.80196,25.00463],[88.79549,25.00943],[88.79225,25.01026],[88.78856,25.00974],[88.78686,25.00827],[88.78349,25.00878],[88.78118,25.01011],[88.77518,25.0099],[88.77158,25.01322],[88.7677,25.01413],[88.76463,25.01309],[88.76046,25.01591],[88.75938,25.01394],[88.76025,25.00382],[88.75886,25.0006],[88.75646,24.99836],[88.7522,24.99716],[88.7449,24.9977],[88.73627,24.9999],[88.73341,24.99948],[88.72667,25.00301],[88.72455,25.00605],[88.72102,25.00858],[88.71783,25.00885],[88.71525,25.00661],[88.71357,25.00771],[88.71121,25.01114],[88.7076,25.01271],[88.70653,25.01142],[88.70638,25.00846],[88.70759,25.0013],[88.70619,24.99796],[88.70313,24.99686],[88.69925,24.99742],[88.69363,24.99981],[88.68669,24.9996],[88.68411,24.99713],[88.67947,24.9848],[88.67697,24.98489],[88.67212,24.98869],[88.65968,24.98792],[88.64927,24.99297],[88.64777,24.99269],[88.64359,24.9957],[88.63325,25.00092],[88.63232,25.00388],[88.62543,25.0119],[88.62119,25.01416],[88.61942,25.02213],[88.62093,25.02484],[88.62601,25.02774],[88.62697,25.03068],[88.62295,25.03822],[88.61964,25.0403],[88.61867,25.04525],[88.61208,25.05128],[88.61196,25.05315],[88.61529,25.05505],[88.61604,25.0564],[88.61536,25.05817],[88.61287,25.05979],[88.61126,25.06229],[88.61059,25.06554],[88.61193,25.07035],[88.61757,25.07172],[88.61618,25.08116],[88.60645,25.08604],[88.60521,25.08814],[88.60362,25.09622],[88.60126,25.09829],[88.60165,25.10056],[88.60423,25.1032],[88.61798,25.11094],[88.61893,25.11338],[88.61206,25.11629],[88.61051,25.11892],[88.60384,25.12296],[88.6001,25.12686],[88.59579,25.12866],[88.59538,25.13361],[88.59364,25.1354],[88.59296,25.13761],[88.59649,25.14177],[88.59602,25.14888],[88.59736,25.15181],[88.58786,25.15538],[88.58674,25.15743],[88.58666,25.16629],[88.58123,25.16844],[88.58098,25.17038],[88.57719,25.17348],[88.57614,25.1776],[88.5759,25.17855]]]}},{"type":"Feature","properties":{"name":"Porsha","district_id":"naogaon","pcode":"506479","sql_upazila_id":"naogaon-porsha","sql_name_bn":"পোরশা"},"geometry":{"type":"Polygon","coordinates":[[[88.61964,25.0403],[88.62295,25.03822],[88.62697,25.03068],[88.62601,25.02774],[88.62093,25.02484],[88.61942,25.02213],[88.62119,25.01416],[88.62543,25.0119],[88.63015,25.00669],[88.63232,25.00388],[88.63325,25.00092],[88.63161,25.00031],[88.63198,24.99946],[88.63541,24.99795],[88.63759,24.99565],[88.63851,24.99257],[88.64288,24.98991],[88.64349,24.98758],[88.64377,24.98332],[88.64288,24.98021],[88.63904,24.97616],[88.63895,24.97088],[88.64265,24.96318],[88.63982,24.96009],[88.6394,24.95271],[88.6356,24.95218],[88.62917,24.95446],[88.6271,24.95425],[88.62582,24.94803],[88.62254,24.94493],[88.61911,24.94446],[88.61649,24.94568],[88.61413,24.94804],[88.60976,24.94979],[88.59682,24.96145],[88.59342,24.96705],[88.59084,24.97587],[88.58803,24.97676],[88.58358,24.97425],[88.58649,24.97047],[88.58668,24.96893],[88.58368,24.96897],[88.57906,24.97054],[88.57741,24.96579],[88.57565,24.9632],[88.57758,24.96226],[88.57996,24.96287],[88.58234,24.96466],[88.58433,24.96453],[88.58734,24.96386],[88.59213,24.96138],[88.59263,24.9603],[88.59048,24.95584],[88.59435,24.95403],[88.59677,24.9506],[88.597,24.94901],[88.59631,24.94805],[88.59312,24.94724],[88.58744,24.94803],[88.58613,24.94725],[88.58296,24.94098],[88.58102,24.93913],[88.57102,24.939],[88.5675,24.93546],[88.56482,24.93595],[88.55925,24.93526],[88.55656,24.9333],[88.55456,24.93343],[88.55298,24.93073],[88.55016,24.93024],[88.547,24.93532],[88.54201,24.93572],[88.54052,24.93694],[88.53831,24.94547],[88.53053,24.95293],[88.53083,24.96399],[88.53204,24.96688],[88.53186,24.96909],[88.52999,24.97076],[88.52837,24.97095],[88.52579,24.96978],[88.51958,24.96479],[88.51795,24.96202],[88.51711,24.95743],[88.51433,24.94996],[88.51495,24.94854],[88.51968,24.94747],[88.52122,24.94189],[88.52383,24.93829],[88.52306,24.93301],[88.52778,24.92757],[88.5274,24.92565],[88.52214,24.92348],[88.51572,24.91486],[88.51615,24.9123],[88.52032,24.90846],[88.5203,24.90539],[88.51873,24.90331],[88.51218,24.90559],[88.50924,24.90527],[88.50232,24.90727],[88.49858,24.90691],[88.4942,24.90853],[88.49165,24.92288],[88.48978,24.92596],[88.48643,24.92985],[88.47964,24.93542],[88.47209,24.93959],[88.45582,24.93389],[88.45306,24.93199],[88.45299,24.92922],[88.45684,24.92293],[88.45483,24.92056],[88.44508,24.92218],[88.43599,24.92812],[88.43364,24.93206],[88.43315,24.93689],[88.4338,24.94375],[88.43665,24.95208],[88.43685,24.9565],[88.43543,24.95986],[88.43207,24.96357],[88.42882,24.96504],[88.41702,24.96724],[88.41451,24.96442],[88.40993,24.9631],[88.40488,24.96475],[88.39705,24.95902],[88.39356,24.96189],[88.39746,24.96912],[88.39997,24.9716],[88.40398,24.97258],[88.40849,24.97578],[88.4141,24.97232],[88.41617,24.9727],[88.41736,24.97399],[88.41614,24.98075],[88.41808,24.98341],[88.41353,24.98533],[88.41241,24.98772],[88.41356,24.99356],[88.41544,24.99661],[88.42027,24.99866],[88.42198,25.00438],[88.42436,25.00686],[88.42725,25.00763],[88.43018,25.00732],[88.43399,25.00569],[88.43649,25.00646],[88.44149,25.02094],[88.44621,25.0271],[88.44724,25.03265],[88.45174,25.03374],[88.45381,25.0356],[88.45382,25.03866],[88.4529,25.0409],[88.44176,25.0423],[88.43915,25.04368],[88.4371,25.04677],[88.43654,25.05018],[88.4382,25.0563],[88.44366,25.06118],[88.44544,25.06758],[88.45097,25.07451],[88.4628,25.07401],[88.46674,25.07488],[88.47025,25.07456],[88.47118,25.07285],[88.46689,25.06454],[88.4668,25.06114],[88.47782,25.06188],[88.48088,25.06043],[88.48505,25.05647],[88.48883,25.06171],[88.49134,25.0638],[88.49742,25.06385],[88.503,25.06868],[88.5146,25.07323],[88.51929,25.0734],[88.5261,25.07197],[88.5323,25.07265],[88.53555,25.07211],[88.54198,25.06926],[88.54471,25.06503],[88.54563,25.06207],[88.54536,25.04595],[88.54256,25.03479],[88.54279,25.03042],[88.54413,25.02319],[88.54742,25.01963],[88.55737,25.02044],[88.56176,25.02443],[88.57607,25.0315],[88.57876,25.03198],[88.58662,25.02963],[88.59308,25.02984],[88.59833,25.03104],[88.60542,25.03443],[88.61185,25.03362],[88.616,25.03806],[88.61964,25.0403]]]}},{"type":"Feature","properties":{"name":"Raninagar","district_id":"naogaon","pcode":"506485","sql_upazila_id":"naogaon-raninagar","sql_name_bn":"রাণীনগর"},"geometry":{"type":"Polygon","coordinates":[[[88.96577,24.74427],[88.96668,24.74153],[88.96873,24.73986],[88.9719,24.73908],[88.97608,24.73954],[88.97918,24.74393],[88.982,24.74536],[88.98506,24.74578],[88.98959,24.7431],[88.99209,24.74319],[88.99217,24.75284],[88.99319,24.75572],[88.99516,24.7587],[88.99742,24.76037],[89.00027,24.76624],[89.00272,24.76712],[89.01381,24.76498],[89.01609,24.76859],[89.02122,24.77113],[89.0228,24.77304],[89.02239,24.77566],[89.02379,24.77837],[89.02586,24.78021],[89.02831,24.78108],[89.03535,24.78059],[89.03992,24.78115],[89.04786,24.78985],[89.05048,24.78924],[89.05842,24.78442],[89.06247,24.78369],[89.06419,24.78133],[89.06651,24.78079],[89.07648,24.78628],[89.08035,24.78736],[89.08603,24.78694],[89.08944,24.78445],[89.09085,24.78182],[89.08791,24.77453],[89.08488,24.77072],[89.08429,24.76783],[89.08948,24.76236],[89.08968,24.75657],[89.09177,24.7545],[89.09756,24.75203],[89.09641,24.74972],[89.092,24.74581],[89.08891,24.7417],[89.08864,24.73932],[89.09591,24.73655],[89.09787,24.73306],[89.09643,24.73149],[89.09217,24.73025],[89.08827,24.72735],[89.08605,24.72363],[89.08697,24.72107],[89.09026,24.71943],[89.09785,24.72421],[89.10159,24.72415],[89.10533,24.7228],[89.11517,24.71516],[89.11964,24.71396],[89.12315,24.71533],[89.12342,24.71732],[89.11852,24.71949],[89.11486,24.72238],[89.11868,24.7238],[89.1308,24.72022],[89.13358,24.72177],[89.13174,24.72617],[89.12727,24.72816],[89.12711,24.73021],[89.13253,24.73604],[89.13444,24.74084],[89.13612,24.74053],[89.13693,24.7395],[89.13795,24.73466],[89.13937,24.73327],[89.14142,24.73319],[89.15152,24.73838],[89.15293,24.737],[89.15297,24.7277],[89.147,24.71636],[89.13849,24.70842],[89.13762,24.70167],[89.13493,24.69569],[89.13463,24.68945],[89.13565,24.68632],[89.13842,24.68253],[89.14381,24.67802],[89.14703,24.6765],[89.15235,24.67887],[89.15412,24.68071],[89.15559,24.68416],[89.15704,24.68521],[89.16251,24.68332],[89.16474,24.68141],[89.1665,24.67838],[89.16728,24.67536],[89.16605,24.6701],[89.16439,24.66677],[89.16195,24.66561],[89.15337,24.66931],[89.14588,24.66772],[89.14764,24.66201],[89.14664,24.65692],[89.14483,24.65581],[89.14015,24.65565],[89.13651,24.65881],[89.13519,24.6589],[89.1324,24.65496],[89.13047,24.65391],[89.1235,24.65486],[89.12068,24.65417],[89.11765,24.6492],[89.11734,24.64377],[89.10826,24.63924],[89.10366,24.64078],[89.10097,24.63997],[89.09893,24.64163],[89.0958,24.64015],[89.09232,24.6415],[89.09189,24.64872],[89.09568,24.65417],[89.09268,24.66631],[89.08051,24.66574],[89.07813,24.66396],[89.07667,24.66046],[89.07625,24.65621],[89.07339,24.65091],[89.07366,24.64608],[89.07104,24.63862],[89.06933,24.6362],[89.06613,24.63414],[89.06226,24.63346],[89.05778,24.63409],[89.05399,24.6359],[89.0527,24.63802],[89.05341,24.64011],[89.05318,24.64307],[89.05182,24.64412],[89.04871,24.64432],[89.04626,24.64265],[89.03162,24.65057],[89.02892,24.64919],[89.02418,24.6484],[89.01693,24.65298],[89.01588,24.65492],[89.01747,24.65797],[89.01777,24.66336],[89.01642,24.66576],[89.00858,24.66723],[89.00483,24.6666],[89.00234,24.66731],[88.99366,24.66555],[88.99087,24.6674],[88.99014,24.6702],[88.98816,24.6717],[88.98666,24.67808],[88.98348,24.6855],[88.97796,24.68858],[88.97697,24.69081],[88.96116,24.68625],[88.95169,24.68796],[88.9472,24.68643],[88.94499,24.68413],[88.94384,24.6804],[88.94479,24.6759],[88.95036,24.66277],[88.94796,24.65866],[88.94602,24.65914],[88.94306,24.66156],[88.94071,24.66488],[88.93928,24.66445],[88.93707,24.66164],[88.93206,24.66528],[88.92447,24.66276],[88.92156,24.66342],[88.92327,24.66647],[88.92616,24.6687],[88.92607,24.6733],[88.92403,24.67617],[88.91622,24.68206],[88.91389,24.68719],[88.9108,24.69104],[88.90136,24.6949],[88.89555,24.7006],[88.88971,24.69625],[88.88882,24.69398],[88.89008,24.68824],[88.88809,24.68088],[88.88857,24.67764],[88.88778,24.67515],[88.88498,24.67381],[88.88119,24.67517],[88.87977,24.67712],[88.879,24.68196],[88.87733,24.68402],[88.87453,24.68564],[88.87204,24.68573],[88.86061,24.69189],[88.85495,24.69361],[88.84404,24.69476],[88.84464,24.699],[88.84595,24.70064],[88.84635,24.70291],[88.84532,24.70741],[88.84829,24.71196],[88.84956,24.71593],[88.85031,24.72364],[88.85314,24.72491],[88.85912,24.72444],[88.86139,24.72016],[88.86413,24.71961],[88.86443,24.7188],[88.86292,24.71599],[88.86491,24.71563],[88.86824,24.71859],[88.86974,24.71841],[88.87165,24.71583],[88.8737,24.71467],[88.87621,24.71747],[88.8763,24.72094],[88.88357,24.72408],[88.89034,24.7282],[88.89641,24.72387],[88.90114,24.72205],[88.9027,24.72271],[88.90417,24.72655],[88.91314,24.72456],[88.92249,24.72388],[88.93167,24.72552],[88.93871,24.73076],[88.94498,24.74255],[88.9492,24.7404],[88.95291,24.74414],[88.95579,24.74501],[88.96577,24.74427]]]}},{"type":"Feature","properties":{"name":"Sapahar","district_id":"naogaon","pcode":"506486","sql_upazila_id":"naogaon-sapahar","sql_name_bn":"সাপাহার"},"geometry":{"type":"Polygon","coordinates":[[[88.44555,25.19608],[88.45123,25.19749],[88.46458,25.19617],[88.47153,25.19787],[88.47292,25.19899],[88.47148,25.20116],[88.47156,25.20366],[88.4761,25.21219],[88.47774,25.21331],[88.49245,25.21089],[88.49972,25.21168],[88.50108,25.20985],[88.50088,25.20542],[88.51285,25.20525],[88.52222,25.2026],[88.53674,25.20081],[88.53819,25.19988],[88.5345,25.19669],[88.53345,25.19444],[88.53569,25.19054],[88.53945,25.1909],[88.54511,25.19607],[88.5535,25.19598],[88.55926,25.19405],[88.56137,25.19113],[88.56129,25.1879],[88.55875,25.18348],[88.55864,25.17938],[88.56287,25.17772],[88.5759,25.17855],[88.57719,25.17348],[88.58098,25.17038],[88.58123,25.16844],[88.58666,25.16629],[88.58674,25.15743],[88.58786,25.15538],[88.59736,25.15181],[88.59602,25.14888],[88.59649,25.14177],[88.59296,25.13761],[88.59364,25.1354],[88.59538,25.13361],[88.59579,25.12866],[88.6001,25.12686],[88.60384,25.12296],[88.61051,25.11892],[88.61206,25.11629],[88.61893,25.11338],[88.61798,25.11094],[88.60423,25.1032],[88.60165,25.10056],[88.60126,25.09829],[88.60362,25.09622],[88.60521,25.08814],[88.60645,25.08604],[88.61618,25.08116],[88.61757,25.07172],[88.61193,25.07035],[88.61059,25.06554],[88.61126,25.06229],[88.61287,25.05979],[88.61536,25.05817],[88.61604,25.0564],[88.61529,25.05505],[88.61196,25.05315],[88.61208,25.05128],[88.61867,25.04525],[88.61964,25.0403],[88.61456,25.03706],[88.61185,25.03362],[88.60542,25.03443],[88.59833,25.03104],[88.59308,25.02984],[88.58662,25.02963],[88.57876,25.03198],[88.57607,25.0315],[88.56176,25.02443],[88.55737,25.02044],[88.54742,25.01963],[88.54413,25.02319],[88.54279,25.03042],[88.54256,25.03479],[88.54536,25.04595],[88.54563,25.06207],[88.54471,25.06503],[88.54198,25.06926],[88.53555,25.07211],[88.5323,25.07265],[88.5261,25.07197],[88.51929,25.0734],[88.5146,25.07323],[88.503,25.06868],[88.49742,25.06385],[88.49134,25.0638],[88.48883,25.06171],[88.48505,25.05647],[88.48088,25.06043],[88.47782,25.06188],[88.4668,25.06114],[88.46689,25.06454],[88.47118,25.07285],[88.47025,25.07456],[88.46674,25.07488],[88.4628,25.07401],[88.45097,25.07451],[88.45287,25.07927],[88.44894,25.08197],[88.44795,25.0855],[88.44748,25.093],[88.44545,25.10073],[88.44793,25.11014],[88.44656,25.1135],[88.44421,25.11642],[88.4428,25.12626],[88.45924,25.13507],[88.46239,25.1401],[88.46218,25.1472],[88.463,25.15122],[88.46045,25.15545],[88.46085,25.1593],[88.45843,25.16478],[88.45405,25.16646],[88.45026,25.17263],[88.44569,25.1753],[88.44476,25.17683],[88.44678,25.18067],[88.44461,25.18557],[88.44384,25.19489],[88.44555,25.19608]]]}}]}