{"type":"FeatureCollection","features":[{"type":"Feature","properties":{"name":"Araihazar","district_id":"narayanganj","pcode":"306702","sql_upazila_id":"narayanganj-araihazar","sql_name_bn":"আড়াইহাজার"},"geometry":{"type":"Polygon","coordinates":[[[90.60896,23.83962],[90.6144,23.8388],[90.62255,23.84499],[90.62417,23.84889],[90.62253,23.8586],[90.62741,23.86751],[90.63271,23.87194],[90.63372,23.87449],[90.64165,23.87548],[90.64743,23.8775],[90.65073,23.87576],[90.6497,23.87053],[90.65511,23.86833],[90.65621,23.86595],[90.65407,23.86092],[90.65166,23.85772],[90.6528,23.8542],[90.66498,23.85194],[90.66405,23.84596],[90.66032,23.84434],[90.65344,23.84452],[90.64705,23.84332],[90.64129,23.83581],[90.63917,23.83169],[90.63984,23.82727],[90.6476,23.81676],[90.64875,23.81],[90.65128,23.80536],[90.65437,23.80459],[90.6662,23.80754],[90.66774,23.80286],[90.66735,23.80058],[90.67445,23.80297],[90.68074,23.80326],[90.68243,23.79756],[90.68819,23.79735],[90.68999,23.79924],[90.69081,23.80935],[90.6898,23.81486],[90.68752,23.82109],[90.68333,23.82658],[90.68254,23.82906],[90.68149,23.83309],[90.68324,23.83339],[90.68709,23.82945],[90.69738,23.8285],[90.70387,23.82146],[90.71512,23.8155],[90.717,23.81185],[90.71645,23.80849],[90.7197,23.80498],[90.72552,23.8043],[90.7272,23.80225],[90.72997,23.80138],[90.73164,23.79739],[90.73937,23.79432],[90.74593,23.78951],[90.75787,23.7841],[90.74345,23.77202],[90.7338,23.76205],[90.7291,23.7564],[90.72414,23.74715],[90.72268,23.74022],[90.72324,23.72836],[90.72433,23.7237],[90.72697,23.71849],[90.73392,23.70875],[90.7422,23.69967],[90.74362,23.69545],[90.74297,23.68884],[90.7403,23.68068],[90.73478,23.66745],[90.73257,23.66407],[90.72783,23.66203],[90.72242,23.66125],[90.71326,23.66225],[90.70766,23.66366],[90.69351,23.66986],[90.68581,23.67745],[90.68146,23.67939],[90.67699,23.67957],[90.67017,23.67758],[90.66997,23.68124],[90.67769,23.69184],[90.67761,23.69539],[90.67392,23.70058],[90.66484,23.70796],[90.66588,23.71159],[90.66525,23.7151],[90.65982,23.71638],[90.6602,23.71861],[90.66282,23.72082],[90.66172,23.72348],[90.65893,23.72367],[90.65454,23.72236],[90.65413,23.72488],[90.65587,23.72913],[90.65492,23.7307],[90.65239,23.73116],[90.64878,23.72891],[90.64687,23.72942],[90.64541,23.73215],[90.64471,23.73777],[90.64355,23.73849],[90.63733,23.73808],[90.63254,23.74193],[90.62765,23.74839],[90.62527,23.74783],[90.6144,23.75234],[90.61581,23.75551],[90.60809,23.76102],[90.60361,23.7608],[90.59894,23.76434],[90.59543,23.76547],[90.5942,23.76779],[90.58603,23.76474],[90.5798,23.77028],[90.58812,23.77628],[90.59348,23.77467],[90.59618,23.77586],[90.59862,23.77814],[90.59982,23.78081],[90.59686,23.78362],[90.59512,23.78355],[90.59317,23.78903],[90.59342,23.7932],[90.5918,23.80319],[90.59277,23.80871],[90.59512,23.81437],[90.59704,23.81609],[90.59798,23.8203],[90.59467,23.82799],[90.5955,23.83059],[90.59902,23.83411],[90.60319,23.836],[90.60896,23.83962]]]}},{"type":"Feature","properties":{"name":"Bandar","district_id":"narayanganj","pcode":"306706","sql_upazila_id":"narayanganj-bandar","sql_name_bn":"বন্দর"},"geometry":{"type":"Polygon","coordinates":[[[90.53101,23.57759],[90.51948,23.58406],[90.51619,23.58391],[90.5129,23.58817],[90.51154,23.59215],[90.51324,23.59553],[90.51082,23.60548],[90.51115,23.61491],[90.51012,23.61946],[90.50712,23.62308],[90.51009,23.62912],[90.51337,23.63292],[90.51868,23.63193],[90.52279,23.64092],[90.51881,23.64256],[90.52019,23.6534],[90.52456,23.65431],[90.52508,23.66121],[90.52673,23.6646],[90.52279,23.66762],[90.52934,23.675],[90.52991,23.67728],[90.53464,23.67978],[90.53187,23.68689],[90.54008,23.69342],[90.54009,23.69588],[90.54108,23.69781],[90.54813,23.69893],[90.55341,23.70292],[90.5564,23.70141],[90.56074,23.70107],[90.55782,23.69503],[90.55947,23.69201],[90.56166,23.69064],[90.56489,23.6905],[90.56715,23.68953],[90.56903,23.68788],[90.57054,23.68852],[90.57056,23.69333],[90.57152,23.69616],[90.57424,23.6938],[90.57716,23.69401],[90.57836,23.69655],[90.58164,23.69624],[90.58379,23.6975],[90.58372,23.7114],[90.58482,23.7152],[90.58712,23.7172],[90.5893,23.71737],[90.59107,23.71629],[90.59215,23.71084],[90.59065,23.7007],[90.58448,23.68959],[90.58108,23.67979],[90.57714,23.67886],[90.57261,23.66891],[90.57491,23.66668],[90.57321,23.65987],[90.571,23.65655],[90.56654,23.65701],[90.56539,23.65395],[90.56879,23.64523],[90.56892,23.64111],[90.56549,23.63428],[90.56026,23.63401],[90.55782,23.62944],[90.5565,23.62479],[90.5609,23.62239],[90.56117,23.61917],[90.55721,23.61305],[90.55145,23.61354],[90.54659,23.6044],[90.55077,23.60178],[90.54977,23.59689],[90.5519,23.59135],[90.54858,23.58846],[90.54914,23.58221],[90.54815,23.57664],[90.54571,23.57133],[90.53985,23.5745],[90.53101,23.57759]]]}},{"type":"Feature","properties":{"name":"Narayanganj S.","district_id":"narayanganj","pcode":"306758","sql_upazila_id":null,"sql_name_bn":null},"geometry":{"type":"Polygon","coordinates":[[[90.51286,23.70932],[90.51497,23.70504],[90.52066,23.70644],[90.52598,23.69956],[90.52232,23.69564],[90.52708,23.68678],[90.53187,23.68689],[90.53464,23.67978],[90.52991,23.67728],[90.52934,23.675],[90.52279,23.66762],[90.52673,23.6646],[90.52508,23.66121],[90.52456,23.65431],[90.52019,23.6534],[90.51881,23.64256],[90.52279,23.64092],[90.51868,23.63193],[90.51337,23.63292],[90.51009,23.62912],[90.50712,23.62308],[90.51012,23.61946],[90.51115,23.61491],[90.51082,23.60548],[90.51324,23.59553],[90.51154,23.59215],[90.5129,23.58817],[90.51619,23.58391],[90.51948,23.58406],[90.53101,23.57759],[90.52427,23.57822],[90.51981,23.58056],[90.49129,23.57511],[90.49104,23.57043],[90.48684,23.5671],[90.48256,23.56692],[90.479,23.56822],[90.47455,23.56249],[90.46677,23.55508],[90.45899,23.55225],[90.45359,23.54587],[90.45037,23.54595],[90.44339,23.54898],[90.44129,23.55321],[90.44224,23.55827],[90.44004,23.55941],[90.43653,23.5647],[90.43452,23.57024],[90.43361,23.57501],[90.43386,23.60021],[90.43173,23.6085],[90.43189,23.61415],[90.44446,23.62779],[90.45052,23.63124],[90.45667,23.63156],[90.47143,23.6373],[90.47279,23.63966],[90.47282,23.64252],[90.47025,23.64625],[90.45789,23.65833],[90.45296,23.66607],[90.45189,23.66957],[90.45423,23.67535],[90.45727,23.67927],[90.45991,23.68052],[90.46204,23.68344],[90.46355,23.68866],[90.47067,23.68763],[90.47362,23.69053],[90.4752,23.6938],[90.49238,23.69978],[90.49442,23.70333],[90.49711,23.70589],[90.50196,23.70611],[90.50989,23.71169],[90.51119,23.71065],[90.51286,23.70932]]]}},{"type":"Feature","properties":{"name":"Rupganj","district_id":"narayanganj","pcode":"306768","sql_upazila_id":"narayanganj-rupganj","sql_name_bn":"রূপগঞ্জ"},"geometry":{"type":"Polygon","coordinates":[[[90.49269,23.93895],[90.49831,23.94007],[90.50397,23.94004],[90.50781,23.93977],[90.51143,23.93785],[90.51523,23.93798],[90.51555,23.94238],[90.5143,23.95047],[90.51503,23.95629],[90.51687,23.9575],[90.52069,23.95832],[90.52364,23.95681],[90.52538,23.95076],[90.52437,23.94822],[90.52628,23.94531],[90.53611,23.94146],[90.54208,23.93719],[90.54484,23.92957],[90.54855,23.92673],[90.55299,23.9253],[90.56576,23.91165],[90.56522,23.90836],[90.56755,23.90508],[90.56926,23.90418],[90.56676,23.89773],[90.5743,23.8941],[90.57957,23.8978],[90.59173,23.89645],[90.59093,23.89087],[90.59525,23.88773],[90.60062,23.88805],[90.60258,23.88943],[90.60368,23.89454],[90.60608,23.89597],[90.60841,23.89494],[90.60899,23.89143],[90.6127,23.89076],[90.61329,23.88755],[90.61517,23.88424],[90.61005,23.86533],[90.60402,23.86303],[90.60078,23.863],[90.59669,23.86139],[90.59659,23.85819],[90.59756,23.85525],[90.60207,23.84821],[90.60896,23.83962],[90.59902,23.83411],[90.5955,23.83059],[90.59467,23.82799],[90.59798,23.8203],[90.59704,23.81609],[90.59512,23.81437],[90.59277,23.80871],[90.5918,23.80319],[90.59342,23.7932],[90.59317,23.78903],[90.59512,23.78355],[90.59686,23.78362],[90.59982,23.78081],[90.59862,23.77814],[90.59618,23.77586],[90.59348,23.77467],[90.58812,23.77628],[90.5798,23.77028],[90.58603,23.76474],[90.58343,23.76098],[90.57562,23.75981],[90.57249,23.75693],[90.56249,23.74271],[90.55764,23.73831],[90.55428,23.73766],[90.54104,23.73759],[90.53776,23.73619],[90.53545,23.73379],[90.53402,23.72737],[90.53192,23.72582],[90.52917,23.71897],[90.52729,23.71627],[90.52356,23.71408],[90.5163,23.71198],[90.51286,23.70932],[90.50989,23.71169],[90.50979,23.71466],[90.50883,23.71606],[90.50552,23.71723],[90.50045,23.7221],[90.49951,23.73236],[90.49747,23.73494],[90.49409,23.73615],[90.4935,23.74109],[90.49397,23.74468],[90.49245,23.74763],[90.48918,23.74852],[90.4872,23.75057],[90.48909,23.76007],[90.48335,23.76353],[90.48194,23.77025],[90.48255,23.77418],[90.48083,23.77897],[90.47393,23.7832],[90.47012,23.78827],[90.47248,23.79079],[90.47545,23.79226],[90.47917,23.79651],[90.48317,23.79698],[90.48532,23.80053],[90.48592,23.80629],[90.48204,23.80936],[90.48379,23.81841],[90.48907,23.82022],[90.49,23.8262],[90.48946,23.82884],[90.48759,23.83084],[90.48101,23.83529],[90.47682,23.84071],[90.47321,23.84715],[90.46774,23.84917],[90.46623,23.85058],[90.46721,23.85416],[90.47284,23.86168],[90.47363,23.86755],[90.4623,23.87738],[90.46078,23.88508],[90.46899,23.88934],[90.47476,23.89709],[90.47983,23.89839],[90.48333,23.90105],[90.48492,23.91067],[90.49065,23.91699],[90.49251,23.92083],[90.49057,23.929],[90.49054,23.93203],[90.49157,23.93526],[90.49269,23.93895]]]}},{"type":"Feature","properties":{"name":"Sonargaon","district_id":"narayanganj","pcode":"306704","sql_upazila_id":"narayanganj-sonargaon","sql_name_bn":"সোনারগাঁ"},"geometry":{"type":"Polygon","coordinates":[[[90.58603,23.76474],[90.5942,23.76779],[90.59543,23.76547],[90.59894,23.76434],[90.60361,23.7608],[90.60809,23.76102],[90.61581,23.75551],[90.6144,23.75234],[90.62527,23.74783],[90.62765,23.74839],[90.63254,23.74193],[90.63733,23.73808],[90.64355,23.73849],[90.64471,23.73777],[90.64541,23.73215],[90.64687,23.72942],[90.64878,23.72891],[90.65239,23.73116],[90.65492,23.7307],[90.65587,23.72913],[90.65413,23.72488],[90.65454,23.72236],[90.65893,23.72367],[90.66172,23.72348],[90.66282,23.72082],[90.6602,23.71861],[90.65982,23.71638],[90.66525,23.7151],[90.66588,23.71159],[90.66484,23.70796],[90.67579,23.69858],[90.67761,23.69539],[90.67769,23.69184],[90.66997,23.68124],[90.67017,23.67758],[90.66372,23.67591],[90.65356,23.67676],[90.64911,23.67539],[90.646,23.6733],[90.6438,23.66826],[90.64555,23.65873],[90.64072,23.64908],[90.63123,23.62108],[90.62768,23.6166],[90.61263,23.6055],[90.59901,23.60437],[90.59193,23.60621],[90.58583,23.60564],[90.57236,23.60163],[90.5677,23.59917],[90.5652,23.59392],[90.5636,23.58647],[90.56498,23.57689],[90.56686,23.57124],[90.57958,23.55536],[90.58302,23.54795],[90.57985,23.54369],[90.572,23.5424],[90.56659,23.54397],[90.5579,23.56003],[90.54571,23.57133],[90.54815,23.57664],[90.54914,23.58221],[90.54858,23.58846],[90.5519,23.59135],[90.54977,23.59689],[90.55077,23.60178],[90.54659,23.6044],[90.55145,23.61354],[90.55721,23.61305],[90.56117,23.61917],[90.5609,23.62239],[90.5565,23.62479],[90.55782,23.62944],[90.56026,23.63401],[90.56549,23.63428],[90.56892,23.64111],[90.56879,23.64523],[90.56539,23.65395],[90.56654,23.65701],[90.571,23.65655],[90.57321,23.65987],[90.57491,23.66668],[90.57261,23.66891],[90.57714,23.67886],[90.58108,23.67979],[90.58448,23.68959],[90.59065,23.7007],[90.59215,23.71084],[90.59107,23.71629],[90.5893,23.71737],[90.58712,23.7172],[90.58482,23.7152],[90.58345,23.70684],[90.58379,23.6975],[90.58164,23.69624],[90.57836,23.69655],[90.57716,23.69401],[90.57424,23.6938],[90.57152,23.69616],[90.57056,23.69333],[90.57054,23.68852],[90.56903,23.68788],[90.56715,23.68953],[90.56489,23.6905],[90.56166,23.69064],[90.55947,23.69201],[90.55782,23.69503],[90.56074,23.70107],[90.5564,23.70141],[90.55341,23.70292],[90.54813,23.69893],[90.54108,23.69781],[90.54009,23.69588],[90.54008,23.69342],[90.53187,23.68689],[90.52708,23.68678],[90.52232,23.69564],[90.52598,23.69956],[90.52066,23.70644],[90.51497,23.70504],[90.51286,23.70932],[90.5163,23.71198],[90.52356,23.71408],[90.52729,23.71627],[90.52917,23.71897],[90.53192,23.72582],[90.53402,23.72737],[90.53545,23.73379],[90.53776,23.73619],[90.54104,23.73759],[90.55428,23.73766],[90.55764,23.73831],[90.56249,23.74271],[90.57249,23.75693],[90.57562,23.75981],[90.58343,23.76098],[90.58603,23.76474]]]}}]}