{"type":"FeatureCollection","features":[{"type":"Feature","properties":{"name":"Kalia","district_id":"narail","pcode":"406528","sql_upazila_id":"narail-kalia","sql_name_bn":"কালিয়া"},"geometry":{"type":"Polygon","coordinates":[[[89.72257,23.07048],[89.73169,23.06632],[89.73514,23.06396],[89.73593,23.06136],[89.73483,23.05899],[89.72958,23.05559],[89.726,23.04961],[89.7258,23.04665],[89.72719,23.04292],[89.73101,23.04037],[89.74609,23.03668],[89.74867,23.03435],[89.75015,23.03205],[89.7508,23.02843],[89.75275,23.00774],[89.75364,23.00393],[89.75548,23.00134],[89.7607,22.99661],[89.76691,22.99368],[89.78766,22.98821],[89.7925,22.98504],[89.79166,22.982],[89.79013,22.98331],[89.77526,22.97812],[89.77149,22.97558],[89.77026,22.9705],[89.76845,22.96584],[89.76773,22.9657],[89.7685,22.96381],[89.76601,22.96313],[89.7621,22.96427],[89.75958,22.96783],[89.75294,22.96906],[89.74995,22.96431],[89.74697,22.96582],[89.74196,22.97492],[89.737,22.97241],[89.73317,22.97234],[89.7257,22.9742],[89.71828,22.97187],[89.69564,22.97804],[89.69244,22.97634],[89.69086,22.97351],[89.68597,22.97063],[89.67812,22.9782],[89.66948,22.98011],[89.66386,22.98024],[89.66031,22.9789],[89.65671,22.96864],[89.65391,22.96601],[89.65003,22.9645],[89.63447,22.96013],[89.63348,22.96039],[89.63169,22.96837],[89.62842,22.96799],[89.62788,22.9645],[89.62651,22.96224],[89.62252,22.95895],[89.62181,22.95402],[89.61625,22.95566],[89.61249,22.95587],[89.60519,22.96118],[89.60136,22.96523],[89.59404,22.97565],[89.59204,22.98283],[89.57815,22.98859],[89.57451,22.98885],[89.57061,22.98637],[89.56822,22.98291],[89.56597,22.9823],[89.5634,22.98022],[89.55995,22.97412],[89.55415,22.97006],[89.54491,22.96715],[89.54281,22.96865],[89.54145,22.97379],[89.53703,22.97625],[89.53447,22.98299],[89.53408,22.98735],[89.53146,22.98791],[89.53001,22.99232],[89.52735,22.99407],[89.52448,22.99436],[89.52509,22.99988],[89.51804,23.00084],[89.51611,23.00211],[89.51645,23.00376],[89.51809,23.00541],[89.50778,23.00918],[89.50433,23.01355],[89.50292,23.01955],[89.49852,23.0259],[89.50083,23.0277],[89.50882,23.0278],[89.51224,23.0295],[89.51266,23.03137],[89.51678,23.03225],[89.52022,23.03418],[89.52048,23.0376],[89.52633,23.04087],[89.53525,23.0411],[89.53709,23.04401],[89.53818,23.05083],[89.54083,23.05434],[89.54076,23.05686],[89.53576,23.06632],[89.5325,23.06885],[89.52962,23.0693],[89.52438,23.07162],[89.5227,23.07586],[89.52231,23.08022],[89.52043,23.0843],[89.51563,23.08929],[89.5098,23.09283],[89.50905,23.09486],[89.51174,23.09722],[89.52478,23.09175],[89.52496,23.08911],[89.5291,23.08713],[89.53233,23.08064],[89.53806,23.08088],[89.5391,23.08262],[89.53945,23.09061],[89.54086,23.09285],[89.54779,23.09785],[89.55734,23.10115],[89.56429,23.09888],[89.57411,23.09261],[89.5751,23.09005],[89.57746,23.08853],[89.58858,23.09073],[89.58839,23.08759],[89.58441,23.08569],[89.58189,23.08327],[89.58253,23.07912],[89.5876,23.07492],[89.58992,23.07414],[89.59317,23.07648],[89.59932,23.07922],[89.60216,23.08226],[89.61313,23.08069],[89.61506,23.08164],[89.616,23.08527],[89.61864,23.08774],[89.62368,23.08789],[89.63238,23.09396],[89.63609,23.09456],[89.63926,23.09381],[89.64227,23.09118],[89.64238,23.0878],[89.64513,23.08214],[89.64796,23.07951],[89.65302,23.07994],[89.65871,23.0736],[89.66035,23.07336],[89.66303,23.07709],[89.66566,23.07922],[89.67515,23.07982],[89.68317,23.0764],[89.68466,23.0739],[89.68887,23.07287],[89.69791,23.07309],[89.70802,23.06897],[89.717,23.06868],[89.72162,23.07176],[89.72257,23.07048]]]}},{"type":"Feature","properties":{"name":"Lohagara","district_id":"narail","pcode":"406552","sql_upazila_id":"narail-lohagara","sql_name_bn":"লোহাগড়া"},"geometry":{"type":"Polygon","coordinates":[[[89.63733,23.28647],[89.63838,23.28149],[89.64269,23.27025],[89.63818,23.26225],[89.63101,23.25468],[89.62344,23.24258],[89.62144,23.23593],[89.62181,23.23249],[89.62364,23.23063],[89.63745,23.23172],[89.64999,23.23424],[89.66686,23.23913],[89.67377,23.23965],[89.67924,23.23977],[89.68267,23.23704],[89.68337,23.23514],[89.67976,23.22805],[89.67838,23.22129],[89.6785,23.21807],[89.6819,23.20501],[89.68707,23.20093],[89.68644,23.19672],[89.68166,23.18999],[89.68003,23.18629],[89.6791,23.1833],[89.67892,23.1771],[89.68166,23.17134],[89.68911,23.16202],[89.69425,23.15841],[89.69698,23.15839],[89.70126,23.16139],[89.71519,23.17458],[89.72461,23.17937],[89.73442,23.18232],[89.74631,23.18335],[89.75815,23.18231],[89.76353,23.17864],[89.76492,23.17639],[89.76524,23.17386],[89.76432,23.17146],[89.75993,23.16961],[89.73526,23.16858],[89.73194,23.16753],[89.72533,23.16282],[89.72376,23.15911],[89.72468,23.15554],[89.72709,23.1519],[89.73797,23.14348],[89.74237,23.137],[89.74269,23.12884],[89.74054,23.12387],[89.73721,23.1216],[89.72985,23.12334],[89.71101,23.11864],[89.70304,23.1143],[89.69927,23.10859],[89.69286,23.11112],[89.69099,23.11429],[89.68534,23.11997],[89.6852,23.12267],[89.68762,23.13057],[89.6871,23.13305],[89.68545,23.1345],[89.68304,23.13492],[89.68047,23.1342],[89.67533,23.12856],[89.67371,23.1249],[89.6729,23.12158],[89.67339,23.11825],[89.67569,23.11254],[89.68865,23.09669],[89.69634,23.09065],[89.71017,23.08333],[89.71503,23.08117],[89.72541,23.07912],[89.72257,23.07048],[89.72162,23.07176],[89.717,23.06868],[89.70802,23.06897],[89.69791,23.07309],[89.68887,23.07287],[89.68466,23.0739],[89.68317,23.0764],[89.67515,23.07982],[89.66566,23.07922],[89.66303,23.07709],[89.66035,23.07336],[89.65871,23.0736],[89.65302,23.07994],[89.64796,23.07951],[89.64513,23.08214],[89.64238,23.0878],[89.64227,23.09118],[89.63926,23.09381],[89.63609,23.09456],[89.63238,23.09396],[89.62368,23.08789],[89.61864,23.08774],[89.616,23.08527],[89.61506,23.08164],[89.61313,23.08069],[89.60216,23.08226],[89.59932,23.07922],[89.59317,23.07648],[89.58992,23.07414],[89.5876,23.07492],[89.58253,23.07912],[89.58189,23.08327],[89.58441,23.08569],[89.58839,23.08759],[89.59062,23.09907],[89.59772,23.11316],[89.5997,23.11407],[89.6006,23.1158],[89.59956,23.11818],[89.60516,23.12094],[89.6073,23.12326],[89.60706,23.12591],[89.6037,23.12718],[89.60331,23.1288],[89.61391,23.13005],[89.61411,23.13296],[89.61271,23.13616],[89.60904,23.13974],[89.6108,23.14162],[89.61086,23.14379],[89.60252,23.15006],[89.60036,23.15284],[89.6032,23.15811],[89.6005,23.16152],[89.59689,23.16213],[89.59478,23.16404],[89.59678,23.17049],[89.59497,23.17233],[89.58968,23.17213],[89.58855,23.17378],[89.58917,23.1769],[89.58584,23.18396],[89.58704,23.1858],[89.59053,23.1879],[89.59239,23.19052],[89.59395,23.1943],[89.59272,23.19721],[89.58691,23.20109],[89.58329,23.20466],[89.58399,23.2083],[89.58045,23.21221],[89.57507,23.21339],[89.57307,23.20969],[89.56947,23.20868],[89.56449,23.20893],[89.56182,23.21035],[89.55876,23.21367],[89.55403,23.21437],[89.55212,23.21644],[89.55108,23.2198],[89.54405,23.22722],[89.53042,23.23152],[89.52491,23.23843],[89.52019,23.25011],[89.51799,23.25352],[89.51435,23.25611],[89.50287,23.2601],[89.49775,23.2651],[89.49355,23.26732],[89.48468,23.26977],[89.48203,23.27256],[89.47952,23.27849],[89.48101,23.29046],[89.48283,23.29193],[89.48729,23.29022],[89.49026,23.29098],[89.49249,23.28825],[89.49902,23.28881],[89.5007,23.2841],[89.50436,23.28242],[89.51086,23.28091],[89.51527,23.2772],[89.51733,23.27329],[89.51945,23.27172],[89.52179,23.27151],[89.52824,23.27911],[89.52969,23.28581],[89.53255,23.28702],[89.53457,23.29186],[89.5366,23.29436],[89.54391,23.2962],[89.5468,23.29941],[89.55041,23.30013],[89.5552,23.29989],[89.55865,23.30274],[89.5618,23.31097],[89.56878,23.30905],[89.57262,23.30964],[89.5759,23.31089],[89.57784,23.31448],[89.58855,23.31183],[89.59141,23.30995],[89.5946,23.30971],[89.60008,23.31214],[89.60488,23.3092],[89.60332,23.30577],[89.60516,23.30267],[89.61161,23.29928],[89.61292,23.29716],[89.61652,23.2957],[89.62211,23.29532],[89.62621,23.29132],[89.63283,23.28752],[89.63697,23.28816],[89.63733,23.28647]]]}},{"type":"Feature","properties":{"name":"Narail S.","district_id":"narail","pcode":"406576","sql_upazila_id":null,"sql_name_bn":null},"geometry":{"type":"Polygon","coordinates":[[[89.47952,23.27849],[89.48203,23.27256],[89.48468,23.26977],[89.49355,23.26732],[89.49775,23.2651],[89.50287,23.2601],[89.51435,23.25611],[89.51799,23.25352],[89.52019,23.25011],[89.52491,23.23843],[89.53042,23.23152],[89.54405,23.22722],[89.55108,23.2198],[89.55212,23.21644],[89.55403,23.21437],[89.55876,23.21367],[89.56182,23.21035],[89.56449,23.20893],[89.56947,23.20868],[89.57307,23.20969],[89.57507,23.21339],[89.58045,23.21221],[89.58399,23.2083],[89.58329,23.20466],[89.58691,23.20109],[89.59272,23.19721],[89.59395,23.1943],[89.59053,23.1879],[89.58704,23.1858],[89.58584,23.18396],[89.58917,23.1769],[89.58855,23.17378],[89.58968,23.17213],[89.59497,23.17233],[89.59678,23.17049],[89.59478,23.16404],[89.59689,23.16213],[89.6005,23.16152],[89.6032,23.15811],[89.60036,23.15284],[89.60252,23.15006],[89.61086,23.14379],[89.6108,23.14162],[89.60904,23.13974],[89.61271,23.13616],[89.61411,23.13296],[89.61391,23.13005],[89.60331,23.1288],[89.6037,23.12718],[89.60706,23.12591],[89.6073,23.12326],[89.60516,23.12094],[89.59956,23.11818],[89.6006,23.1158],[89.5997,23.11407],[89.59772,23.11316],[89.59334,23.10486],[89.59062,23.09907],[89.58858,23.09073],[89.57746,23.08853],[89.5751,23.09005],[89.57411,23.09261],[89.56429,23.09888],[89.55734,23.10115],[89.54779,23.09785],[89.54086,23.09285],[89.53945,23.09061],[89.5391,23.08262],[89.53806,23.08088],[89.53485,23.08042],[89.53233,23.08064],[89.5291,23.08713],[89.52496,23.08911],[89.52478,23.09175],[89.51174,23.09722],[89.50905,23.09486],[89.5098,23.09283],[89.51563,23.08929],[89.52043,23.0843],[89.52231,23.08022],[89.5227,23.07586],[89.52438,23.07162],[89.52962,23.0693],[89.5325,23.06885],[89.53576,23.06632],[89.54076,23.05686],[89.54083,23.05434],[89.53818,23.05083],[89.53709,23.04401],[89.53525,23.0411],[89.52633,23.04087],[89.52316,23.03939],[89.52048,23.0376],[89.52022,23.03418],[89.51678,23.03225],[89.51266,23.03137],[89.51224,23.0295],[89.50882,23.0278],[89.50083,23.0277],[89.49852,23.0259],[89.49333,23.02776],[89.49105,23.02979],[89.48656,23.03013],[89.48001,23.02843],[89.47504,23.02839],[89.46934,23.02649],[89.46623,23.02787],[89.46264,23.02423],[89.46101,23.02485],[89.46235,23.02996],[89.45445,23.03701],[89.45264,23.04125],[89.45383,23.04819],[89.45068,23.04728],[89.44815,23.04394],[89.44543,23.0462],[89.44379,23.04971],[89.44201,23.06071],[89.44358,23.06242],[89.44769,23.06175],[89.45138,23.06213],[89.45132,23.06476],[89.44785,23.06632],[89.44258,23.06709],[89.43905,23.06906],[89.43925,23.07826],[89.44143,23.08464],[89.44154,23.08928],[89.43978,23.09936],[89.44129,23.10664],[89.44092,23.10876],[89.43884,23.1097],[89.43247,23.10238],[89.42805,23.09974],[89.42494,23.09219],[89.41704,23.08293],[89.41573,23.0792],[89.41262,23.07743],[89.40783,23.07765],[89.39807,23.08146],[89.39639,23.08049],[89.39668,23.07458],[89.39585,23.07244],[89.39378,23.07343],[89.39252,23.07789],[89.38967,23.0796],[89.38459,23.08059],[89.38247,23.08209],[89.38793,23.09585],[89.38862,23.10218],[89.38294,23.12116],[89.377,23.13071],[89.38772,23.13724],[89.39037,23.13795],[89.39799,23.13703],[89.40069,23.13396],[89.40302,23.13381],[89.40608,23.13587],[89.40855,23.13618],[89.4122,23.13444],[89.41622,23.13544],[89.41849,23.14062],[89.41676,23.14291],[89.41341,23.14498],[89.40827,23.14632],[89.40701,23.14762],[89.40762,23.15023],[89.40953,23.15314],[89.41309,23.15581],[89.41333,23.15826],[89.41076,23.15859],[89.40894,23.15991],[89.41508,23.16529],[89.41524,23.16947],[89.42027,23.18015],[89.41811,23.18796],[89.42072,23.20372],[89.41994,23.20729],[89.42199,23.21368],[89.41624,23.22088],[89.41814,23.22361],[89.42815,23.22759],[89.43106,23.23086],[89.42403,23.23633],[89.42342,23.23939],[89.41975,23.24319],[89.42136,23.24708],[89.4269,23.25242],[89.43508,23.252],[89.43899,23.25042],[89.44778,23.25256],[89.45219,23.25187],[89.45442,23.25231],[89.45479,23.25716],[89.45785,23.25693],[89.45895,23.25935],[89.46095,23.26026],[89.46083,23.26912],[89.4634,23.27401],[89.46906,23.27952],[89.47203,23.27975],[89.47952,23.27849]]]}}]}