{"type":"FeatureCollection","features":[{"type":"Feature","properties":{"name":"Belabo","district_id":"narsingdi","pcode":"306807","sql_upazila_id":"narsingdi-belabo","sql_name_bn":"বেলাবো"},"geometry":{"type":"Polygon","coordinates":[[[90.82097,24.17593],[90.82086,24.16923],[90.82381,24.16855],[90.82668,24.16185],[90.82941,24.15849],[90.84413,24.14898],[90.84568,24.14721],[90.84634,24.14478],[90.84932,24.14295],[90.85555,24.14245],[90.869,24.14336],[90.872,24.14246],[90.87391,24.13849],[90.87367,24.13339],[90.87263,24.12987],[90.87037,24.12692],[90.8637,24.12346],[90.85378,24.121],[90.84958,24.11891],[90.84785,24.11529],[90.84857,24.11268],[90.86227,24.10619],[90.87721,24.102],[90.89309,24.096],[90.90091,24.08948],[90.90656,24.08274],[90.9124,24.08013],[90.92381,24.0776],[90.92851,24.07761],[90.93967,24.08233],[90.94375,24.08213],[90.94501,24.08104],[90.94711,24.0757],[90.95116,24.06913],[90.95356,24.06704],[90.96124,24.06373],[90.96484,24.06056],[90.96589,24.05691],[90.96206,24.04609],[90.95751,24.04313],[90.95692,24.0482],[90.96108,24.05759],[90.95269,24.06355],[90.95,24.06489],[90.94254,24.06195],[90.93785,24.0614],[90.93021,24.06562],[90.92656,24.06446],[90.92355,24.05808],[90.91927,24.05683],[90.91675,24.0541],[90.91385,24.04743],[90.91202,24.04858],[90.90627,24.05765],[90.90212,24.05622],[90.8996,24.05384],[90.88892,24.04876],[90.88463,24.04143],[90.87595,24.037],[90.87256,24.03623],[90.87115,24.0369],[90.87051,24.03841],[90.86953,24.04438],[90.8653,24.05005],[90.86179,24.0498],[90.86104,24.04759],[90.86184,24.04539],[90.85954,24.0454],[90.84892,24.0485],[90.84273,24.05296],[90.83339,24.05728],[90.82892,24.06157],[90.82245,24.06564],[90.82005,24.07034],[90.82137,24.07659],[90.81882,24.08044],[90.81734,24.08484],[90.81728,24.08832],[90.81892,24.09496],[90.81741,24.09832],[90.81478,24.09988],[90.80793,24.09778],[90.80345,24.09819],[90.79892,24.09883],[90.7944,24.10135],[90.79558,24.10898],[90.79427,24.11474],[90.79273,24.11747],[90.79083,24.11843],[90.78609,24.11593],[90.78446,24.11603],[90.7831,24.11836],[90.7817,24.12131],[90.78139,24.12532],[90.78262,24.12849],[90.78203,24.13326],[90.78016,24.13726],[90.77868,24.14542],[90.7768,24.14901],[90.77219,24.15297],[90.77129,24.15591],[90.77769,24.16696],[90.78104,24.16851],[90.79233,24.16661],[90.80009,24.16942],[90.80293,24.17238],[90.80325,24.17455],[90.80651,24.17737],[90.80779,24.17997],[90.81492,24.17857],[90.82097,24.17593]]]}},{"type":"Feature","properties":{"name":"Manohardi","district_id":"narsingdi","pcode":"306852","sql_upazila_id":null,"sql_name_bn":null},"geometry":{"type":"Polygon","coordinates":[[[90.6837,24.24291],[90.70246,24.23933],[90.71254,24.23553],[90.71609,24.23577],[90.73689,24.23989],[90.75512,24.24874],[90.76006,24.25013],[90.77402,24.24759],[90.77781,24.24574],[90.78152,24.242],[90.78291,24.23897],[90.784,24.22895],[90.79124,24.2209],[90.79209,24.21863],[90.79064,24.2083],[90.78865,24.20401],[90.78803,24.20047],[90.78922,24.19676],[90.79196,24.19368],[90.80068,24.18971],[90.80774,24.18798],[90.81337,24.18245],[90.81921,24.17927],[90.82098,24.17663],[90.82097,24.17593],[90.81492,24.17857],[90.80779,24.17997],[90.80651,24.17737],[90.80325,24.17455],[90.80293,24.17238],[90.80009,24.16942],[90.79233,24.16661],[90.78104,24.16851],[90.77769,24.16696],[90.77129,24.15591],[90.77219,24.15297],[90.7768,24.14901],[90.77868,24.14542],[90.78016,24.13726],[90.78203,24.13326],[90.78262,24.12849],[90.78139,24.12532],[90.7817,24.12131],[90.7831,24.11836],[90.78446,24.11603],[90.78609,24.11593],[90.79083,24.11843],[90.79273,24.11747],[90.79427,24.11474],[90.79558,24.10898],[90.7944,24.10135],[90.78828,24.10317],[90.78307,24.10173],[90.78212,24.09951],[90.78268,24.09772],[90.77786,24.095],[90.77425,24.0911],[90.76352,24.08881],[90.76112,24.08956],[90.76034,24.09238],[90.75866,24.0946],[90.75085,24.09567],[90.74834,24.09699],[90.74197,24.1062],[90.7376,24.10803],[90.7355,24.10672],[90.73527,24.10541],[90.73595,24.10356],[90.73889,24.10171],[90.73964,24.09969],[90.73954,24.09672],[90.7375,24.0934],[90.7422,24.09012],[90.74226,24.08784],[90.74103,24.08678],[90.73911,24.08689],[90.73052,24.08941],[90.72866,24.08769],[90.72862,24.08448],[90.73141,24.07629],[90.73118,24.07103],[90.72984,24.0677],[90.72173,24.069],[90.70567,24.07955],[90.70207,24.08016],[90.69685,24.07847],[90.68654,24.07937],[90.68012,24.07743],[90.67081,24.07635],[90.66586,24.07746],[90.65997,24.07658],[90.65312,24.07665],[90.64741,24.07308],[90.63615,24.07366],[90.64073,24.07869],[90.64236,24.08722],[90.63812,24.08894],[90.63808,24.09958],[90.64098,24.10082],[90.64208,24.10365],[90.64526,24.1039],[90.64599,24.0996],[90.65098,24.09775],[90.65224,24.09606],[90.6569,24.09582],[90.66169,24.09765],[90.66328,24.09463],[90.67474,24.09644],[90.67614,24.09972],[90.68626,24.10214],[90.69102,24.09538],[90.6948,24.09642],[90.69976,24.09961],[90.6994,24.10425],[90.70049,24.1128],[90.69397,24.1156],[90.68796,24.11267],[90.68431,24.11312],[90.68109,24.11023],[90.67824,24.11076],[90.67635,24.11413],[90.67636,24.11842],[90.68181,24.11924],[90.6869,24.12649],[90.69134,24.13884],[90.6924,24.14493],[90.68729,24.15307],[90.68494,24.1553],[90.6841,24.16036],[90.6841,24.16425],[90.68784,24.16661],[90.68975,24.17565],[90.68668,24.17916],[90.68796,24.18788],[90.69096,24.19049],[90.68926,24.19346],[90.68387,24.19668],[90.6761,24.20346],[90.67303,24.20726],[90.67171,24.21262],[90.67123,24.21732],[90.67485,24.22346],[90.67503,24.227],[90.67796,24.23081],[90.68179,24.23168],[90.6828,24.23618],[90.6837,24.24291]]]}},{"type":"Feature","properties":{"name":"Narsingdi S.","district_id":"narsingdi","pcode":"306860","sql_upazila_id":null,"sql_name_bn":null},"geometry":{"type":"Polygon","coordinates":[[[90.74242,23.91735],[90.74555,23.91241],[90.74552,23.90938],[90.74835,23.89672],[90.75745,23.8855],[90.75986,23.88532],[90.77097,23.88645],[90.77578,23.889],[90.77881,23.89218],[90.78345,23.90325],[90.78842,23.91022],[90.79524,23.91564],[90.79925,23.9165],[90.81178,23.91541],[90.81681,23.90938],[90.81517,23.9048],[90.8166,23.89898],[90.81592,23.89723],[90.81667,23.8916],[90.82014,23.88722],[90.82335,23.8869],[90.82932,23.8789],[90.83502,23.8617],[90.80914,23.8607],[90.79221,23.86397],[90.78146,23.8646],[90.76975,23.86189],[90.76067,23.85584],[90.75636,23.85167],[90.75401,23.84585],[90.75403,23.84253],[90.75493,23.83936],[90.75687,23.83656],[90.76112,23.83324],[90.76402,23.82831],[90.76794,23.8091],[90.76746,23.80219],[90.76598,23.79697],[90.75787,23.7841],[90.74593,23.78951],[90.73937,23.79432],[90.73164,23.79739],[90.72997,23.80138],[90.7272,23.80225],[90.72552,23.8043],[90.7197,23.80498],[90.71645,23.80849],[90.717,23.81185],[90.71512,23.8155],[90.70387,23.82146],[90.69738,23.8285],[90.68709,23.82945],[90.68324,23.83339],[90.68149,23.83309],[90.68254,23.82906],[90.68333,23.82658],[90.68752,23.82109],[90.6898,23.81486],[90.69081,23.80935],[90.68999,23.79924],[90.68819,23.79735],[90.68243,23.79756],[90.68074,23.80326],[90.67445,23.80297],[90.66735,23.80058],[90.66774,23.80286],[90.6662,23.80754],[90.65437,23.80459],[90.65128,23.80536],[90.64875,23.81],[90.6476,23.81676],[90.63984,23.82727],[90.63917,23.83169],[90.64129,23.83581],[90.64705,23.84332],[90.65344,23.84452],[90.66032,23.84434],[90.66405,23.84596],[90.66498,23.85194],[90.6528,23.8542],[90.65166,23.85772],[90.65407,23.86092],[90.65621,23.86595],[90.65511,23.86833],[90.6497,23.87053],[90.65073,23.87576],[90.64743,23.8775],[90.64165,23.87548],[90.63372,23.87449],[90.63271,23.87194],[90.62741,23.86751],[90.62253,23.8586],[90.62417,23.84889],[90.62255,23.84499],[90.6144,23.8388],[90.60896,23.83962],[90.60207,23.84821],[90.59756,23.85525],[90.59659,23.85819],[90.59669,23.86139],[90.60078,23.863],[90.60402,23.86303],[90.61005,23.86533],[90.61153,23.86907],[90.61517,23.88424],[90.61329,23.88755],[90.6127,23.89076],[90.61538,23.89498],[90.61506,23.89865],[90.61263,23.90255],[90.61567,23.9063],[90.61604,23.9104],[90.61733,23.91352],[90.62203,23.91511],[90.62656,23.91482],[90.62849,23.91683],[90.62871,23.9198],[90.63019,23.92142],[90.63715,23.92106],[90.6403,23.92235],[90.64502,23.92212],[90.65396,23.92748],[90.65833,23.92417],[90.66196,23.92459],[90.6676,23.92999],[90.67168,23.93131],[90.67374,23.93131],[90.67863,23.92855],[90.68092,23.92832],[90.68716,23.93268],[90.69119,23.94034],[90.70258,23.93655],[90.70572,23.93721],[90.70806,23.94246],[90.71647,23.94316],[90.7194,23.93867],[90.72377,23.94147],[90.72945,23.94372],[90.72718,23.94887],[90.73315,23.95638],[90.73617,23.96151],[90.73862,23.96384],[90.74091,23.964],[90.74413,23.96334],[90.73985,23.94802],[90.74352,23.94626],[90.74108,23.93592],[90.73739,23.93527],[90.7364,23.92775],[90.73271,23.93117],[90.72955,23.92765],[90.7272,23.92771],[90.72521,23.92616],[90.7335,23.92045],[90.7383,23.91883],[90.74242,23.91735]]]}},{"type":"Feature","properties":{"name":"Palash","district_id":"narsingdi","pcode":"306863","sql_upazila_id":"narsingdi-palash","sql_name_bn":"পলাশ"},"geometry":{"type":"Polygon","coordinates":[[[90.65143,24.03626],[90.66383,24.03473],[90.66679,24.03163],[90.66809,24.02742],[90.66579,24.02354],[90.66915,24.01761],[90.66948,24.01406],[90.67229,24.01451],[90.67448,24.01266],[90.67597,24.01257],[90.6778,24.01521],[90.6813,24.01792],[90.68558,24.01512],[90.69073,24.01492],[90.69424,24.01323],[90.69849,24.0142],[90.69855,24.00974],[90.69673,24.0055],[90.69199,24.00723],[90.68811,24.00459],[90.68437,24.00062],[90.68647,23.99611],[90.68186,23.99194],[90.681,23.98836],[90.67838,23.98609],[90.68181,23.98029],[90.68394,23.97869],[90.68677,23.97768],[90.6888,23.98078],[90.69662,23.98011],[90.70349,23.98102],[90.70463,23.9875],[90.70432,23.98963],[90.70364,23.99188],[90.70058,23.99327],[90.70142,23.99605],[90.70674,24.00323],[90.71186,24.00172],[90.71696,24.0017],[90.71909,23.99987],[90.71667,23.99811],[90.71707,23.99289],[90.71543,23.98464],[90.70861,23.98357],[90.71087,23.9743],[90.71555,23.97274],[90.71426,23.96729],[90.71236,23.96448],[90.70555,23.96346],[90.70511,23.95935],[90.70576,23.95625],[90.70494,23.95399],[90.70995,23.95122],[90.709,23.9485],[90.70717,23.94558],[90.70317,23.94334],[90.6988,23.94677],[90.6955,23.94657],[90.68716,23.93268],[90.68092,23.92832],[90.67863,23.92855],[90.67374,23.93131],[90.67168,23.93131],[90.6676,23.92999],[90.66196,23.92459],[90.65833,23.92417],[90.65396,23.92748],[90.64502,23.92212],[90.6403,23.92235],[90.63715,23.92106],[90.63019,23.92142],[90.62871,23.9198],[90.62849,23.91683],[90.62656,23.91482],[90.62203,23.91511],[90.61733,23.91352],[90.61604,23.9104],[90.61567,23.9063],[90.61263,23.90255],[90.61506,23.89865],[90.61538,23.89498],[90.6127,23.89076],[90.60899,23.89143],[90.60841,23.89494],[90.60608,23.89597],[90.60368,23.89454],[90.60258,23.88943],[90.60062,23.88805],[90.59525,23.88773],[90.59093,23.89087],[90.59173,23.89645],[90.57957,23.8978],[90.5743,23.8941],[90.56676,23.89773],[90.56926,23.90418],[90.56755,23.90508],[90.56522,23.90836],[90.56576,23.91165],[90.56057,23.91698],[90.57312,23.92272],[90.57745,23.91781],[90.58331,23.91806],[90.59269,23.91976],[90.61005,23.92549],[90.61105,23.93221],[90.61406,23.93682],[90.61446,23.93984],[90.61974,23.9413],[90.6211,23.94556],[90.62039,23.95055],[90.61264,23.95344],[90.61481,23.96322],[90.62083,23.96461],[90.62614,23.97179],[90.62388,23.97482],[90.62958,23.98399],[90.63584,23.98319],[90.63901,23.98712],[90.64093,23.99302],[90.6346,23.99547],[90.63504,23.99975],[90.63857,24.00698],[90.64313,24.00566],[90.64718,24.00727],[90.65668,24.01313],[90.65808,24.01573],[90.65813,24.02156],[90.65726,24.02576],[90.65469,24.03069],[90.65143,24.03626]]]}},{"type":"Feature","properties":{"name":"Raipur","district_id":"narsingdi","pcode":"306864","sql_upazila_id":null,"sql_name_bn":null},"geometry":{"type":"Polygon","coordinates":[[[90.98851,24.03963],[90.9843,24.03448],[90.9791,24.02399],[90.97226,24.01543],[90.96793,24.0064],[90.968,23.99726],[90.97025,23.98921],[90.97185,23.98642],[90.97175,23.98157],[90.97324,23.97747],[90.97411,23.97128],[90.97218,23.96619],[90.9645,23.95874],[90.95661,23.95603],[90.94681,23.94708],[90.94582,23.94203],[90.94978,23.92485],[90.94768,23.91856],[90.9425,23.91417],[90.93646,23.91234],[90.93224,23.90994],[90.92325,23.90263],[90.92282,23.89916],[90.92125,23.89543],[90.9174,23.87433],[90.9152,23.87056],[90.91104,23.86639],[90.90755,23.85968],[90.90279,23.8566],[90.89879,23.85494],[90.89379,23.85409],[90.88237,23.85467],[90.87477,23.86424],[90.86654,23.87216],[90.86044,23.87374],[90.84774,23.86618],[90.84397,23.86805],[90.8404,23.86637],[90.83502,23.8617],[90.82932,23.8789],[90.82335,23.8869],[90.82014,23.88722],[90.81667,23.8916],[90.81592,23.89723],[90.8166,23.89898],[90.81517,23.9048],[90.81681,23.90938],[90.81178,23.91541],[90.79925,23.9165],[90.79524,23.91564],[90.79188,23.91356],[90.78842,23.91022],[90.78345,23.90325],[90.77881,23.89218],[90.77578,23.889],[90.77097,23.88645],[90.75745,23.8855],[90.74835,23.89672],[90.74552,23.90938],[90.74555,23.91241],[90.74242,23.91735],[90.75396,23.92236],[90.75517,23.92513],[90.75566,23.93077],[90.75382,23.93357],[90.75302,23.938],[90.75562,23.94102],[90.76237,23.94427],[90.76343,23.94595],[90.76149,23.95927],[90.76566,23.96316],[90.77621,23.97603],[90.77679,23.98437],[90.78043,23.98329],[90.7837,23.97834],[90.78292,23.97339],[90.77841,23.96882],[90.77761,23.96518],[90.77392,23.96076],[90.77371,23.95774],[90.77657,23.95383],[90.77919,23.95239],[90.78413,23.95317],[90.79947,23.96213],[90.80369,23.96527],[90.8044,23.968],[90.80708,23.96787],[90.81387,23.97203],[90.81728,23.98126],[90.8196,23.98365],[90.82349,23.99024],[90.82433,23.9933],[90.82424,24.00348],[90.8287,24.00702],[90.82846,24.00927],[90.82349,24.01134],[90.82702,24.02045],[90.82611,24.02322],[90.82738,24.02576],[90.8278,24.03278],[90.82514,24.04303],[90.82625,24.04844],[90.82961,24.05063],[90.83339,24.05728],[90.84273,24.05296],[90.84892,24.0485],[90.85954,24.0454],[90.86184,24.04539],[90.86104,24.04759],[90.86179,24.0498],[90.8653,24.05005],[90.86953,24.04438],[90.87051,24.03841],[90.87115,24.0369],[90.87256,24.03623],[90.87595,24.037],[90.88463,24.04143],[90.88892,24.04876],[90.8996,24.05384],[90.90212,24.05622],[90.90627,24.05765],[90.91202,24.04858],[90.91385,24.04743],[90.91675,24.0541],[90.91927,24.05683],[90.92355,24.05808],[90.92656,24.06446],[90.93021,24.06562],[90.93785,24.0614],[90.94022,24.06133],[90.95,24.06489],[90.96108,24.05759],[90.95692,24.0482],[90.95683,24.04551],[90.95825,24.0417],[90.96568,24.03834],[90.97004,24.03845],[90.9796,24.04098],[90.98851,24.03963]]]}},{"type":"Feature","properties":{"name":"Shibpur","district_id":"narsingdi","pcode":"306876","sql_upazila_id":"narsingdi-shibpur","sql_name_bn":"শিবপুর"},"geometry":{"type":"Polygon","coordinates":[[[90.7944,24.10135],[90.79892,24.09883],[90.80345,24.09819],[90.80793,24.09778],[90.81478,24.09988],[90.81741,24.09832],[90.81892,24.09496],[90.81728,24.08832],[90.81734,24.08484],[90.81882,24.08044],[90.82137,24.07659],[90.82005,24.07034],[90.82245,24.06564],[90.82892,24.06157],[90.83339,24.05728],[90.82961,24.05063],[90.82625,24.04844],[90.82514,24.04303],[90.8278,24.03278],[90.82738,24.02576],[90.82611,24.02322],[90.82702,24.02045],[90.82349,24.01134],[90.82846,24.00927],[90.8287,24.00702],[90.82424,24.00348],[90.82433,23.9933],[90.82349,23.99024],[90.8196,23.98365],[90.81728,23.98126],[90.81387,23.97203],[90.80708,23.96787],[90.8044,23.968],[90.80369,23.96527],[90.79947,23.96213],[90.78413,23.95317],[90.78088,23.95251],[90.77919,23.95239],[90.77657,23.95383],[90.77371,23.95774],[90.77392,23.96076],[90.77761,23.96518],[90.77841,23.96882],[90.78292,23.97339],[90.7837,23.97834],[90.78043,23.98329],[90.77679,23.98437],[90.77621,23.97603],[90.76566,23.96316],[90.76149,23.95927],[90.76343,23.94595],[90.76237,23.94427],[90.75562,23.94102],[90.75302,23.938],[90.75382,23.93357],[90.75566,23.93077],[90.75517,23.92513],[90.75396,23.92236],[90.74242,23.91735],[90.7335,23.92045],[90.72521,23.92616],[90.7272,23.92771],[90.72955,23.92765],[90.73271,23.93117],[90.7364,23.92775],[90.73739,23.93527],[90.74108,23.93592],[90.74352,23.94626],[90.73985,23.94802],[90.74413,23.96334],[90.73862,23.96384],[90.73617,23.96151],[90.73315,23.95638],[90.72718,23.94887],[90.72945,23.94372],[90.72377,23.94147],[90.7194,23.93867],[90.71647,23.94316],[90.70806,23.94246],[90.70572,23.93721],[90.70258,23.93655],[90.69119,23.94034],[90.6955,23.94657],[90.6988,23.94677],[90.70317,23.94334],[90.70717,23.94558],[90.709,23.9485],[90.70995,23.95122],[90.70494,23.95399],[90.70576,23.95625],[90.70511,23.95935],[90.70555,23.96346],[90.71236,23.96448],[90.71426,23.96729],[90.71555,23.97274],[90.71087,23.9743],[90.70861,23.98357],[90.71543,23.98464],[90.71707,23.99289],[90.71667,23.99811],[90.71909,23.99987],[90.71696,24.0017],[90.71186,24.00172],[90.70674,24.00323],[90.70395,23.99993],[90.70142,23.99605],[90.70058,23.99327],[90.70364,23.99188],[90.70432,23.98963],[90.70463,23.9875],[90.70349,23.98102],[90.69662,23.98011],[90.6888,23.98078],[90.68677,23.97768],[90.68181,23.98029],[90.67838,23.98609],[90.681,23.98836],[90.68186,23.99194],[90.68647,23.99611],[90.68437,24.00062],[90.68811,24.00459],[90.69199,24.00723],[90.69673,24.0055],[90.69855,24.00974],[90.69849,24.0142],[90.69424,24.01323],[90.69073,24.01492],[90.68558,24.01512],[90.6813,24.01792],[90.6778,24.01521],[90.67597,24.01257],[90.67448,24.01266],[90.67229,24.01451],[90.66948,24.01406],[90.66915,24.01761],[90.66579,24.02354],[90.66809,24.02742],[90.66679,24.03163],[90.66383,24.03473],[90.65143,24.03626],[90.65176,24.04494],[90.64854,24.05521],[90.63339,24.07099],[90.63615,24.07366],[90.64741,24.07308],[90.65312,24.07665],[90.65997,24.07658],[90.66586,24.07746],[90.67081,24.07635],[90.68012,24.07743],[90.68654,24.07937],[90.69685,24.07847],[90.70207,24.08016],[90.70567,24.07955],[90.72173,24.069],[90.72984,24.0677],[90.73118,24.07103],[90.73141,24.07629],[90.72862,24.08448],[90.72866,24.08769],[90.73052,24.08941],[90.73911,24.08689],[90.74103,24.08678],[90.74226,24.08784],[90.7422,24.09012],[90.7375,24.0934],[90.73954,24.09672],[90.73964,24.09969],[90.73889,24.10171],[90.73595,24.10356],[90.73527,24.10541],[90.7355,24.10672],[90.7376,24.10803],[90.74197,24.1062],[90.74834,24.09699],[90.75085,24.09567],[90.75866,24.0946],[90.76034,24.09238],[90.76112,24.08956],[90.76352,24.08881],[90.77425,24.0911],[90.77786,24.095],[90.78268,24.09772],[90.78212,24.09951],[90.78307,24.10173],[90.78828,24.10317],[90.78994,24.10244],[90.7944,24.10135]]]}}]}