{"type":"FeatureCollection","features":[{"type":"Feature","properties":{"name":"Bagatipara","district_id":"natore","pcode":"506909","sql_upazila_id":"natore-bagatipara","sql_name_bn":"বাগাতিপাড়া"},"geometry":{"type":"Polygon","coordinates":[[[88.8511,24.3457],[88.85547,24.34169],[88.85839,24.34164],[88.86199,24.34869],[88.86393,24.3497],[88.86652,24.34744],[88.86669,24.34568],[88.86867,24.34367],[88.8737,24.34253],[88.87821,24.33998],[88.88244,24.33958],[88.88489,24.34262],[88.89075,24.34527],[88.89364,24.3479],[88.89581,24.34799],[88.90152,24.3461],[88.90408,24.3472],[88.90729,24.35414],[88.91013,24.35689],[88.9111,24.35455],[88.90989,24.35087],[88.91262,24.35004],[88.91605,24.3517],[88.91954,24.35216],[88.925,24.35006],[88.92939,24.34711],[88.93269,24.34792],[88.93494,24.34953],[88.93501,24.35736],[88.9362,24.359],[88.93888,24.35993],[88.94143,24.35984],[88.9457,24.35666],[88.95122,24.35506],[88.95454,24.35791],[88.95647,24.35851],[88.96049,24.36305],[88.96846,24.36426],[88.97131,24.36303],[88.97103,24.359],[88.97219,24.35671],[88.97485,24.35509],[88.98048,24.35819],[88.98299,24.36168],[88.98562,24.36301],[88.98802,24.36075],[88.98825,24.35866],[88.98529,24.35404],[88.98608,24.35171],[88.9891,24.34797],[88.99577,24.34369],[89.00661,24.33917],[89.01651,24.33302],[89.02471,24.33228],[89.0359,24.32492],[89.03813,24.32451],[89.0435,24.32624],[89.04626,24.32285],[89.04046,24.31396],[89.03802,24.3119],[89.03757,24.31026],[89.04074,24.29693],[89.03698,24.293],[89.03404,24.29117],[89.03211,24.2908],[89.02622,24.29258],[89.02454,24.29187],[89.02359,24.29023],[89.02559,24.28419],[89.02526,24.28249],[89.01532,24.27621],[89.01115,24.27564],[89.00677,24.27258],[88.98859,24.27452],[88.98292,24.27358],[88.97785,24.27688],[88.97196,24.2861],[88.96757,24.29024],[88.96532,24.29396],[88.95736,24.29338],[88.94994,24.29024],[88.94905,24.28844],[88.94888,24.28225],[88.94308,24.28108],[88.9407,24.27879],[88.93833,24.27796],[88.93677,24.27594],[88.93724,24.27343],[88.93994,24.26942],[88.94072,24.2659],[88.93983,24.26403],[88.93993,24.2608],[88.93733,24.2543],[88.93444,24.25008],[88.9325,24.24784],[88.92901,24.24726],[88.9261,24.24843],[88.92278,24.25256],[88.91584,24.25509],[88.91468,24.25766],[88.9088,24.26023],[88.90682,24.26207],[88.90446,24.27084],[88.90245,24.27501],[88.90435,24.28759],[88.90332,24.29124],[88.89831,24.29323],[88.88831,24.29432],[88.8814,24.29344],[88.87967,24.29426],[88.87831,24.29581],[88.87436,24.30733],[88.87234,24.3111],[88.87061,24.31305],[88.86782,24.3141],[88.86285,24.31382],[88.85964,24.30932],[88.85966,24.30421],[88.85716,24.30215],[88.85493,24.30291],[88.85263,24.31151],[88.85072,24.31397],[88.8475,24.3147],[88.84615,24.31681],[88.84586,24.3196],[88.84656,24.32202],[88.85043,24.32499],[88.85101,24.32691],[88.84569,24.33907],[88.84778,24.34438],[88.8511,24.3457]]]}},{"type":"Feature","properties":{"name":"Baraigram","district_id":"natore","pcode":"506915","sql_upazila_id":"natore-baraigram","sql_name_bn":"বড়াইগ্রাম"},"geometry":{"type":"Polygon","coordinates":[[[89.06615,24.34937],[89.06713,24.34675],[89.06917,24.34546],[89.07159,24.34561],[89.08336,24.35351],[89.08585,24.35444],[89.08797,24.35356],[89.08959,24.34899],[89.09152,24.34806],[89.09267,24.35128],[89.09245,24.35474],[89.09422,24.35705],[89.09577,24.35703],[89.09862,24.35596],[89.10002,24.35328],[89.10069,24.35077],[89.09961,24.34851],[89.0971,24.34616],[89.09298,24.34497],[89.08688,24.34466],[89.08133,24.34264],[89.08241,24.33763],[89.08369,24.33636],[89.09127,24.33485],[89.09669,24.33555],[89.09857,24.33763],[89.10326,24.34057],[89.11095,24.34438],[89.11768,24.34043],[89.12321,24.33887],[89.14337,24.33438],[89.14775,24.33716],[89.15481,24.33359],[89.15746,24.33634],[89.16405,24.33749],[89.16074,24.34174],[89.16113,24.34389],[89.15981,24.34897],[89.1612,24.35138],[89.16319,24.35118],[89.17098,24.34704],[89.17767,24.34995],[89.1847,24.35002],[89.18904,24.34922],[89.19195,24.34781],[89.1948,24.34085],[89.20298,24.33823],[89.20524,24.33422],[89.20753,24.33379],[89.20901,24.33179],[89.21912,24.32959],[89.22543,24.32655],[89.22919,24.32349],[89.23201,24.3131],[89.24317,24.30533],[89.24886,24.30314],[89.26187,24.30431],[89.26443,24.30592],[89.26448,24.31534],[89.26563,24.31901],[89.26791,24.3221],[89.27066,24.32365],[89.27174,24.32579],[89.27318,24.32611],[89.27886,24.32301],[89.28859,24.31974],[89.29001,24.30768],[89.28837,24.30544],[89.27879,24.3049],[89.27613,24.30006],[89.27269,24.29859],[89.26973,24.29562],[89.26717,24.28833],[89.2608,24.28099],[89.25828,24.27677],[89.25452,24.27388],[89.24837,24.27391],[89.24468,24.27306],[89.24265,24.26867],[89.23904,24.26747],[89.23651,24.26494],[89.23529,24.26049],[89.23653,24.25928],[89.24358,24.25747],[89.24463,24.25603],[89.2428,24.24743],[89.23973,24.24487],[89.23631,24.24463],[89.23449,24.24335],[89.23225,24.238],[89.23006,24.23638],[89.22422,24.23624],[89.22334,24.2345],[89.22362,24.23205],[89.22533,24.22987],[89.22503,24.22477],[89.22297,24.21758],[89.21712,24.21074],[89.21237,24.20826],[89.20839,24.2077],[89.20515,24.20621],[89.19695,24.2006],[89.19364,24.19917],[89.18894,24.20118],[89.18359,24.19966],[89.17706,24.19953],[89.17148,24.19376],[89.16073,24.17501],[89.15616,24.17127],[89.14837,24.16832],[89.14314,24.16777],[89.13595,24.16816],[89.12482,24.16696],[89.10216,24.16699],[89.09652,24.16156],[89.0934,24.15979],[89.08909,24.16411],[89.08861,24.16587],[89.08549,24.16495],[89.08374,24.16356],[89.06673,24.16459],[89.05695,24.16705],[89.0545,24.17157],[89.05373,24.17476],[89.05102,24.1765],[89.04605,24.17702],[89.0444,24.18681],[89.03965,24.19062],[89.04002,24.19681],[89.03738,24.19927],[89.04505,24.20393],[89.04508,24.20701],[89.04101,24.20967],[89.03981,24.21327],[89.03825,24.21385],[89.03694,24.21279],[89.03096,24.21128],[89.03099,24.20748],[89.02885,24.2053],[89.02674,24.20504],[89.0257,24.20659],[89.02579,24.2088],[89.02011,24.20712],[89.01342,24.20891],[89.01105,24.20786],[89.00453,24.20063],[89.00135,24.19982],[88.999,24.20025],[88.99904,24.20507],[89.00609,24.21502],[89.01009,24.22684],[89.00982,24.23013],[89.00877,24.2314],[88.99986,24.23447],[88.99744,24.23598],[88.99628,24.23803],[88.99563,24.24145],[88.99745,24.24392],[89.00058,24.24581],[89.00109,24.24745],[88.99966,24.25513],[88.99397,24.26537],[88.99789,24.27344],[89.00677,24.27258],[89.01115,24.27564],[89.01532,24.27621],[89.02526,24.28249],[89.02559,24.28419],[89.02359,24.29023],[89.02454,24.29187],[89.02622,24.29258],[89.03211,24.2908],[89.03404,24.29117],[89.03698,24.293],[89.04074,24.29693],[89.03757,24.31026],[89.03802,24.3119],[89.04046,24.31396],[89.04626,24.32285],[89.0435,24.32624],[89.04231,24.33284],[89.04478,24.33752],[89.04948,24.34188],[89.05654,24.34554],[89.05987,24.34855],[89.06615,24.34937]]]}},{"type":"Feature","properties":{"name":"Gurudaspur","district_id":"natore","pcode":"506941","sql_upazila_id":"natore-gurudaspur","sql_name_bn":"গুরুদাসপুর"},"geometry":{"type":"Polygon","coordinates":[[[89.10957,24.40832],[89.11579,24.40749],[89.11868,24.41064],[89.12014,24.41357],[89.12415,24.41703],[89.12656,24.41467],[89.13033,24.41257],[89.13431,24.41149],[89.13817,24.41161],[89.14272,24.41342],[89.14583,24.41269],[89.14936,24.41105],[89.1528,24.40606],[89.1565,24.40391],[89.15968,24.40347],[89.16243,24.40536],[89.16554,24.40525],[89.17377,24.41263],[89.18241,24.41222],[89.19337,24.40723],[89.20395,24.40736],[89.21094,24.40895],[89.21269,24.4103],[89.2131,24.41307],[89.21101,24.42156],[89.21655,24.42784],[89.2198,24.42955],[89.22389,24.43335],[89.2263,24.43695],[89.22881,24.43862],[89.23702,24.43957],[89.23882,24.43875],[89.23877,24.43381],[89.24018,24.43186],[89.25388,24.43312],[89.25937,24.42987],[89.26212,24.42943],[89.26925,24.43284],[89.27229,24.43257],[89.27477,24.43088],[89.27634,24.42711],[89.2849,24.42397],[89.28687,24.42241],[89.28771,24.41984],[89.28499,24.40967],[89.28539,24.40654],[89.29035,24.40538],[89.28808,24.39713],[89.28745,24.3906],[89.28796,24.3864],[89.29256,24.37475],[89.29556,24.3709],[89.30389,24.36992],[89.30991,24.36301],[89.32011,24.3578],[89.32258,24.35527],[89.32021,24.34565],[89.31721,24.33889],[89.3146,24.33756],[89.30489,24.33777],[89.30062,24.33341],[89.29294,24.3308],[89.29131,24.32918],[89.28971,24.32574],[89.28859,24.31974],[89.27886,24.32301],[89.27318,24.32611],[89.27174,24.32579],[89.27066,24.32365],[89.26791,24.3221],[89.26563,24.31901],[89.26448,24.31534],[89.26443,24.30592],[89.26187,24.30431],[89.24886,24.30314],[89.24317,24.30533],[89.23201,24.3131],[89.22919,24.32349],[89.22543,24.32655],[89.21912,24.32959],[89.20901,24.33179],[89.20753,24.33379],[89.20524,24.33422],[89.20298,24.33823],[89.1948,24.34085],[89.19195,24.34781],[89.18904,24.34922],[89.1847,24.35002],[89.17767,24.34995],[89.17098,24.34704],[89.16319,24.35118],[89.1612,24.35138],[89.15981,24.34897],[89.16113,24.34389],[89.16074,24.34174],[89.16405,24.33749],[89.15746,24.33634],[89.15481,24.33359],[89.14775,24.33716],[89.14337,24.33438],[89.12321,24.33887],[89.11768,24.34043],[89.11095,24.34438],[89.10326,24.34057],[89.09857,24.33763],[89.09669,24.33555],[89.09127,24.33485],[89.08692,24.33529],[89.08369,24.33636],[89.08241,24.33763],[89.08133,24.34264],[89.08688,24.34466],[89.09298,24.34497],[89.0971,24.34616],[89.09961,24.34851],[89.10069,24.35077],[89.09862,24.35596],[89.09422,24.35705],[89.09245,24.35474],[89.09267,24.35128],[89.09152,24.34806],[89.08959,24.34899],[89.08797,24.35356],[89.08585,24.35444],[89.08336,24.35351],[89.07159,24.34561],[89.06917,24.34546],[89.06713,24.34675],[89.06615,24.34937],[89.07027,24.3504],[89.06808,24.35609],[89.07069,24.36123],[89.07375,24.36295],[89.07965,24.36872],[89.08413,24.36888],[89.08483,24.37097],[89.08009,24.37609],[89.0816,24.37658],[89.08379,24.37984],[89.09161,24.38331],[89.08876,24.38528],[89.0899,24.38725],[89.08664,24.39133],[89.0927,24.39431],[89.09206,24.39869],[89.09414,24.40116],[89.10051,24.40385],[89.10957,24.40832]]]}},{"type":"Feature","properties":{"name":"Lalpur","district_id":"natore","pcode":"506944","sql_upazila_id":"natore-lalpur","sql_name_bn":"লালপুর"},"geometry":{"type":"Polygon","coordinates":[[[88.99789,24.27344],[88.99397,24.26537],[88.99966,24.25513],[89.00109,24.24745],[89.00058,24.24581],[88.99745,24.24392],[88.99563,24.24145],[88.99628,24.23803],[88.99744,24.23598],[88.99986,24.23447],[89.00877,24.2314],[89.00982,24.23013],[89.01009,24.22684],[89.00609,24.21502],[88.99904,24.20507],[88.999,24.20025],[89.00135,24.19982],[89.00453,24.20063],[89.01105,24.20786],[89.01342,24.20891],[89.02011,24.20712],[89.02579,24.2088],[89.0257,24.20659],[89.02674,24.20504],[89.02885,24.2053],[89.03099,24.20748],[89.03096,24.21128],[89.03694,24.21279],[89.03825,24.21385],[89.03981,24.21327],[89.04101,24.20967],[89.04508,24.20701],[89.04505,24.20393],[89.03738,24.19927],[89.04002,24.19681],[89.03965,24.19062],[89.0444,24.18681],[89.04605,24.17702],[89.05102,24.1765],[89.05373,24.17476],[89.0545,24.17157],[89.05695,24.16705],[89.06673,24.16459],[89.08374,24.16356],[89.08487,24.15736],[89.08403,24.15457],[89.07811,24.15211],[89.0681,24.15078],[89.05668,24.15076],[89.05356,24.14876],[89.05213,24.14265],[89.05083,24.14199],[89.04481,24.1427],[89.04098,24.14433],[89.03557,24.15117],[89.03394,24.15617],[89.03236,24.16709],[89.02829,24.17034],[89.02631,24.17042],[89.02035,24.16386],[89.01667,24.16238],[89.00816,24.16112],[89.00591,24.15923],[89.00137,24.1573],[89.00072,24.15588],[89.00237,24.15348],[89.01311,24.15215],[89.01557,24.15013],[89.01057,24.14679],[89.00426,24.14801],[89.00177,24.14753],[89.00262,24.14569],[89.00695,24.14365],[89.00861,24.14193],[89.01252,24.1349],[89.01334,24.13011],[89.01288,24.12649],[89.0081,24.11946],[89.00438,24.11968],[88.99802,24.12198],[88.99063,24.12299],[88.97555,24.1233],[88.9557,24.12526],[88.94703,24.12719],[88.93868,24.13122],[88.92795,24.12483],[88.92378,24.12306],[88.92105,24.12321],[88.92063,24.12481],[88.923,24.1338],[88.92194,24.13433],[88.91212,24.13156],[88.90981,24.12977],[88.90991,24.12829],[88.9114,24.12748],[88.91224,24.12582],[88.91189,24.11873],[88.91058,24.11739],[88.90205,24.11488],[88.87808,24.10548],[88.87572,24.10556],[88.8763,24.1076],[88.8818,24.11168],[88.88324,24.11421],[88.88271,24.11859],[88.88105,24.12026],[88.87689,24.11968],[88.86736,24.11527],[88.86302,24.11594],[88.8597,24.11916],[88.86288,24.1215],[88.86592,24.12981],[88.86823,24.13217],[88.87115,24.13326],[88.87942,24.13316],[88.88197,24.13461],[88.89156,24.15367],[88.89069,24.15539],[88.89256,24.16376],[88.89133,24.1652],[88.88879,24.1646],[88.88628,24.16214],[88.88071,24.16527],[88.87718,24.16611],[88.8632,24.16538],[88.86173,24.16715],[88.86233,24.17203],[88.86483,24.17444],[88.86707,24.17458],[88.87019,24.17732],[88.87083,24.17908],[88.8708,24.18339],[88.86685,24.18662],[88.86699,24.18866],[88.87185,24.19093],[88.87231,24.1949],[88.87383,24.19789],[88.87397,24.20072],[88.8701,24.20622],[88.86907,24.20907],[88.8726,24.21624],[88.87168,24.21789],[88.87101,24.22687],[88.87452,24.23097],[88.87618,24.23748],[88.87773,24.23803],[88.87878,24.2362],[88.87904,24.2308],[88.88276,24.22854],[88.89229,24.23268],[88.89714,24.23239],[88.89833,24.2338],[88.89814,24.24021],[88.90038,24.24122],[88.90496,24.2391],[88.91082,24.24147],[88.91401,24.24433],[88.91579,24.24901],[88.91584,24.25509],[88.92278,24.25256],[88.9261,24.24843],[88.92901,24.24726],[88.9325,24.24784],[88.93733,24.2543],[88.93993,24.2608],[88.93983,24.26403],[88.94072,24.2659],[88.93994,24.26942],[88.93724,24.27343],[88.93677,24.27594],[88.93833,24.27796],[88.9407,24.27879],[88.94308,24.28108],[88.94888,24.28225],[88.94905,24.28844],[88.94994,24.29024],[88.95736,24.29338],[88.96532,24.29396],[88.96757,24.29024],[88.97196,24.2861],[88.97785,24.27688],[88.98292,24.27358],[88.98859,24.27452],[88.99206,24.27414],[88.99789,24.27344]]]}},{"type":"Feature","properties":{"name":"Natore S.","district_id":"natore","pcode":"506963","sql_upazila_id":null,"sql_name_bn":null},"geometry":{"type":"Polygon","coordinates":[[[89.06757,24.5346],[89.06111,24.53003],[89.06022,24.52698],[89.06537,24.52492],[89.06529,24.52356],[89.05756,24.51668],[89.05916,24.50837],[89.05296,24.50272],[89.05204,24.49797],[89.0535,24.48864],[89.05241,24.48507],[89.04685,24.48243],[89.04546,24.47983],[89.0478,24.47708],[89.04803,24.47526],[89.04202,24.47068],[89.0403,24.4673],[89.04456,24.46401],[89.04831,24.45834],[89.04885,24.45566],[89.05102,24.45381],[89.05481,24.45416],[89.0576,24.45321],[89.06112,24.44993],[89.0632,24.44644],[89.06232,24.44469],[89.05682,24.443],[89.05499,24.43991],[89.05376,24.43561],[89.05439,24.42913],[89.05557,24.42854],[89.05732,24.42932],[89.06469,24.43909],[89.06812,24.44035],[89.07354,24.44028],[89.07494,24.4377],[89.07217,24.42667],[89.07359,24.41916],[89.07075,24.41454],[89.07139,24.41164],[89.07361,24.40797],[89.07553,24.40687],[89.07883,24.40671],[89.08116,24.40974],[89.08303,24.41754],[89.08467,24.41968],[89.08723,24.42039],[89.0906,24.41517],[89.09556,24.41471],[89.10017,24.41328],[89.10957,24.40832],[89.09414,24.40116],[89.09206,24.39869],[89.0927,24.39431],[89.08664,24.39133],[89.0899,24.38725],[89.08876,24.38528],[89.09161,24.38331],[89.08379,24.37984],[89.0816,24.37658],[89.08009,24.37609],[89.08483,24.37097],[89.08413,24.36888],[89.07965,24.36872],[89.07375,24.36295],[89.07069,24.36123],[89.06808,24.35609],[89.07027,24.3504],[89.05987,24.34855],[89.05654,24.34554],[89.04948,24.34188],[89.04478,24.33752],[89.04231,24.33284],[89.0435,24.32624],[89.03813,24.32451],[89.0359,24.32492],[89.02471,24.33228],[89.01651,24.33302],[89.00661,24.33917],[88.99577,24.34369],[88.9891,24.34797],[88.98608,24.35171],[88.98529,24.35404],[88.98825,24.35866],[88.98802,24.36075],[88.98562,24.36301],[88.98299,24.36168],[88.98048,24.35819],[88.97485,24.35509],[88.97219,24.35671],[88.97103,24.359],[88.97131,24.36303],[88.96846,24.36426],[88.96049,24.36305],[88.95647,24.35851],[88.95454,24.35791],[88.95122,24.35506],[88.9457,24.35666],[88.94143,24.35984],[88.93888,24.35993],[88.9362,24.359],[88.93501,24.35736],[88.93494,24.34953],[88.93269,24.34792],[88.92939,24.34711],[88.925,24.35006],[88.91954,24.35216],[88.91605,24.3517],[88.91262,24.35004],[88.90989,24.35087],[88.9111,24.35455],[88.91013,24.35689],[88.90729,24.35414],[88.90408,24.3472],[88.90152,24.3461],[88.89581,24.34799],[88.89364,24.3479],[88.89075,24.34527],[88.88489,24.34262],[88.88244,24.33958],[88.87821,24.33998],[88.8737,24.34253],[88.86867,24.34367],[88.86669,24.34568],[88.86652,24.34744],[88.86393,24.3497],[88.86199,24.34869],[88.85839,24.34164],[88.85547,24.34169],[88.8511,24.3457],[88.85588,24.35546],[88.86277,24.3614],[88.87222,24.36066],[88.87964,24.36261],[88.88367,24.36273],[88.88941,24.36442],[88.89318,24.3679],[88.8945,24.37105],[88.89365,24.38026],[88.88993,24.38348],[88.89167,24.38999],[88.89809,24.39956],[88.90057,24.40782],[88.89899,24.4117],[88.90281,24.42187],[88.90189,24.42426],[88.89785,24.42488],[88.8967,24.42853],[88.89672,24.43159],[88.89983,24.43803],[88.90125,24.44528],[88.90028,24.44773],[88.89391,24.45286],[88.89362,24.45542],[88.89677,24.46174],[88.89558,24.4676],[88.8924,24.47434],[88.89522,24.47777],[88.89695,24.48405],[88.90724,24.48636],[88.90906,24.48804],[88.91285,24.50315],[88.91611,24.50493],[88.92289,24.50399],[88.92316,24.50796],[88.92702,24.51546],[88.92622,24.51689],[88.9248,24.51713],[88.91611,24.51361],[88.90839,24.51286],[88.89865,24.51043],[88.89755,24.51294],[88.89784,24.51844],[88.89349,24.52008],[88.8864,24.52023],[88.88212,24.52244],[88.88409,24.52849],[88.8858,24.53046],[88.88917,24.53183],[88.89353,24.53228],[88.89663,24.53021],[88.89825,24.53019],[88.89711,24.53486],[88.89813,24.53842],[88.89988,24.53993],[88.9148,24.54422],[88.92615,24.54545],[88.9315,24.54436],[88.9365,24.53941],[88.93974,24.53937],[88.9484,24.5476],[88.96071,24.55119],[88.9621,24.55327],[88.96407,24.56574],[88.96124,24.57031],[88.96089,24.57361],[88.96316,24.58301],[88.96579,24.58496],[88.96778,24.58522],[88.98186,24.57777],[88.99023,24.57209],[88.99427,24.57113],[89.00262,24.57113],[89.0069,24.56812],[89.01152,24.56352],[89.01169,24.56182],[89.00838,24.56118],[89.00637,24.55905],[89.00661,24.55603],[89.00826,24.55323],[89.01216,24.55137],[89.0159,24.55114],[89.01834,24.55247],[89.0235,24.55785],[89.02718,24.55854],[89.02985,24.55737],[89.03212,24.55439],[89.03536,24.54764],[89.03802,24.54569],[89.04131,24.54473],[89.05151,24.53527],[89.05331,24.53531],[89.05744,24.53718],[89.06391,24.53613],[89.06757,24.5346]]]}},{"type":"Feature","properties":{"name":"Singra","district_id":"natore","pcode":"506991","sql_upazila_id":"natore-singra","sql_name_bn":"সিংড়া"},"geometry":{"type":"Polygon","coordinates":[[[89.14015,24.65565],[89.14045,24.65251],[89.13883,24.64784],[89.14313,24.64061],[89.14547,24.63271],[89.15316,24.62779],[89.15414,24.62613],[89.15266,24.62168],[89.15408,24.62065],[89.15682,24.62045],[89.16122,24.62355],[89.1703,24.62523],[89.17257,24.62727],[89.17314,24.63417],[89.17754,24.63566],[89.17744,24.63828],[89.17534,24.64002],[89.17313,24.64381],[89.1777,24.65039],[89.18318,24.64925],[89.19017,24.65421],[89.19299,24.65463],[89.19562,24.64439],[89.20203,24.64331],[89.20455,24.64477],[89.20647,24.64406],[89.20515,24.63797],[89.20772,24.63806],[89.20972,24.63918],[89.21141,24.63882],[89.21207,24.63659],[89.20922,24.6332],[89.20258,24.6304],[89.2018,24.62294],[89.19653,24.62008],[89.19775,24.61835],[89.20392,24.61709],[89.20553,24.61594],[89.20544,24.61326],[89.20641,24.61063],[89.20795,24.60958],[89.21146,24.61644],[89.21323,24.6174],[89.21659,24.61731],[89.21844,24.61068],[89.21782,24.60503],[89.21826,24.59995],[89.21976,24.59497],[89.225,24.58938],[89.22622,24.5868],[89.22882,24.58507],[89.23294,24.58531],[89.2404,24.58815],[89.24168,24.59019],[89.2437,24.59736],[89.24682,24.60292],[89.24815,24.6045],[89.25467,24.60695],[89.25701,24.60927],[89.25757,24.61445],[89.24997,24.62103],[89.25198,24.62239],[89.2551,24.62224],[89.2612,24.63058],[89.2672,24.63136],[89.27447,24.62803],[89.27846,24.62777],[89.28104,24.62957],[89.28285,24.62972],[89.28558,24.62786],[89.29256,24.62739],[89.29567,24.62628],[89.29841,24.62454],[89.30078,24.62057],[89.30087,24.61733],[89.30336,24.6169],[89.30793,24.61799],[89.30946,24.6166],[89.31001,24.61454],[89.3093,24.60748],[89.31007,24.6045],[89.31161,24.60283],[89.32148,24.60335],[89.33139,24.60228],[89.32922,24.59334],[89.32884,24.58804],[89.33008,24.58215],[89.33878,24.5699],[89.34052,24.56378],[89.33734,24.55936],[89.33682,24.55332],[89.33555,24.55082],[89.33152,24.55297],[89.32924,24.55019],[89.32982,24.54683],[89.3291,24.5445],[89.32581,24.54561],[89.32478,24.54363],[89.32562,24.54054],[89.32514,24.53723],[89.31936,24.53501],[89.31907,24.53171],[89.31424,24.51857],[89.31042,24.5177],[89.31032,24.5141],[89.30837,24.5131],[89.30438,24.50703],[89.29972,24.5048],[89.29641,24.49884],[89.29053,24.49251],[89.28343,24.48825],[89.28187,24.48284],[89.28249,24.47707],[89.28128,24.4756],[89.28328,24.47079],[89.28188,24.46915],[89.28196,24.46481],[89.27773,24.46109],[89.27396,24.45314],[89.27026,24.45123],[89.26094,24.44859],[89.25879,24.44661],[89.25364,24.43788],[89.25388,24.43312],[89.24018,24.43186],[89.23877,24.43381],[89.23882,24.43875],[89.23702,24.43957],[89.22881,24.43862],[89.2263,24.43695],[89.22389,24.43335],[89.2198,24.42955],[89.21655,24.42784],[89.21101,24.42156],[89.2131,24.41307],[89.21269,24.4103],[89.21094,24.40895],[89.20395,24.40736],[89.19337,24.40723],[89.18241,24.41222],[89.17377,24.41263],[89.16554,24.40525],[89.16243,24.40536],[89.15968,24.40347],[89.1565,24.40391],[89.1528,24.40606],[89.14936,24.41105],[89.14583,24.41269],[89.14272,24.41342],[89.13817,24.41161],[89.13431,24.41149],[89.13033,24.41257],[89.12656,24.41467],[89.12415,24.41703],[89.12014,24.41357],[89.11868,24.41064],[89.11579,24.40749],[89.10957,24.40832],[89.10017,24.41328],[89.09556,24.41471],[89.0906,24.41517],[89.08723,24.42039],[89.08467,24.41968],[89.08303,24.41754],[89.08116,24.40974],[89.07883,24.40671],[89.07553,24.40687],[89.07361,24.40797],[89.07139,24.41164],[89.07075,24.41454],[89.07359,24.41916],[89.07217,24.42667],[89.07494,24.4377],[89.07354,24.44028],[89.06812,24.44035],[89.06469,24.43909],[89.05732,24.42932],[89.05557,24.42854],[89.05439,24.42913],[89.05376,24.43561],[89.05499,24.43991],[89.05682,24.443],[89.06232,24.44469],[89.0632,24.44644],[89.06112,24.44993],[89.0576,24.45321],[89.05481,24.45416],[89.05102,24.45381],[89.04885,24.45566],[89.04831,24.45834],[89.04456,24.46401],[89.0403,24.4673],[89.04202,24.47068],[89.04803,24.47526],[89.0478,24.47708],[89.04546,24.47983],[89.04685,24.48243],[89.05241,24.48507],[89.0535,24.48864],[89.05204,24.49797],[89.05296,24.50272],[89.05916,24.50837],[89.05756,24.51668],[89.06529,24.52356],[89.06537,24.52492],[89.06022,24.52698],[89.06111,24.53003],[89.06757,24.5346],[89.07454,24.53359],[89.07791,24.53435],[89.08668,24.54115],[89.09203,24.53943],[89.09447,24.54025],[89.09907,24.55205],[89.09822,24.55495],[89.09924,24.55687],[89.10419,24.56026],[89.10468,24.56514],[89.10397,24.56958],[89.105,24.57308],[89.10455,24.58462],[89.10043,24.58961],[89.0959,24.59229],[89.09537,24.59518],[89.09789,24.59856],[89.09907,24.6028],[89.09938,24.61694],[89.10108,24.61913],[89.1016,24.6215],[89.09858,24.63142],[89.09845,24.63688],[89.10097,24.63997],[89.10366,24.64078],[89.10826,24.63924],[89.11734,24.64377],[89.11765,24.6492],[89.12068,24.65417],[89.1235,24.65486],[89.13047,24.65391],[89.1324,24.65496],[89.13519,24.6589],[89.13651,24.65881],[89.14015,24.65565]]]}}]}