{"type":"FeatureCollection","features":[{"type":"Feature","properties":{"name":"Atpara","district_id":"netrokona","pcode":"457204","sql_upazila_id":"netrokona-atpara","sql_name_bn":"আটপাড়া"},"geometry":{"type":"Polygon","coordinates":[[[90.92888,24.85894],[90.93487,24.85575],[90.93474,24.85025],[90.93548,24.84798],[90.93754,24.84642],[90.94405,24.84774],[90.94485,24.84203],[90.94697,24.84012],[90.9471,24.83851],[90.94496,24.83595],[90.94569,24.8338],[90.94811,24.83159],[90.94728,24.8272],[90.94278,24.8246],[90.93443,24.82443],[90.92914,24.82605],[90.92587,24.82473],[90.92352,24.82171],[90.91776,24.81681],[90.91595,24.81325],[90.91574,24.79947],[90.91783,24.79677],[90.92621,24.79447],[90.93008,24.79158],[90.93266,24.78828],[90.93631,24.7823],[90.93637,24.77881],[90.93302,24.77157],[90.93333,24.76787],[90.9436,24.76103],[90.94688,24.76035],[90.95007,24.76449],[90.95409,24.7659],[90.9562,24.76766],[90.96246,24.76871],[90.9691,24.77226],[90.97902,24.77507],[90.97755,24.77019],[90.97942,24.76679],[90.97979,24.75755],[90.97583,24.7489],[90.97698,24.74754],[90.98314,24.74457],[90.99006,24.736],[90.99104,24.73396],[90.98573,24.72955],[90.97538,24.72825],[90.97453,24.72742],[90.9742,24.72502],[90.97102,24.72278],[90.96587,24.7213],[90.95751,24.71654],[90.95444,24.71596],[90.95119,24.71687],[90.94067,24.72384],[90.93261,24.72452],[90.92974,24.72588],[90.92679,24.7288],[90.92526,24.73694],[90.92334,24.73891],[90.91688,24.74079],[90.9029,24.73921],[90.90098,24.74301],[90.89965,24.74409],[90.89781,24.74311],[90.8968,24.73908],[90.89551,24.73734],[90.89327,24.73753],[90.89066,24.73911],[90.88754,24.73899],[90.88328,24.74166],[90.87721,24.74245],[90.87762,24.73951],[90.87952,24.73709],[90.87859,24.735],[90.87617,24.73336],[90.87244,24.72781],[90.86986,24.73042],[90.86826,24.73099],[90.86183,24.72455],[90.85777,24.72377],[90.85601,24.72515],[90.85853,24.7319],[90.85919,24.73492],[90.8587,24.73683],[90.85469,24.73805],[90.84973,24.73822],[90.84862,24.74033],[90.83728,24.74525],[90.82905,24.74438],[90.82259,24.74638],[90.81919,24.74891],[90.81609,24.74925],[90.81291,24.75285],[90.80177,24.75409],[90.80077,24.75584],[90.80212,24.75901],[90.79723,24.75803],[90.79623,24.75967],[90.79607,24.76415],[90.79748,24.77116],[90.79587,24.77334],[90.79187,24.77462],[90.78352,24.76853],[90.78081,24.76897],[90.778,24.77073],[90.77525,24.77604],[90.77124,24.78077],[90.76736,24.77631],[90.76541,24.77718],[90.76411,24.77963],[90.76382,24.78205],[90.76933,24.78359],[90.7683,24.78798],[90.7716,24.78988],[90.77435,24.79013],[90.77625,24.78932],[90.77744,24.78383],[90.78228,24.78568],[90.78807,24.78399],[90.79056,24.78597],[90.79071,24.78855],[90.78864,24.79],[90.78863,24.79155],[90.79107,24.79393],[90.79776,24.79508],[90.79949,24.79669],[90.79963,24.80248],[90.79824,24.80419],[90.79321,24.80608],[90.78646,24.81291],[90.78314,24.81423],[90.78225,24.81529],[90.78242,24.81683],[90.78489,24.82392],[90.78985,24.82524],[90.79676,24.82542],[90.79843,24.82702],[90.79807,24.83105],[90.80052,24.83786],[90.80878,24.84098],[90.81191,24.84378],[90.82864,24.84379],[90.83092,24.84526],[90.83437,24.84945],[90.84518,24.85086],[90.84842,24.85482],[90.85085,24.85652],[90.85278,24.85657],[90.85458,24.85484],[90.85439,24.85284],[90.8525,24.85038],[90.85331,24.84829],[90.85516,24.84788],[90.85767,24.84854],[90.86091,24.84682],[90.86131,24.84555],[90.85825,24.84152],[90.85989,24.8402],[90.86156,24.84026],[90.86327,24.8429],[90.87418,24.84556],[90.8859,24.84993],[90.88979,24.84532],[90.89232,24.84477],[90.89454,24.84613],[90.89586,24.85021],[90.89931,24.85292],[90.90034,24.85563],[90.90645,24.85788],[90.90836,24.85541],[90.91476,24.85341],[90.9197,24.85432],[90.92581,24.85831],[90.92888,24.85894]]]}},{"type":"Feature","properties":{"name":"Barhatta","district_id":"netrokona","pcode":"457209","sql_upazila_id":"netrokona-barhatta","sql_name_bn":"বারহাট্টা"},"geometry":{"type":"Polygon","coordinates":[[[90.94615,24.97938],[90.94725,24.97865],[90.94699,24.97648],[90.94526,24.97322],[90.94568,24.9709],[90.9481,24.97053],[90.95009,24.96685],[90.95221,24.9654],[90.95915,24.96791],[90.96249,24.96711],[90.96441,24.96497],[90.96684,24.95972],[90.97284,24.95475],[90.97366,24.95317],[90.9697,24.94097],[90.96606,24.94035],[90.96393,24.93641],[90.96239,24.93508],[90.95556,24.93727],[90.95252,24.93738],[90.95054,24.93607],[90.94886,24.93251],[90.94986,24.93087],[90.9556,24.93297],[90.95504,24.92564],[90.9556,24.92229],[90.95771,24.92005],[90.95602,24.91614],[90.95568,24.91167],[90.95674,24.90813],[90.95849,24.90807],[90.963,24.90505],[90.9658,24.90529],[90.96915,24.91046],[90.97194,24.91019],[90.97256,24.90816],[90.97698,24.90995],[90.97965,24.91009],[90.98349,24.90938],[90.98728,24.90747],[90.9906,24.90804],[90.99264,24.90739],[90.99504,24.90489],[90.99706,24.8953],[91.00126,24.89206],[91.00417,24.88604],[90.99596,24.8826],[90.99375,24.88383],[90.99244,24.88363],[90.99115,24.88219],[90.98995,24.87822],[90.9874,24.87642],[90.97967,24.87582],[90.97407,24.86833],[90.97316,24.86572],[90.97181,24.86629],[90.96879,24.8707],[90.96653,24.8721],[90.96465,24.8714],[90.96231,24.87242],[90.95832,24.86647],[90.95527,24.86457],[90.95485,24.86309],[90.94395,24.86657],[90.94342,24.86929],[90.94127,24.86655],[90.94162,24.86395],[90.94077,24.86117],[90.93851,24.86039],[90.93118,24.86058],[90.92888,24.85894],[90.92581,24.85831],[90.9197,24.85432],[90.91476,24.85341],[90.91129,24.8541],[90.90836,24.85541],[90.90645,24.85788],[90.90034,24.85563],[90.89931,24.85292],[90.89586,24.85021],[90.89454,24.84613],[90.89232,24.84477],[90.88979,24.84532],[90.8859,24.84993],[90.87418,24.84556],[90.86327,24.8429],[90.86156,24.84026],[90.85989,24.8402],[90.85825,24.84152],[90.86131,24.84555],[90.86091,24.84682],[90.85767,24.84854],[90.85516,24.84788],[90.85331,24.84829],[90.8525,24.85038],[90.85439,24.85284],[90.85458,24.85484],[90.85278,24.85657],[90.85085,24.85652],[90.84842,24.85482],[90.84518,24.85086],[90.83437,24.84945],[90.83092,24.84526],[90.82864,24.84379],[90.81191,24.84378],[90.81163,24.84661],[90.81425,24.8526],[90.81997,24.85797],[90.81985,24.86188],[90.82317,24.86814],[90.8234,24.87169],[90.82188,24.87438],[90.81215,24.88108],[90.8163,24.88467],[90.81711,24.88837],[90.82032,24.89142],[90.82159,24.89585],[90.82887,24.9053],[90.82951,24.91326],[90.83179,24.91657],[90.83482,24.91796],[90.84154,24.91583],[90.84453,24.91768],[90.84441,24.91981],[90.84212,24.92207],[90.83647,24.92244],[90.83599,24.92486],[90.83734,24.92797],[90.83764,24.93141],[90.83686,24.93614],[90.82849,24.9448],[90.82497,24.94555],[90.82286,24.9439],[90.82003,24.9374],[90.81756,24.93605],[90.81269,24.93776],[90.80756,24.94247],[90.80732,24.94472],[90.80924,24.95228],[90.80887,24.9558],[90.80668,24.95943],[90.80363,24.96143],[90.80059,24.9617],[90.79964,24.96111],[90.79751,24.95899],[90.79724,24.95636],[90.79616,24.95565],[90.79009,24.96056],[90.78718,24.961],[90.77824,24.95815],[90.77746,24.95898],[90.77869,24.9625],[90.78373,24.96405],[90.78508,24.96922],[90.78403,24.97143],[90.78096,24.97281],[90.7773,24.97299],[90.76881,24.97815],[90.77085,24.98371],[90.77244,24.99209],[90.77438,24.99438],[90.77401,25.00024],[90.77666,24.99929],[90.78907,24.98837],[90.79187,24.98834],[90.79468,24.99014],[90.79806,24.991],[90.80455,24.98952],[90.80655,24.99146],[90.80812,24.99571],[90.81052,24.997],[90.81184,24.99546],[90.8113,24.99032],[90.81261,24.98844],[90.81628,24.98631],[90.82066,24.98874],[90.82328,24.98888],[90.82607,24.99068],[90.82803,24.99342],[90.83038,24.99461],[90.8337,24.9949],[90.83542,24.99633],[90.83689,24.99961],[90.83807,24.9991],[90.8425,24.99202],[90.84511,24.99175],[90.84742,24.9938],[90.85104,25.00326],[90.85319,25.00439],[90.85451,25.00297],[90.85471,24.99958],[90.85349,24.9797],[90.8465,24.97214],[90.84698,24.96902],[90.85261,24.96826],[90.85396,24.96574],[90.85414,24.96356],[90.84441,24.95361],[90.84599,24.9527],[90.84901,24.9534],[90.85719,24.95794],[90.86006,24.95813],[90.86543,24.95646],[90.869,24.95703],[90.87845,24.96238],[90.88198,24.96559],[90.88435,24.9659],[90.88701,24.96513],[90.89671,24.97197],[90.90471,24.97112],[90.91705,24.97528],[90.92285,24.97365],[90.92821,24.97553],[90.93379,24.97861],[90.94077,24.97871],[90.94615,24.97938]]]}},{"type":"Feature","properties":{"name":"Durgapur","district_id":"netrokona","pcode":"457218","sql_upazila_id":"netrokona-durgapur","sql_name_bn":"দুর্গাপুর"},"geometry":{"type":"Polygon","coordinates":[[[90.62036,25.17432],[90.6234,25.17583],[90.62592,25.17237],[90.62743,25.173],[90.63688,25.17218],[90.64233,25.17459],[90.64878,25.17334],[90.64832,25.1768],[90.647,25.17851],[90.64829,25.18197],[90.65094,25.1828],[90.65668,25.18077],[90.65814,25.18365],[90.66064,25.18581],[90.665,25.18555],[90.66699,25.18749],[90.66862,25.19536],[90.67117,25.19729],[90.67139,25.1866],[90.67321,25.18092],[90.67202,25.17666],[90.67301,25.16664],[90.67553,25.16535],[90.67776,25.16706],[90.67931,25.17045],[90.68339,25.17129],[90.68606,25.17093],[90.68984,25.17205],[90.69282,25.17167],[90.69273,25.17075],[90.68916,25.16857],[90.68764,25.16621],[90.69259,25.16261],[90.69536,25.16349],[90.69831,25.16196],[90.69892,25.15959],[90.7044,25.15527],[90.70812,25.16278],[90.70975,25.16273],[90.71179,25.16031],[90.71416,25.16201],[90.71446,25.16389],[90.71653,25.16606],[90.71991,25.16652],[90.72601,25.16218],[90.7299,25.16298],[90.73284,25.16133],[90.73361,25.15804],[90.73646,25.15542],[90.73928,25.15443],[90.74218,25.15678],[90.74535,25.15661],[90.74641,25.1587],[90.74585,25.16038],[90.7398,25.16231],[90.74037,25.16464],[90.74469,25.16519],[90.74727,25.16751],[90.75101,25.16406],[90.75446,25.16451],[90.75797,25.1671],[90.7645,25.16624],[90.76464,25.16096],[90.76662,25.15849],[90.7663,25.15649],[90.764,25.15456],[90.75912,25.15426],[90.75726,25.14841],[90.75278,25.14322],[90.75368,25.13849],[90.75517,25.13603],[90.7597,25.13375],[90.76466,25.13462],[90.7692,25.13407],[90.77106,25.13204],[90.76978,25.12486],[90.76347,25.12106],[90.76361,25.11966],[90.76598,25.11793],[90.76818,25.11814],[90.77213,25.11687],[90.77342,25.11395],[90.77396,25.10015],[90.77464,25.09836],[90.77979,25.09543],[90.77985,25.08969],[90.79293,25.08552],[90.79436,25.08576],[90.79612,25.09],[90.79986,25.08792],[90.8033,25.08448],[90.80362,25.08269],[90.80276,25.08146],[90.79852,25.08143],[90.79463,25.0768],[90.79002,25.07644],[90.78802,25.07484],[90.78844,25.06845],[90.78738,25.06654],[90.78394,25.06631],[90.77276,25.07294],[90.76997,25.07355],[90.76598,25.07328],[90.76161,25.06976],[90.75899,25.06353],[90.75666,25.06103],[90.76152,25.05518],[90.76232,25.05297],[90.7608,25.05022],[90.75802,25.04887],[90.7577,25.04682],[90.75393,25.04384],[90.75646,25.04135],[90.75399,25.03804],[90.75311,25.03205],[90.75397,25.03007],[90.75819,25.02941],[90.75912,25.02548],[90.76231,25.02181],[90.75757,25.01962],[90.75446,25.01622],[90.75114,25.0153],[90.74734,25.01542],[90.74399,25.01605],[90.72783,25.02532],[90.72398,25.0193],[90.71592,25.01079],[90.71776,25.00608],[90.72984,25.00028],[90.73213,24.99763],[90.73163,24.99563],[90.72969,24.99358],[90.72761,24.99256],[90.70988,24.98947],[90.698,24.98395],[90.6957,24.98626],[90.69328,24.98439],[90.68964,24.98359],[90.68374,24.98034],[90.68239,24.98073],[90.67724,24.98544],[90.67233,24.98778],[90.67001,24.98728],[90.66807,24.98895],[90.67184,24.99216],[90.67274,24.99471],[90.67881,24.99572],[90.68425,24.99818],[90.68613,25.00047],[90.68483,25.00091],[90.67863,24.99945],[90.67545,24.99961],[90.67326,25.00135],[90.67867,25.00667],[90.68312,25.00981],[90.67976,25.0117],[90.67589,25.01159],[90.6725,25.00878],[90.67317,25.0064],[90.67081,25.00482],[90.66409,25.00659],[90.6638,25.00941],[90.66172,25.0108],[90.65789,25.01167],[90.6551,25.01199],[90.65233,25.0091],[90.64245,25.012],[90.64127,25.01405],[90.63646,25.01151],[90.6326,25.01169],[90.62845,25.01447],[90.62956,25.01959],[90.62709,25.02088],[90.6236,25.02065],[90.62318,25.02343],[90.61571,25.02354],[90.61253,25.02514],[90.60909,25.02497],[90.60741,25.02708],[90.60825,25.034],[90.60715,25.03868],[90.60728,25.04241],[90.60886,25.04575],[90.60993,25.05386],[90.61231,25.05642],[90.6134,25.05914],[90.61114,25.06673],[90.60997,25.07525],[90.60847,25.07716],[90.60644,25.07779],[90.60246,25.07465],[90.59909,25.06804],[90.59894,25.065],[90.59711,25.0626],[90.5956,25.0619],[90.59363,25.06472],[90.59412,25.08054],[90.59807,25.08718],[90.60462,25.09369],[90.60824,25.11773],[90.61167,25.12594],[90.61133,25.14076],[90.61272,25.1437],[90.61471,25.16132],[90.61573,25.16604],[90.61915,25.17216],[90.62036,25.17432]]]}},{"type":"Feature","properties":{"name":"Kalmakanda","district_id":"netrokona","pcode":"457240","sql_upazila_id":"netrokona-kalmakanda","sql_name_bn":"কলমাকান্দা"},"geometry":{"type":"Polygon","coordinates":[[[90.7645,25.16624],[90.76586,25.16781],[90.76394,25.16999],[90.76971,25.17686],[90.77446,25.179],[90.77854,25.17978],[90.78542,25.18397],[90.78668,25.18077],[90.78878,25.17817],[90.79237,25.17725],[90.79828,25.17854],[90.80021,25.17825],[90.8011,25.17546],[90.80424,25.17203],[90.80721,25.17118],[90.81046,25.1717],[90.80851,25.16523],[90.81441,25.1625],[90.81982,25.16588],[90.82236,25.16533],[90.82446,25.16113],[90.84029,25.15899],[90.84342,25.15922],[90.85354,25.15577],[90.85835,25.15585],[90.86359,25.15785],[90.86696,25.15612],[90.87091,25.15874],[90.87583,25.15835],[90.87935,25.16115],[90.88569,25.16426],[90.89481,25.1628],[90.89968,25.1647],[90.90787,25.15972],[90.92986,25.16056],[90.94318,25.16331],[90.95298,25.16745],[90.96658,25.16922],[90.96852,25.16884],[90.96717,25.16652],[90.9705,25.16039],[90.97466,25.15865],[90.97411,25.15471],[90.97101,25.15171],[90.96677,25.15305],[90.96325,25.15035],[90.96297,25.14823],[90.95663,25.14775],[90.95868,25.14407],[90.95683,25.13052],[90.95815,25.12193],[90.95932,25.11977],[90.9592,25.11851],[90.95621,25.11505],[90.95297,25.10878],[90.95476,25.10775],[90.95776,25.10408],[90.97195,25.09399],[90.97391,25.09117],[90.97243,25.08779],[90.97272,25.07968],[90.97385,25.07672],[90.97665,25.07312],[90.97136,25.06887],[90.96864,25.07028],[90.96286,25.07064],[90.96062,25.06847],[90.95856,25.06923],[90.95053,25.07723],[90.94801,25.07881],[90.94195,25.07871],[90.93952,25.07949],[90.93634,25.07889],[90.93324,25.07561],[90.9363,25.07367],[90.93644,25.06804],[90.93803,25.06541],[90.93445,25.06179],[90.93455,25.05341],[90.93372,25.05074],[90.93452,25.04836],[90.9363,25.04744],[90.93541,25.04276],[90.9373,25.04138],[90.95073,25.04135],[90.95441,25.04049],[90.95585,25.0401],[90.95677,25.03812],[90.96005,25.03681],[90.96107,25.03557],[90.96664,25.03441],[90.96461,25.03119],[90.95954,25.02862],[90.94936,25.02817],[90.94716,25.02738],[90.94406,25.02428],[90.94153,25.02482],[90.93626,25.01812],[90.93595,25.01641],[90.94053,25.0046],[90.94929,25.00011],[90.94958,24.99211],[90.94872,24.98882],[90.94627,24.98827],[90.94422,24.98668],[90.94301,24.98408],[90.94343,24.98171],[90.94615,24.97938],[90.93379,24.97861],[90.92821,24.97553],[90.92285,24.97365],[90.91705,24.97528],[90.90471,24.97112],[90.89671,24.97197],[90.88701,24.96513],[90.88435,24.9659],[90.88198,24.96559],[90.87845,24.96238],[90.869,24.95703],[90.86543,24.95646],[90.86006,24.95813],[90.85719,24.95794],[90.84901,24.9534],[90.84599,24.9527],[90.84441,24.95361],[90.85414,24.96356],[90.85396,24.96574],[90.85261,24.96826],[90.84698,24.96902],[90.8465,24.97214],[90.85349,24.9797],[90.85471,24.99958],[90.85451,25.00297],[90.85319,25.00439],[90.85104,25.00326],[90.84742,24.9938],[90.84511,24.99175],[90.8425,24.99202],[90.83807,24.9991],[90.83689,24.99961],[90.83542,24.99633],[90.8337,24.9949],[90.83038,24.99461],[90.82803,24.99342],[90.82607,24.99068],[90.82328,24.98888],[90.82066,24.98874],[90.81628,24.98631],[90.81261,24.98844],[90.8113,24.99032],[90.81184,24.99546],[90.81052,24.997],[90.80812,24.99571],[90.80655,24.99146],[90.80455,24.98952],[90.79806,24.991],[90.79468,24.99014],[90.79187,24.98834],[90.78907,24.98837],[90.77476,25.00045],[90.77401,25.00024],[90.77438,24.99438],[90.77244,24.99209],[90.76842,24.99498],[90.7674,25.00018],[90.7716,25.00474],[90.7712,25.00602],[90.76843,25.00703],[90.76868,25.01081],[90.76745,25.01291],[90.76582,25.01475],[90.76345,25.01472],[90.76097,25.01893],[90.7635,25.02016],[90.75912,25.02548],[90.75819,25.02941],[90.75397,25.03007],[90.75311,25.03205],[90.75399,25.03804],[90.75646,25.04135],[90.75393,25.04384],[90.7577,25.04682],[90.75802,25.04887],[90.7608,25.05022],[90.76232,25.05297],[90.76152,25.05518],[90.75666,25.06103],[90.75899,25.06353],[90.76161,25.06976],[90.76598,25.07328],[90.77276,25.07294],[90.78394,25.06631],[90.78738,25.06654],[90.78844,25.06845],[90.78802,25.07484],[90.79002,25.07644],[90.79463,25.0768],[90.79852,25.08143],[90.80276,25.08146],[90.80362,25.08269],[90.8033,25.08448],[90.79986,25.08792],[90.79612,25.09],[90.79436,25.08576],[90.79293,25.08552],[90.77985,25.08969],[90.77979,25.09543],[90.77464,25.09836],[90.77396,25.10015],[90.77342,25.11395],[90.77213,25.11687],[90.76818,25.11814],[90.76598,25.11793],[90.76361,25.11966],[90.76347,25.12106],[90.76978,25.12486],[90.77106,25.13204],[90.7692,25.13407],[90.76466,25.13462],[90.7597,25.13375],[90.75517,25.13603],[90.75368,25.13849],[90.75278,25.14322],[90.75726,25.14841],[90.75912,25.15426],[90.764,25.15456],[90.7663,25.15649],[90.76662,25.15849],[90.76464,25.16096],[90.7645,25.16624]]]}},{"type":"Feature","properties":{"name":"Kendua","district_id":"netrokona","pcode":"457247","sql_upazila_id":"netrokona-kendua","sql_name_bn":"কেন্দুয়া"},"geometry":{"type":"Polygon","coordinates":[[[90.7716,24.78988],[90.7683,24.78798],[90.76933,24.78359],[90.76382,24.78205],[90.76541,24.77718],[90.76736,24.77631],[90.77124,24.78077],[90.77525,24.77604],[90.778,24.77073],[90.78081,24.76897],[90.78352,24.76853],[90.79187,24.77462],[90.79587,24.77334],[90.79748,24.77116],[90.79607,24.76415],[90.79623,24.75967],[90.79723,24.75803],[90.80212,24.75901],[90.80077,24.75584],[90.80177,24.75409],[90.81291,24.75285],[90.81609,24.74925],[90.81919,24.74891],[90.82259,24.74638],[90.82905,24.74438],[90.83728,24.74525],[90.84862,24.74033],[90.84973,24.73822],[90.85469,24.73805],[90.8587,24.73683],[90.85919,24.73492],[90.85853,24.7319],[90.85601,24.72515],[90.85157,24.72427],[90.85112,24.72205],[90.85535,24.71651],[90.85718,24.71553],[90.86164,24.71521],[90.86266,24.71385],[90.86127,24.70982],[90.86276,24.70771],[90.87003,24.7093],[90.87369,24.70923],[90.87656,24.70809],[90.87778,24.70542],[90.87605,24.6886],[90.87753,24.6862],[90.88083,24.68499],[90.88298,24.68228],[90.89101,24.66972],[90.89261,24.66548],[90.8909,24.65894],[90.89297,24.65232],[90.89513,24.64995],[90.89808,24.64893],[90.90046,24.64569],[90.90678,24.6402],[90.90613,24.63695],[90.90665,24.62671],[90.90269,24.6218],[90.90296,24.62041],[90.90852,24.62155],[90.90946,24.61967],[90.90923,24.61825],[90.91083,24.61791],[90.91547,24.60449],[90.91393,24.60275],[90.91637,24.59648],[90.9161,24.59391],[90.91404,24.59168],[90.90995,24.58987],[90.90853,24.58832],[90.90831,24.58551],[90.90663,24.58534],[90.9025,24.5899],[90.89928,24.59041],[90.89648,24.58982],[90.88842,24.59205],[90.88418,24.59145],[90.8812,24.58955],[90.87843,24.58499],[90.86393,24.58566],[90.86053,24.58968],[90.85713,24.59026],[90.85243,24.58875],[90.84932,24.58668],[90.8498,24.58442],[90.85105,24.58295],[90.84988,24.58127],[90.84711,24.58021],[90.84439,24.57663],[90.84208,24.57603],[90.84014,24.57196],[90.83676,24.57259],[90.83305,24.57507],[90.82727,24.57498],[90.82295,24.57966],[90.81715,24.57848],[90.81555,24.57733],[90.81471,24.57443],[90.81215,24.57383],[90.80774,24.57754],[90.80598,24.57691],[90.80762,24.57198],[90.79888,24.57044],[90.7968,24.56753],[90.79514,24.56792],[90.79474,24.5708],[90.79575,24.57347],[90.7955,24.5752],[90.79284,24.57546],[90.79026,24.5744],[90.7896,24.57528],[90.79015,24.57693],[90.79396,24.58145],[90.7943,24.58413],[90.79674,24.58663],[90.79628,24.58975],[90.79455,24.59176],[90.79326,24.59794],[90.78311,24.6027],[90.77921,24.60863],[90.77657,24.60964],[90.77465,24.60609],[90.77706,24.60325],[90.77629,24.6011],[90.76974,24.60029],[90.75935,24.60155],[90.75734,24.60259],[90.75895,24.60811],[90.76013,24.61977],[90.7591,24.62629],[90.75358,24.62648],[90.74744,24.62846],[90.74435,24.62707],[90.74236,24.62896],[90.73972,24.63975],[90.7382,24.64248],[90.73591,24.64273],[90.73213,24.64121],[90.72968,24.64202],[90.72736,24.64543],[90.72288,24.64351],[90.72047,24.64359],[90.718,24.64597],[90.71691,24.64882],[90.71277,24.65315],[90.71132,24.65647],[90.70723,24.65694],[90.70727,24.65999],[90.70262,24.66416],[90.70073,24.66714],[90.69991,24.67096],[90.70397,24.68339],[90.70701,24.68909],[90.70592,24.69182],[90.70387,24.69349],[90.69827,24.69523],[90.69644,24.69655],[90.6969,24.69912],[90.69627,24.70499],[90.69769,24.70845],[90.70131,24.71074],[90.70377,24.71393],[90.70749,24.72144],[90.71056,24.72426],[90.71844,24.72383],[90.7211,24.72546],[90.72202,24.72859],[90.72173,24.73531],[90.72088,24.73798],[90.71427,24.73946],[90.71384,24.74131],[90.71465,24.74731],[90.71254,24.74933],[90.70947,24.75064],[90.70458,24.75114],[90.69489,24.75508],[90.69772,24.75849],[90.69787,24.7609],[90.69615,24.76583],[90.69618,24.76858],[90.69836,24.77046],[90.70205,24.77131],[90.70557,24.77051],[90.70792,24.7663],[90.71024,24.76479],[90.71252,24.7646],[90.71621,24.76499],[90.71943,24.76649],[90.72126,24.7693],[90.7215,24.77273],[90.71906,24.7785],[90.70939,24.78318],[90.70563,24.78594],[90.70553,24.78893],[90.70963,24.7908],[90.71335,24.78632],[90.71542,24.7851],[90.71854,24.78563],[90.72826,24.79002],[90.73465,24.79531],[90.74303,24.80054],[90.74689,24.80081],[90.75394,24.7996],[90.75946,24.80107],[90.76304,24.80015],[90.76597,24.79851],[90.76918,24.79403],[90.7716,24.78988]]]}},{"type":"Feature","properties":{"name":"Khaliajuri","district_id":"netrokona","pcode":"457238","sql_upazila_id":"netrokona-khaliajuri","sql_name_bn":"খালিয়াজুরী"},"geometry":{"type":"Polygon","coordinates":[[[91.17616,24.81737],[91.1767,24.80995],[91.17605,24.80532],[91.17409,24.80223],[91.1701,24.7988],[91.1649,24.78836],[91.165,24.78582],[91.16106,24.78326],[91.16425,24.78201],[91.1681,24.78185],[91.17315,24.77898],[91.17592,24.77648],[91.17453,24.77244],[91.1712,24.76981],[91.17084,24.76816],[91.1679,24.76941],[91.16633,24.76895],[91.16514,24.76699],[91.16206,24.76601],[91.15943,24.7618],[91.16336,24.75695],[91.15954,24.7564],[91.1571,24.75735],[91.15337,24.75588],[91.14866,24.75978],[91.14461,24.7562],[91.13886,24.75377],[91.13896,24.74957],[91.14084,24.74801],[91.15226,24.7476],[91.15366,24.74657],[91.15423,24.74517],[91.15334,24.73947],[91.15475,24.73913],[91.15827,24.74187],[91.15958,24.74188],[91.16069,24.73994],[91.16079,24.73753],[91.15931,24.73425],[91.15664,24.73275],[91.15461,24.73351],[91.15302,24.73575],[91.15118,24.73656],[91.14925,24.73623],[91.1484,24.73155],[91.15283,24.72531],[91.15356,24.72299],[91.14845,24.71921],[91.14429,24.71736],[91.14267,24.71552],[91.15993,24.71529],[91.16087,24.71359],[91.15997,24.70938],[91.16068,24.70849],[91.16366,24.7081],[91.17208,24.71594],[91.17541,24.71685],[91.18185,24.7165],[91.18651,24.71461],[91.19929,24.70186],[91.20081,24.70278],[91.20261,24.70628],[91.20409,24.70593],[91.20809,24.7012],[91.20981,24.70234],[91.2112,24.70481],[91.21822,24.70834],[91.2206,24.71044],[91.22448,24.71626],[91.22618,24.71528],[91.2267,24.71228],[91.22927,24.7095],[91.22869,24.70549],[91.22938,24.70058],[91.22868,24.69654],[91.22256,24.69601],[91.21998,24.69324],[91.2204,24.69093],[91.22339,24.68789],[91.22762,24.68802],[91.23044,24.68522],[91.2383,24.68436],[91.24017,24.68303],[91.23984,24.67541],[91.24083,24.67026],[91.23956,24.66772],[91.23282,24.6635],[91.23015,24.66347],[91.22752,24.66472],[91.22398,24.6679],[91.22177,24.66718],[91.2205,24.6647],[91.22051,24.6616],[91.22231,24.65981],[91.2302,24.65636],[91.23134,24.65006],[91.22264,24.64143],[91.22044,24.64214],[91.21962,24.64361],[91.21748,24.64478],[91.20754,24.64118],[91.20567,24.63763],[91.20552,24.62473],[91.20476,24.6243],[91.19603,24.6249],[91.1844,24.62975],[91.17821,24.63371],[91.17539,24.63312],[91.16662,24.62569],[91.16367,24.62477],[91.15224,24.62994],[91.1394,24.63047],[91.1348,24.63385],[91.13243,24.63342],[91.13107,24.6318],[91.13016,24.62179],[91.13637,24.61497],[91.13711,24.61309],[91.13392,24.60886],[91.13026,24.6056],[91.12243,24.60049],[91.11888,24.59993],[91.10502,24.60118],[91.10858,24.59652],[91.10876,24.59444],[91.10677,24.59245],[91.10406,24.59163],[91.10065,24.59329],[91.09473,24.59265],[91.09191,24.59374],[91.08961,24.59559],[91.08777,24.59955],[91.08173,24.59909],[91.07807,24.601],[91.07005,24.60748],[91.06728,24.60856],[91.05392,24.60801],[91.04198,24.60597],[91.03671,24.6062],[91.03619,24.60731],[91.03954,24.61781],[91.04642,24.61906],[91.04793,24.62147],[91.04715,24.62293],[91.0443,24.62412],[91.04361,24.62599],[91.0442,24.6286],[91.04128,24.63227],[91.04213,24.63511],[91.04776,24.64174],[91.04604,24.64409],[91.05376,24.65191],[91.067,24.65924],[91.06757,24.6613],[91.06487,24.66752],[91.06963,24.67223],[91.07224,24.68092],[91.07462,24.6852],[91.07364,24.68753],[91.06357,24.69431],[91.06168,24.69364],[91.05705,24.68955],[91.05437,24.68926],[91.0507,24.68697],[91.04879,24.68767],[91.04482,24.69142],[91.04166,24.69171],[91.04216,24.69336],[91.04697,24.69588],[91.04842,24.69853],[91.05363,24.70184],[91.0531,24.70433],[91.04871,24.71028],[91.04207,24.71385],[91.04028,24.71643],[91.03585,24.7194],[91.03686,24.72322],[91.02723,24.73073],[91.02225,24.73228],[91.00903,24.73114],[91.00536,24.73265],[91.01411,24.7429],[91.01456,24.74564],[91.01138,24.75396],[91.01505,24.75951],[91.02368,24.76103],[91.04856,24.75781],[91.05199,24.75625],[91.05484,24.75608],[91.05641,24.75672],[91.06273,24.76321],[91.06482,24.76429],[91.06704,24.76369],[91.07026,24.75979],[91.07606,24.75838],[91.08129,24.75882],[91.08381,24.76326],[91.08636,24.7653],[91.09103,24.76714],[91.08779,24.77185],[91.08756,24.77805],[91.08923,24.77966],[91.09136,24.7801],[91.09283,24.77575],[91.09455,24.77355],[91.09803,24.77171],[91.1025,24.77138],[91.104,24.76989],[91.10564,24.7758],[91.11138,24.78523],[91.11634,24.78304],[91.12144,24.79204],[91.12469,24.79405],[91.13102,24.79026],[91.13347,24.78398],[91.14337,24.7862],[91.14935,24.78616],[91.14909,24.78766],[91.14746,24.78927],[91.14689,24.79422],[91.13851,24.79814],[91.13599,24.80082],[91.13822,24.80389],[91.14787,24.80785],[91.15016,24.81097],[91.15023,24.81465],[91.14703,24.81885],[91.15177,24.82291],[91.15181,24.82616],[91.15783,24.83251],[91.16022,24.8338],[91.16261,24.83223],[91.16441,24.82907],[91.16696,24.82686],[91.17424,24.82363],[91.17616,24.81737]]]}},{"type":"Feature","properties":{"name":"Madan","district_id":"netrokona","pcode":"457256","sql_upazila_id":"netrokona-madan","sql_name_bn":"মদন"},"geometry":{"type":"Polygon","coordinates":[[[91.00536,24.73265],[91.00903,24.73114],[91.02225,24.73228],[91.02723,24.73073],[91.03686,24.72322],[91.03585,24.7194],[91.04028,24.71643],[91.04207,24.71385],[91.04871,24.71028],[91.05146,24.7072],[91.05363,24.70184],[91.04842,24.69853],[91.04697,24.69588],[91.04216,24.69336],[91.04166,24.69171],[91.04482,24.69142],[91.04879,24.68767],[91.0507,24.68697],[91.05437,24.68926],[91.05705,24.68955],[91.06168,24.69364],[91.06357,24.69431],[91.07364,24.68753],[91.07462,24.6852],[91.07224,24.68092],[91.06963,24.67223],[91.06487,24.66752],[91.06757,24.6613],[91.067,24.65924],[91.05166,24.65038],[91.04604,24.64409],[91.04776,24.64174],[91.04213,24.63511],[91.04128,24.63227],[91.0442,24.6286],[91.04361,24.62599],[91.0443,24.62412],[91.04715,24.62293],[91.04793,24.62147],[91.04642,24.61906],[91.03954,24.61781],[91.0363,24.6193],[91.03548,24.62077],[91.0283,24.61603],[91.02516,24.6135],[91.0241,24.6113],[91.02082,24.60969],[91.02094,24.60779],[91.02381,24.60281],[91.02339,24.59962],[91.02023,24.59796],[91.01112,24.59862],[91.00436,24.59512],[91.00099,24.59649],[90.99371,24.59256],[90.99033,24.59304],[90.98784,24.59489],[90.98569,24.59538],[90.98172,24.59385],[90.97486,24.58933],[90.96571,24.59964],[90.96114,24.60186],[90.95523,24.59817],[90.95189,24.59467],[90.94534,24.59582],[90.93816,24.59447],[90.9352,24.59514],[90.93282,24.59792],[90.93219,24.60322],[90.92864,24.60661],[90.92612,24.60568],[90.92242,24.6062],[90.91547,24.60449],[90.91278,24.61147],[90.91227,24.61481],[90.91083,24.61791],[90.90923,24.61825],[90.90946,24.61967],[90.90852,24.62155],[90.90296,24.62041],[90.90269,24.6218],[90.90665,24.62671],[90.90613,24.63695],[90.90678,24.6402],[90.90046,24.64569],[90.89808,24.64893],[90.89513,24.64995],[90.89297,24.65232],[90.8909,24.65894],[90.89261,24.66548],[90.89101,24.66972],[90.88298,24.68228],[90.88083,24.68499],[90.87753,24.6862],[90.87605,24.6886],[90.87778,24.70542],[90.87656,24.70809],[90.87369,24.70923],[90.87003,24.7093],[90.86276,24.70771],[90.86127,24.70982],[90.86266,24.71385],[90.86164,24.71521],[90.85718,24.71553],[90.85535,24.71651],[90.85112,24.72205],[90.85157,24.72427],[90.85601,24.72515],[90.85777,24.72377],[90.85931,24.72362],[90.86183,24.72455],[90.86826,24.73099],[90.86986,24.73042],[90.87244,24.72781],[90.87617,24.73336],[90.87859,24.735],[90.87952,24.73709],[90.87762,24.73951],[90.87721,24.74245],[90.88328,24.74166],[90.88754,24.73899],[90.89066,24.73911],[90.89327,24.73753],[90.89551,24.73734],[90.8968,24.73908],[90.89781,24.74311],[90.89965,24.74409],[90.90098,24.74301],[90.9029,24.73921],[90.91688,24.74079],[90.92334,24.73891],[90.92526,24.73694],[90.92679,24.7288],[90.92974,24.72588],[90.93261,24.72452],[90.94067,24.72384],[90.95119,24.71687],[90.95444,24.71596],[90.95751,24.71654],[90.96587,24.7213],[90.97102,24.72278],[90.9742,24.72502],[90.97453,24.72742],[90.97538,24.72825],[90.98573,24.72955],[90.99104,24.73396],[90.99702,24.73225],[91.00322,24.73364],[91.00536,24.73265]]]}},{"type":"Feature","properties":{"name":"Mohanganj","district_id":"netrokona","pcode":"457263","sql_upazila_id":null,"sql_name_bn":null},"geometry":{"type":"Polygon","coordinates":[[[91.00417,24.88604],[91.00712,24.8849],[91.0088,24.88513],[91.01041,24.88685],[91.01805,24.88991],[91.02093,24.88855],[91.02208,24.88587],[91.0239,24.88436],[91.02209,24.8826],[91.02004,24.88273],[91.02279,24.87941],[91.0255,24.8803],[91.02821,24.8798],[91.03033,24.87783],[91.03242,24.87735],[91.03516,24.88436],[91.04047,24.89021],[91.04246,24.89743],[91.04576,24.89932],[91.0527,24.90011],[91.0537,24.89863],[91.05379,24.89582],[91.05692,24.896],[91.06027,24.89426],[91.06526,24.89639],[91.06845,24.89673],[91.07154,24.89622],[91.07389,24.89207],[91.07648,24.89335],[91.07774,24.8952],[91.07936,24.89548],[91.08273,24.8941],[91.08479,24.89231],[91.0885,24.88661],[91.09231,24.88492],[91.09336,24.88305],[91.09585,24.88112],[91.09916,24.88163],[91.10538,24.87814],[91.11187,24.86608],[91.11227,24.86349],[91.10925,24.86067],[91.10848,24.8584],[91.10921,24.85625],[91.1122,24.8543],[91.11612,24.84733],[91.1177,24.8409],[91.12084,24.83993],[91.12814,24.84047],[91.12868,24.8382],[91.13246,24.83267],[91.13204,24.83132],[91.12949,24.82946],[91.12543,24.82932],[91.12141,24.8208],[91.11906,24.81796],[91.12057,24.81474],[91.1173,24.80694],[91.11805,24.8033],[91.12469,24.79405],[91.12144,24.79204],[91.11634,24.78304],[91.11138,24.78523],[91.10564,24.7758],[91.104,24.76989],[91.1025,24.77138],[91.09803,24.77171],[91.09455,24.77355],[91.09283,24.77575],[91.09136,24.7801],[91.08923,24.77966],[91.08756,24.77805],[91.08779,24.77185],[91.09103,24.76714],[91.08636,24.7653],[91.08381,24.76326],[91.08129,24.75882],[91.07909,24.75821],[91.07026,24.75979],[91.06704,24.76369],[91.06482,24.76429],[91.06273,24.76321],[91.05641,24.75672],[91.05484,24.75608],[91.05199,24.75625],[91.04856,24.75781],[91.03425,24.75923],[91.02926,24.76056],[91.02368,24.76103],[91.01505,24.75951],[91.01138,24.75396],[91.01456,24.74564],[91.01411,24.7429],[91.00536,24.73265],[91.00322,24.73364],[90.99913,24.73224],[90.99104,24.73396],[90.98774,24.73947],[90.98314,24.74457],[90.97698,24.74754],[90.97583,24.7489],[90.97979,24.75755],[90.97942,24.76679],[90.97755,24.77019],[90.97902,24.77507],[90.9691,24.77226],[90.96246,24.76871],[90.9562,24.76766],[90.95409,24.7659],[90.95007,24.76449],[90.94688,24.76035],[90.9436,24.76103],[90.93333,24.76787],[90.93302,24.77157],[90.93637,24.77881],[90.93631,24.7823],[90.93008,24.79158],[90.92621,24.79447],[90.91783,24.79677],[90.91574,24.79947],[90.91595,24.81325],[90.91776,24.81681],[90.92352,24.82171],[90.92587,24.82473],[90.92914,24.82605],[90.93443,24.82443],[90.94278,24.8246],[90.94728,24.8272],[90.94811,24.83159],[90.94569,24.8338],[90.94496,24.83595],[90.9471,24.83851],[90.94697,24.84012],[90.94485,24.84203],[90.94405,24.84774],[90.93754,24.84642],[90.93548,24.84798],[90.93474,24.85025],[90.93487,24.85575],[90.92888,24.85894],[90.93118,24.86058],[90.93851,24.86039],[90.94077,24.86117],[90.94162,24.86395],[90.94127,24.86655],[90.94342,24.86929],[90.94395,24.86657],[90.95485,24.86309],[90.95527,24.86457],[90.95832,24.86647],[90.96231,24.87242],[90.96465,24.8714],[90.96653,24.8721],[90.96879,24.8707],[90.97181,24.86629],[90.97316,24.86572],[90.97407,24.86833],[90.97967,24.87582],[90.9874,24.87642],[90.98995,24.87822],[90.99115,24.88219],[90.99244,24.88363],[90.99375,24.88383],[90.99596,24.8826],[91.00417,24.88604]]]}},{"type":"Feature","properties":{"name":"Netrokona S.","district_id":"netrokona","pcode":"457274","sql_upazila_id":null,"sql_name_bn":null},"geometry":{"type":"Polygon","coordinates":[[[90.77244,24.99209],[90.77085,24.98371],[90.76881,24.97815],[90.7773,24.97299],[90.78096,24.97281],[90.78403,24.97143],[90.78508,24.96922],[90.78373,24.96405],[90.77869,24.9625],[90.77746,24.95898],[90.77824,24.95815],[90.78718,24.961],[90.79009,24.96056],[90.79616,24.95565],[90.79724,24.95636],[90.79751,24.95899],[90.79964,24.96111],[90.80059,24.9617],[90.80363,24.96143],[90.80668,24.95943],[90.80887,24.9558],[90.80924,24.95228],[90.80732,24.94472],[90.80756,24.94247],[90.81269,24.93776],[90.81756,24.93605],[90.82003,24.9374],[90.82286,24.9439],[90.82497,24.94555],[90.82849,24.9448],[90.83686,24.93614],[90.83764,24.93141],[90.83734,24.92797],[90.83599,24.92486],[90.83647,24.92244],[90.84212,24.92207],[90.84441,24.91981],[90.84453,24.91768],[90.84154,24.91583],[90.83482,24.91796],[90.83179,24.91657],[90.82951,24.91326],[90.82887,24.9053],[90.82159,24.89585],[90.82032,24.89142],[90.81711,24.88837],[90.8163,24.88467],[90.81215,24.88108],[90.82188,24.87438],[90.8234,24.87169],[90.82317,24.86814],[90.81985,24.86188],[90.81997,24.85797],[90.81425,24.8526],[90.81163,24.84661],[90.81191,24.84378],[90.80878,24.84098],[90.80052,24.83786],[90.79807,24.83105],[90.79843,24.82702],[90.79676,24.82542],[90.78985,24.82524],[90.78425,24.8232],[90.78225,24.81529],[90.78646,24.81291],[90.79321,24.80608],[90.79824,24.80419],[90.79963,24.80248],[90.79949,24.79669],[90.79776,24.79508],[90.79107,24.79393],[90.78863,24.79155],[90.78864,24.79],[90.79071,24.78855],[90.79056,24.78597],[90.78807,24.78399],[90.78228,24.78568],[90.77744,24.78383],[90.77625,24.78932],[90.77435,24.79013],[90.7716,24.78988],[90.76597,24.79851],[90.76304,24.80015],[90.75946,24.80107],[90.75394,24.7996],[90.74689,24.80081],[90.74303,24.80054],[90.72477,24.78795],[90.71542,24.7851],[90.71335,24.78632],[90.70963,24.7908],[90.71162,24.7924],[90.71125,24.79459],[90.7094,24.79506],[90.7082,24.79636],[90.70784,24.79884],[90.69833,24.79685],[90.69538,24.79816],[90.68134,24.79845],[90.67696,24.7955],[90.67728,24.79996],[90.67592,24.80012],[90.67162,24.7978],[90.66681,24.803],[90.66637,24.80509],[90.66376,24.80884],[90.65975,24.80995],[90.65718,24.80929],[90.65395,24.80572],[90.65192,24.8063],[90.65034,24.80917],[90.64987,24.8124],[90.65303,24.81775],[90.65405,24.82443],[90.66067,24.82914],[90.66242,24.8315],[90.66103,24.83699],[90.659,24.83941],[90.65812,24.84311],[90.65739,24.84739],[90.65845,24.84976],[90.65885,24.85451],[90.65567,24.86213],[90.65537,24.86662],[90.64941,24.87267],[90.64916,24.87887],[90.64809,24.88235],[90.65089,24.88639],[90.65189,24.89812],[90.65703,24.90915],[90.65737,24.91413],[90.65942,24.91819],[90.66187,24.91874],[90.66521,24.91812],[90.66727,24.91977],[90.66805,24.92313],[90.66952,24.92435],[90.67659,24.92542],[90.67925,24.92913],[90.68121,24.9301],[90.68525,24.92979],[90.68591,24.93672],[90.68811,24.94129],[90.68713,24.94798],[90.68535,24.95045],[90.68174,24.95051],[90.68173,24.95235],[90.68506,24.95498],[90.68788,24.95572],[90.68958,24.95806],[90.6974,24.96337],[90.70571,24.96194],[90.70909,24.96281],[90.71209,24.96501],[90.72147,24.96452],[90.72535,24.96502],[90.73027,24.96692],[90.73222,24.97151],[90.73123,24.97544],[90.7263,24.97538],[90.72443,24.97923],[90.72074,24.97671],[90.71709,24.97752],[90.71793,24.98031],[90.70988,24.98947],[90.72761,24.99256],[90.73163,24.99563],[90.73213,24.99763],[90.72984,25.00028],[90.71776,25.00608],[90.71592,25.01079],[90.72398,25.0193],[90.72783,25.02532],[90.74399,25.01605],[90.74734,25.01542],[90.75114,25.0153],[90.75446,25.01622],[90.75757,25.01962],[90.76231,25.02181],[90.7635,25.02016],[90.76097,25.01893],[90.76345,25.01472],[90.76582,25.01475],[90.76745,25.01291],[90.76868,25.01081],[90.76843,25.00703],[90.7712,25.00602],[90.7716,25.00474],[90.7674,25.00018],[90.76842,24.99498],[90.77055,24.9937],[90.77244,24.99209]]]}},{"type":"Feature","properties":{"name":"Purbadhala","district_id":"netrokona","pcode":"457283","sql_upazila_id":"netrokona-purbadhala","sql_name_bn":"পূর্বধলা"},"geometry":{"type":"Polygon","coordinates":[[[90.60741,25.02708],[90.60909,25.02497],[90.61253,25.02514],[90.61571,25.02354],[90.62318,25.02343],[90.6236,25.02065],[90.62709,25.02088],[90.62956,25.01959],[90.62845,25.01447],[90.6326,25.01169],[90.63646,25.01151],[90.64127,25.01405],[90.64245,25.012],[90.65233,25.0091],[90.6551,25.01199],[90.65789,25.01167],[90.66172,25.0108],[90.6638,25.00941],[90.66409,25.00659],[90.67081,25.00482],[90.67317,25.0064],[90.6725,25.00878],[90.67589,25.01159],[90.67976,25.0117],[90.68312,25.00981],[90.67867,25.00667],[90.67326,25.00135],[90.67545,24.99961],[90.67863,24.99945],[90.68483,25.00091],[90.68613,25.00047],[90.68425,24.99818],[90.67881,24.99572],[90.67274,24.99471],[90.67184,24.99216],[90.66807,24.98895],[90.67001,24.98728],[90.67233,24.98778],[90.67724,24.98544],[90.68239,24.98073],[90.68374,24.98034],[90.68964,24.98359],[90.69328,24.98439],[90.6957,24.98626],[90.698,24.98395],[90.70988,24.98947],[90.71793,24.98031],[90.71709,24.97752],[90.72074,24.97671],[90.72443,24.97923],[90.7263,24.97538],[90.73123,24.97544],[90.73222,24.97151],[90.73027,24.96692],[90.72535,24.96502],[90.71209,24.96501],[90.70909,24.96281],[90.70571,24.96194],[90.6974,24.96337],[90.68958,24.95806],[90.68788,24.95572],[90.68506,24.95498],[90.68173,24.95235],[90.68174,24.95051],[90.68535,24.95045],[90.68713,24.94798],[90.68811,24.94129],[90.68591,24.93672],[90.68525,24.92979],[90.68121,24.9301],[90.67925,24.92913],[90.67659,24.92542],[90.66952,24.92435],[90.66805,24.92313],[90.66727,24.91977],[90.66521,24.91812],[90.66187,24.91874],[90.65942,24.91819],[90.65737,24.91413],[90.65703,24.90915],[90.65189,24.89812],[90.65089,24.88639],[90.64809,24.88235],[90.64916,24.87887],[90.64941,24.87267],[90.65537,24.86662],[90.65567,24.86213],[90.65885,24.85451],[90.65845,24.84976],[90.65739,24.84739],[90.659,24.83941],[90.66103,24.83699],[90.66242,24.8315],[90.66067,24.82914],[90.65405,24.82443],[90.65303,24.81775],[90.64987,24.8124],[90.65034,24.80917],[90.65192,24.8063],[90.65395,24.80572],[90.65718,24.80929],[90.65975,24.80995],[90.66376,24.80884],[90.66637,24.80509],[90.66681,24.803],[90.67162,24.7978],[90.66522,24.79238],[90.65772,24.78907],[90.64924,24.78815],[90.64536,24.78942],[90.64136,24.79649],[90.63993,24.7967],[90.63713,24.79612],[90.6326,24.79282],[90.62736,24.79242],[90.62538,24.79466],[90.6232,24.80047],[90.62099,24.80158],[90.61542,24.80216],[90.61563,24.80496],[90.61131,24.81021],[90.60933,24.81039],[90.60744,24.80953],[90.60505,24.80668],[90.60266,24.80602],[90.59796,24.81059],[90.58549,24.80966],[90.58393,24.81362],[90.58434,24.81659],[90.58358,24.81823],[90.57921,24.8159],[90.57286,24.80945],[90.56966,24.8084],[90.56773,24.8103],[90.56648,24.81252],[90.56686,24.81469],[90.56941,24.81673],[90.57993,24.82076],[90.58167,24.82265],[90.58317,24.82713],[90.58483,24.82863],[90.58547,24.83131],[90.59102,24.83164],[90.59119,24.83703],[90.58955,24.83858],[90.58318,24.83976],[90.58094,24.8396],[90.57743,24.83627],[90.57556,24.83662],[90.57381,24.83851],[90.57062,24.83769],[90.56921,24.8382],[90.56395,24.84135],[90.56316,24.84402],[90.56393,24.8449],[90.56802,24.84449],[90.57028,24.84499],[90.57157,24.84633],[90.56993,24.85172],[90.57135,24.85328],[90.57507,24.85299],[90.57117,24.86132],[90.57057,24.86455],[90.57121,24.86918],[90.5746,24.86999],[90.57048,24.87575],[90.57061,24.88182],[90.56924,24.88416],[90.56218,24.88491],[90.55601,24.88258],[90.55105,24.8851],[90.54491,24.88414],[90.54271,24.88507],[90.53773,24.8916],[90.5385,24.89393],[90.54378,24.89766],[90.54343,24.90083],[90.54469,24.90538],[90.54187,24.91275],[90.53967,24.91409],[90.53857,24.91699],[90.53857,24.92503],[90.53944,24.92913],[90.54111,24.93092],[90.54404,24.93099],[90.54573,24.92905],[90.54784,24.93506],[90.5472,24.93646],[90.54225,24.93742],[90.53999,24.93899],[90.53178,24.93919],[90.5315,24.94218],[90.53417,24.94416],[90.53529,24.94624],[90.53444,24.94875],[90.52997,24.947],[90.52362,24.94295],[90.52138,24.94291],[90.5177,24.95301],[90.51766,24.95806],[90.51912,24.96284],[90.52341,24.97067],[90.52787,24.9764],[90.51973,24.97504],[90.51715,24.97787],[90.51667,24.98288],[90.51085,24.98387],[90.50998,24.98614],[90.51198,24.99238],[90.51003,24.99583],[90.51089,25.00177],[90.50867,25.00242],[90.50104,25.0014],[90.49908,25.00295],[90.49979,25.0054],[90.50219,25.00853],[90.50875,25.0132],[90.51016,25.01632],[90.50923,25.01887],[90.50683,25.01975],[90.49853,25.01909],[90.49708,25.02275],[90.49338,25.02419],[90.48895,25.02387],[90.48531,25.02496],[90.48086,25.03256],[90.48443,25.03727],[90.48112,25.03933],[90.47038,25.04253],[90.46444,25.04163],[90.46344,25.04373],[90.46334,25.04884],[90.46242,25.05139],[90.46391,25.05507],[90.48291,25.05729],[90.48631,25.05603],[90.49464,25.05583],[90.49563,25.0554],[90.49642,25.05279],[90.49915,25.05213],[90.50689,25.0547],[90.5092,25.05898],[90.51696,25.05805],[90.52131,25.05957],[90.53277,25.05743],[90.53406,25.05888],[90.53452,25.06569],[90.53732,25.06773],[90.55026,25.06703],[90.55156,25.06462],[90.55103,25.06345],[90.54654,25.06152],[90.54483,25.0586],[90.54614,25.05666],[90.55138,25.0589],[90.55393,25.05664],[90.55637,25.05277],[90.55685,25.05018],[90.55872,25.04817],[90.56488,25.04584],[90.56348,25.04084],[90.56509,25.03849],[90.56988,25.03627],[90.56878,25.03292],[90.57901,25.03322],[90.58004,25.03641],[90.58845,25.03235],[90.58746,25.02859],[90.59143,25.02795],[90.59395,25.02884],[90.59584,25.03159],[90.59425,25.03468],[90.59651,25.03702],[90.5985,25.03679],[90.60068,25.03476],[90.60197,25.03053],[90.60008,25.02761],[90.60741,25.02708]]]}}]}