{"type":"FeatureCollection","features":[{"type":"Feature","properties":{"name":"Dimla","district_id":"nilphamari","pcode":"557312","sql_upazila_id":"nilphamari-dimla","sql_name_bn":"ডিমলা"},"geometry":{"type":"Polygon","coordinates":[[[88.88511,26.23885],[88.88497,26.24414],[88.8839,26.24529],[88.88073,26.24338],[88.87872,26.24357],[88.87817,26.24778],[88.87263,26.25316],[88.8701,26.2546],[88.86803,26.25785],[88.86805,26.26749],[88.86964,26.27031],[88.86821,26.27747],[88.87281,26.28107],[88.87601,26.28633],[88.88106,26.29027],[88.89709,26.29229],[88.92392,26.2917],[88.92811,26.28836],[88.93253,26.28894],[88.93485,26.2883],[88.94196,26.27225],[88.94862,26.26509],[88.95008,26.25961],[88.95834,26.24793],[88.96203,26.24477],[88.96555,26.24309],[88.97044,26.24156],[88.97359,26.24159],[88.9863,26.24749],[88.99649,26.24859],[89.01116,26.24681],[89.0221,26.24715],[89.02405,26.24605],[89.02325,26.24208],[89.02396,26.23895],[89.02719,26.23613],[89.02854,26.23366],[89.02991,26.23234],[89.03994,26.22871],[89.04304,26.22509],[89.0425,26.21923],[89.04112,26.21589],[89.04072,26.20695],[89.03949,26.20504],[89.03265,26.203],[89.02839,26.20014],[89.02835,26.19758],[89.02989,26.19563],[89.03484,26.19341],[89.03608,26.19203],[89.03756,26.18564],[89.03886,26.18415],[89.04406,26.18239],[89.04449,26.1817],[89.04183,26.18042],[89.04144,26.17946],[89.04745,26.17717],[89.05091,26.17674],[89.05515,26.17811],[89.05733,26.17735],[89.06799,26.16949],[89.07603,26.17282],[89.08289,26.17234],[89.08527,26.17146],[89.0905,26.16702],[89.09116,26.16382],[89.09085,26.15945],[89.09171,26.1582],[89.0929,26.15665],[89.09902,26.15277],[89.10144,26.14984],[89.10309,26.14495],[89.10395,26.13494],[89.10703,26.12186],[89.10658,26.11937],[89.10488,26.11758],[89.09525,26.11395],[89.09481,26.1131],[89.09853,26.11086],[89.09866,26.10887],[89.0956,26.09916],[89.09538,26.09479],[89.09786,26.09067],[89.09267,26.08896],[89.08535,26.09125],[89.08376,26.09103],[89.08094,26.0885],[89.08184,26.08496],[89.0796,26.0835],[89.07516,26.08434],[89.06989,26.08421],[89.06351,26.08682],[89.06255,26.08626],[89.06205,26.08194],[89.06114,26.08052],[89.0593,26.08026],[89.05504,26.08371],[89.05415,26.08366],[89.05304,26.0806],[89.05228,26.08055],[89.0484,26.08832],[89.04581,26.08959],[89.03883,26.09103],[89.03107,26.09031],[89.02866,26.08959],[89.02754,26.08619],[89.02483,26.08548],[89.02355,26.08413],[89.02927,26.07736],[89.03003,26.07286],[89.02963,26.07133],[89.02753,26.0697],[89.01999,26.07206],[88.99909,26.08081],[88.99087,26.08732],[88.97601,26.09646],[88.96673,26.09815],[88.96399,26.10035],[88.95692,26.1027],[88.94895,26.10284],[88.94178,26.10656],[88.92752,26.10945],[88.91907,26.11562],[88.90462,26.12011],[88.90237,26.12292],[88.90227,26.12507],[88.90375,26.12893],[88.90591,26.13095],[88.9088,26.14034],[88.90736,26.14149],[88.90569,26.1456],[88.90711,26.15262],[88.90909,26.15635],[88.90811,26.16011],[88.9088,26.166],[88.90839,26.16971],[88.8991,26.17998],[88.89688,26.18432],[88.89392,26.19589],[88.89175,26.19864],[88.88949,26.1994],[88.88888,26.20157],[88.88988,26.21111],[88.889,26.21664],[88.88308,26.22181],[88.88261,26.22472],[88.88654,26.23048],[88.88776,26.23377],[88.88511,26.23885]]]}},{"type":"Feature","properties":{"name":"Domar","district_id":"nilphamari","pcode":"557315","sql_upazila_id":"nilphamari-domar","sql_name_bn":"ডোমার"},"geometry":{"type":"Polygon","coordinates":[[[88.76158,26.30059],[88.77554,26.3062],[88.78518,26.30704],[88.78943,26.31054],[88.79596,26.31304],[88.79893,26.31317],[88.80415,26.3118],[88.82159,26.30071],[88.82307,26.29806],[88.81827,26.29389],[88.8157,26.27982],[88.8196,26.27571],[88.82045,26.27364],[88.82031,26.27094],[88.8186,26.26806],[88.81921,26.2597],[88.82092,26.25835],[88.83113,26.25609],[88.83096,26.25304],[88.83604,26.25201],[88.8331,26.24753],[88.83305,26.24596],[88.8349,26.24386],[88.84455,26.24001],[88.84679,26.23427],[88.84914,26.23374],[88.85123,26.23435],[88.85283,26.23633],[88.86377,26.23642],[88.87054,26.23523],[88.87624,26.23643],[88.88351,26.23665],[88.88511,26.23885],[88.88776,26.23377],[88.88654,26.23048],[88.88261,26.22472],[88.88277,26.22261],[88.889,26.21664],[88.88988,26.21111],[88.88888,26.20157],[88.88949,26.1994],[88.89175,26.19864],[88.89392,26.19589],[88.89688,26.18432],[88.8991,26.17998],[88.90839,26.16971],[88.9088,26.166],[88.90811,26.16011],[88.90909,26.15635],[88.90711,26.15262],[88.90569,26.1456],[88.90736,26.14149],[88.9088,26.14034],[88.90591,26.13095],[88.90305,26.12774],[88.90237,26.12292],[88.89772,26.12427],[88.895,26.12379],[88.89374,26.1123],[88.89282,26.10987],[88.88657,26.10122],[88.88651,26.09188],[88.88517,26.08962],[88.87839,26.0865],[88.87742,26.0844],[88.87712,26.07991],[88.88181,26.07849],[88.88262,26.07685],[88.8816,26.07538],[88.87843,26.07348],[88.87927,26.06915],[88.87779,26.06564],[88.87924,26.0596],[88.87747,26.05808],[88.87446,26.05806],[88.8682,26.05977],[88.86579,26.05809],[88.8651,26.05583],[88.86358,26.0546],[88.85159,26.05342],[88.84737,26.05033],[88.84677,26.04693],[88.84771,26.04579],[88.85717,26.04506],[88.85628,26.04337],[88.8446,26.04173],[88.83989,26.04296],[88.8391,26.04735],[88.83407,26.04802],[88.83115,26.04589],[88.83238,26.04252],[88.83219,26.03655],[88.82939,26.03504],[88.82438,26.03832],[88.81982,26.04398],[88.81638,26.0468],[88.80351,26.05112],[88.79087,26.06187],[88.78293,26.06131],[88.78229,26.06013],[88.78098,26.06071],[88.77764,26.05895],[88.78094,26.06484],[88.76927,26.07248],[88.75702,26.08574],[88.75948,26.08706],[88.76411,26.08616],[88.76669,26.0881],[88.77414,26.10089],[88.77539,26.10574],[88.78297,26.11323],[88.78867,26.12128],[88.78992,26.12898],[88.78446,26.13331],[88.78425,26.14141],[88.78464,26.14397],[88.78608,26.14631],[88.78451,26.15572],[88.78061,26.16108],[88.77979,26.16376],[88.78134,26.17648],[88.78065,26.17768],[88.77714,26.17813],[88.77657,26.17904],[88.77883,26.18087],[88.78442,26.18156],[88.79088,26.18613],[88.79446,26.1903],[88.7979,26.20371],[88.79652,26.20446],[88.79137,26.20415],[88.79099,26.20839],[88.79268,26.20958],[88.79639,26.2089],[88.79739,26.2097],[88.79569,26.21426],[88.79525,26.21888],[88.78777,26.23005],[88.78551,26.23215],[88.77564,26.23716],[88.77269,26.23778],[88.76572,26.23429],[88.76372,26.23511],[88.76195,26.23993],[88.75998,26.25664],[88.75848,26.25943],[88.76493,26.27074],[88.76563,26.27537],[88.76604,26.2822],[88.76535,26.28853],[88.76025,26.29491],[88.76176,26.29971],[88.76158,26.30059]]]}},{"type":"Feature","properties":{"name":"Jaldhaka","district_id":"nilphamari","pcode":"557336","sql_upazila_id":"nilphamari-jaldhaka","sql_name_bn":"জলঢাকা"},"geometry":{"type":"Polygon","coordinates":[[[89.09786,26.09067],[89.10016,26.08797],[89.10538,26.07812],[89.10409,26.07574],[89.10128,26.07378],[89.0999,26.0714],[89.09786,26.05898],[89.09798,26.05562],[89.10058,26.04961],[89.10191,26.04231],[89.10188,26.03481],[89.10799,26.02759],[89.10784,26.0236],[89.10865,26.02037],[89.11103,26.01746],[89.11563,26.00727],[89.11819,25.99773],[89.12075,25.99208],[89.12582,25.98823],[89.12732,25.98299],[89.12863,25.98165],[89.13738,25.97569],[89.14916,25.96608],[89.14004,25.96447],[89.13664,25.96132],[89.13324,25.96271],[89.12937,25.96616],[89.1273,25.96704],[89.11826,25.96661],[89.11565,25.96578],[89.11134,25.96235],[89.10279,25.96208],[89.09423,25.95754],[89.09023,25.9569],[89.08375,25.95855],[89.08196,25.95737],[89.07983,25.95426],[89.07718,25.95417],[89.06756,25.96064],[89.0648,25.96147],[89.05221,25.96177],[89.04758,25.96301],[89.04366,25.9663],[89.042,25.96927],[89.04191,25.97223],[89.04049,25.97425],[89.03295,25.9738],[89.0319,25.97434],[89.03207,25.97871],[89.0302,25.97976],[89.02813,25.97944],[89.02711,25.97809],[89.02773,25.97587],[89.02731,25.97252],[89.02174,25.97088],[89.01756,25.97105],[89.01544,25.97199],[89.0173,25.97781],[89.01594,25.97959],[89.01125,25.98005],[89.00932,25.98104],[89.00776,25.98344],[89.00491,25.98353],[89.0068,25.97636],[89.00532,25.96996],[89.00368,25.96863],[89.00244,25.9687],[88.99525,25.97373],[88.99521,25.96885],[88.99655,25.96571],[88.99603,25.9635],[88.98874,25.96461],[88.98276,25.96241],[88.97893,25.9629],[88.97625,25.966],[88.96819,25.96783],[88.96095,25.973],[88.95635,25.96895],[88.95311,25.96778],[88.95265,25.96625],[88.95107,25.96614],[88.94717,25.96964],[88.94576,25.97511],[88.94196,25.97423],[88.94019,25.97481],[88.93851,25.97812],[88.93284,25.98544],[88.92921,25.98758],[88.92134,25.98867],[88.92017,25.9913],[88.92398,25.99484],[88.92339,25.99826],[88.92191,26.00077],[88.91695,26.0015],[88.91488,26.00289],[88.91439,26.00437],[88.9097,26.00653],[88.90604,26.0052],[88.8997,26.00532],[88.89801,26.00658],[88.89669,26.01251],[88.89241,26.01153],[88.88642,26.01466],[88.88316,26.0147],[88.87634,26.01175],[88.86993,26.01119],[88.86705,26.01173],[88.85918,26.01033],[88.84977,26.01583],[88.84742,26.01837],[88.84493,26.02431],[88.84083,26.0276],[88.83594,26.03009],[88.83524,26.03283],[88.83571,26.03515],[88.83883,26.03826],[88.83989,26.04296],[88.8446,26.04173],[88.8473,26.04193],[88.85458,26.04282],[88.85741,26.04449],[88.85516,26.04554],[88.84771,26.04579],[88.84677,26.04693],[88.84737,26.05033],[88.85159,26.05342],[88.86358,26.0546],[88.8651,26.05583],[88.86579,26.05809],[88.8682,26.05977],[88.87446,26.05806],[88.87747,26.05808],[88.87924,26.0596],[88.87779,26.06564],[88.87927,26.06915],[88.87843,26.07348],[88.8816,26.07538],[88.88262,26.07685],[88.88181,26.07849],[88.87712,26.07991],[88.87742,26.0844],[88.87839,26.0865],[88.88517,26.08962],[88.88651,26.09188],[88.88657,26.10122],[88.89282,26.10987],[88.89374,26.1123],[88.895,26.12379],[88.89772,26.12427],[88.90237,26.12292],[88.90462,26.12011],[88.91907,26.11562],[88.92752,26.10945],[88.94178,26.10656],[88.94895,26.10284],[88.95692,26.1027],[88.96399,26.10035],[88.96673,26.09815],[88.97601,26.09646],[88.99087,26.08732],[88.99909,26.08081],[89.01999,26.07206],[89.02753,26.0697],[89.02963,26.07133],[89.03003,26.07286],[89.02927,26.07736],[89.02355,26.08413],[89.02483,26.08548],[89.02754,26.08619],[89.02866,26.08959],[89.03107,26.09031],[89.03883,26.09103],[89.04581,26.08959],[89.0484,26.08832],[89.05228,26.08055],[89.05304,26.0806],[89.05415,26.08366],[89.05504,26.08371],[89.0593,26.08026],[89.06114,26.08052],[89.06205,26.08194],[89.06255,26.08626],[89.06351,26.08682],[89.06989,26.08421],[89.07516,26.08434],[89.0796,26.0835],[89.08184,26.08496],[89.08094,26.0885],[89.08376,26.09103],[89.08535,26.09125],[89.09267,26.08896],[89.09786,26.09067]]]}},{"type":"Feature","properties":{"name":"Kishoreganj","district_id":"nilphamari","pcode":"557345","sql_upazila_id":null,"sql_name_bn":null},"geometry":{"type":"Polygon","coordinates":[[[89.14916,25.96608],[89.16199,25.9579],[89.17816,25.95486],[89.18501,25.95638],[89.19099,25.95309],[89.19644,25.94894],[89.19574,25.94463],[89.19651,25.93584],[89.19588,25.93317],[89.19414,25.9321],[89.19252,25.93229],[89.19142,25.93356],[89.19127,25.93785],[89.1882,25.93661],[89.18391,25.93147],[89.18316,25.92657],[89.17635,25.9215],[89.17558,25.91546],[89.17715,25.91299],[89.18233,25.9106],[89.1823,25.90923],[89.18081,25.90719],[89.17838,25.90585],[89.16873,25.90465],[89.16611,25.90245],[89.16541,25.89888],[89.16618,25.89243],[89.16374,25.88956],[89.15926,25.88767],[89.16127,25.87946],[89.16008,25.87885],[89.15282,25.88098],[89.15012,25.88005],[89.14786,25.88042],[89.14606,25.88198],[89.14646,25.88424],[89.14057,25.88983],[89.14104,25.89193],[89.14308,25.89446],[89.14312,25.89691],[89.13871,25.90049],[89.13519,25.90064],[89.12672,25.89192],[89.1213,25.88937],[89.11681,25.8846],[89.10706,25.87888],[89.10567,25.87623],[89.10409,25.86809],[89.10014,25.86474],[89.09945,25.86225],[89.10345,25.85632],[89.10289,25.85445],[89.10014,25.85251],[89.09369,25.85111],[89.09249,25.84954],[89.09122,25.84593],[89.09079,25.83719],[89.08896,25.83585],[89.08399,25.83653],[89.08157,25.83518],[89.07712,25.83829],[89.07085,25.83903],[89.06451,25.8384],[89.06036,25.83518],[89.04817,25.82217],[89.04665,25.82139],[89.03362,25.82168],[89.01867,25.82329],[89.01553,25.82322],[89.012,25.82155],[89.01001,25.82384],[89.00813,25.82449],[89.00525,25.82054],[89.00332,25.82243],[88.99971,25.82222],[88.99792,25.82116],[88.99378,25.8258],[88.99599,25.83367],[88.99543,25.83503],[88.99087,25.83422],[88.98961,25.83457],[88.98824,25.83628],[88.98862,25.83844],[88.99476,25.83975],[88.99533,25.84105],[88.9949,25.84479],[88.99378,25.84712],[88.99345,25.85326],[88.99226,25.85515],[88.98388,25.85871],[88.97816,25.86633],[88.97697,25.86657],[88.97601,25.86312],[88.97325,25.86259],[88.96724,25.86694],[88.96511,25.86582],[88.96651,25.8608],[88.9642,25.86008],[88.96071,25.86116],[88.95834,25.86102],[88.95705,25.857],[88.95629,25.85655],[88.95317,25.85762],[88.95065,25.85627],[88.94864,25.85646],[88.94798,25.85943],[88.95112,25.86837],[88.95954,25.8787],[88.95961,25.88312],[88.95725,25.88774],[88.958,25.89034],[88.96229,25.89466],[88.96751,25.91062],[88.96982,25.92391],[88.96909,25.92893],[88.9697,25.93132],[88.97099,25.93307],[88.97513,25.93588],[88.97811,25.94007],[88.98254,25.94133],[88.98381,25.94258],[88.98057,25.94644],[88.98072,25.95515],[88.97893,25.9629],[88.98276,25.96241],[88.98874,25.96461],[88.99603,25.9635],[88.99655,25.96571],[88.99521,25.96885],[88.99525,25.97373],[89.00244,25.9687],[89.00368,25.96863],[89.00532,25.96996],[89.0068,25.97636],[89.00491,25.98353],[89.00776,25.98344],[89.00932,25.98104],[89.01125,25.98005],[89.01594,25.97959],[89.0173,25.97781],[89.01544,25.97199],[89.01756,25.97105],[89.02174,25.97088],[89.02731,25.97252],[89.02773,25.97587],[89.02711,25.97809],[89.02813,25.97944],[89.0302,25.97976],[89.03207,25.97871],[89.0319,25.97434],[89.03295,25.9738],[89.04049,25.97425],[89.04191,25.97223],[89.042,25.96927],[89.04366,25.9663],[89.04758,25.96301],[89.05221,25.96177],[89.0648,25.96147],[89.06756,25.96064],[89.07718,25.95417],[89.07983,25.95426],[89.08196,25.95737],[89.08375,25.95855],[89.09023,25.9569],[89.09423,25.95754],[89.10279,25.96208],[89.11134,25.96235],[89.11565,25.96578],[89.11826,25.96661],[89.1273,25.96704],[89.12937,25.96616],[89.13324,25.96271],[89.13664,25.96132],[89.14004,25.96447],[89.14283,25.96524],[89.14916,25.96608]]]}},{"type":"Feature","properties":{"name":"Nilphahari S.","district_id":"nilphamari","pcode":"557364","sql_upazila_id":null,"sql_name_bn":null},"geometry":{"type":"Polygon","coordinates":[[[88.83989,26.04296],[88.83883,26.03826],[88.83571,26.03515],[88.83524,26.03283],[88.83594,26.03009],[88.84083,26.0276],[88.84493,26.02431],[88.84742,26.01837],[88.85225,26.014],[88.85918,26.01033],[88.86075,26.0102],[88.86705,26.01173],[88.86993,26.01119],[88.87634,26.01175],[88.88316,26.0147],[88.88642,26.01466],[88.89241,26.01153],[88.89669,26.01251],[88.89801,26.00658],[88.8997,26.00532],[88.90604,26.0052],[88.9097,26.00653],[88.91439,26.00437],[88.91488,26.00289],[88.91695,26.0015],[88.92191,26.00077],[88.92339,25.99826],[88.92398,25.99484],[88.92017,25.9913],[88.92134,25.98867],[88.92921,25.98758],[88.93284,25.98544],[88.93851,25.97812],[88.94019,25.97481],[88.94196,25.97423],[88.94576,25.97511],[88.94717,25.96964],[88.94987,25.96678],[88.95265,25.96625],[88.95311,25.96778],[88.95635,25.96895],[88.96095,25.973],[88.96819,25.96783],[88.97625,25.966],[88.9775,25.96502],[88.97893,25.9629],[88.98072,25.95515],[88.98057,25.94644],[88.98381,25.94258],[88.98254,25.94133],[88.97811,25.94007],[88.97513,25.93588],[88.97099,25.93307],[88.9697,25.93132],[88.96909,25.92893],[88.96982,25.92391],[88.96751,25.91062],[88.96229,25.89466],[88.958,25.89034],[88.95725,25.88774],[88.95961,25.88312],[88.95954,25.8787],[88.95112,25.86837],[88.94798,25.85943],[88.93862,25.86383],[88.93648,25.86413],[88.93481,25.86283],[88.93162,25.85495],[88.93013,25.85359],[88.92315,25.85198],[88.92191,25.85034],[88.92174,25.84845],[88.92326,25.8444],[88.92194,25.84264],[88.91599,25.84015],[88.91447,25.84107],[88.91367,25.84581],[88.90769,25.84822],[88.90228,25.84795],[88.90115,25.84693],[88.89954,25.84265],[88.89836,25.84225],[88.89101,25.8438],[88.88967,25.84306],[88.88382,25.83427],[88.88251,25.82944],[88.8831,25.82623],[88.88136,25.82175],[88.8716,25.81834],[88.86137,25.81781],[88.85773,25.81671],[88.85341,25.81292],[88.84908,25.81111],[88.84493,25.80724],[88.84487,25.81259],[88.84374,25.81459],[88.83661,25.81703],[88.82935,25.8156],[88.82766,25.8185],[88.82677,25.82341],[88.82816,25.83071],[88.82596,25.83744],[88.82571,25.84086],[88.82815,25.84571],[88.83021,25.85456],[88.82952,25.85729],[88.82201,25.86212],[88.8205,25.8712],[88.81391,25.88796],[88.81272,25.8907],[88.80627,25.89941],[88.80389,25.90449],[88.80338,25.91196],[88.80512,25.92138],[88.80356,25.92485],[88.80043,25.92866],[88.79472,25.93208],[88.77786,25.93941],[88.76953,25.93917],[88.76132,25.94115],[88.75901,25.94092],[88.75676,25.93681],[88.75388,25.93686],[88.74916,25.9412],[88.74916,25.94421],[88.75236,25.94656],[88.75467,25.95472],[88.74457,25.96953],[88.74767,25.98909],[88.74052,26.00158],[88.73788,26.00808],[88.73843,26.01407],[88.74044,26.01727],[88.74876,26.02544],[88.75133,26.0267],[88.75308,26.02659],[88.75597,26.02328],[88.75816,26.0226],[88.76042,26.02476],[88.76117,26.02643],[88.75822,26.03316],[88.75877,26.03755],[88.76003,26.03772],[88.76141,26.03522],[88.76241,26.03505],[88.76685,26.04772],[88.76936,26.05097],[88.77362,26.05372],[88.77764,26.05895],[88.78098,26.06071],[88.78229,26.06013],[88.78293,26.06131],[88.79087,26.06187],[88.80351,26.05112],[88.81638,26.0468],[88.81982,26.04398],[88.82438,26.03832],[88.82939,26.03504],[88.83219,26.03655],[88.83259,26.03814],[88.83238,26.04252],[88.83115,26.04589],[88.83204,26.04712],[88.8354,26.04823],[88.8391,26.04735],[88.83929,26.04649],[88.83989,26.04296]]]}},{"type":"Feature","properties":{"name":"Saidpur","district_id":"nilphamari","pcode":"557385","sql_upazila_id":null,"sql_name_bn":null},"geometry":{"type":"Polygon","coordinates":[[[89.012,25.82155],[89.00528,25.81752],[88.99964,25.81643],[88.99477,25.81698],[88.99158,25.81535],[88.98817,25.81162],[88.98531,25.81079],[88.98088,25.81162],[88.96731,25.81725],[88.96017,25.81612],[88.95807,25.81471],[88.95315,25.81487],[88.94826,25.81258],[88.94568,25.80857],[88.94629,25.80674],[88.94924,25.80529],[88.95576,25.80688],[88.95689,25.80642],[88.96039,25.7969],[88.96081,25.79411],[88.9594,25.79111],[88.96266,25.78853],[88.96258,25.78558],[88.96137,25.78281],[88.95879,25.78182],[88.95458,25.78169],[88.95087,25.7798],[88.9491,25.778],[88.9479,25.77048],[88.94476,25.76836],[88.94437,25.76688],[88.94935,25.76536],[88.94866,25.76293],[88.94695,25.76074],[88.94707,25.75853],[88.95386,25.75688],[88.95555,25.7555],[88.95588,25.74794],[88.95516,25.7454],[88.95396,25.74484],[88.94838,25.74607],[88.94117,25.74008],[88.94062,25.74162],[88.93861,25.74164],[88.93424,25.73974],[88.92915,25.74194],[88.92527,25.73992],[88.92106,25.74467],[88.9184,25.74486],[88.91214,25.74092],[88.90478,25.7417],[88.89714,25.7393],[88.89296,25.74035],[88.88789,25.74283],[88.88745,25.74674],[88.89082,25.75426],[88.88862,25.75886],[88.88559,25.77062],[88.88339,25.77373],[88.88081,25.77548],[88.87629,25.7766],[88.86508,25.77671],[88.86077,25.77783],[88.85611,25.78211],[88.8515,25.78394],[88.84929,25.79075],[88.84318,25.79455],[88.84097,25.80111],[88.84493,25.80724],[88.84908,25.81111],[88.85341,25.81292],[88.85773,25.81671],[88.86137,25.81781],[88.8716,25.81834],[88.88136,25.82175],[88.8831,25.82623],[88.88251,25.82944],[88.88382,25.83427],[88.88967,25.84306],[88.89101,25.8438],[88.89836,25.84225],[88.89954,25.84265],[88.90115,25.84693],[88.90228,25.84795],[88.90505,25.84834],[88.91063,25.84741],[88.91367,25.84581],[88.91447,25.84107],[88.91599,25.84015],[88.92194,25.84264],[88.92326,25.8444],[88.92174,25.84845],[88.92191,25.85034],[88.92315,25.85198],[88.93013,25.85359],[88.93162,25.85495],[88.93481,25.86283],[88.93648,25.86413],[88.93862,25.86383],[88.94798,25.85943],[88.94864,25.85646],[88.95065,25.85627],[88.95317,25.85762],[88.95629,25.85655],[88.95705,25.857],[88.95834,25.86102],[88.96071,25.86116],[88.9642,25.86008],[88.96651,25.8608],[88.96511,25.86582],[88.96568,25.86638],[88.96724,25.86694],[88.97325,25.86259],[88.97601,25.86312],[88.97697,25.86657],[88.97816,25.86633],[88.98388,25.85871],[88.99226,25.85515],[88.99345,25.85326],[88.99378,25.84712],[88.9949,25.84479],[88.99533,25.84105],[88.99476,25.83975],[88.98862,25.83844],[88.98824,25.83628],[88.98961,25.83457],[88.99087,25.83422],[88.99543,25.83503],[88.99599,25.83367],[88.99378,25.8258],[88.99467,25.82409],[88.99792,25.82116],[88.99971,25.82222],[89.00332,25.82243],[89.00525,25.82054],[89.00699,25.8237],[89.00813,25.82449],[89.01001,25.82384],[89.012,25.82155]]]}}]}