{"type":"FeatureCollection","features":[{"type":"Feature","properties":{"name":"Begumganj","district_id":"noakhali","pcode":"207591","sql_upazila_id":"noakhali-begumganj","sql_name_bn":"বেগমগঞ্জ"},"geometry":{"type":"Polygon","coordinates":[[[91.14206,23.07417],[91.14053,23.07025],[91.14175,23.06664],[91.14113,23.06502],[91.13613,23.0635],[91.13546,23.06205],[91.13345,23.06128],[91.13049,23.0611],[91.12716,23.05794],[91.12894,23.05137],[91.13181,23.04601],[91.13171,23.03673],[91.13313,23.03516],[91.13557,23.03467],[91.14749,23.03816],[91.14999,23.03728],[91.15134,23.03581],[91.15204,23.03132],[91.15314,23.0297],[91.15866,23.03041],[91.16307,23.02776],[91.17143,23.0209],[91.17574,23.02059],[91.17752,23.0173],[91.17789,23.01418],[91.1814,23.01077],[91.18237,23.0087],[91.18192,23.00667],[91.18331,23.00237],[91.18688,22.99965],[91.18766,22.99765],[91.19379,22.99635],[91.19748,22.99469],[91.20116,22.99111],[91.20407,22.98972],[91.20458,22.98703],[91.2025,22.98411],[91.19809,22.98342],[91.19593,22.98174],[91.19632,22.98065],[91.20039,22.97932],[91.19954,22.97635],[91.19637,22.97562],[91.18941,22.97112],[91.18977,22.96923],[91.19634,22.96702],[91.19627,22.96521],[91.19517,22.96226],[91.18926,22.96111],[91.18919,22.95591],[91.18806,22.9538],[91.18857,22.95112],[91.18925,22.94963],[91.19505,22.94982],[91.19686,22.9489],[91.19774,22.94764],[91.19692,22.94562],[91.19698,22.9411],[91.19848,22.93963],[91.20531,22.93797],[91.20754,22.93816],[91.21423,22.93437],[91.21619,22.92921],[91.21605,22.92729],[91.21439,22.92565],[91.21235,22.92081],[91.2121,22.91923],[91.21366,22.91657],[91.21141,22.91072],[91.21209,22.90962],[91.21181,22.90725],[91.20797,22.90349],[91.20428,22.90379],[91.20343,22.89771],[91.20042,22.89149],[91.19897,22.89074],[91.19816,22.88721],[91.19485,22.88484],[91.19003,22.88422],[91.18593,22.88171],[91.17549,22.87954],[91.17059,22.88028],[91.16688,22.87996],[91.15706,22.87776],[91.15395,22.87866],[91.152,22.87737],[91.14037,22.87942],[91.12856,22.87673],[91.12586,22.8754],[91.11202,22.87907],[91.11173,22.88128],[91.10902,22.88273],[91.10641,22.88571],[91.10212,22.88597],[91.1006,22.88472],[91.09581,22.8837],[91.07615,22.88676],[91.07116,22.88355],[91.06926,22.87717],[91.0689,22.87277],[91.06643,22.87257],[91.06375,22.87504],[91.05669,22.87382],[91.04349,22.87338],[91.04211,22.8763],[91.04107,22.87634],[91.03654,22.87536],[91.02924,22.87166],[91.02753,22.87172],[91.02617,22.87329],[91.02503,22.87706],[91.02267,22.87669],[91.02173,22.87469],[91.0169,22.87243],[91.01361,22.8718],[91.00286,22.87432],[90.99694,22.87899],[90.98907,22.87954],[90.98509,22.88177],[90.98299,22.88631],[90.97919,22.89029],[90.98301,22.89519],[90.98257,22.89656],[90.98558,22.8998],[90.98835,22.90145],[90.9894,22.90294],[90.98925,22.90408],[90.98682,22.90648],[90.98135,22.90854],[90.98074,22.91359],[90.98319,22.91498],[90.98299,22.91606],[90.97964,22.91736],[90.97939,22.9189],[90.98244,22.92286],[90.98659,22.92651],[90.98942,22.9349],[90.98904,22.94288],[90.99201,22.94646],[90.99553,22.94832],[90.99839,22.9523],[90.99754,22.95775],[90.99836,22.9614],[90.9932,22.96351],[90.99747,22.96731],[90.99499,22.97181],[90.99645,22.9747],[90.99732,22.97982],[90.99874,22.97982],[91.00047,22.98152],[90.99696,22.98803],[90.99757,22.98987],[91.00261,22.9906],[91.00233,22.99486],[91.00486,22.99997],[91.00465,23.00603],[91.00094,23.00876],[91.00028,23.01071],[91.00134,23.01282],[90.99818,23.01581],[90.99718,23.02054],[90.99893,23.02268],[91.0001,23.02259],[91.00104,23.02137],[91.00442,23.02091],[91.00227,23.02806],[91.00105,23.02974],[90.99724,23.03185],[90.99892,23.03728],[90.99866,23.03848],[90.99552,23.04034],[90.9957,23.04355],[90.99649,23.04443],[91.00049,23.04299],[91.00179,23.04306],[91.00246,23.04423],[90.99948,23.05208],[91.00089,23.05689],[90.99908,23.06623],[91.00005,23.06903],[91.00489,23.06818],[91.01006,23.06925],[91.00861,23.0719],[91.00856,23.07388],[91.01409,23.07493],[91.0166,23.07598],[91.01852,23.07796],[91.01982,23.08118],[91.01958,23.08283],[91.0218,23.08468],[91.02174,23.08808],[91.02293,23.09024],[91.03045,23.08981],[91.03204,23.09106],[91.0311,23.09392],[91.03153,23.09566],[91.03064,23.09658],[91.03248,23.09777],[91.03579,23.09731],[91.04332,23.10051],[91.0461,23.08933],[91.04958,23.08344],[91.06821,23.0768],[91.06976,23.07532],[91.07479,23.07442],[91.07991,23.07616],[91.08249,23.07262],[91.08371,23.06733],[91.08974,23.06841],[91.0946,23.06813],[91.09847,23.0694],[91.11976,23.07257],[91.13795,23.07368],[91.14206,23.07417]]]}},{"type":"Feature","properties":{"name":"Chatkhil","district_id":"noakhali","pcode":"207592","sql_upazila_id":"noakhali-chatkhil","sql_name_bn":"চাটখিল"},"geometry":{"type":"Polygon","coordinates":[[[90.98243,23.13189],[90.98734,23.12704],[90.98927,23.12211],[90.98842,23.11597],[90.9912,23.11441],[90.99901,23.11703],[91.00256,23.11617],[91.00394,23.11369],[91.0066,23.11196],[91.0159,23.11316],[91.01952,23.11264],[91.02203,23.11187],[91.0234,23.10912],[91.02577,23.10819],[91.02651,23.10646],[91.02856,23.10538],[91.03067,23.10542],[91.0328,23.10789],[91.033,23.10986],[91.03509,23.11131],[91.03974,23.11166],[91.04175,23.10798],[91.04332,23.10051],[91.03579,23.09731],[91.03248,23.09777],[91.03064,23.09658],[91.03153,23.09566],[91.0311,23.09392],[91.03204,23.09106],[91.03045,23.08981],[91.02293,23.09024],[91.02174,23.08808],[91.0218,23.08468],[91.01958,23.08283],[91.01982,23.08118],[91.01852,23.07796],[91.0166,23.07598],[91.01409,23.07493],[91.00856,23.07388],[91.00861,23.0719],[91.01006,23.06925],[91.00489,23.06818],[91.00005,23.06903],[90.99914,23.06781],[91.00089,23.05689],[90.99948,23.05208],[91.00246,23.04423],[91.00179,23.04306],[91.00049,23.04299],[90.99649,23.04443],[90.9957,23.04355],[90.99552,23.04034],[90.99866,23.03848],[90.99892,23.03728],[90.99724,23.03185],[91.00105,23.02974],[91.00227,23.02806],[91.00442,23.02091],[91.00104,23.02137],[91.0001,23.02259],[90.99893,23.02268],[90.99718,23.02054],[90.99733,23.01788],[90.99818,23.01581],[91.00134,23.01282],[91.00028,23.01071],[91.00094,23.00876],[91.00465,23.00603],[91.00486,22.99997],[91.00233,22.99486],[91.00261,22.9906],[90.99757,22.98987],[90.99696,22.98803],[91.00047,22.98152],[90.99988,22.98057],[90.99732,22.97982],[90.99147,22.9816],[90.98936,22.98133],[90.98669,22.97587],[90.98259,22.97653],[90.97979,22.97906],[90.97808,22.98454],[90.97507,22.98979],[90.9731,22.98992],[90.97124,22.98806],[90.97103,22.98411],[90.96692,22.98278],[90.96452,22.9828],[90.96252,22.98388],[90.96197,22.98594],[90.95964,22.98772],[90.95832,22.99031],[90.95264,22.9901],[90.95196,22.99166],[90.95332,22.99342],[90.9527,22.99502],[90.94589,23.00108],[90.94096,22.99299],[90.9387,22.99324],[90.93761,22.99074],[90.93264,22.98954],[90.93164,22.99093],[90.93291,22.99666],[90.92979,22.99739],[90.92802,22.99965],[90.92861,23.00568],[90.92803,23.00666],[90.92611,23.00803],[90.92242,23.00838],[90.92149,23.00977],[90.91876,23.01116],[90.91835,23.01502],[90.91624,23.01656],[90.91402,23.01658],[90.90813,23.01887],[90.90119,23.01803],[90.90083,23.01618],[90.89885,23.01466],[90.89662,23.01445],[90.89338,23.01863],[90.89185,23.0292],[90.89573,23.03716],[90.90678,23.03741],[90.90685,23.04096],[90.90534,23.04357],[90.90609,23.04575],[90.90856,23.04589],[90.91964,23.04348],[90.91897,23.04537],[90.91508,23.05013],[90.91442,23.05248],[90.91175,23.05495],[90.91117,23.05813],[90.90948,23.0609],[90.90487,23.06457],[90.90511,23.06762],[90.9071,23.06975],[90.91806,23.06757],[90.91933,23.0686],[90.91999,23.07135],[90.91929,23.07409],[90.91654,23.07662],[90.91851,23.07819],[90.92458,23.07878],[90.93221,23.07829],[90.93417,23.0794],[90.93465,23.08092],[90.93306,23.08612],[90.93501,23.08708],[90.93971,23.08584],[90.94096,23.08467],[90.94447,23.08427],[90.94568,23.08525],[90.94812,23.08793],[90.9482,23.09184],[90.94719,23.09617],[90.94767,23.09904],[90.95329,23.10399],[90.95945,23.11215],[90.95902,23.1189],[90.9597,23.12069],[90.96178,23.12193],[90.96721,23.12982],[90.9706,23.12976],[90.98089,23.13252],[90.98243,23.13189]]]}},{"type":"Feature","properties":{"name":"Companiganj","district_id":"noakhali","pcode":"207593","sql_upazila_id":"noakhali-companiganj","sql_name_bn":"কোম্পানীগঞ্জ"},"geometry":{"type":"MultiPolygon","coordinates":[[[[91.3225,22.72472],[91.32584,22.72278],[91.32722,22.72361],[91.32972,22.72361],[91.33195,22.72111],[91.33583,22.72083],[91.33889,22.71861],[91.34055,22.71889],[91.34444,22.71667],[91.34695,22.71333],[91.35222,22.71139],[91.35445,22.70917],[91.35861,22.70722],[91.36028,22.70555],[91.36028,22.70444],[91.36166,22.70361],[91.36139,22.70194],[91.36694,22.6975],[91.36861,22.69333],[91.37278,22.69111],[91.37305,22.68611],[91.37167,22.68444],[91.37,22.67861],[91.36,22.66807],[91.35889,22.66583],[91.35902,22.66431],[91.36139,22.66111],[91.36333,22.66083],[91.36611,22.65861],[91.36723,22.65861],[91.36723,22.66],[91.36584,22.66139],[91.36389,22.66194],[91.36195,22.66583],[91.36667,22.67],[91.37,22.67611],[91.37338,22.67953],[91.37611,22.68056],[91.38223,22.67805],[91.38084,22.67583],[91.38139,22.675],[91.38556,22.6775],[91.38695,22.67556],[91.38528,22.6725],[91.38639,22.67222],[91.38834,22.67333],[91.38889,22.67167],[91.39194,22.67056],[91.39333,22.66861],[91.39611,22.66945],[91.39972,22.66556],[91.40056,22.66195],[91.40278,22.66028],[91.4025,22.65889],[91.4036,22.6575],[91.405,22.65083],[91.40305,22.64556],[91.40336,22.64381],[91.40166,22.64056],[91.40111,22.63583],[91.39917,22.63167],[91.39889,22.62722],[91.39584,22.61667],[91.3925,22.61167],[91.39278,22.61056],[91.38917,22.60639],[91.38722,22.60611],[91.38528,22.60779],[91.38389,22.6075],[91.38333,22.61056],[91.3825,22.61139],[91.37889,22.61056],[91.37695,22.61278],[91.36777,22.61853],[91.36555,22.62083],[91.36667,22.62333],[91.36611,22.62444],[91.365,22.62278],[91.36195,22.62194],[91.36,22.62417],[91.35861,22.62417],[91.35667,22.62556],[91.35528,22.62528],[91.35416,22.62639],[91.3525,22.62611],[91.34889,22.62806],[91.34306,22.62917],[91.34111,22.63111],[91.33778,22.62972],[91.33417,22.63139],[91.33278,22.6325],[91.33305,22.63361],[91.33195,22.63361],[91.33195,22.635],[91.33,22.63611],[91.33028,22.63833],[91.32777,22.63861],[91.3175,22.64944],[91.31667,22.6525],[91.31778,22.65389],[91.31695,22.65444],[91.31528,22.65361],[91.3125,22.655],[91.31028,22.65833],[91.31,22.66083],[91.30778,22.66194],[91.30666,22.66417],[91.30695,22.66583],[91.30417,22.66889],[91.30361,22.6725],[91.30111,22.67556],[91.3025,22.67722],[91.30083,22.6775],[91.29916,22.67917],[91.29889,22.68167],[91.29778,22.68333],[91.29778,22.68667],[91.29694,22.6875],[91.2975,22.69306],[91.29639,22.69583],[91.29694,22.70167],[91.29583,22.70306],[91.29556,22.70944],[91.30417,22.71918],[91.30722,22.72056],[91.30833,22.71972],[91.31,22.72],[91.31111,22.72139],[91.31389,22.72222],[91.31722,22.72445],[91.31861,22.72389],[91.31944,22.72472],[91.32139,22.72417],[91.32222,22.72472],[91.3225,22.72472]]],[[[91.34885,22.89972],[91.35448,22.89279],[91.35654,22.88842],[91.35423,22.88613],[91.34843,22.8873],[91.34608,22.8797],[91.33964,22.87711],[91.33676,22.87755],[91.33406,22.87641],[91.33139,22.87384],[91.33317,22.87101],[91.33758,22.86887],[91.33842,22.8668],[91.34038,22.86497],[91.34671,22.86169],[91.3479,22.86057],[91.34783,22.85916],[91.35,22.85749],[91.35312,22.85862],[91.35529,22.85736],[91.35609,22.85574],[91.35377,22.85475],[91.35249,22.85225],[91.35126,22.85219],[91.35109,22.84948],[91.35465,22.84618],[91.35503,22.8447],[91.3483,22.84461],[91.3464,22.84315],[91.3402,22.84219],[91.33642,22.83854],[91.33572,22.83479],[91.33886,22.83319],[91.34116,22.83079],[91.33849,22.82127],[91.33981,22.81398],[91.34069,22.81299],[91.341,22.80992],[91.34032,22.80831],[91.33279,22.8126],[91.32979,22.81124],[91.317,22.81194],[91.31512,22.81093],[91.31292,22.80688],[91.31285,22.80208],[91.32213,22.79546],[91.3259,22.79114],[91.33947,22.78108],[91.34141,22.781],[91.36889,22.76861],[91.37334,22.76806],[91.375,22.76694],[91.37889,22.76611],[91.38695,22.76639],[91.38889,22.76417],[91.39,22.76083],[91.38639,22.75278],[91.375,22.74833],[91.37334,22.74889],[91.36889,22.74778],[91.36639,22.74861],[91.35722,22.74861],[91.35639,22.74945],[91.35416,22.74972],[91.35167,22.74916],[91.34611,22.75111],[91.34306,22.75083],[91.34278,22.75167],[91.33833,22.75083],[91.32667,22.75056],[91.32166,22.74861],[91.32083,22.74917],[91.31555,22.74778],[91.30722,22.74472],[91.305,22.74611],[91.30305,22.74889],[91.30139,22.74861],[91.29972,22.74972],[91.29778,22.74889],[91.29556,22.75083],[91.29278,22.75139],[91.29083,22.75],[91.28889,22.75],[91.28722,22.75111],[91.28917,22.7525],[91.28722,22.75529],[91.28445,22.75139],[91.28278,22.7525],[91.2775,22.75194],[91.27639,22.75056],[91.27583,22.74778],[91.27389,22.74667],[91.27194,22.74833],[91.2725,22.75333],[91.27167,22.75583],[91.27306,22.7575],[91.27139,22.75945],[91.26972,22.75833],[91.27055,22.75445],[91.25516,22.75322],[91.25922,22.75822],[91.26073,22.76388],[91.26044,22.76564],[91.25082,22.77464],[91.24825,22.77519],[91.24772,22.77719],[91.24971,22.77932],[91.24688,22.78095],[91.24442,22.78098],[91.24334,22.78176],[91.24241,22.78614],[91.23925,22.78886],[91.23875,22.79281],[91.24085,22.803],[91.24323,22.80873],[91.24849,22.828],[91.24509,22.83547],[91.24678,22.83632],[91.2468,22.83829],[91.24269,22.8402],[91.24069,22.84429],[91.23772,22.86249],[91.23711,22.8689],[91.23807,22.87147],[91.23995,22.87236],[91.24236,22.87544],[91.24439,22.87554],[91.24576,22.8777],[91.24541,22.87941],[91.24767,22.88193],[91.2521,22.88188],[91.2556,22.88328],[91.25919,22.88197],[91.26378,22.88287],[91.26687,22.87999],[91.269,22.87929],[91.27092,22.88108],[91.27291,22.8878],[91.27937,22.88702],[91.28104,22.89237],[91.28281,22.89519],[91.28539,22.89628],[91.29362,22.8927],[91.2997,22.89214],[91.30671,22.89347],[91.31396,22.90061],[91.32023,22.89705],[91.32542,22.89912],[91.32823,22.89839],[91.33147,22.9021],[91.33537,22.90294],[91.33916,22.90523],[91.34304,22.91044],[91.34668,22.90592],[91.3484,22.90205],[91.34885,22.89972]]]]}},{"type":"Feature","properties":{"name":"Hatiya","district_id":"noakhali","pcode":"207594","sql_upazila_id":"noakhali-hatia","sql_name_bn":"হাতিয়া"},"geometry":{"type":"MultiPolygon","coordinates":[[[[90.95312,22.01445],[90.95395,22.01332],[90.95222,22.01358],[90.95194,22.01445],[90.95312,22.01445]]],[[[90.95307,22.03084],[90.95336,22.02971],[90.95224,22.0275],[90.9531,22.02778],[90.95336,22.02636],[90.94973,22.02359],[90.95058,22.02611],[90.95139,22.02611],[90.95111,22.02777],[90.95194,22.02807],[90.95277,22.03084],[90.95307,22.03084]]],[[[90.95925,22.03067],[90.9622,22.02892],[90.95975,22.02852],[90.95969,22.02913],[90.95559,22.02986],[90.95609,22.03308],[90.95703,22.03395],[90.95775,22.03288],[90.9594,22.03261],[90.95825,22.0316],[90.95969,22.0308],[90.95925,22.03067]]],[[[90.96252,22.0364],[90.96365,22.03529],[90.96559,22.03585],[90.96558,22.03415],[90.96584,22.03471],[90.9675,22.03446],[90.9681,22.03556],[90.96975,22.03139],[90.96778,22.03026],[90.96333,22.03332],[90.96111,22.0336],[90.96223,22.0364],[90.96252,22.0364]]],[[[90.96112,22.03844],[90.96026,22.03877],[90.96191,22.04105],[90.96234,22.03958],[90.96141,22.03884],[90.96112,22.03844]]],[[[91.08056,22.065],[91.08361,22.06389],[91.08583,22.06111],[91.08556,22.05778],[91.08278,22.05472],[91.08556,22.05361],[91.08611,22.05222],[91.08528,22.05056],[91.08278,22.04807],[91.08139,22.04889],[91.07833,22.04694],[91.07667,22.04807],[91.07554,22.04778],[91.06972,22.04028],[91.06944,22.03861],[91.06555,22.03639],[91.06194,22.03111],[91.06056,22.0325],[91.05833,22.03083],[91.06111,22.02917],[91.06084,22.02806],[91.05833,22.02722],[91.05556,22.02833],[91.05473,22.0275],[91.055,22.02639],[91.05666,22.025],[91.05444,22.02389],[91.0525,22.02417],[91.05111,22.02639],[91.05278,22.03],[91.05222,22.03139],[91.05278,22.03583],[91.05334,22.03695],[91.05611,22.03695],[91.05695,22.03861],[91.05833,22.03778],[91.05917,22.03861],[91.05833,22.04],[91.05666,22.04056],[91.05695,22.04611],[91.05805,22.04722],[91.05778,22.04889],[91.05639,22.05028],[91.05778,22.05305],[91.05722,22.05445],[91.05778,22.05778],[91.06085,22.05778],[91.06333,22.06],[91.06333,22.06083],[91.06861,22.06222],[91.06944,22.06307],[91.08,22.065],[91.08056,22.065]]],[[[91.00056,22.09083],[91.01167,22.08583],[91.02194,22.08306],[91.02417,22.08083],[91.03056,22.07055],[91.02722,22.06889],[91.02749,22.06694],[91.02611,22.06582],[91.02917,22.06278],[91.02778,22.06167],[91.02695,22.05944],[91.02333,22.05667],[91.02695,22.05611],[91.02722,22.05278],[91.0175,22.04445],[91.01583,22.04083],[91.01167,22.03611],[91.01222,22.03444],[91.01139,22.03305],[91.00861,22.03194],[91.00333,22.02667],[91.00111,22.02583],[90.99917,22.02611],[90.99167,22.02139],[90.98861,22.02139],[90.98361,22.02417],[90.97778,22.03027],[90.97829,22.03154],[90.97643,22.03663],[90.9764,22.03972],[90.97444,22.04361],[90.97389,22.04861],[90.97472,22.05028],[90.97417,22.05111],[90.97778,22.05388],[90.97889,22.05667],[90.97861,22.06],[90.97972,22.06111],[90.98,22.06444],[90.97944,22.065],[90.98022,22.06749],[90.98278,22.07194],[90.98528,22.07444],[90.98659,22.07827],[90.98974,22.08215],[90.99167,22.08639],[90.99611,22.09],[91,22.09083],[91.00056,22.09083]]],[[[91.0119,22.0994],[91.01392,22.09893],[91.0132,22.09753],[91.01427,22.09746],[91.01485,22.09639],[91.01628,22.09686],[91.01909,22.09619],[91.01808,22.09398],[91.01736,22.09438],[91.01772,22.09599],[91.01644,22.09572],[91.01679,22.09377],[91.01149,22.09495],[91.01025,22.09592],[91.01103,22.10355],[91.01247,22.10435],[91.01463,22.10301],[91.01189,22.10168],[91.0119,22.09967],[91.0119,22.0994]]],[[[91.15056,22.13194],[91.15,22.1325],[91.15139,22.135],[91.15111,22.13667],[91.15334,22.13667],[91.15334,22.13556],[91.15056,22.13222],[91.15056,22.13194]]],[[[91.0061,22.14748],[91.00327,22.14034],[91.00266,22.14155],[91.00416,22.14701],[91.0073,22.15331],[91.0061,22.14875],[91.0061,22.14748]]],[[[91.00099,22.16063],[91.00283,22.16015],[91.00117,22.15787],[91.00074,22.15546],[90.99886,22.15619],[90.99879,22.15815],[91.00031,22.16061],[91.00099,22.16063]]],[[[91.02278,22.26083],[91.02139,22.2575],[91.01861,22.25611],[91.02084,22.25361],[91.01806,22.24583],[91.01806,22.24333],[91.01527,22.24083],[91.01417,22.23806],[91.01139,22.23611],[91.00945,22.23889],[91.0075,22.25194],[91.01,22.25389],[91.01278,22.25805],[91.01583,22.25667],[91.0175,22.25833],[91.0175,22.26056],[91.01889,22.26167],[91.02222,22.26917],[91.02139,22.27111],[91.02168,22.27417],[91.02278,22.27362],[91.02361,22.27167],[91.02389,22.26722],[91.02306,22.26111],[91.02278,22.26083]]],[[[91.02889,22.31583],[91.03055,22.31556],[91.03362,22.31139],[91.035,22.30083],[91.03416,22.29667],[91.03167,22.29278],[91.02778,22.28361],[91.02695,22.27861],[91.02472,22.27667],[91.02194,22.28],[91.0225,22.28083],[91.02084,22.28279],[91.02055,22.28583],[91.01917,22.28806],[91.01639,22.305],[91.01861,22.30778],[91.025,22.31194],[91.02889,22.31583]]],[[[91.01305,22.33611],[91.02834,22.32083],[91.02639,22.3175],[91.02028,22.31056],[91.01472,22.30806],[91.00861,22.31833],[91.0075,22.325],[91.01028,22.32944],[91.01111,22.33333],[91.01278,22.33611],[91.01305,22.33611]]],[[[91.00945,22.33889],[91.01111,22.3375],[91.01111,22.33528],[91.00916,22.33167],[91.00861,22.32889],[91.00777,22.32833],[91.00611,22.3339],[91.00723,22.33778],[91.00889,22.33889],[91.00945,22.33889]]],[[[91.05695,22.35944],[91.05583,22.35695],[91.05443,22.35667],[91.05139,22.35944],[91.05139,22.36082],[91.05305,22.36278],[91.05611,22.36306],[91.05666,22.35972],[91.05695,22.35944]]],[[[91.0425,22.37306],[91.04389,22.37111],[91.04694,22.3625],[91.05527,22.35389],[91.05361,22.34611],[91.04945,22.34222],[91.04083,22.33805],[91.04028,22.33639],[91.03668,22.33583],[91.03722,22.33778],[91.03639,22.33805],[91.03445,22.33583],[91.03222,22.33556],[91.02805,22.33861],[91.02834,22.33945],[91.02722,22.34111],[91.01945,22.34972],[91.01806,22.35306],[91.02194,22.35778],[91.025,22.35944],[91.02917,22.36333],[91.0325,22.36889],[91.03694,22.37307],[91.04028,22.37417],[91.04249,22.37333],[91.0425,22.37306]]],[[[91.04833,22.37917],[91.05194,22.37611],[91.05334,22.37583],[91.05666,22.37194],[91.05695,22.36667],[91.05583,22.36444],[91.05222,22.36361],[91.05028,22.36139],[91.04806,22.36333],[91.04556,22.36972],[91.04556,22.37167],[91.04333,22.37444],[91.04417,22.37639],[91.04667,22.37889],[91.04806,22.37917],[91.04833,22.37917]]],[[[91.07027,22.42694],[91.07445,22.42472],[91.07722,22.42417],[91.08,22.42139],[91.08444,22.41945],[91.08556,22.41806],[91.08833,22.41694],[91.09,22.41722],[91.09222,22.41583],[91.09333,22.41611],[91.09389,22.41472],[91.09528,22.41417],[91.09666,22.41444],[91.09889,22.41306],[91.10028,22.41361],[91.10611,22.41083],[91.10778,22.41111],[91.11028,22.40944],[91.11471,22.40889],[91.12222,22.405],[91.12861,22.40306],[91.13055,22.40111],[91.13084,22.39611],[91.13,22.39361],[91.13167,22.38944],[91.13223,22.38501],[91.13472,22.38278],[91.13667,22.37889],[91.13834,22.37806],[91.13861,22.37694],[91.145,22.3725],[91.14917,22.36778],[91.15278,22.36555],[91.15972,22.35139],[91.16111,22.34639],[91.16028,22.34361],[91.16111,22.33778],[91.16695,22.32333],[91.17139,22.31611],[91.18389,22.30111],[91.18777,22.29417],[91.18833,22.2886],[91.19167,22.28528],[91.19139,22.28194],[91.19222,22.28],[91.19167,22.2775],[91.19278,22.27362],[91.19222,22.27278],[91.19334,22.27139],[91.19389,22.26861],[91.19278,22.26443],[91.19278,22.26222],[91.19389,22.26083],[91.19167,22.25778],[91.19167,22.25472],[91.19417,22.24278],[91.19389,22.23972],[91.19222,22.23667],[91.19111,22.23195],[91.18806,22.22778],[91.18611,22.22305],[91.18389,22.21361],[91.18111,22.20917],[91.17805,22.20694],[91.17639,22.20333],[91.17667,22.19889],[91.17528,22.19639],[91.17639,22.19221],[91.17472,22.19],[91.17195,22.19306],[91.16944,22.19167],[91.16917,22.18722],[91.16778,22.185],[91.16972,22.18334],[91.16861,22.18222],[91.16889,22.17861],[91.16722,22.16917],[91.16556,22.16694],[91.16167,22.16611],[91.15945,22.16417],[91.15722,22.16472],[91.15611,22.16361],[91.15278,22.15917],[91.15472,22.15722],[91.15417,22.15333],[91.15195,22.15167],[91.15,22.15167],[91.14778,22.14917],[91.1475,22.1475],[91.14445,22.14528],[91.14417,22.14389],[91.14278,22.14389],[91.14111,22.14611],[91.13972,22.14528],[91.13805,22.14556],[91.1375,22.14444],[91.13917,22.14],[91.13861,22.13944],[91.13917,22.1375],[91.13611,22.13028],[91.13361,22.12778],[91.13084,22.1275],[91.12778,22.125],[91.12639,22.12555],[91.12527,22.125],[91.12417,22.12611],[91.12361,22.12555],[91.11861,22.12583],[91.11444,22.12194],[91.10778,22.11833],[91.10639,22.11639],[91.10445,22.11555],[91.10333,22.11611],[91.09778,22.11],[91.09556,22.10944],[91.09279,22.10507],[91.08694,22.10056],[91.08166,22.09389],[91.08083,22.09417],[91.07861,22.09167],[91.07472,22.09139],[91.07277,22.0903],[91.06139,22.07944],[91.05805,22.07722],[91.05389,22.08278],[91.04639,22.08667],[91.03611,22.08999],[91.02084,22.10056],[91.01472,22.10778],[91.01417,22.11333],[91.01611,22.115],[91.01722,22.1175],[91.01722,22.11917],[91.01806,22.12],[91.01722,22.12083],[91.0175,22.12167],[91.03139,22.14444],[91.03833,22.15972],[91.04139,22.16861],[91.05194,22.18806],[91.05583,22.19972],[91.05666,22.20472],[91.06194,22.21778],[91.0625,22.22361],[91.06834,22.24722],[91.06834,22.25917],[91.0675,22.26083],[91.06778,22.26528],[91.06667,22.27195],[91.06695,22.28056],[91.06611,22.28194],[91.06639,22.28972],[91.06555,22.29222],[91.06639,22.29417],[91.06583,22.29611],[91.06639,22.30167],[91.06528,22.30639],[91.06583,22.31694],[91.06472,22.32917],[91.065,22.33333],[91.06722,22.33861],[91.06889,22.34611],[91.06861,22.35167],[91.06944,22.3525],[91.07027,22.35667],[91.07,22.36056],[91.07139,22.36611],[91.07027,22.36861],[91.07111,22.37167],[91.07027,22.37889],[91.07111,22.37944],[91.07056,22.3825],[91.06944,22.38305],[91.07,22.38528],[91.06834,22.3925],[91.06889,22.40028],[91.06834,22.40612],[91.06889,22.40667],[91.06778,22.41389],[91.06805,22.4175],[91.06722,22.42],[91.0675,22.42333],[91.06889,22.42472],[91.06805,22.42583],[91.06917,22.42694],[91.07027,22.42694]]],[[[91.05,22.43417],[91.05,22.43333],[91.04889,22.43278],[91.0475,22.43389],[91.05028,22.43806],[91.05139,22.43722],[91.05083,22.435],[91.05,22.43417]]],[[[90.96611,22.44667],[90.96888,22.44564],[90.96888,22.44457],[90.9675,22.44361],[90.96833,22.44278],[90.9675,22.43889],[90.96944,22.42917],[90.96861,22.42611],[90.96611,22.42389],[90.965,22.42444],[90.95834,22.42389],[90.95417,22.425],[90.94945,22.43333],[90.94945,22.43583],[90.9475,22.43917],[90.95333,22.44389],[90.96194,22.44472],[90.96555,22.44667],[90.96611,22.44667]]],[[[91.01945,22.45945],[91.02028,22.45833],[91.02361,22.45778],[91.02861,22.455],[91.03611,22.4525],[91.04305,22.44695],[91.04723,22.44223],[91.045,22.4225],[91.04556,22.41417],[91.04472,22.41195],[91.03917,22.40722],[91.04,22.40639],[91.03943,22.40556],[91.03584,22.40612],[91.02834,22.41028],[91.02695,22.41028],[91.02444,22.41278],[91.02084,22.42056],[91.02028,22.42112],[91.01945,22.42056],[91.02306,22.4125],[91.02639,22.40861],[91.04042,22.40285],[91.03722,22.38861],[91.03333,22.37944],[91.03139,22.37778],[91.02611,22.36944],[91.0225,22.36555],[91.01583,22.36278],[91.00972,22.36472],[91.00889,22.36389],[91.005,22.3675],[91.00361,22.37167],[91.0025,22.37278],[91.00195,22.375],[91.0025,22.37611],[91.00166,22.37694],[91.00195,22.37833],[91.00083,22.38083],[91.00083,22.38445],[90.99833,22.39076],[90.99194,22.41417],[90.9928,22.41908],[90.99245,22.42494],[90.98834,22.4404],[90.98837,22.445],[90.98898,22.45061],[90.99167,22.45472],[90.99591,22.4552],[90.99805,22.45667],[91.00361,22.45833],[91.0075,22.45833],[91.01083,22.45945],[91.01305,22.45806],[91.01556,22.45945],[91.01694,22.45889],[91.01889,22.45945],[91.01945,22.45945]]],[[[90.88111,22.49861],[90.87889,22.49667],[90.87583,22.49917],[90.875,22.50056],[90.87527,22.50194],[90.87778,22.50389],[90.88194,22.49917],[90.88139,22.49861],[90.88111,22.49861]]],[[[90.88194,22.50611],[90.88722,22.50472],[90.89194,22.50167],[90.8925,22.49722],[90.89083,22.495],[90.88834,22.49417],[90.88472,22.49722],[90.88306,22.50306],[90.88084,22.505],[90.88139,22.50611],[90.88194,22.50611]]],[[[90.87334,22.50861],[90.875,22.5075],[90.875,22.50611],[90.87222,22.50556],[90.87028,22.50694],[90.87055,22.50833],[90.87305,22.50861],[90.87334,22.50861]]],[[[90.98611,22.53695],[90.98411,22.53792],[90.9842,22.54087],[90.98563,22.54259],[90.98659,22.54194],[90.98657,22.54078],[90.98805,22.54],[90.98666,22.53889],[90.98639,22.53722],[90.98611,22.53695]]],[[[90.85445,22.58945],[90.85861,22.58556],[90.86723,22.58],[90.87722,22.57583],[90.89,22.57333],[90.89889,22.57333],[90.91417,22.575],[90.92167,22.5725],[90.92083,22.57083],[90.92111,22.56944],[90.92389,22.56667],[90.92805,22.56424],[90.93111,22.56111],[90.93417,22.56056],[90.94833,22.54972],[90.95528,22.54694],[90.95722,22.54445],[90.9575,22.54333],[90.95639,22.5425],[90.95389,22.54222],[90.94639,22.53889],[90.94389,22.53667],[90.94389,22.53583],[90.94639,22.53555],[90.94945,22.53889],[90.95805,22.54194],[90.95944,22.54028],[90.96083,22.54028],[90.97139,22.52944],[90.97444,22.52722],[90.97806,22.5225],[90.97945,22.51861],[90.98666,22.50972],[90.98722,22.50805],[90.98639,22.505],[90.97472,22.49944],[90.96639,22.49778],[90.95194,22.49222],[90.9475,22.49139],[90.94527,22.49222],[90.94334,22.49417],[90.94361,22.49528],[90.94222,22.49806],[90.94473,22.50361],[90.94417,22.51056],[90.94278,22.51194],[90.9425,22.5075],[90.94334,22.50361],[90.93972,22.49861],[90.94195,22.49361],[90.94111,22.49195],[90.93555,22.49],[90.92834,22.49028],[90.92389,22.4925],[90.92167,22.49472],[90.91861,22.49556],[90.91306,22.5],[90.91583,22.50778],[90.91528,22.50917],[90.91444,22.50889],[90.9125,22.50306],[90.91084,22.50167],[90.90195,22.50778],[90.89806,22.5125],[90.89722,22.5125],[90.88389,22.52306],[90.88028,22.5275],[90.87444,22.53028],[90.86333,22.54222],[90.85861,22.54528],[90.85806,22.54694],[90.86056,22.55056],[90.86007,22.55084],[90.85799,22.54888],[90.85694,22.54909],[90.84666,22.55917],[90.84139,22.56584],[90.83972,22.56917],[90.83833,22.56694],[90.83778,22.5675],[90.83861,22.57083],[90.83806,22.575],[90.83889,22.57639],[90.85333,22.58945],[90.85445,22.58945]]]]}},{"type":"Feature","properties":{"name":"Noakhali S.","district_id":"noakhali","pcode":"207595","sql_upazila_id":null,"sql_name_bn":null},"geometry":{"type":"MultiPolygon","coordinates":[[[[91.29472,22.3925],[91.29361,22.39333],[91.29361,22.39611],[91.29472,22.39611],[91.29417,22.39418],[91.29611,22.39333],[91.29472,22.39278],[91.29472,22.3925]]],[[[91.25861,22.43556],[91.26139,22.43444],[91.26667,22.42945],[91.26833,22.42444],[91.26694,22.42028],[91.26722,22.41806],[91.26639,22.41639],[91.26694,22.41444],[91.26611,22.41333],[91.26694,22.41167],[91.26527,22.40917],[91.26556,22.40667],[91.26389,22.40361],[91.26083,22.40306],[91.25611,22.40361],[91.24944,22.40972],[91.24861,22.40944],[91.24695,22.41111],[91.24723,22.41195],[91.24555,22.41444],[91.24445,22.41917],[91.24277,22.42111],[91.24333,22.42306],[91.24194,22.42444],[91.24944,22.43361],[91.2525,22.43556],[91.25806,22.43611],[91.25861,22.43556]]],[[[91.27778,22.45157],[91.27986,22.4513],[91.28669,22.4456],[91.29131,22.43902],[91.29088,22.43795],[91.29504,22.4346],[91.29559,22.43184],[91.29343,22.42822],[91.28841,22.42665],[91.2831,22.42832],[91.27022,22.44453],[91.26909,22.44487],[91.26865,22.44721],[91.27045,22.44775],[91.27246,22.44996],[91.27699,22.45184],[91.27778,22.45157]]],[[[91.17667,22.51222],[91.17889,22.51083],[91.18389,22.50972],[91.19278,22.50611],[91.19417,22.50389],[91.19389,22.50278],[91.19527,22.50167],[91.19527,22.50028],[91.1925,22.49611],[91.19028,22.49583],[91.18861,22.49306],[91.18695,22.49306],[91.18639,22.49167],[91.18083,22.4875],[91.17694,22.48306],[91.17583,22.48389],[91.17306,22.4825],[91.17028,22.48056],[91.17028,22.47972],[91.16222,22.47472],[91.16055,22.47278],[91.14917,22.46889],[91.14584,22.46694],[91.14333,22.4675],[91.14,22.46639],[91.13917,22.46722],[91.13722,22.46722],[91.13528,22.46556],[91.13,22.46556],[91.12917,22.46722],[91.12694,22.46861],[91.12444,22.46667],[91.12222,22.46639],[91.12111,22.4675],[91.12055,22.46944],[91.12195,22.47139],[91.12305,22.47167],[91.12417,22.47527],[91.12722,22.4775],[91.12861,22.48],[91.12971,22.47944],[91.13389,22.48111],[91.13834,22.485],[91.13834,22.48611],[91.13695,22.48611],[91.13639,22.48694],[91.14,22.48944],[91.14056,22.49111],[91.15028,22.50139],[91.15389,22.50333],[91.15694,22.50333],[91.17,22.50805],[91.17639,22.51222],[91.17667,22.51222]]],[[[91.0525,22.51556],[91.05527,22.51361],[91.05695,22.51],[91.06111,22.50639],[91.065,22.49861],[91.06917,22.49417],[91.06889,22.49278],[91.07111,22.49083],[91.07195,22.48778],[91.06972,22.48861],[91.07139,22.48639],[91.07083,22.48389],[91.06972,22.48278],[91.06889,22.4825],[91.06528,22.48472],[91.06277,22.49278],[91.06028,22.49639],[91.05611,22.5],[91.05611,22.50194],[91.055,22.50333],[91.05417,22.50722],[91.05,22.51278],[91.05111,22.51556],[91.0525,22.51556]]],[[[91.19055,22.52083],[91.20167,22.51889],[91.20444,22.51194],[91.20333,22.50861],[91.20055,22.505],[91.19722,22.50472],[91.19195,22.50861],[91.18555,22.51111],[91.17973,22.51222],[91.1775,22.51361],[91.18694,22.51972],[91.19028,22.52056],[91.19055,22.52083]]],[[[91.13556,22.54083],[91.13917,22.53611],[91.14361,22.53361],[91.14528,22.53389],[91.14889,22.53722],[91.15111,22.53695],[91.15361,22.53444],[91.15388,22.52833],[91.14806,22.51889],[91.14778,22.51722],[91.14944,22.51361],[91.14917,22.51194],[91.14694,22.50972],[91.14472,22.50917],[91.14472,22.50778],[91.13917,22.50194],[91.13778,22.50194],[91.13639,22.50361],[91.13445,22.50306],[91.13278,22.50111],[91.13223,22.49833],[91.13084,22.49778],[91.13,22.49861],[91.13084,22.5],[91.12917,22.50083],[91.12778,22.49861],[91.12639,22.49889],[91.12222,22.49444],[91.12083,22.49472],[91.11028,22.48306],[91.10554,22.48],[91.09805,22.47221],[91.09333,22.46361],[91.09389,22.46278],[91.09139,22.46],[91.085,22.45833],[91.08139,22.46027],[91.08,22.46166],[91.08083,22.46528],[91.08,22.46833],[91.0825,22.47111],[91.08166,22.47333],[91.08361,22.47667],[91.08166,22.47889],[91.0825,22.48],[91.08305,22.47972],[91.08222,22.48222],[91.08361,22.48861],[91.08222,22.49083],[91.08889,22.51138],[91.08972,22.51167],[91.09167,22.51778],[91.09834,22.52417],[91.1025,22.52695],[91.105,22.5275],[91.11083,22.53167],[91.11723,22.53861],[91.12361,22.53667],[91.12778,22.53667],[91.13084,22.53889],[91.13167,22.54306],[91.13277,22.54472],[91.13556,22.54111],[91.13556,22.54083]]],[[[91.30695,22.56417],[91.31084,22.56361],[91.31389,22.56167],[91.31333,22.56056],[91.31583,22.55722],[91.31528,22.55583],[91.31583,22.55333],[91.315,22.5525],[91.31695,22.55083],[91.31695,22.54972],[91.315,22.54528],[91.31361,22.54389],[91.31389,22.54222],[91.31277,22.53917],[91.31194,22.53778],[91.31055,22.53806],[91.30751,22.53555],[91.30695,22.53361],[91.305,22.53222],[91.305,22.53056],[91.3025,22.52778],[91.30139,22.52555],[91.30194,22.52444],[91.29806,22.52056],[91.29639,22.5175],[91.29361,22.51528],[91.29305,22.51306],[91.28361,22.50306],[91.28389,22.50221],[91.28222,22.49889],[91.28111,22.49806],[91.27944,22.49917],[91.27721,22.4964],[91.27611,22.49639],[91.27389,22.49861],[91.27417,22.49944],[91.27111,22.50194],[91.2714,22.50306],[91.26917,22.50333],[91.26527,22.5075],[91.27139,22.52528],[91.27972,22.54139],[91.28639,22.55222],[91.29389,22.55806],[91.30138,22.55972],[91.30611,22.56333],[91.30695,22.56417]]],[[[91.27666,22.58583],[91.27389,22.58306],[91.27222,22.57583],[91.26945,22.57417],[91.26833,22.57583],[91.26833,22.57778],[91.27444,22.58778],[91.27611,22.59333],[91.27778,22.59389],[91.27861,22.59194],[91.27778,22.58805],[91.27666,22.58722],[91.27666,22.58583]]],[[[91.2692,22.62581],[91.27201,22.62675],[91.27778,22.62667],[91.28083,22.62806],[91.28445,22.62528],[91.285,22.62417],[91.28389,22.62277],[91.28389,22.61639],[91.2825,22.61444],[91.28194,22.61278],[91.2825,22.61139],[91.28167,22.61056],[91.28333,22.60917],[91.28306,22.60611],[91.28389,22.60361],[91.28167,22.60222],[91.28194,22.60028],[91.27944,22.59639],[91.275,22.59528],[91.27444,22.59278],[91.27306,22.59139],[91.27306,22.58805],[91.27111,22.58639],[91.26833,22.58],[91.265,22.57583],[91.2625,22.57972],[91.26167,22.58389],[91.26,22.58528],[91.25777,22.59028],[91.24973,22.59917],[91.24889,22.60166],[91.2475,22.60306],[91.2475,22.60417],[91.24917,22.605],[91.24695,22.60639],[91.24583,22.61028],[91.24722,22.61389],[91.24944,22.615],[91.25056,22.61696],[91.26337,22.62905],[91.2675,22.62972],[91.26791,22.62661],[91.26884,22.62628],[91.2692,22.62581]]],[[[91.09237,22.88399],[91.09581,22.8837],[91.1006,22.88472],[91.10212,22.88597],[91.10641,22.88571],[91.10902,22.88273],[91.11173,22.88128],[91.11202,22.87907],[91.12586,22.8754],[91.12856,22.87673],[91.14037,22.87942],[91.152,22.87737],[91.15395,22.87866],[91.15706,22.87776],[91.17059,22.88028],[91.17549,22.87954],[91.17686,22.87192],[91.18829,22.87303],[91.19142,22.87416],[91.19311,22.8732],[91.19497,22.87041],[91.19839,22.8682],[91.20195,22.87254],[91.20135,22.87443],[91.20311,22.87702],[91.22173,22.88043],[91.22877,22.88074],[91.23807,22.87147],[91.23711,22.8689],[91.23772,22.86249],[91.24123,22.84223],[91.24269,22.8402],[91.2468,22.83829],[91.24678,22.83632],[91.24509,22.83547],[91.24849,22.828],[91.24323,22.80873],[91.24085,22.803],[91.23875,22.79281],[91.23925,22.78886],[91.24241,22.78614],[91.24334,22.78176],[91.24442,22.78098],[91.24688,22.78095],[91.24971,22.77932],[91.24772,22.77719],[91.24825,22.77519],[91.25082,22.77464],[91.26044,22.76564],[91.26073,22.76388],[91.25922,22.75822],[91.25516,22.75322],[91.27055,22.75445],[91.27111,22.7525],[91.26861,22.74889],[91.27028,22.74583],[91.2714,22.74667],[91.27333,22.74444],[91.27556,22.74444],[91.27834,22.74694],[91.27805,22.74778],[91.27889,22.74861],[91.28222,22.75],[91.28694,22.7475],[91.28833,22.74806],[91.29083,22.745],[91.29639,22.74528],[91.29894,22.74107],[91.28874,22.73135],[91.28722,22.72833],[91.285,22.72667],[91.2825,22.72305],[91.28027,22.71722],[91.27333,22.70695],[91.25806,22.69555],[91.25667,22.69667],[91.25472,22.70056],[91.25278,22.70083],[91.25195,22.70194],[91.24889,22.70139],[91.24,22.70722],[91.23722,22.70972],[91.23722,22.71139],[91.235,22.71222],[91.23444,22.71333],[91.235,22.71639],[91.22667,22.72056],[91.22528,22.71972],[91.22111,22.71194],[91.21639,22.71167],[91.21306,22.71445],[91.21139,22.71944],[91.21,22.71944],[91.20944,22.7175],[91.20834,22.71722],[91.20722,22.71889],[91.20722,22.72083],[91.20528,22.72222],[91.20583,22.72445],[91.19918,22.73056],[91.19556,22.73195],[91.19444,22.73139],[91.19334,22.73195],[91.18972,22.73083],[91.18695,22.7275],[91.1875,22.72667],[91.19195,22.72778],[91.19389,22.72972],[91.19861,22.72833],[91.20193,22.72499],[91.20222,22.72194],[91.20417,22.72083],[91.20472,22.71889],[91.20639,22.7175],[91.2075,22.71167],[91.20889,22.70999],[91.20835,22.70861],[91.21222,22.70444],[91.21389,22.70418],[91.21528,22.70528],[91.215,22.70639],[91.21584,22.70722],[91.2175,22.7075],[91.21944,22.70611],[91.22528,22.70611],[91.23028,22.70389],[91.23083,22.70444],[91.23361,22.70418],[91.23417,22.70361],[91.23361,22.7025],[91.23417,22.69695],[91.24194,22.68722],[91.24389,22.68306],[91.24028,22.68028],[91.23666,22.68028],[91.23167,22.68528],[91.22972,22.68389],[91.22916,22.68139],[91.23111,22.68278],[91.23666,22.67778],[91.24306,22.67945],[91.24445,22.67833],[91.24667,22.68028],[91.25139,22.67945],[91.25389,22.68028],[91.26167,22.67361],[91.26389,22.66528],[91.26556,22.66611],[91.27028,22.65972],[91.27333,22.65722],[91.27306,22.65584],[91.275,22.65306],[91.27417,22.65222],[91.27472,22.65139],[91.27417,22.64639],[91.27222,22.64417],[91.27333,22.64361],[91.27333,22.6425],[91.27639,22.64084],[91.27861,22.64167],[91.28139,22.63833],[91.27889,22.63667],[91.27778,22.63417],[91.27556,22.63333],[91.27,22.63583],[91.26694,22.63389],[91.26305,22.63417],[91.26139,22.63305],[91.25639,22.62556],[91.25027,22.61973],[91.24973,22.61833],[91.24472,22.61555],[91.24528,22.61472],[91.24361,22.61167],[91.24417,22.61083],[91.24361,22.60861],[91.24722,22.60167],[91.24834,22.5975],[91.25389,22.59278],[91.25333,22.59083],[91.25611,22.58945],[91.26,22.58361],[91.25806,22.58028],[91.25917,22.57944],[91.26083,22.58056],[91.26139,22.5775],[91.26334,22.57525],[91.26361,22.56806],[91.26334,22.56694],[91.26111,22.56528],[91.26083,22.56389],[91.25806,22.5625],[91.25555,22.55917],[91.25278,22.55833],[91.24917,22.55389],[91.24472,22.55167],[91.24111,22.55167],[91.23778,22.55417],[91.23529,22.55417],[91.23,22.55694],[91.22916,22.55611],[91.23,22.55445],[91.22945,22.55305],[91.22,22.55016],[91.21528,22.54667],[91.21167,22.54528],[91.20917,22.54278],[91.20835,22.54306],[91.20028,22.54],[91.18999,22.53306],[91.18833,22.53028],[91.18083,22.52417],[91.18,22.525],[91.17805,22.52278],[91.17639,22.52361],[91.17416,22.52139],[91.17139,22.52167],[91.16666,22.51944],[91.16444,22.52139],[91.15889,22.52194],[91.155,22.52417],[91.155,22.52722],[91.15667,22.52945],[91.15722,22.53278],[91.15806,22.53361],[91.15889,22.53306],[91.15972,22.53361],[91.16139,22.53222],[91.1625,22.53278],[91.15833,22.5375],[91.15305,22.54083],[91.15028,22.54],[91.14278,22.53472],[91.14,22.5375],[91.13972,22.53917],[91.13695,22.54139],[91.13445,22.54722],[91.13445,22.54972],[91.13639,22.55362],[91.13584,22.55583],[91.13277,22.55861],[91.12766,22.55907],[91.12442,22.56054],[91.12195,22.56304],[91.12152,22.56249],[91.12329,22.56017],[91.12971,22.55722],[91.13277,22.55722],[91.13377,22.55537],[91.13194,22.55111],[91.12889,22.54749],[91.12971,22.54639],[91.12889,22.54306],[91.12917,22.53944],[91.12833,22.53861],[91.12665,22.53917],[91.12527,22.53806],[91.11777,22.54028],[91.11333,22.53945],[91.11166,22.53583],[91.10778,22.53139],[91.10528,22.53111],[91.10194,22.52806],[91.09722,22.52611],[91.09,22.52028],[91.0825,22.50417],[91.0775,22.49833],[91.07333,22.5],[91.06861,22.50583],[91.06666,22.50972],[91.06389,22.5125],[91.06361,22.51417],[91.05626,22.52124],[91.05486,22.52394],[91.04945,22.52972],[91.04417,22.53139],[91.03222,22.54028],[91.02972,22.54389],[91.01583,22.55806],[91.01083,22.56528],[91.00369,22.57242],[91.00246,22.58206],[91.00351,22.58909],[91.00198,22.59406],[90.99957,22.59697],[90.99822,22.6055],[90.99557,22.6083],[90.99399,22.61373],[90.99201,22.6152],[90.99009,22.61963],[90.9842,22.62497],[90.98253,22.62803],[90.97821,22.63259],[90.9748,22.63502],[90.97361,22.63789],[90.97443,22.64165],[90.98138,22.65317],[90.98443,22.66081],[90.98949,22.66647],[90.99317,22.66863],[91.00388,22.68276],[91.0044,22.68529],[91.00376,22.6878],[91.00459,22.69161],[91.0024,22.69751],[90.99757,22.70644],[90.99546,22.70759],[90.99265,22.7113],[90.9808,22.71544],[90.97484,22.71548],[90.96919,22.71743],[90.96719,22.71998],[90.96574,22.72908],[90.96793,22.74144],[90.96799,22.74981],[90.96407,22.75842],[90.96078,22.75938],[90.93855,22.77569],[90.93719,22.77743],[90.93013,22.78112],[90.92294,22.78792],[90.93636,22.79657],[90.9393,22.80286],[90.947,22.81119],[90.95087,22.81757],[90.9537,22.82612],[90.95496,22.83677],[90.95376,22.84416],[90.9508,22.84737],[90.93822,22.85351],[90.9392,22.85834],[90.94128,22.86127],[90.94381,22.86152],[90.95211,22.85953],[90.95219,22.86414],[90.95474,22.86562],[90.9638,22.86412],[90.96988,22.86861],[90.97546,22.87108],[90.97691,22.87391],[90.98016,22.87329],[90.98495,22.87448],[90.98518,22.87753],[90.98617,22.87761],[90.98509,22.88177],[90.98907,22.87954],[90.99694,22.87899],[91.00286,22.87432],[91.01361,22.8718],[91.0169,22.87243],[91.02173,22.87469],[91.02267,22.87669],[91.02503,22.87706],[91.02617,22.87329],[91.02753,22.87172],[91.02924,22.87166],[91.03654,22.87536],[91.04107,22.87634],[91.04211,22.8763],[91.04349,22.87338],[91.05669,22.87382],[91.06375,22.87504],[91.06643,22.87257],[91.0689,22.87277],[91.06926,22.87717],[91.07116,22.88355],[91.07434,22.88615],[91.07928,22.88666],[91.08918,22.88433],[91.09237,22.88399]]]]}},{"type":"Feature","properties":{"name":"Senbagh","district_id":"noakhali","pcode":"207590","sql_upazila_id":null,"sql_name_bn":null},"geometry":{"type":"Polygon","coordinates":[[[91.15574,23.07938],[91.15647,23.07605],[91.16234,23.07263],[91.16552,23.06735],[91.1765,23.06089],[91.17974,23.05806],[91.18793,23.05498],[91.19753,23.05728],[91.20638,23.06105],[91.21358,23.06211],[91.21882,23.05529],[91.22842,23.06134],[91.23403,23.0593],[91.23765,23.05384],[91.26228,23.05013],[91.25852,23.04279],[91.25999,23.04075],[91.26558,23.03716],[91.26714,23.03461],[91.26496,23.03238],[91.26698,23.02596],[91.26821,23.02423],[91.26805,23.01829],[91.26319,23.01433],[91.26095,23.01057],[91.26101,23.00281],[91.26296,22.99455],[91.25636,22.95836],[91.26209,22.9538],[91.26469,22.94613],[91.26375,22.94124],[91.26354,22.9279],[91.26156,22.92475],[91.26143,22.92158],[91.26296,22.91508],[91.26529,22.90996],[91.2643,22.90689],[91.26281,22.90513],[91.25169,22.90429],[91.2516,22.90169],[91.24957,22.89758],[91.25116,22.89391],[91.25324,22.89213],[91.25774,22.88903],[91.26063,22.88887],[91.26225,22.88785],[91.26378,22.88287],[91.25919,22.88197],[91.2556,22.88328],[91.2521,22.88188],[91.24767,22.88193],[91.24541,22.87941],[91.24576,22.8777],[91.24439,22.87554],[91.24236,22.87544],[91.23995,22.87236],[91.23807,22.87147],[91.22877,22.88074],[91.22173,22.88043],[91.20311,22.87702],[91.20135,22.87443],[91.20195,22.87254],[91.19839,22.8682],[91.19497,22.87041],[91.19311,22.8732],[91.19142,22.87416],[91.18829,22.87303],[91.17686,22.87192],[91.17549,22.87954],[91.18593,22.88171],[91.19003,22.88422],[91.19485,22.88484],[91.19816,22.88721],[91.19897,22.89074],[91.20042,22.89149],[91.20343,22.89771],[91.20428,22.90379],[91.20797,22.90349],[91.21102,22.90592],[91.21209,22.90962],[91.21141,22.91072],[91.21366,22.91657],[91.2121,22.91923],[91.21235,22.92081],[91.21439,22.92565],[91.21605,22.92729],[91.21619,22.92921],[91.21423,22.93437],[91.20754,22.93816],[91.20531,22.93797],[91.19848,22.93963],[91.19698,22.9411],[91.19692,22.94562],[91.19774,22.94764],[91.19686,22.9489],[91.19505,22.94982],[91.18925,22.94963],[91.18857,22.95112],[91.18806,22.9538],[91.18919,22.95591],[91.18926,22.96111],[91.19517,22.96226],[91.19627,22.96521],[91.19634,22.96702],[91.18977,22.96923],[91.18941,22.97112],[91.19637,22.97562],[91.19954,22.97635],[91.20039,22.97932],[91.19632,22.98065],[91.19593,22.98174],[91.19809,22.98342],[91.2025,22.98411],[91.20458,22.98703],[91.20407,22.98972],[91.20116,22.99111],[91.19748,22.99469],[91.19379,22.99635],[91.18766,22.99765],[91.18688,22.99965],[91.18331,23.00237],[91.18192,23.00667],[91.18237,23.0087],[91.1814,23.01077],[91.17789,23.01418],[91.17752,23.0173],[91.17574,23.02059],[91.17143,23.0209],[91.16307,23.02776],[91.15866,23.03041],[91.15314,23.0297],[91.15204,23.03132],[91.15134,23.03581],[91.14999,23.03728],[91.14749,23.03816],[91.13557,23.03467],[91.13313,23.03516],[91.13171,23.03673],[91.13181,23.04601],[91.12894,23.05137],[91.12716,23.05794],[91.13049,23.0611],[91.13345,23.06128],[91.13546,23.06205],[91.13613,23.0635],[91.14113,23.06502],[91.14175,23.06664],[91.14053,23.07025],[91.14327,23.07586],[91.1534,23.07907],[91.15574,23.07938]]]}}]}