{"type":"FeatureCollection","features":[{"type":"Feature","properties":{"name":"Atgharia","district_id":"pabna","pcode":"507605","sql_upazila_id":null,"sql_name_bn":null},"geometry":{"type":"Polygon","coordinates":[[[89.16251,24.1779],[89.16592,24.18499],[89.17148,24.19376],[89.17706,24.19953],[89.18359,24.19966],[89.18894,24.20118],[89.19364,24.19917],[89.19695,24.2006],[89.19933,24.20266],[89.20323,24.19694],[89.20816,24.19228],[89.2096,24.18839],[89.21034,24.17726],[89.21234,24.17313],[89.2142,24.17174],[89.2193,24.17186],[89.22163,24.16904],[89.22467,24.15777],[89.22602,24.15571],[89.2275,24.15518],[89.22901,24.15636],[89.23049,24.16041],[89.23435,24.16127],[89.23444,24.16304],[89.23164,24.16803],[89.23165,24.1698],[89.23304,24.17099],[89.23628,24.17164],[89.24062,24.17114],[89.24702,24.16457],[89.24908,24.16044],[89.2489,24.15497],[89.24706,24.15293],[89.24634,24.14929],[89.24755,24.14659],[89.25021,24.14508],[89.25573,24.14496],[89.26543,24.1544],[89.2683,24.155],[89.27139,24.1536],[89.27352,24.15044],[89.27386,24.14713],[89.27639,24.14059],[89.27665,24.13625],[89.27841,24.13293],[89.28838,24.12381],[89.28972,24.11689],[89.29137,24.11534],[89.29406,24.11565],[89.29987,24.11313],[89.30762,24.11168],[89.3108,24.11245],[89.31361,24.11379],[89.32124,24.12272],[89.32436,24.12326],[89.32758,24.12214],[89.33101,24.1188],[89.33174,24.11685],[89.33044,24.11156],[89.33128,24.11047],[89.33855,24.11022],[89.3425,24.10709],[89.34436,24.10679],[89.34643,24.10848],[89.34727,24.11087],[89.34866,24.11211],[89.35278,24.1095],[89.35921,24.11125],[89.36217,24.11453],[89.36452,24.12306],[89.36868,24.12734],[89.36961,24.12746],[89.37434,24.12758],[89.37695,24.12675],[89.38017,24.12175],[89.38326,24.12018],[89.38694,24.12561],[89.38831,24.12561],[89.39149,24.12237],[89.39561,24.12323],[89.39721,24.12247],[89.40031,24.11691],[89.40357,24.11419],[89.40814,24.11208],[89.40993,24.11201],[89.41102,24.11336],[89.41318,24.12127],[89.41541,24.12102],[89.42066,24.11377],[89.42258,24.10359],[89.41676,24.10098],[89.41622,24.09796],[89.41904,24.09427],[89.4195,24.09239],[89.4184,24.08919],[89.41931,24.08708],[89.42539,24.08182],[89.42691,24.07924],[89.42592,24.07497],[89.42613,24.07177],[89.42823,24.06638],[89.42808,24.06444],[89.4233,24.06039],[89.42303,24.05429],[89.4197,24.05016],[89.41069,24.04644],[89.40656,24.04917],[89.40106,24.05117],[89.39935,24.05313],[89.39944,24.05512],[89.39805,24.05845],[89.39371,24.05907],[89.39212,24.05657],[89.3924,24.04886],[89.39169,24.04694],[89.38811,24.04486],[89.38614,24.04522],[89.38461,24.04662],[89.38432,24.04816],[89.38615,24.05133],[89.38448,24.05672],[89.38275,24.05753],[89.37828,24.05747],[89.36808,24.0521],[89.36641,24.05252],[89.35986,24.06001],[89.35174,24.06164],[89.3499,24.06359],[89.34547,24.07192],[89.34282,24.07331],[89.33921,24.07341],[89.32864,24.06291],[89.31975,24.05741],[89.31815,24.05874],[89.31482,24.06614],[89.31254,24.06764],[89.30462,24.07018],[89.29579,24.06942],[89.29351,24.07143],[89.29211,24.07396],[89.28764,24.07429],[89.28517,24.08025],[89.28394,24.08112],[89.27297,24.08409],[89.26043,24.08518],[89.25259,24.08418],[89.24022,24.0839],[89.2318,24.08673],[89.22792,24.08557],[89.22595,24.08633],[89.22506,24.08982],[89.22344,24.08977],[89.21912,24.08765],[89.21197,24.09188],[89.20892,24.09214],[89.19585,24.0905],[89.1974,24.09551],[89.19765,24.10686],[89.19562,24.10779],[89.18368,24.10762],[89.18208,24.10878],[89.18201,24.11979],[89.17839,24.12348],[89.17891,24.1257],[89.18306,24.12954],[89.18295,24.13114],[89.18636,24.14109],[89.18465,24.14316],[89.18253,24.14279],[89.18198,24.13833],[89.18028,24.13675],[89.17855,24.13739],[89.17697,24.13981],[89.17484,24.14508],[89.17197,24.16012],[89.16548,24.17563],[89.16251,24.1779]]]}},{"type":"Feature","properties":{"name":"Bera","district_id":"pabna","pcode":"507616","sql_upazila_id":"pabna-bera","sql_name_bn":"বেড়া"},"geometry":{"type":"Polygon","coordinates":[[[89.60923,24.10702],[89.61562,24.10614],[89.62138,24.1043],[89.6233,24.09959],[89.62519,24.09763],[89.63008,24.0958],[89.63253,24.09354],[89.63586,24.0923],[89.64525,24.09155],[89.6524,24.08838],[89.66168,24.08569],[89.66481,24.0828],[89.67773,24.0743],[89.68147,24.07123],[89.68382,24.06715],[89.68861,24.06275],[89.68922,24.04203],[89.68995,24.04043],[89.6916,24.03943],[89.69808,24.04431],[89.70094,24.04473],[89.70626,24.04289],[89.70532,24.03873],[89.70671,24.03638],[89.70739,24.03163],[89.7086,24.02962],[89.71208,24.02616],[89.72511,24.02096],[89.73227,24.01638],[89.71061,24.00417],[89.70055,23.99411],[89.69806,23.96735],[89.69843,23.94871],[89.69364,23.94325],[89.69307,23.94012],[89.69353,23.93577],[89.69197,23.93014],[89.69364,23.92719],[89.69668,23.92644],[89.70148,23.92732],[89.70463,23.92589],[89.70589,23.92134],[89.70561,23.91746],[89.70759,23.90622],[89.70737,23.90205],[89.7089,23.89859],[89.70791,23.89609],[89.70563,23.89413],[89.70591,23.88487],[89.70229,23.87864],[89.70154,23.87592],[89.70164,23.86957],[89.70322,23.868],[89.70728,23.87947],[89.70888,23.88103],[89.71049,23.88118],[89.71114,23.87413],[89.715,23.86902],[89.71487,23.86634],[89.71647,23.86305],[89.72232,23.85544],[89.72768,23.85065],[89.73463,23.84211],[89.73973,23.83266],[89.73453,23.83233],[89.73244,23.82867],[89.72924,23.82738],[89.71978,23.82586],[89.71694,23.82451],[89.71223,23.81709],[89.70565,23.8098],[89.70189,23.8088],[89.69274,23.8105],[89.6791,23.80603],[89.66866,23.8052],[89.65598,23.80589],[89.65176,23.81367],[89.64344,23.82576],[89.6324,23.83811],[89.63131,23.8399],[89.63156,23.84337],[89.62815,23.84838],[89.6257,23.85463],[89.62968,23.86366],[89.63055,23.86769],[89.62949,23.87095],[89.62566,23.87654],[89.62648,23.88594],[89.62956,23.89252],[89.62518,23.90302],[89.62179,23.90454],[89.61889,23.90424],[89.61449,23.90133],[89.60809,23.90089],[89.60739,23.90335],[89.60925,23.90761],[89.60749,23.91037],[89.60515,23.91188],[89.59928,23.91372],[89.59203,23.91832],[89.59102,23.92176],[89.59315,23.92339],[89.60091,23.92318],[89.60828,23.92582],[89.61325,23.92256],[89.61927,23.92192],[89.62182,23.92268],[89.62286,23.92525],[89.62079,23.93234],[89.61742,23.93575],[89.61257,23.94357],[89.60963,23.94612],[89.6058,23.94702],[89.59988,23.9504],[89.59332,23.95077],[89.59184,23.95216],[89.59262,23.9542],[89.59476,23.95606],[89.60393,23.95919],[89.60725,23.96172],[89.61791,23.97648],[89.61914,23.98411],[89.62509,23.98346],[89.62827,23.98388],[89.62984,23.98534],[89.62925,23.98723],[89.62486,23.98883],[89.62574,23.99384],[89.62315,24.00682],[89.61924,24.01566],[89.6179,24.02121],[89.61409,24.02439],[89.61569,24.03105],[89.61308,24.03565],[89.61285,24.04101],[89.60537,24.04801],[89.60435,24.05059],[89.60461,24.05589],[89.6064,24.05867],[89.61085,24.06072],[89.61286,24.06292],[89.61362,24.06731],[89.61096,24.0731],[89.61095,24.07578],[89.6146,24.07951],[89.6157,24.08207],[89.61311,24.09213],[89.61634,24.09569],[89.61707,24.09842],[89.61629,24.10111],[89.60923,24.10702]]]}},{"type":"Feature","properties":{"name":"Bhangura","district_id":"pabna","pcode":"507619","sql_upazila_id":"pabna-bhangura","sql_name_bn":"ভাঙ্গুড়া"},"geometry":{"type":"Polygon","coordinates":[[[89.397,24.34712],[89.40141,24.34633],[89.40232,24.34455],[89.4014,24.33606],[89.40296,24.3317],[89.40674,24.32949],[89.41035,24.33008],[89.41749,24.33297],[89.41929,24.33278],[89.42254,24.32892],[89.42507,24.32256],[89.42882,24.3188],[89.42892,24.31686],[89.42759,24.31517],[89.42428,24.31458],[89.42239,24.31249],[89.42356,24.30722],[89.4217,24.30342],[89.42236,24.30113],[89.42599,24.29869],[89.42405,24.29262],[89.42919,24.28622],[89.43004,24.2845],[89.42963,24.28188],[89.43355,24.27675],[89.43352,24.27487],[89.42742,24.26513],[89.42711,24.26211],[89.42859,24.25952],[89.43322,24.25719],[89.43726,24.26142],[89.44218,24.26142],[89.44319,24.26255],[89.44377,24.26876],[89.4453,24.2716],[89.44724,24.27186],[89.45046,24.27091],[89.45296,24.27648],[89.45534,24.27696],[89.45737,24.27603],[89.45759,24.27334],[89.46012,24.27166],[89.4628,24.27151],[89.46408,24.27001],[89.4644,24.26562],[89.46445,24.2602],[89.46195,24.25526],[89.46162,24.24956],[89.45931,24.2493],[89.45792,24.24766],[89.45795,24.24509],[89.45693,24.24316],[89.44888,24.24195],[89.44817,24.2395],[89.44933,24.23806],[89.45174,24.23746],[89.45034,24.23474],[89.45135,24.22605],[89.44853,24.22512],[89.43671,24.22548],[89.43232,24.22256],[89.42786,24.2241],[89.42636,24.22405],[89.42416,24.22254],[89.41856,24.20742],[89.41494,24.20233],[89.41461,24.19646],[89.40683,24.18656],[89.40342,24.17775],[89.40345,24.17581],[89.40756,24.17131],[89.40649,24.17007],[89.40213,24.16995],[89.40032,24.16054],[89.39901,24.16046],[89.39736,24.16196],[89.39171,24.16258],[89.38303,24.16959],[89.37682,24.17023],[89.37151,24.17348],[89.36992,24.17989],[89.36164,24.1846],[89.35901,24.18737],[89.35954,24.1897],[89.3633,24.19217],[89.36534,24.1962],[89.36108,24.20806],[89.36373,24.2211],[89.36246,24.23309],[89.35993,24.23557],[89.35616,24.23767],[89.34589,24.23744],[89.34264,24.24032],[89.34368,24.25475],[89.34229,24.2571],[89.3425,24.26395],[89.34418,24.26359],[89.34624,24.26008],[89.34823,24.25949],[89.35704,24.26219],[89.36418,24.26109],[89.36725,24.2622],[89.37105,24.26826],[89.37282,24.26944],[89.38091,24.26918],[89.38422,24.27],[89.38561,24.27192],[89.38631,24.28207],[89.39049,24.28768],[89.38632,24.3021],[89.38466,24.3274],[89.38107,24.33366],[89.38091,24.34091],[89.38266,24.35105],[89.38891,24.34772],[89.39258,24.34723],[89.397,24.34712]]]}},{"type":"Feature","properties":{"name":"Chatmohar","district_id":"pabna","pcode":"507622","sql_upazila_id":"pabna-chatmohar","sql_name_bn":"চাটমোহর"},"geometry":{"type":"Polygon","coordinates":[[[89.38266,24.35105],[89.38091,24.34091],[89.38107,24.33366],[89.38466,24.3274],[89.38632,24.3021],[89.39049,24.28768],[89.38631,24.28207],[89.38561,24.27192],[89.38422,24.27],[89.38091,24.26918],[89.37282,24.26944],[89.37105,24.26826],[89.36725,24.2622],[89.36418,24.26109],[89.35704,24.26219],[89.34823,24.25949],[89.34624,24.26008],[89.34418,24.26359],[89.3425,24.26395],[89.34209,24.26088],[89.34229,24.2571],[89.34368,24.25475],[89.34264,24.24032],[89.34589,24.23744],[89.35616,24.23767],[89.35993,24.23557],[89.36246,24.23309],[89.36373,24.2211],[89.36108,24.20806],[89.36534,24.1962],[89.3633,24.19217],[89.35954,24.1897],[89.35901,24.18737],[89.36164,24.1846],[89.36992,24.17989],[89.37151,24.17348],[89.37682,24.17023],[89.37593,24.16373],[89.37234,24.16006],[89.36905,24.15103],[89.36958,24.14862],[89.37406,24.14458],[89.37447,24.14281],[89.36961,24.12746],[89.36868,24.12734],[89.36452,24.12306],[89.36217,24.11453],[89.35921,24.11125],[89.35278,24.1095],[89.34866,24.11211],[89.34727,24.11087],[89.34643,24.10848],[89.34436,24.10679],[89.3425,24.10709],[89.33855,24.11022],[89.33128,24.11047],[89.33044,24.11156],[89.33174,24.11685],[89.33101,24.1188],[89.32758,24.12214],[89.32436,24.12326],[89.32124,24.12272],[89.31943,24.1212],[89.31361,24.11379],[89.30762,24.11168],[89.29987,24.11313],[89.29406,24.11565],[89.29137,24.11534],[89.28972,24.11689],[89.28838,24.12381],[89.27841,24.13293],[89.27665,24.13625],[89.27639,24.14059],[89.27386,24.14713],[89.27352,24.15044],[89.27139,24.1536],[89.2683,24.155],[89.26543,24.1544],[89.25573,24.14496],[89.25021,24.14508],[89.24755,24.14659],[89.24634,24.14929],[89.24706,24.15293],[89.2489,24.15497],[89.24908,24.16044],[89.24702,24.16457],[89.24062,24.17114],[89.23628,24.17164],[89.23304,24.17099],[89.23165,24.1698],[89.23164,24.16803],[89.23444,24.16304],[89.23435,24.16127],[89.23049,24.16041],[89.22901,24.15636],[89.2275,24.15518],[89.22602,24.15571],[89.22467,24.15777],[89.22163,24.16904],[89.2193,24.17186],[89.2142,24.17174],[89.21234,24.17313],[89.21034,24.17726],[89.2096,24.18839],[89.20816,24.19228],[89.20323,24.19694],[89.19933,24.20266],[89.20839,24.2077],[89.21237,24.20826],[89.21712,24.21074],[89.2207,24.21438],[89.22297,24.21758],[89.22569,24.22771],[89.22533,24.22987],[89.22362,24.23205],[89.22334,24.2345],[89.22422,24.23624],[89.23006,24.23638],[89.23225,24.238],[89.23449,24.24335],[89.23631,24.24463],[89.23973,24.24487],[89.2428,24.24743],[89.24463,24.25603],[89.24358,24.25747],[89.23653,24.25928],[89.23529,24.26049],[89.23651,24.26494],[89.23904,24.26747],[89.24265,24.26867],[89.24468,24.27306],[89.24837,24.27391],[89.25452,24.27388],[89.25828,24.27677],[89.2608,24.28099],[89.26717,24.28833],[89.26973,24.29562],[89.27269,24.29859],[89.27613,24.30006],[89.27879,24.3049],[89.28837,24.30544],[89.29001,24.30768],[89.28859,24.31974],[89.28971,24.32574],[89.29131,24.32918],[89.29294,24.3308],[89.30062,24.33341],[89.30489,24.33777],[89.3146,24.33756],[89.31721,24.33889],[89.32021,24.34565],[89.32258,24.35527],[89.32121,24.35667],[89.33035,24.35669],[89.33649,24.35947],[89.34202,24.35833],[89.35036,24.35841],[89.35508,24.35671],[89.36161,24.36137],[89.36511,24.36237],[89.37095,24.36042],[89.37729,24.3547],[89.38266,24.35105]]]}},{"type":"Feature","properties":{"name":"Faridpur","district_id":"pabna","pcode":"507633","sql_upazila_id":"pabna-faridpur","sql_name_bn":"ফরিদপুর"},"geometry":{"type":"Polygon","coordinates":[[[89.52211,24.20526],[89.52774,24.20279],[89.52951,24.20094],[89.52911,24.19907],[89.5237,24.19457],[89.52222,24.19139],[89.52224,24.18835],[89.52481,24.18525],[89.53624,24.17964],[89.53794,24.17711],[89.53722,24.17439],[89.52956,24.17338],[89.52834,24.1714],[89.52869,24.16969],[89.53343,24.16592],[89.52839,24.15708],[89.53273,24.13899],[89.52489,24.13806],[89.51915,24.14081],[89.51695,24.14055],[89.51437,24.13745],[89.51263,24.13747],[89.50936,24.13962],[89.50855,24.14385],[89.50549,24.14708],[89.50275,24.14706],[89.49837,24.14551],[89.49334,24.14055],[89.49287,24.13844],[89.48901,24.13335],[89.48651,24.13258],[89.47285,24.13919],[89.47024,24.13848],[89.46644,24.13345],[89.46371,24.13439],[89.46098,24.1395],[89.45939,24.14094],[89.45708,24.13989],[89.45581,24.13813],[89.45434,24.13039],[89.45261,24.12619],[89.44974,24.12656],[89.44817,24.12584],[89.44759,24.12316],[89.45049,24.11765],[89.45296,24.1158],[89.45412,24.11042],[89.45364,24.1066],[89.45004,24.09867],[89.44804,24.09731],[89.44174,24.09567],[89.43661,24.09784],[89.43031,24.09574],[89.42564,24.09608],[89.42339,24.09885],[89.42066,24.11377],[89.41541,24.12102],[89.41318,24.12127],[89.41102,24.11336],[89.40993,24.11201],[89.40814,24.11208],[89.40357,24.11419],[89.40031,24.11691],[89.39721,24.12247],[89.39561,24.12323],[89.39149,24.12237],[89.38831,24.12561],[89.38694,24.12561],[89.38326,24.12018],[89.38017,24.12175],[89.37695,24.12675],[89.37434,24.12758],[89.36961,24.12746],[89.37447,24.14281],[89.37406,24.14458],[89.36958,24.14862],[89.36905,24.15103],[89.37234,24.16006],[89.37593,24.16373],[89.37682,24.17023],[89.38303,24.16959],[89.39171,24.16258],[89.39736,24.16196],[89.39901,24.16046],[89.40032,24.16054],[89.40213,24.16995],[89.40649,24.17007],[89.40756,24.17131],[89.40345,24.17581],[89.40342,24.17775],[89.4058,24.18406],[89.40683,24.18656],[89.41461,24.19646],[89.41558,24.20392],[89.41856,24.20742],[89.42416,24.22254],[89.42636,24.22405],[89.43232,24.22256],[89.43671,24.22548],[89.44853,24.22512],[89.45135,24.22605],[89.45034,24.23474],[89.45174,24.23746],[89.46207,24.23729],[89.471,24.23895],[89.47376,24.24075],[89.47694,24.2415],[89.47916,24.23965],[89.48021,24.2303],[89.47871,24.2291],[89.46963,24.23121],[89.46751,24.23014],[89.46768,24.22832],[89.47043,24.22464],[89.47173,24.21583],[89.47868,24.21393],[89.48065,24.21271],[89.48972,24.21203],[89.4898,24.2219],[89.49065,24.22503],[89.49415,24.22584],[89.49694,24.22495],[89.49959,24.22298],[89.50154,24.22011],[89.50425,24.21848],[89.506,24.21863],[89.50914,24.22104],[89.51112,24.21994],[89.5156,24.21172],[89.51788,24.20924],[89.52211,24.20526]]]}},{"type":"Feature","properties":{"name":"Ishwardi","district_id":"pabna","pcode":"507639","sql_upazila_id":"pabna-ishurdi","sql_name_bn":"ঈশ্বরদী"},"geometry":{"type":"Polygon","coordinates":[[[89.08374,24.16356],[89.08549,24.16495],[89.08861,24.16587],[89.08909,24.16411],[89.0934,24.15979],[89.09652,24.16156],[89.10216,24.16699],[89.12482,24.16696],[89.13595,24.16816],[89.14837,24.16832],[89.15616,24.17127],[89.16073,24.17501],[89.16251,24.1779],[89.16548,24.17563],[89.17004,24.16543],[89.17197,24.16012],[89.17484,24.14508],[89.17697,24.13981],[89.17855,24.13739],[89.18028,24.13675],[89.18198,24.13833],[89.18253,24.14279],[89.18465,24.14316],[89.18636,24.14109],[89.18295,24.13114],[89.18306,24.12954],[89.17891,24.1257],[89.17839,24.12348],[89.18201,24.11979],[89.18208,24.10878],[89.18368,24.10762],[89.19562,24.10779],[89.19765,24.10686],[89.1974,24.09551],[89.19585,24.0905],[89.18677,24.08928],[89.17858,24.08587],[89.17577,24.08413],[89.17285,24.07891],[89.16861,24.07713],[89.15013,24.07587],[89.14646,24.06986],[89.14599,24.06074],[89.14845,24.05307],[89.15022,24.05037],[89.14969,24.04147],[89.15215,24.02764],[89.15264,24.01725],[89.15128,24.01076],[89.15067,24.00061],[89.15186,23.99022],[89.15414,23.97816],[89.15939,23.96396],[89.15963,23.95768],[89.15796,23.94948],[89.1433,23.95305],[89.13575,23.95646],[89.13258,23.95898],[89.12279,23.9623],[89.11039,23.9609],[89.09814,23.96207],[89.09662,23.96287],[89.09534,23.97374],[89.08008,23.97564],[89.07257,23.97779],[89.0668,23.98102],[89.0632,23.98406],[89.05448,24.00772],[89.05109,24.01477],[89.04971,24.02375],[89.04349,24.04251],[89.04029,24.04686],[89.03088,24.0769],[89.01768,24.11044],[89.01511,24.11591],[89.01091,24.11989],[89.00896,24.12049],[89.01288,24.12649],[89.01334,24.13011],[89.01252,24.1349],[89.00861,24.14193],[89.00695,24.14365],[89.00262,24.14569],[89.00177,24.14753],[89.00426,24.14801],[89.01057,24.14679],[89.01557,24.15013],[89.01311,24.15215],[89.00237,24.15348],[89.00072,24.15588],[89.00137,24.1573],[89.00591,24.15923],[89.00816,24.16112],[89.01667,24.16238],[89.02035,24.16386],[89.02631,24.17042],[89.02829,24.17034],[89.03236,24.16709],[89.03394,24.15617],[89.03557,24.15117],[89.03766,24.14784],[89.04098,24.14433],[89.04481,24.1427],[89.05083,24.14199],[89.05213,24.14265],[89.05356,24.14876],[89.05668,24.15076],[89.0681,24.15078],[89.08216,24.15336],[89.08403,24.15457],[89.08487,24.15736],[89.08379,24.16191],[89.08374,24.16356]]]}},{"type":"Feature","properties":{"name":"Pabna S.","district_id":"pabna","pcode":"507655","sql_upazila_id":null,"sql_name_bn":null},"geometry":{"type":"Polygon","coordinates":[[[89.41069,24.04644],[89.41366,24.03574],[89.41541,24.03235],[89.4221,24.02594],[89.42297,24.02154],[89.42196,24.01539],[89.42244,24.01442],[89.42122,24.01146],[89.41902,24.00932],[89.41377,24.00694],[89.41325,24.0006],[89.4101,23.99664],[89.40913,23.9938],[89.4155,23.97329],[89.41507,23.96914],[89.41688,23.96022],[89.41579,23.95784],[89.39271,23.93014],[89.39022,23.92543],[89.3884,23.9186],[89.38881,23.90668],[89.38569,23.90798],[89.36909,23.90472],[89.3596,23.90871],[89.35052,23.91837],[89.34704,23.92354],[89.3429,23.92701],[89.32899,23.93118],[89.3242,23.93571],[89.31895,23.94506],[89.31274,23.95336],[89.29925,23.95947],[89.28063,23.96385],[89.27295,23.96642],[89.2575,23.97403],[89.25183,23.97547],[89.24924,23.97591],[89.24659,23.97378],[89.24206,23.96409],[89.23859,23.94933],[89.23367,23.9388],[89.22444,23.93524],[89.2128,23.9262],[89.20981,23.9254],[89.2066,23.92625],[89.20284,23.92999],[89.19824,23.94121],[89.19467,23.95765],[89.19291,23.96258],[89.19071,23.96717],[89.1884,23.96915],[89.18543,23.96926],[89.17564,23.95346],[89.17081,23.95071],[89.16471,23.94881],[89.15796,23.94948],[89.15963,23.95768],[89.15939,23.96396],[89.15534,23.97438],[89.15278,23.98376],[89.15067,24.00061],[89.15128,24.01076],[89.15264,24.01725],[89.15147,24.03353],[89.14969,24.04147],[89.15022,24.05037],[89.14845,24.05307],[89.14599,24.06074],[89.14646,24.06986],[89.15013,24.07587],[89.16861,24.07713],[89.17285,24.07891],[89.17577,24.08413],[89.18677,24.08928],[89.20892,24.09214],[89.21197,24.09188],[89.21912,24.08765],[89.22344,24.08977],[89.22506,24.08982],[89.22595,24.08633],[89.22792,24.08557],[89.2318,24.08673],[89.24022,24.0839],[89.25259,24.08418],[89.26043,24.08518],[89.26571,24.08484],[89.27297,24.08409],[89.28394,24.08112],[89.28517,24.08025],[89.28764,24.07429],[89.29211,24.07396],[89.29351,24.07143],[89.29579,24.06942],[89.30462,24.07018],[89.31254,24.06764],[89.31482,24.06614],[89.31815,24.05874],[89.31975,24.05741],[89.32864,24.06291],[89.33921,24.07341],[89.34282,24.07331],[89.34547,24.07192],[89.3499,24.06359],[89.35174,24.06164],[89.35986,24.06001],[89.36641,24.05252],[89.36808,24.0521],[89.37622,24.05692],[89.38275,24.05753],[89.38448,24.05672],[89.38615,24.05133],[89.38432,24.04816],[89.38461,24.04662],[89.38614,24.04522],[89.38811,24.04486],[89.39169,24.04694],[89.3924,24.04886],[89.39212,24.05657],[89.39371,24.05907],[89.39607,24.05921],[89.39885,24.05753],[89.39935,24.05313],[89.40106,24.05117],[89.40849,24.04806],[89.41069,24.04644]]]}},{"type":"Feature","properties":{"name":"Santhia","district_id":"pabna","pcode":"507672","sql_upazila_id":"pabna-santhia","sql_name_bn":"সাঁথিয়া"},"geometry":{"type":"Polygon","coordinates":[[[89.53273,24.13899],[89.53438,24.1363],[89.53625,24.13662],[89.53854,24.1411],[89.5444,24.13755],[89.54833,24.13847],[89.54976,24.13799],[89.55061,24.13256],[89.55242,24.13283],[89.55385,24.13692],[89.55548,24.13838],[89.56529,24.13335],[89.56744,24.13098],[89.56733,24.12865],[89.56558,24.12747],[89.56178,24.12718],[89.55947,24.12578],[89.56322,24.11923],[89.56618,24.11782],[89.56949,24.11807],[89.57084,24.12073],[89.57301,24.12185],[89.57784,24.11985],[89.58131,24.11935],[89.58366,24.11823],[89.58537,24.11633],[89.59375,24.11503],[89.59585,24.11403],[89.59834,24.11035],[89.60118,24.10883],[89.60923,24.10702],[89.61629,24.10111],[89.61707,24.09842],[89.61634,24.09569],[89.61311,24.09213],[89.6157,24.08207],[89.6146,24.07951],[89.61095,24.07578],[89.61096,24.0731],[89.61362,24.06731],[89.61286,24.06292],[89.61085,24.06072],[89.6064,24.05867],[89.60461,24.05589],[89.60435,24.05059],[89.60537,24.04801],[89.61285,24.04101],[89.61308,24.03565],[89.61569,24.03105],[89.61409,24.02439],[89.6179,24.02121],[89.61924,24.01566],[89.62315,24.00682],[89.62574,23.99384],[89.62486,23.98883],[89.62925,23.98723],[89.62984,23.98534],[89.62827,23.98388],[89.62509,23.98346],[89.61914,23.98411],[89.61861,23.97784],[89.61107,23.96738],[89.60762,23.9697],[89.60404,23.97039],[89.5864,23.97025],[89.57321,23.97304],[89.55527,23.97377],[89.54935,23.97219],[89.53614,23.96431],[89.5303,23.96375],[89.52909,23.96617],[89.53093,23.96979],[89.53099,23.97304],[89.52877,23.97455],[89.52561,23.97482],[89.51817,23.97063],[89.51218,23.96921],[89.50833,23.96915],[89.50247,23.97183],[89.49747,23.9788],[89.4942,23.98004],[89.48811,23.9792],[89.47927,23.96892],[89.47578,23.97295],[89.47282,23.97356],[89.47093,23.97204],[89.46776,23.97196],[89.46056,23.97256],[89.45878,23.97349],[89.45819,23.97567],[89.46173,23.98071],[89.46127,23.98335],[89.44483,23.99813],[89.43818,24.00237],[89.43578,24.00325],[89.43198,24.00273],[89.42982,23.99938],[89.428,23.99387],[89.42706,23.99251],[89.42444,23.9918],[89.41758,23.99405],[89.41325,24.0006],[89.41377,24.00694],[89.41902,24.00932],[89.42122,24.01146],[89.42244,24.01442],[89.42196,24.01539],[89.42297,24.02154],[89.4221,24.02594],[89.41541,24.03235],[89.41366,24.03574],[89.41069,24.04644],[89.4197,24.05016],[89.42126,24.0518],[89.42303,24.05429],[89.4233,24.06039],[89.42808,24.06444],[89.42823,24.06638],[89.42613,24.07177],[89.42592,24.07497],[89.42691,24.07924],[89.42539,24.08182],[89.41931,24.08708],[89.4184,24.08919],[89.4195,24.09239],[89.41904,24.09427],[89.41622,24.09796],[89.41676,24.10098],[89.42258,24.10359],[89.42339,24.09885],[89.42564,24.09608],[89.42757,24.09549],[89.43661,24.09784],[89.44174,24.09567],[89.44804,24.09731],[89.45004,24.09867],[89.45364,24.1066],[89.45412,24.11042],[89.45296,24.1158],[89.44872,24.12013],[89.44759,24.12316],[89.44817,24.12584],[89.44974,24.12656],[89.45261,24.12619],[89.45434,24.13039],[89.45581,24.13813],[89.45708,24.13989],[89.45939,24.14094],[89.46098,24.1395],[89.46371,24.13439],[89.46644,24.13345],[89.47024,24.13848],[89.47285,24.13919],[89.48651,24.13258],[89.48901,24.13335],[89.49287,24.13844],[89.49334,24.14055],[89.49837,24.14551],[89.50275,24.14706],[89.50549,24.14708],[89.50855,24.14385],[89.50936,24.13962],[89.51096,24.13823],[89.51437,24.13745],[89.51695,24.14055],[89.51915,24.14081],[89.52489,24.13806],[89.53273,24.13899]]]}},{"type":"Feature","properties":{"name":"Sujanagar","district_id":"pabna","pcode":"507683","sql_upazila_id":"pabna-sujanagar","sql_name_bn":"সুজানগর"},"geometry":{"type":"Polygon","coordinates":[[[89.61107,23.96738],[89.60725,23.96172],[89.60393,23.95919],[89.59476,23.95606],[89.59262,23.9542],[89.59184,23.95216],[89.59332,23.95077],[89.59988,23.9504],[89.6058,23.94702],[89.60963,23.94612],[89.61257,23.94357],[89.62199,23.92981],[89.62286,23.92525],[89.62182,23.92268],[89.61548,23.92202],[89.61325,23.92256],[89.60828,23.92582],[89.60091,23.92318],[89.59315,23.92339],[89.59102,23.92176],[89.59203,23.91832],[89.59928,23.91372],[89.60515,23.91188],[89.60749,23.91037],[89.60925,23.90761],[89.60739,23.90335],[89.60809,23.90089],[89.61449,23.90133],[89.61889,23.90424],[89.62179,23.90454],[89.62518,23.90302],[89.62956,23.89252],[89.62648,23.88594],[89.62566,23.87654],[89.62949,23.87095],[89.63055,23.86769],[89.62968,23.86366],[89.6257,23.85463],[89.62815,23.84838],[89.63156,23.84337],[89.63131,23.8399],[89.6324,23.83811],[89.64344,23.82576],[89.65176,23.81367],[89.65598,23.80589],[89.6245,23.80761],[89.62089,23.80443],[89.61409,23.80179],[89.60786,23.80242],[89.59682,23.8059],[89.5927,23.80629],[89.58875,23.80494],[89.58619,23.80203],[89.57932,23.79853],[89.56739,23.79823],[89.56023,23.79914],[89.55577,23.80132],[89.55481,23.80333],[89.55582,23.80717],[89.55328,23.80777],[89.54714,23.80702],[89.54341,23.80762],[89.53417,23.81091],[89.53061,23.811],[89.52148,23.8093],[89.51567,23.80993],[89.51165,23.81185],[89.50719,23.81688],[89.49198,23.82826],[89.48373,23.83125],[89.46058,23.84562],[89.43596,23.86516],[89.40749,23.88358],[89.40358,23.88815],[89.39385,23.90304],[89.38881,23.90668],[89.3884,23.9186],[89.39022,23.92543],[89.39271,23.93014],[89.41579,23.95784],[89.41688,23.96022],[89.41507,23.96914],[89.4155,23.97329],[89.40913,23.9938],[89.4101,23.99664],[89.41325,24.0006],[89.41758,23.99405],[89.42444,23.9918],[89.42706,23.99251],[89.428,23.99387],[89.42982,23.99938],[89.43198,24.00273],[89.43578,24.00325],[89.43818,24.00237],[89.44483,23.99813],[89.46127,23.98335],[89.46173,23.98071],[89.45819,23.97567],[89.45878,23.97349],[89.46056,23.97256],[89.46776,23.97196],[89.47093,23.97204],[89.47282,23.97356],[89.47578,23.97295],[89.47927,23.96892],[89.48811,23.9792],[89.4942,23.98004],[89.49747,23.9788],[89.50247,23.97183],[89.50833,23.96915],[89.51218,23.96921],[89.51817,23.97063],[89.52561,23.97482],[89.52877,23.97455],[89.53099,23.97304],[89.53093,23.96979],[89.52909,23.96617],[89.5303,23.96375],[89.53614,23.96431],[89.54935,23.97219],[89.55527,23.97377],[89.57321,23.97304],[89.5864,23.97025],[89.60404,23.97039],[89.60762,23.9697],[89.61107,23.96738]]]}}]}