{"type":"FeatureCollection","features":[{"type":"Feature","properties":{"name":"Atowari","district_id":"panchagarh","pcode":"557704","sql_upazila_id":null,"sql_name_bn":null},"geometry":{"type":"Polygon","coordinates":[[[88.32191,26.20205],[88.32806,26.20441],[88.3259,26.20725],[88.32848,26.20898],[88.32984,26.21132],[88.33292,26.21088],[88.33315,26.21408],[88.34953,26.21854],[88.35252,26.21999],[88.35239,26.22318],[88.35464,26.22483],[88.35464,26.22627],[88.35331,26.22832],[88.35863,26.23228],[88.35893,26.23393],[88.35735,26.23666],[88.36011,26.23844],[88.36073,26.24016],[88.36015,26.24278],[88.35191,26.24479],[88.35285,26.24605],[88.35517,26.24623],[88.35567,26.24704],[88.3551,26.24812],[88.35139,26.24884],[88.35018,26.25317],[88.35217,26.25712],[88.35184,26.25962],[88.3531,26.26191],[88.35177,26.26384],[88.3539,26.26551],[88.35281,26.26727],[88.35012,26.26732],[88.35136,26.27086],[88.35121,26.27365],[88.35216,26.27411],[88.35158,26.27776],[88.35245,26.27976],[88.35175,26.28158],[88.35414,26.28285],[88.35487,26.28588],[88.35593,26.28658],[88.35808,26.28584],[88.35927,26.28629],[88.36146,26.28853],[88.36445,26.29242],[88.36592,26.29909],[88.3709,26.29952],[88.37119,26.30249],[88.3732,26.30433],[88.37365,26.30227],[88.37453,26.30188],[88.37584,26.30308],[88.37577,26.30559],[88.37967,26.30435],[88.38135,26.30744],[88.38581,26.30786],[88.38642,26.31197],[88.3878,26.31277],[88.38906,26.3125],[88.38943,26.31369],[88.39528,26.31263],[88.40148,26.31682],[88.41374,26.31512],[88.41613,26.31597],[88.41707,26.31689],[88.41666,26.32105],[88.41547,26.32276],[88.41145,26.32234],[88.40976,26.32325],[88.4088,26.3261],[88.40627,26.32934],[88.40696,26.33042],[88.41103,26.33266],[88.41248,26.33393],[88.41309,26.33581],[88.41486,26.33673],[88.42114,26.33544],[88.43151,26.33503],[88.43497,26.33544],[88.4381,26.33705],[88.43877,26.3423],[88.44152,26.3475],[88.44556,26.35995],[88.44756,26.36288],[88.4517,26.36607],[88.45789,26.37375],[88.45997,26.37404],[88.46105,26.37102],[88.46076,26.36218],[88.4621,26.35979],[88.46927,26.35714],[88.47794,26.35654],[88.4823,26.35107],[88.48702,26.34922],[88.48232,26.346],[88.47642,26.3449],[88.46818,26.34652],[88.46042,26.3494],[88.45911,26.34861],[88.45161,26.33705],[88.44211,26.32623],[88.44224,26.32332],[88.44942,26.3202],[88.46926,26.32297],[88.47461,26.32231],[88.47606,26.32026],[88.47665,26.31359],[88.4781,26.3112],[88.48515,26.30963],[88.48716,26.30792],[88.48679,26.29064],[88.48192,26.28132],[88.47534,26.27445],[88.46997,26.26639],[88.46967,26.26411],[88.47108,26.25521],[88.47259,26.25311],[88.47261,26.24747],[88.47507,26.24548],[88.47909,26.24434],[88.48769,26.24444],[88.49467,26.24247],[88.50202,26.24188],[88.51234,26.23569],[88.51573,26.23473],[88.53098,26.23758],[88.54115,26.24154],[88.54536,26.24047],[88.54819,26.23735],[88.54814,26.23307],[88.55141,26.23142],[88.55568,26.2315],[88.55512,26.22898],[88.55325,26.22761],[88.55238,26.22368],[88.55334,26.21649],[88.55046,26.21277],[88.55047,26.20826],[88.54809,26.20757],[88.54703,26.20574],[88.55036,26.20357],[88.55288,26.1988],[88.55521,26.19636],[88.55447,26.19225],[88.55611,26.19089],[88.55981,26.19044],[88.56013,26.18919],[88.55589,26.17948],[88.55137,26.17963],[88.55212,26.18294],[88.55128,26.18595],[88.54897,26.18693],[88.54583,26.18646],[88.53399,26.17712],[88.5296,26.1758],[88.52721,26.1759],[88.5247,26.1792],[88.5251,26.1905],[88.52337,26.20082],[88.52349,26.20321],[88.52574,26.2067],[88.50834,26.2128],[88.49992,26.2142],[88.49766,26.21242],[88.49285,26.20476],[88.49072,26.20355],[88.48752,26.20234],[88.48225,26.20328],[88.47647,26.20145],[88.47334,26.20166],[88.47221,26.20046],[88.4731,26.19704],[88.47172,26.19641],[88.46883,26.1972],[88.46827,26.1964],[88.46973,26.19218],[88.46464,26.19061],[88.4585,26.19157],[88.45033,26.1949],[88.44749,26.19529],[88.44167,26.19424],[88.43933,26.19577],[88.43864,26.19839],[88.43743,26.19942],[88.42494,26.19919],[88.41817,26.1974],[88.41082,26.19851],[88.40964,26.19645],[88.40989,26.1936],[88.4079,26.19245],[88.40163,26.19157],[88.39886,26.19208],[88.39771,26.19833],[88.39619,26.20004],[88.38859,26.20047],[88.38614,26.20143],[88.38237,26.19941],[88.37572,26.20001],[88.37403,26.19926],[88.36861,26.18897],[88.36723,26.18862],[88.3614,26.18922],[88.36081,26.19373],[88.35905,26.19492],[88.35566,26.19456],[88.35147,26.19043],[88.34136,26.19153],[88.33395,26.19053],[88.32542,26.19225],[88.32429,26.19384],[88.32426,26.19584],[88.3222,26.20129],[88.32191,26.20205]]]}},{"type":"Feature","properties":{"name":"Boda","district_id":"panchagarh","pcode":"557725","sql_upazila_id":"panchagarh-boda","sql_name_bn":"বোদা"},"geometry":{"type":"Polygon","coordinates":[[[88.48702,26.34922],[88.49216,26.35146],[88.48957,26.35784],[88.49026,26.35984],[88.50139,26.35782],[88.50742,26.36132],[88.5088,26.36036],[88.50449,26.34974],[88.5047,26.34832],[88.50582,26.34792],[88.50896,26.3489],[88.51373,26.35222],[88.51725,26.35124],[88.51989,26.35218],[88.52241,26.35065],[88.52517,26.35066],[88.52982,26.35256],[88.53414,26.35583],[88.5357,26.35566],[88.53505,26.3475],[88.53889,26.34632],[88.54448,26.34799],[88.547,26.34577],[88.54726,26.34281],[88.54601,26.33835],[88.54144,26.33212],[88.55276,26.32845],[88.55951,26.3226],[88.56354,26.32084],[88.56811,26.32451],[88.57012,26.32497],[88.57734,26.32288],[88.58375,26.32273],[88.5849,26.32193],[88.58477,26.32017],[88.58102,26.31365],[88.58298,26.31166],[88.58618,26.31213],[88.59132,26.31676],[88.5944,26.31825],[88.59722,26.31786],[88.60051,26.31394],[88.60289,26.31252],[88.61012,26.3114],[88.62193,26.31251],[88.62739,26.31652],[88.63805,26.32727],[88.6488,26.3285],[88.6518,26.33245],[88.65551,26.33359],[88.6679,26.32797],[88.6804,26.3291],[88.69054,26.32244],[88.69173,26.32244],[88.69581,26.32598],[88.69688,26.32428],[88.69513,26.31771],[88.69645,26.31572],[88.70161,26.31408],[88.7178,26.32249],[88.72887,26.32372],[88.73672,26.32287],[88.73879,26.32328],[88.74011,26.32488],[88.73998,26.32625],[88.73684,26.33018],[88.73526,26.33365],[88.73507,26.33605],[88.72746,26.34527],[88.73505,26.35036],[88.73411,26.35276],[88.73517,26.3551],[88.74919,26.35324],[88.75052,26.34942],[88.75348,26.34543],[88.75474,26.33791],[88.76097,26.33512],[88.7616,26.33376],[88.75671,26.31972],[88.75797,26.31379],[88.75748,26.31071],[88.76176,26.29971],[88.76025,26.29491],[88.74903,26.2901],[88.74594,26.28645],[88.74789,26.28297],[88.75719,26.27666],[88.75707,26.27483],[88.75194,26.2706],[88.75049,26.26786],[88.75074,26.26392],[88.74986,26.26152],[88.74522,26.26146],[88.74289,26.26425],[88.74194,26.2683],[88.74068,26.2699],[88.73711,26.26909],[88.7319,26.26195],[88.73033,26.262],[88.72761,26.2681],[88.72617,26.26815],[88.72385,26.26632],[88.72135,26.26079],[88.7169,26.25508],[88.71414,26.24999],[88.71427,26.24674],[88.71648,26.24247],[88.71718,26.23711],[88.719,26.23506],[88.71944,26.23312],[88.71645,26.22325],[88.71896,26.21469],[88.71746,26.21047],[88.71973,26.20705],[88.7193,26.20044],[88.72176,26.19656],[88.72408,26.19497],[88.72583,26.19806],[88.72835,26.198],[88.72885,26.19641],[88.72723,26.18802],[88.72874,26.18323],[88.72855,26.18129],[88.72761,26.18112],[88.72297,26.18413],[88.71744,26.18554],[88.71518,26.18514],[88.71518,26.18406],[88.71669,26.18309],[88.7177,26.18093],[88.71808,26.17864],[88.71726,26.17682],[88.71381,26.18012],[88.70489,26.1825],[88.70344,26.18477],[88.7035,26.189],[88.70451,26.1902],[88.70739,26.19111],[88.7075,26.19448],[88.7109,26.19511],[88.71171,26.19614],[88.7112,26.19808],[88.70826,26.20115],[88.71107,26.20282],[88.70673,26.21039],[88.69856,26.21243],[88.69448,26.21247],[88.68852,26.21104],[88.68722,26.20964],[88.68571,26.20356],[88.68421,26.20104],[88.67611,26.19783],[88.67036,26.18943],[88.6681,26.18766],[88.66389,26.18714],[88.66108,26.18509],[88.66051,26.18331],[88.66102,26.1812],[88.65865,26.17406],[88.66267,26.16546],[88.66206,26.16357],[88.65498,26.15694],[88.65372,26.15437],[88.65461,26.15243],[88.659,26.15102],[88.66089,26.14954],[88.66071,26.1476],[88.65777,26.144],[88.65237,26.14427],[88.64942,26.14347],[88.64804,26.14244],[88.64686,26.13964],[88.64806,26.13684],[88.6544,26.13047],[88.65485,26.12802],[88.65197,26.12208],[88.65242,26.11963],[88.6565,26.11354],[88.65694,26.11103],[88.65252,26.09921],[88.64901,26.0964],[88.64801,26.09355],[88.6489,26.08865],[88.6479,26.08682],[88.64383,26.08635],[88.64131,26.0887],[88.64193,26.09245],[88.64041,26.09861],[88.6367,26.10373],[88.63487,26.10812],[88.63174,26.11057],[88.62859,26.1162],[88.62645,26.11831],[88.62481,26.12292],[88.62091,26.12736],[88.61185,26.13504],[88.59802,26.14224],[88.59396,26.14326],[88.58925,26.14244],[88.58604,26.14284],[88.58315,26.14642],[88.57836,26.14966],[88.57436,26.14981],[88.56938,26.15613],[88.56642,26.15772],[88.5668,26.16109],[88.56226,26.16592],[88.56194,26.16814],[88.56413,26.17266],[88.56344,26.17385],[88.55853,26.17481],[88.55589,26.17948],[88.56013,26.18919],[88.55981,26.19044],[88.55611,26.19089],[88.55447,26.19225],[88.55521,26.19636],[88.55288,26.1988],[88.55036,26.20357],[88.54703,26.20574],[88.54809,26.20757],[88.55047,26.20826],[88.55046,26.21277],[88.55334,26.21649],[88.55238,26.22368],[88.55325,26.22761],[88.55512,26.22898],[88.55568,26.2315],[88.55141,26.23142],[88.54814,26.23307],[88.54819,26.23735],[88.54724,26.2391],[88.54391,26.24104],[88.54115,26.24154],[88.53098,26.23758],[88.51573,26.23473],[88.51234,26.23569],[88.50202,26.24188],[88.49467,26.24247],[88.48769,26.24444],[88.47909,26.24434],[88.47507,26.24548],[88.47261,26.24747],[88.47259,26.25311],[88.47108,26.25521],[88.46967,26.26411],[88.46997,26.26639],[88.47534,26.27445],[88.48192,26.28132],[88.48679,26.29064],[88.48716,26.30792],[88.48515,26.30963],[88.4781,26.3112],[88.47665,26.31359],[88.47606,26.32026],[88.47461,26.32231],[88.46926,26.32297],[88.44942,26.3202],[88.44224,26.32332],[88.44211,26.32623],[88.45161,26.33705],[88.45911,26.34861],[88.46042,26.3494],[88.46818,26.34652],[88.47642,26.3449],[88.48006,26.3452],[88.48403,26.34717],[88.48702,26.34922]]]}},{"type":"Feature","properties":{"name":"Debiganj","district_id":"panchagarh","pcode":"557734","sql_upazila_id":"panchagarh-debiganj","sql_name_bn":"দেবীগঞ্জ"},"geometry":{"type":"Polygon","coordinates":[[[88.76025,26.29491],[88.76535,26.28853],[88.76604,26.2822],[88.76493,26.27074],[88.75848,26.25943],[88.75998,26.25664],[88.76195,26.23993],[88.76372,26.23511],[88.76572,26.23429],[88.77269,26.23778],[88.77564,26.23716],[88.78551,26.23215],[88.78777,26.23005],[88.79525,26.21888],[88.79569,26.21426],[88.79739,26.2097],[88.79639,26.2089],[88.79268,26.20958],[88.79099,26.20839],[88.79137,26.20415],[88.79652,26.20446],[88.7979,26.20371],[88.79446,26.1903],[88.79088,26.18613],[88.78442,26.18156],[88.77883,26.18087],[88.77657,26.17904],[88.77714,26.17813],[88.78065,26.17768],[88.78134,26.17648],[88.77979,26.16376],[88.78061,26.16108],[88.78451,26.15572],[88.78608,26.14631],[88.78464,26.14397],[88.78425,26.14141],[88.78446,26.13331],[88.78992,26.12898],[88.78867,26.12128],[88.78297,26.11323],[88.77539,26.10574],[88.77414,26.10089],[88.76669,26.0881],[88.76411,26.08616],[88.75948,26.08706],[88.75702,26.08574],[88.76927,26.07248],[88.78094,26.06484],[88.77594,26.05652],[88.77362,26.05372],[88.76936,26.05097],[88.76685,26.04772],[88.76241,26.03505],[88.76141,26.03522],[88.76003,26.03772],[88.75877,26.03755],[88.75822,26.03316],[88.76117,26.02643],[88.75816,26.0226],[88.75597,26.02328],[88.75308,26.02659],[88.75133,26.0267],[88.74876,26.02544],[88.74044,26.01727],[88.73084,26.01959],[88.72903,26.0185],[88.72559,26.01336],[88.72102,26.00873],[88.7103,26.00614],[88.70402,26.00852],[88.70121,26.01131],[88.69996,26.01439],[88.69217,26.01604],[88.67713,26.01428],[88.66779,26.01608],[88.66478,26.01841],[88.661,26.02451],[88.64611,26.04415],[88.63619,26.04863],[88.62564,26.0584],[88.63065,26.06511],[88.64131,26.0887],[88.64383,26.08635],[88.6479,26.08682],[88.6489,26.08865],[88.64801,26.09355],[88.64901,26.0964],[88.65252,26.09921],[88.65694,26.11103],[88.6565,26.11354],[88.65242,26.11963],[88.65197,26.12208],[88.65485,26.12802],[88.6544,26.13047],[88.64806,26.13684],[88.64686,26.13964],[88.64804,26.14244],[88.64942,26.14347],[88.65237,26.14427],[88.65777,26.144],[88.66071,26.1476],[88.66089,26.14954],[88.659,26.15102],[88.65461,26.15243],[88.65372,26.15437],[88.65498,26.15694],[88.66206,26.16357],[88.66267,26.16546],[88.65865,26.17406],[88.66102,26.1812],[88.66051,26.18331],[88.66108,26.18509],[88.66389,26.18714],[88.6681,26.18766],[88.67036,26.18943],[88.67611,26.19783],[88.68421,26.20104],[88.68571,26.20356],[88.68722,26.20964],[88.68852,26.21104],[88.69448,26.21247],[88.69856,26.21243],[88.70673,26.21039],[88.71107,26.20282],[88.70826,26.20115],[88.7112,26.19808],[88.71171,26.19614],[88.7109,26.19511],[88.7075,26.19448],[88.70739,26.19111],[88.70451,26.1902],[88.7035,26.189],[88.70344,26.18477],[88.70489,26.1825],[88.71381,26.18012],[88.71726,26.17682],[88.71808,26.17864],[88.7177,26.18093],[88.71669,26.18309],[88.71518,26.18406],[88.71518,26.18514],[88.71744,26.18554],[88.72297,26.18413],[88.72761,26.18112],[88.72855,26.18129],[88.72874,26.18323],[88.72723,26.18802],[88.72885,26.19641],[88.72835,26.198],[88.72583,26.19806],[88.72408,26.19497],[88.72176,26.19656],[88.7193,26.20044],[88.71973,26.20705],[88.71746,26.21047],[88.71896,26.21469],[88.71645,26.22325],[88.71944,26.23312],[88.719,26.23506],[88.71718,26.23711],[88.71648,26.24247],[88.71427,26.24674],[88.71414,26.24999],[88.7169,26.25508],[88.72135,26.26079],[88.72385,26.26632],[88.72617,26.26815],[88.72761,26.2681],[88.73033,26.262],[88.7319,26.26195],[88.73711,26.26909],[88.74068,26.2699],[88.74194,26.2683],[88.74289,26.26425],[88.74522,26.26146],[88.74986,26.26152],[88.75074,26.26392],[88.75049,26.26786],[88.75194,26.2706],[88.75707,26.27483],[88.75719,26.27666],[88.74789,26.28297],[88.74664,26.28456],[88.74594,26.28645],[88.7477,26.28873],[88.74903,26.2901],[88.75178,26.29085],[88.76025,26.29491]]]}},{"type":"Feature","properties":{"name":"Panchagarh S.","district_id":"panchagarh","pcode":"557773","sql_upazila_id":null,"sql_name_bn":null},"geometry":{"type":"Polygon","coordinates":[[[88.52531,26.48995],[88.52513,26.48474],[88.52658,26.48442],[88.52666,26.48174],[88.5305,26.48089],[88.54937,26.4833],[88.56106,26.48892],[88.55919,26.48287],[88.55743,26.48081],[88.55473,26.48057],[88.5522,26.47762],[88.55357,26.4749],[88.55508,26.47399],[88.55978,26.47489],[88.5628,26.47375],[88.56312,26.47267],[88.55686,26.45925],[88.55712,26.45685],[88.57442,26.45674],[88.58374,26.4542],[88.58563,26.4517],[88.58884,26.44948],[88.59702,26.44939],[88.59556,26.45891],[88.59435,26.46204],[88.59427,26.47009],[88.59521,26.4718],[88.61156,26.47025],[88.6207,26.47107],[88.62334,26.46828],[88.62524,26.46373],[88.625,26.45802],[88.62767,26.44708],[88.62786,26.44377],[88.62711,26.44131],[88.62366,26.43749],[88.62455,26.43543],[88.63084,26.43271],[88.63299,26.43078],[88.64966,26.42724],[88.65156,26.42376],[88.65131,26.42125],[88.64597,26.41815],[88.65341,26.4156],[88.65881,26.41721],[88.66094,26.41671],[88.66251,26.41494],[88.66422,26.40993],[88.66687,26.40993],[88.67052,26.40703],[88.68002,26.40899],[88.68152,26.41088],[88.68158,26.41248],[88.68302,26.41271],[88.68742,26.41072],[88.68806,26.4089],[88.6877,26.40125],[88.68462,26.40256],[88.67933,26.40276],[88.67198,26.39894],[88.67482,26.39569],[88.67809,26.39406],[88.68935,26.39556],[88.68946,26.39453],[88.68595,26.39247],[88.68608,26.39099],[88.68841,26.39013],[88.68929,26.3874],[88.6908,26.38706],[88.69979,26.38988],[88.70198,26.38954],[88.70268,26.38846],[88.69986,26.38503],[88.68528,26.38317],[88.68307,26.38231],[88.68182,26.38031],[88.68327,26.37843],[88.68704,26.37832],[88.68749,26.37524],[88.68951,26.37131],[88.6895,26.36812],[88.69077,26.36561],[88.69298,26.36379],[88.69632,26.36369],[88.69669,26.36306],[88.69374,26.35969],[88.69595,26.35736],[88.69839,26.35645],[88.69872,26.35063],[88.69621,26.34589],[88.69657,26.34434],[88.70377,26.341],[88.7032,26.33724],[88.70437,26.33436],[88.70673,26.3328],[88.70856,26.3328],[88.7105,26.33389],[88.71426,26.34462],[88.71796,26.34503],[88.72041,26.34429],[88.72746,26.34527],[88.73425,26.33759],[88.73684,26.33018],[88.73998,26.32625],[88.74011,26.32488],[88.73879,26.32328],[88.73672,26.32287],[88.72887,26.32372],[88.7178,26.32249],[88.70161,26.31408],[88.69645,26.31572],[88.69513,26.31771],[88.69688,26.32428],[88.69581,26.32598],[88.69173,26.32244],[88.69054,26.32244],[88.6804,26.3291],[88.6679,26.32797],[88.65551,26.33359],[88.6518,26.33245],[88.6488,26.3285],[88.63805,26.32727],[88.62739,26.31652],[88.62193,26.31251],[88.61012,26.3114],[88.60289,26.31252],[88.60051,26.31394],[88.59722,26.31786],[88.5944,26.31825],[88.59132,26.31676],[88.58618,26.31213],[88.58298,26.31166],[88.58102,26.31365],[88.58477,26.32017],[88.5849,26.32193],[88.58375,26.32273],[88.57734,26.32288],[88.57012,26.32497],[88.56811,26.32451],[88.56354,26.32084],[88.55951,26.3226],[88.55276,26.32845],[88.54144,26.33212],[88.54601,26.33835],[88.54726,26.34281],[88.547,26.34577],[88.54448,26.34799],[88.53889,26.34632],[88.53505,26.3475],[88.5357,26.35566],[88.53414,26.35583],[88.52982,26.35256],[88.52517,26.35066],[88.52241,26.35065],[88.51989,26.35218],[88.52376,26.3579],[88.52477,26.36093],[88.52174,26.36251],[88.51746,26.36204],[88.51633,26.36358],[88.51658,26.36505],[88.51897,26.36616],[88.52299,26.36594],[88.52317,26.36816],[88.52523,26.37285],[88.52485,26.37433],[88.52396,26.37439],[88.52058,26.3709],[88.51751,26.37071],[88.51611,26.37253],[88.51529,26.37458],[88.51565,26.37989],[88.51764,26.38474],[88.52016,26.38641],[88.52072,26.38789],[88.5192,26.38994],[88.51544,26.38668],[88.51374,26.38684],[88.5119,26.39271],[88.50654,26.39857],[88.51181,26.40047],[88.5118,26.40389],[88.51638,26.40807],[88.52032,26.41339],[88.52447,26.41682],[88.52929,26.42009],[88.53717,26.42211],[88.53973,26.42474],[88.53996,26.4309],[88.54121,26.43433],[88.54023,26.44431],[88.5374,26.44521],[88.53268,26.4448],[88.52934,26.44586],[88.53391,26.4545],[88.53378,26.4578],[88.52905,26.46241],[88.52866,26.46412],[88.53023,26.46532],[88.53608,26.46648],[88.53727,26.46922],[88.53555,26.4719],[88.53342,26.47297],[88.51956,26.47709],[88.51615,26.48097],[88.51577,26.48278],[88.51682,26.4861],[88.51884,26.48764],[88.52434,26.4896],[88.52531,26.48995]]]}},{"type":"Feature","properties":{"name":"Tentulia","district_id":"panchagarh","pcode":"557790","sql_upazila_id":null,"sql_name_bn":null},"geometry":{"type":"Polygon","coordinates":[[[88.33715,26.49714],[88.34456,26.50525],[88.34971,26.5087],[88.35258,26.51202],[88.35147,26.52228],[88.35252,26.52502],[88.35849,26.52915],[88.35776,26.53754],[88.36131,26.54782],[88.36417,26.55205],[88.37052,26.55676],[88.37315,26.56065],[88.37349,26.56521],[88.37019,26.57461],[88.37383,26.57862],[88.37462,26.58426],[88.37693,26.58833],[88.37754,26.59351],[88.37904,26.59478],[88.38477,26.5968],[88.3874,26.6012],[88.39028,26.60304],[88.39255,26.60322],[88.39688,26.60119],[88.39917,26.60171],[88.39847,26.60433],[88.38988,26.60754],[88.38849,26.60902],[88.3888,26.6109],[88.39131,26.61399],[88.39646,26.61618],[88.39964,26.62521],[88.40089,26.62692],[88.41132,26.63381],[88.41535,26.63412],[88.41675,26.63297],[88.41745,26.63093],[88.41659,26.62428],[88.41894,26.62095],[88.41858,26.61137],[88.42148,26.59952],[88.42158,26.59051],[88.42406,26.58316],[88.42433,26.57867],[88.42297,26.57084],[88.42342,26.56867],[88.43212,26.55109],[88.43541,26.54682],[88.43781,26.54512],[88.44197,26.54502],[88.44386,26.54417],[88.44621,26.53894],[88.45025,26.53587],[88.45642,26.53647],[88.45724,26.53721],[88.45641,26.5404],[88.45947,26.54566],[88.46218,26.54722],[88.46628,26.54416],[88.48,26.54482],[88.48164,26.54181],[88.48606,26.54131],[88.48656,26.54046],[88.48619,26.53829],[88.48412,26.53509],[88.48439,26.53148],[88.48495,26.53058],[88.48721,26.53093],[88.48992,26.53254],[88.49037,26.53174],[88.49012,26.52906],[88.48842,26.52746],[88.48889,26.52584],[88.4907,26.52593],[88.49158,26.52496],[88.49193,26.51681],[88.49394,26.51409],[88.49754,26.51173],[88.50103,26.51333],[88.5078,26.5145],[88.51202,26.51203],[88.51405,26.50816],[88.52192,26.50847],[88.52476,26.50614],[88.52477,26.50232],[88.52207,26.49854],[88.5253,26.49394],[88.52531,26.48995],[88.51884,26.48764],[88.51682,26.4861],[88.51577,26.48278],[88.51748,26.47874],[88.51956,26.47709],[88.53342,26.47297],[88.53555,26.4719],[88.53727,26.46922],[88.53608,26.46648],[88.53023,26.46532],[88.52866,26.46412],[88.52905,26.46241],[88.53378,26.4578],[88.53391,26.4545],[88.52934,26.44586],[88.53268,26.4448],[88.5374,26.44521],[88.54023,26.44431],[88.54121,26.43433],[88.53996,26.4309],[88.53973,26.42474],[88.53717,26.42211],[88.5274,26.41906],[88.52032,26.41339],[88.51638,26.40807],[88.5118,26.40389],[88.51073,26.40588],[88.50934,26.40593],[88.50602,26.40284],[88.50483,26.40284],[88.50381,26.40358],[88.50211,26.40745],[88.49644,26.40844],[88.49676,26.40977],[88.50227,26.41412],[88.50289,26.41726],[88.50144,26.41737],[88.49786,26.41536],[88.49428,26.41643],[88.4939,26.41769],[88.4984,26.4258],[88.49147,26.42903],[88.4914,26.42999],[88.49656,26.43117],[88.498,26.43277],[88.49755,26.43567],[88.49251,26.43913],[88.492,26.44032],[88.49255,26.44306],[88.48783,26.44436],[88.488,26.44972],[88.48277,26.45084],[88.47951,26.45254],[88.47955,26.45482],[88.48376,26.45763],[88.48419,26.46049],[88.4575,26.46557],[88.43755,26.46568],[88.43539,26.47022],[88.43408,26.47085],[88.4303,26.47071],[88.42638,26.47241],[88.42426,26.47075],[88.42214,26.46521],[88.41367,26.47196],[88.40748,26.48055],[88.40627,26.48408],[88.4045,26.48544],[88.40324,26.48537],[88.39897,26.48131],[88.39125,26.47911],[88.38463,26.48262],[88.37896,26.48333],[88.37663,26.48463],[88.37611,26.48663],[88.37498,26.48719],[88.36761,26.48705],[88.3646,26.48595],[88.36259,26.48406],[88.36268,26.47995],[88.36364,26.47522],[88.36649,26.4713],[88.36649,26.4701],[88.36281,26.46467],[88.36228,26.45468],[88.35591,26.44581],[88.35362,26.44963],[88.35196,26.45663],[88.3493,26.46141],[88.34914,26.46632],[88.34756,26.46751],[88.34203,26.46919],[88.34212,26.47644],[88.3411,26.4778],[88.33683,26.47715],[88.33505,26.4776],[88.33437,26.47868],[88.3325,26.48723],[88.33586,26.49557],[88.33715,26.49714]]]}}]}