{"type":"FeatureCollection","features":[{"type":"Feature","properties":{"name":"Bauphal","district_id":"patuakhali","pcode":"107838","sql_upazila_id":"patuakhali-bauphal","sql_name_bn":"বাউফল"},"geometry":{"type":"MultiPolygon","coordinates":[[[[90.6475,22.29445],[90.65083,22.2925],[90.65195,22.29028],[90.65111,22.28944],[90.64833,22.28917],[90.64445,22.28667],[90.62945,22.27],[90.62611,22.26722],[90.62112,22.26399],[90.61723,22.26361],[90.61555,22.26167],[90.61472,22.2625],[90.61611,22.26597],[90.61972,22.27],[90.63639,22.28583],[90.64361,22.29417],[90.64667,22.29445],[90.6475,22.29445]]],[[[90.6525,22.32083],[90.65166,22.32278],[90.65305,22.32222],[90.6525,22.32111],[90.6525,22.32083]]],[[[90.64667,22.31083],[90.64972,22.30917],[90.65111,22.3075],[90.65139,22.29445],[90.65083,22.29389],[90.64889,22.29556],[90.64445,22.29611],[90.64361,22.29694],[90.64306,22.29833],[90.64575,22.3041],[90.64555,22.30583],[90.63556,22.28889],[90.63167,22.285],[90.62695,22.28194],[90.62612,22.28014],[90.61945,22.27389],[90.6175,22.27305],[90.61528,22.28],[90.61667,22.28861],[90.62305,22.30055],[90.62083,22.30139],[90.62444,22.30833],[90.63361,22.32028],[90.63695,22.33222],[90.63667,22.33472],[90.63778,22.33694],[90.63722,22.33917],[90.63805,22.34333],[90.63972,22.34667],[90.64667,22.35139],[90.64778,22.35139],[90.64861,22.33556],[90.64972,22.33111],[90.64917,22.32417],[90.64972,22.31556],[90.64861,22.31222],[90.64722,22.31111],[90.64667,22.31083]]],[[[90.63472,22.34111],[90.63416,22.34056],[90.63306,22.34139],[90.63277,22.345],[90.63361,22.3475],[90.63667,22.35139],[90.64056,22.35333],[90.64111,22.3525],[90.63667,22.34306],[90.635,22.34111],[90.63472,22.34111]]],[[[90.63717,22.36783],[90.63834,22.3675],[90.63861,22.36639],[90.63695,22.36306],[90.63556,22.36194],[90.635,22.36417],[90.63696,22.36787],[90.63717,22.36783]]],[[[90.63139,22.37194],[90.63028,22.37333],[90.63223,22.37493],[90.63277,22.37389],[90.63221,22.37292],[90.63139,22.37194]]],[[[90.65968,22.38524],[90.66361,22.38305],[90.66583,22.38083],[90.66611,22.37361],[90.66472,22.36944],[90.66333,22.36806],[90.66417,22.36528],[90.66194,22.36389],[90.66028,22.36361],[90.65916,22.36472],[90.65806,22.36389],[90.65749,22.35667],[90.65639,22.35528],[90.6557,22.35625],[90.65694,22.36611],[90.65722,22.38139],[90.65806,22.38472],[90.65945,22.38528],[90.65968,22.38524]]],[[[90.59722,22.425],[90.60578,22.42084],[90.61195,22.41195],[90.61346,22.40876],[90.61305,22.40833],[90.60973,22.41028],[90.60184,22.41808],[90.59634,22.42417],[90.59666,22.425],[90.59722,22.425]]],[[[90.63972,22.48944],[90.64694,22.48611],[90.64861,22.48444],[90.64889,22.48306],[90.64917,22.48139],[90.64528,22.46472],[90.64528,22.46139],[90.64333,22.46055],[90.63889,22.46222],[90.63229,22.46327],[90.62334,22.46305],[90.62114,22.46159],[90.6325,22.46194],[90.63861,22.46055],[90.64417,22.45861],[90.64555,22.45583],[90.64584,22.44583],[90.64445,22.43361],[90.64167,22.42583],[90.64111,22.41917],[90.63972,22.4175],[90.6351,22.42102],[90.63167,22.425],[90.62917,22.42972],[90.62778,22.435],[90.62653,22.43714],[90.62611,22.43671],[90.62772,22.42966],[90.63084,22.42389],[90.63917,22.41639],[90.64139,22.41167],[90.64222,22.40778],[90.64167,22.39722],[90.6425,22.39556],[90.64333,22.38333],[90.64417,22.38083],[90.64306,22.37833],[90.63361,22.38972],[90.62805,22.395],[90.61444,22.41222],[90.60973,22.41944],[90.60694,22.42194],[90.59722,22.42667],[90.59472,22.42528],[90.59139,22.42945],[90.59111,22.43361],[90.59222,22.44028],[90.59417,22.445],[90.60528,22.46083],[90.60917,22.46889],[90.61361,22.47417],[90.61555,22.47806],[90.61916,22.48083],[90.62778,22.48306],[90.63556,22.48917],[90.6375,22.48944],[90.63972,22.48944]]],[[[90.58694,22.52472],[90.5975,22.51444],[90.60861,22.495],[90.61028,22.48611],[90.60611,22.48],[90.60172,22.48419],[90.59805,22.48611],[90.59611,22.48972],[90.59278,22.50056],[90.58861,22.50667],[90.58889,22.50778],[90.5875,22.51083],[90.58556,22.52056],[90.58583,22.52444],[90.58667,22.52472],[90.58694,22.52472]]],[[[90.58051,22.53995],[90.59389,22.53028],[90.59389,22.52972],[90.59203,22.53017],[90.59167,22.52528],[90.59028,22.52361],[90.585,22.52972],[90.57987,22.53903],[90.58046,22.54],[90.58051,22.53995]]],[[[90.5753,22.54344],[90.57667,22.5425],[90.57667,22.54083],[90.58361,22.53028],[90.58528,22.52528],[90.58444,22.52389],[90.58417,22.52083],[90.585,22.51944],[90.58444,22.51833],[90.58556,22.51611],[90.5875,22.50611],[90.58833,22.50361],[90.59194,22.49972],[90.59444,22.48972],[90.59778,22.48472],[90.60111,22.4825],[90.60551,22.47717],[90.59949,22.46817],[90.59614,22.46064],[90.59359,22.45704],[90.5925,22.45722],[90.59055,22.465],[90.58861,22.46917],[90.58806,22.46861],[90.59111,22.45889],[90.59142,22.45432],[90.58806,22.44472],[90.58694,22.43778],[90.58639,22.43278],[90.58778,22.42722],[90.58889,22.42472],[90.59798,22.41427],[90.60306,22.41015],[90.61028,22.40055],[90.62994,22.37982],[90.62789,22.36921],[90.62803,22.36666],[90.62523,22.35498],[90.61833,22.33889],[90.61667,22.3325],[90.61609,22.32444],[90.61361,22.3175],[90.61306,22.31695],[90.60991,22.32285],[90.60741,22.324],[90.60539,22.32429],[90.59984,22.3226],[90.59763,22.32271],[90.59247,22.3257],[90.58823,22.33665],[90.58738,22.34102],[90.58443,22.34578],[90.57033,22.36082],[90.56789,22.35968],[90.56584,22.35739],[90.56438,22.35194],[90.56017,22.35114],[90.55634,22.34913],[90.55563,22.34635],[90.55215,22.34507],[90.5489,22.34572],[90.54479,22.34891],[90.5437,22.35168],[90.54124,22.3542],[90.53797,22.35594],[90.52957,22.35804],[90.52455,22.35514],[90.52063,22.35444],[90.50688,22.35861],[90.49729,22.35366],[90.49442,22.35065],[90.49409,22.34541],[90.48808,22.34476],[90.48475,22.34262],[90.47988,22.34351],[90.48108,22.34568],[90.47903,22.34761],[90.47588,22.34706],[90.47347,22.34296],[90.47371,22.34072],[90.47558,22.33919],[90.47442,22.3374],[90.46813,22.33778],[90.46333,22.34036],[90.45763,22.34564],[90.45284,22.34662],[90.45271,22.34434],[90.45412,22.34156],[90.45624,22.34036],[90.45927,22.33424],[90.44908,22.33609],[90.4458,22.34228],[90.43922,22.34479],[90.43312,22.35402],[90.43242,22.35752],[90.43071,22.36013],[90.42908,22.3677],[90.43153,22.37324],[90.43905,22.37956],[90.4415,22.38327],[90.43729,22.38491],[90.43472,22.38755],[90.43325,22.39255],[90.43548,22.40129],[90.43208,22.40537],[90.42944,22.41234],[90.42937,22.4144],[90.43139,22.41842],[90.4325,22.41528],[90.43748,22.41253],[90.44083,22.41223],[90.45051,22.41341],[90.45313,22.41541],[90.45473,22.42163],[90.45386,22.42542],[90.45008,22.4316],[90.44783,22.43856],[90.44931,22.4491],[90.45136,22.45359],[90.44984,22.45712],[90.44857,22.45837],[90.44555,22.4586],[90.43639,22.45139],[90.43333,22.45028],[90.42944,22.45028],[90.4275,22.45111],[90.42722,22.45222],[90.42805,22.45333],[90.43667,22.455],[90.44139,22.45806],[90.44361,22.46139],[90.44582,22.46314],[90.44718,22.46809],[90.44664,22.47467],[90.44389,22.48306],[90.43861,22.49055],[90.4325,22.49361],[90.43245,22.50481],[90.435,22.50778],[90.44055,22.51],[90.44583,22.51389],[90.44695,22.51389],[90.45048,22.51741],[90.46111,22.52111],[90.46806,22.53056],[90.4665,22.531],[90.46833,22.53271],[90.46821,22.53458],[90.47237,22.53335],[90.47285,22.53077],[90.4754,22.52922],[90.48267,22.53047],[90.4847,22.53446],[90.48634,22.53545],[90.49604,22.53972],[90.49902,22.53984],[90.50629,22.54351],[90.50932,22.54172],[90.50929,22.53436],[90.51051,22.53176],[90.51249,22.53131],[90.51471,22.53348],[90.51718,22.53359],[90.52242,22.53945],[90.52644,22.53752],[90.52877,22.53883],[90.53228,22.54474],[90.53254,22.54713],[90.52982,22.54885],[90.52207,22.55042],[90.5201,22.55264],[90.52023,22.55492],[90.52269,22.55686],[90.52709,22.55832],[90.5388,22.56107],[90.53994,22.56297],[90.55259,22.55477],[90.57489,22.54386],[90.5753,22.54344]]],[[[90.55208,22.60105],[90.56145,22.59207],[90.56848,22.58152],[90.57317,22.57105],[90.57272,22.57048],[90.5735,22.57033],[90.57903,22.56082],[90.58833,22.55111],[90.58833,22.54944],[90.58972,22.55056],[90.59306,22.54917],[90.59611,22.55],[90.59861,22.54944],[90.59889,22.5475],[90.59666,22.54445],[90.59528,22.54361],[90.59,22.54583],[90.58833,22.54583],[90.57833,22.55167],[90.57166,22.55417],[90.55805,22.56528],[90.55389,22.57139],[90.55139,22.57667],[90.55028,22.58194],[90.55111,22.58417],[90.55083,22.58639],[90.54778,22.58917],[90.545,22.59583],[90.54139,22.59917],[90.53806,22.60778],[90.54062,22.60978],[90.54583,22.6073],[90.55208,22.60105]]]]}},{"type":"Feature","properties":{"name":"Dashina","district_id":"patuakhali","pcode":"107852","sql_upazila_id":null,"sql_name_bn":null},"geometry":{"type":"MultiPolygon","coordinates":[[[[90.51977,22.1691],[90.51876,22.16923],[90.52006,22.17111],[90.51984,22.17225],[90.52142,22.17071],[90.51991,22.16937],[90.51977,22.1691]]],[[[90.49625,22.21196],[90.49347,22.21532],[90.48723,22.2189],[90.4859,22.22043],[90.4987,22.21623],[90.49908,22.21457],[90.49664,22.21224],[90.49625,22.21196]]],[[[90.50757,22.25651],[90.51022,22.25447],[90.50911,22.25018],[90.50043,22.2371],[90.49776,22.23132],[90.49631,22.23046],[90.49256,22.23196],[90.48339,22.23812],[90.47971,22.23706],[90.47271,22.25141],[90.4736,22.25469],[90.4774,22.25546],[90.48358,22.25862],[90.4864,22.25791],[90.48903,22.25539],[90.49327,22.25631],[90.49589,22.25973],[90.49052,22.27648],[90.49194,22.28084],[90.49377,22.28199],[90.49832,22.2817],[90.50988,22.27828],[90.51322,22.27468],[90.51319,22.27318],[90.5055,22.26168],[90.5055,22.2586],[90.50736,22.25659],[90.50757,22.25651]]],[[[90.58443,22.34578],[90.58738,22.34102],[90.58823,22.33665],[90.59247,22.3257],[90.59763,22.32271],[90.59984,22.3226],[90.60539,22.32429],[90.60741,22.324],[90.60991,22.32285],[90.61232,22.31913],[90.61305,22.31639],[90.60944,22.30611],[90.60583,22.2875],[90.60191,22.27982],[90.59023,22.26152],[90.58236,22.25377],[90.57694,22.25056],[90.55917,22.23722],[90.53611,22.21305],[90.53028,22.20389],[90.52611,22.19472],[90.52084,22.17721],[90.51861,22.17556],[90.515,22.17472],[90.50278,22.16555],[90.49609,22.17263],[90.49497,22.18189],[90.49321,22.1883],[90.48727,22.19834],[90.48502,22.20438],[90.48542,22.20542],[90.49211,22.20767],[90.49694,22.21083],[90.49993,22.21358],[90.50023,22.2155],[90.49944,22.21729],[90.49722,22.21857],[90.48428,22.2228],[90.4802,22.23532],[90.48329,22.23682],[90.48725,22.23306],[90.49438,22.22982],[90.49744,22.22965],[90.49882,22.23087],[90.51044,22.25019],[90.51126,22.25446],[90.50694,22.25889],[90.50611,22.26083],[90.51413,22.27203],[90.51439,22.27506],[90.51211,22.27837],[90.51464,22.28083],[90.5173,22.2855],[90.51638,22.28693],[90.51915,22.28797],[90.51997,22.29035],[90.51662,22.30016],[90.51605,22.29885],[90.51889,22.28998],[90.5182,22.28879],[90.51551,22.28837],[90.50958,22.295],[90.50401,22.29697],[90.50082,22.29934],[90.49715,22.30508],[90.49662,22.30983],[90.49755,22.31421],[90.49713,22.31884],[90.49318,22.32727],[90.49069,22.33704],[90.49409,22.34541],[90.49442,22.35065],[90.49729,22.35366],[90.50688,22.35861],[90.52063,22.35444],[90.52455,22.35514],[90.52957,22.35804],[90.53797,22.35594],[90.54124,22.3542],[90.5437,22.35168],[90.54479,22.34891],[90.5489,22.34572],[90.55215,22.34507],[90.55563,22.34635],[90.55634,22.34913],[90.56017,22.35114],[90.56438,22.35194],[90.56584,22.35739],[90.56789,22.35968],[90.57033,22.36082],[90.58157,22.34871],[90.58443,22.34578]]]]}},{"type":"Feature","properties":{"name":"Galachipa","district_id":"patuakhali","pcode":"107857","sql_upazila_id":"patuakhali-galachipa","sql_name_bn":"গলাচিপা"},"geometry":{"type":"MultiPolygon","coordinates":[[[[90.46986,21.7799],[90.47044,21.77876],[90.46886,21.77735],[90.47151,21.77344],[90.47498,21.7715],[90.47569,21.76975],[90.47512,21.7672],[90.47147,21.76659],[90.46803,21.76713],[90.46545,21.76626],[90.46023,21.7672],[90.46023,21.76962],[90.4651,21.7787],[90.46617,21.7793],[90.46588,21.77748],[90.46893,21.7793],[90.4685,21.78045],[90.4695,21.78039],[90.46986,21.7799]]],[[[90.31667,21.79756],[90.31359,21.79729],[90.31258,21.79816],[90.31273,21.79918],[90.31417,21.80045],[90.31667,21.79796],[90.31667,21.79756]]],[[[90.38783,21.80112],[90.38833,21.79985],[90.38747,21.79884],[90.38833,21.79709],[90.38732,21.79588],[90.38804,21.7944],[90.38482,21.7901],[90.3851,21.78942],[90.38252,21.78902],[90.38124,21.78781],[90.37938,21.78855],[90.37801,21.7905],[90.38116,21.79379],[90.38461,21.79971],[90.38417,21.80045],[90.38554,21.80099],[90.3851,21.80247],[90.38761,21.80234],[90.38797,21.80166],[90.38783,21.80112]]],[[[90.45801,21.80419],[90.45701,21.80527],[90.45679,21.80829],[90.45765,21.80802],[90.45808,21.80446],[90.45801,21.80419]]],[[[90.46182,21.80186],[90.46032,21.80233],[90.45903,21.8057],[90.46118,21.81471],[90.46247,21.8137],[90.46189,21.81242],[90.46562,21.80684],[90.46612,21.80429],[90.4624,21.80233],[90.46182,21.80186]]],[[[90.43574,21.8101],[90.4333,21.81057],[90.43337,21.81225],[90.43774,21.81595],[90.44018,21.81595],[90.43753,21.81084],[90.43645,21.81017],[90.43574,21.8101]]],[[[90.45784,21.81033],[90.45748,21.81315],[90.45877,21.81605],[90.46092,21.81679],[90.46078,21.81524],[90.45877,21.81396],[90.45792,21.81067],[90.45784,21.81033]]],[[[90.41761,21.82159],[90.41904,21.82098],[90.41689,21.81809],[90.4156,21.81897],[90.41668,21.82206],[90.41747,21.82192],[90.41761,21.82159]]],[[[90.45443,21.82476],[90.45572,21.82415],[90.45435,21.82308],[90.45378,21.82341],[90.45407,21.82476],[90.45443,21.82476]]],[[[90.40032,21.83047],[90.40176,21.82872],[90.40183,21.8271],[90.3961,21.82468],[90.39424,21.82166],[90.39424,21.81876],[90.39116,21.81809],[90.39181,21.82105],[90.39417,21.82456],[90.39238,21.82428],[90.39216,21.82609],[90.39603,21.82979],[90.39973,21.83051],[90.40032,21.83047]]],[[[90.46402,21.83283],[90.46459,21.83222],[90.46288,21.82966],[90.45944,21.82953],[90.46059,21.83148],[90.46395,21.8331],[90.46402,21.83283]]],[[[90.43697,21.83299],[90.43304,21.83246],[90.43332,21.83334],[90.4369,21.83327],[90.43697,21.83299]]],[[[90.42127,21.83074],[90.41934,21.82785],[90.41812,21.82812],[90.41869,21.83074],[90.41676,21.83007],[90.41748,21.83236],[90.41991,21.83512],[90.42349,21.83619],[90.42385,21.83404],[90.4217,21.83128],[90.42127,21.83074]]],[[[90.37562,21.84145],[90.36989,21.84023],[90.36618,21.84151],[90.37247,21.84871],[90.37454,21.84756],[90.3749,21.84588],[90.37418,21.84413],[90.37562,21.84252],[90.37562,21.84145]]],[[[90.29919,21.84645],[90.30134,21.84268],[90.29948,21.83939],[90.29539,21.83844],[90.29253,21.83992],[90.29233,21.84134],[90.29411,21.8451],[90.29654,21.84584],[90.29533,21.84713],[90.2969,21.8492],[90.29783,21.84907],[90.29905,21.84692],[90.29919,21.84645]]],[[[90.54145,21.84737],[90.54031,21.84783],[90.54081,21.84851],[90.54432,21.84884],[90.54553,21.85019],[90.54675,21.85019],[90.54553,21.84851],[90.54217,21.84764],[90.54145,21.84737]]],[[[90.46371,21.85446],[90.46278,21.85466],[90.46378,21.85641],[90.46393,21.85466],[90.46371,21.85446]]],[[[90.51696,21.8557],[90.51926,21.85577],[90.51919,21.85423],[90.52097,21.85275],[90.5204,21.85073],[90.51689,21.85133],[90.51582,21.85443],[90.5141,21.85624],[90.51668,21.85591],[90.51696,21.8557]]],[[[90.52634,21.85624],[90.52849,21.85577],[90.52785,21.85416],[90.52992,21.85328],[90.53035,21.85187],[90.53,21.8508],[90.52663,21.8518],[90.52807,21.85039],[90.52728,21.84911],[90.5252,21.85006],[90.52283,21.85328],[90.52406,21.8549],[90.52362,21.85624],[90.52548,21.85658],[90.52634,21.85624]]],[[[90.50673,21.85709],[90.51246,21.85608],[90.51497,21.85427],[90.51583,21.84983],[90.51447,21.84586],[90.5159,21.84431],[90.51361,21.84317],[90.51361,21.84257],[90.51497,21.84291],[90.51526,21.84237],[90.51375,21.84089],[90.52065,21.83543],[90.52201,21.83193],[90.52416,21.83099],[90.52443,21.83335],[90.52872,21.83638],[90.52594,21.83032],[90.51972,21.82556],[90.51437,21.82319],[90.50653,21.81638],[90.50374,21.81626],[90.50725,21.81893],[90.5069,21.81955],[90.50327,21.81756],[90.50195,21.81806],[90.4969,21.81711],[90.49597,21.81541],[90.49117,21.81445],[90.49194,21.81361],[90.49478,21.81354],[90.49454,21.81169],[90.49305,21.81235],[90.48185,21.81209],[90.47992,21.81279],[90.47612,21.81928],[90.47514,21.82476],[90.47829,21.83755],[90.48076,21.84333],[90.48625,21.84822],[90.49706,21.85521],[90.50222,21.85709],[90.50501,21.85723],[90.50673,21.85709]]],[[[90.42805,21.85997],[90.42648,21.85883],[90.42282,21.85802],[90.42082,21.85863],[90.42798,21.86091],[90.42848,21.86024],[90.42805,21.85997]]],[[[90.45639,21.8614],[90.45889,21.85917],[90.45917,21.8575],[90.45889,21.85361],[90.46028,21.84611],[90.45917,21.845],[90.46028,21.84333],[90.45889,21.83945],[90.45528,21.8375],[90.44678,21.83605],[90.44139,21.83389],[90.4302,21.8339],[90.42948,21.83605],[90.43056,21.83861],[90.43083,21.84333],[90.4325,21.84666],[90.43528,21.84917],[90.44473,21.85444],[90.45333,21.86056],[90.45611,21.8614],[90.45639,21.8614]]],[[[90.47137,21.86427],[90.47295,21.86253],[90.47288,21.86004],[90.4703,21.85721],[90.46958,21.8552],[90.46687,21.85352],[90.46493,21.85688],[90.46507,21.86098],[90.46643,21.8636],[90.46886,21.86561],[90.47102,21.86569],[90.47137,21.86448],[90.47137,21.86427]]],[[[90.37363,21.86567],[90.373,21.86567],[90.37313,21.86748],[90.37421,21.86876],[90.37406,21.86594],[90.37363,21.86567]]],[[[90.56251,21.87191],[90.56329,21.87144],[90.56194,21.87023],[90.55892,21.87016],[90.55763,21.87151],[90.55849,21.87184],[90.56042,21.8709],[90.56194,21.87171],[90.56251,21.87191]]],[[[90.39327,21.86793],[90.39213,21.8676],[90.39471,21.87345],[90.39549,21.87372],[90.39478,21.87029],[90.39363,21.86874],[90.39327,21.86793]]],[[[90.54318,21.87515],[90.54741,21.87226],[90.54934,21.86998],[90.54018,21.87489],[90.53609,21.8742],[90.54583,21.86528],[90.54839,21.86197],[90.55385,21.85951],[90.55349,21.85829],[90.55005,21.85809],[90.54861,21.85587],[90.54747,21.85547],[90.54639,21.8554],[90.54627,21.85695],[90.5444,21.85688],[90.54036,21.8594],[90.53835,21.8594],[90.52658,21.86306],[90.52063,21.86374],[90.51054,21.86347],[90.50539,21.86548],[90.50524,21.86817],[90.50738,21.86952],[90.50732,21.87079],[90.51169,21.87617],[90.51369,21.87994],[90.51742,21.8827],[90.52551,21.88636],[90.52758,21.88623],[90.53722,21.87778],[90.5424,21.87542],[90.54318,21.87515]]],[[[90.50865,21.89884],[90.51105,21.89334],[90.51012,21.89025],[90.50166,21.88166],[90.49822,21.87936],[90.4932,21.87771],[90.49329,21.8788],[90.49067,21.88276],[90.48959,21.88726],[90.49017,21.88915],[90.48966,21.89301],[90.49286,21.89826],[90.49135,21.8984],[90.49071,21.90068],[90.49264,21.90418],[90.49728,21.90952],[90.49928,21.91073],[90.50072,21.9106],[90.50457,21.90626],[90.50842,21.89923],[90.50865,21.89884]]],[[[90.4572,21.90121],[90.45247,21.89213],[90.44767,21.8887],[90.44366,21.88762],[90.44016,21.8852],[90.43027,21.88167],[90.42416,21.88111],[90.41997,21.88139],[90.41875,21.88213],[90.41832,21.88557],[90.42028,21.89333],[90.42478,21.89808],[90.43563,21.90091],[90.45912,21.91231],[90.46135,21.91217],[90.4602,21.90618],[90.45784,21.90208],[90.4572,21.90121]]],[[[90.50417,21.91769],[90.50352,21.91702],[90.5042,21.91968],[90.50432,21.91804],[90.50417,21.91769]]],[[[90.50637,21.92333],[90.50562,21.92327],[90.50813,21.9267],[90.50677,21.9236],[90.50637,21.92333]]],[[[90.33271,21.95811],[90.33355,21.95644],[90.33243,21.95586],[90.33243,21.95475],[90.33044,21.95475],[90.33022,21.95393],[90.32851,21.95366],[90.33071,21.95753],[90.33243,21.95811],[90.33271,21.95811]]],[[[90.33548,21.96168],[90.33461,21.96001],[90.33218,21.95884],[90.33236,21.95998],[90.3343,21.96168],[90.33548,21.96168]]],[[[90.53847,21.9764],[90.53732,21.977],[90.53933,21.98016],[90.54033,21.98043],[90.53868,21.9768],[90.53847,21.9764]]],[[[90.54369,21.97841],[90.54255,21.97774],[90.54183,21.97821],[90.54234,21.98051],[90.54591,21.98198],[90.54642,21.98117],[90.5442,21.97875],[90.54369,21.97841]]],[[[90.60025,21.95974],[90.59553,21.94286],[90.5892,21.92501],[90.58833,21.91972],[90.58611,21.91694],[90.58485,21.91135],[90.58213,21.90875],[90.58183,21.90622],[90.57671,21.89845],[90.57664,21.89643],[90.57436,21.89603],[90.57272,21.89722],[90.57207,21.89689],[90.57279,21.89576],[90.5721,21.89489],[90.57637,21.89367],[90.57666,21.89199],[90.57616,21.8887],[90.57516,21.88863],[90.57637,21.88675],[90.57347,21.88389],[90.56975,21.88301],[90.56781,21.88389],[90.57132,21.8859],[90.57426,21.88631],[90.57325,21.88738],[90.56967,21.88664],[90.56824,21.8855],[90.5676,21.88611],[90.56796,21.88732],[90.56324,21.88599],[90.56368,21.88839],[90.55901,21.88492],[90.55183,21.8835],[90.53825,21.88468],[90.52679,21.88946],[90.5164,21.8908],[90.51016,21.906],[90.50822,21.91333],[90.50987,21.91998],[90.51094,21.92025],[90.51109,21.91622],[90.5125,21.9175],[90.5127,21.92216],[90.51418,21.92521],[90.51404,21.92871],[90.51282,21.92972],[90.51203,21.92609],[90.51102,21.92535],[90.51003,21.92649],[90.5101,21.92864],[90.50895,21.92878],[90.51335,21.93468],[90.5135,21.93616],[90.51801,21.94329],[90.53084,21.95804],[90.53484,21.96082],[90.53885,21.9619],[90.54172,21.96163],[90.54515,21.96014],[90.55009,21.95974],[90.5584,21.96068],[90.56464,21.96345],[90.57283,21.96955],[90.58186,21.98185],[90.58528,21.98417],[90.58694,21.98417],[90.59955,21.97655],[90.60422,21.9713],[90.60032,21.96021],[90.60025,21.95974]]],[[[90.5797,21.9812],[90.57905,21.98174],[90.57934,21.9845],[90.5817,21.98497],[90.58199,21.98342],[90.57998,21.98167],[90.5797,21.9812]]],[[[90.56619,21.98706],[90.57845,21.98374],[90.57837,21.98038],[90.57661,21.97681],[90.57029,21.96919],[90.56573,21.96588],[90.55843,21.96302],[90.54616,21.96497],[90.54208,21.96658],[90.54236,21.968],[90.54852,21.97432],[90.55883,21.9836],[90.56302,21.98639],[90.56576,21.98706],[90.56619,21.98706]]],[[[90.56009,21.99495],[90.55838,21.99488],[90.55781,21.99361],[90.55458,21.9936],[90.55373,21.99576],[90.55868,22.00379],[90.56142,22.00703],[90.56555,22.01],[90.56686,22.00792],[90.56575,22.00187],[90.56333,22],[90.56038,21.99536],[90.56009,21.99495]]],[[[90.39845,22.01107],[90.40115,22.00199],[90.4,21.99297],[90.39246,21.98524],[90.3903,21.98134],[90.38721,21.97356],[90.38605,21.96443],[90.38483,21.96108],[90.37483,21.95007],[90.37171,21.94451],[90.36889,21.93683],[90.35848,21.92497],[90.35526,21.91648],[90.35484,21.91285],[90.35614,21.90811],[90.36834,21.88161],[90.3747,21.87307],[90.37463,21.86997],[90.37048,21.86802],[90.36253,21.86705],[90.36905,21.86621],[90.37084,21.86466],[90.37077,21.86338],[90.36926,21.86095],[90.3646,21.85678],[90.35693,21.85191],[90.35325,21.85208],[90.34437,21.84831],[90.34136,21.84804],[90.33405,21.84549],[90.32115,21.84693],[90.3136,21.85332],[90.311,21.85765],[90.30955,21.86743],[90.30969,21.8681],[90.31083,21.86814],[90.31083,21.87145],[90.30955,21.87174],[90.30966,21.87278],[90.30807,21.87513],[90.30814,21.87907],[90.30598,21.88122],[90.3062,21.88257],[90.30899,21.88364],[90.30964,21.8786],[90.30885,21.87699],[90.31178,21.87148],[90.31306,21.87088],[90.31072,21.87726],[90.31115,21.87928],[90.31051,21.88022],[90.31208,21.88022],[90.31216,21.88096],[90.31002,21.88333],[90.3111,21.88608],[90.31245,21.88669],[90.31217,21.88729],[90.31031,21.88595],[90.30902,21.88608],[90.31607,21.89522],[90.32533,21.91121],[90.32956,21.92239],[90.33456,21.93189],[90.33682,21.94263],[90.33803,21.94509],[90.34251,21.95215],[90.35278,21.96499],[90.35578,21.98005],[90.35707,21.98207],[90.36031,21.98509],[90.38165,21.99869],[90.3975,22.01083],[90.39845,22.01107]]],[[[90.5697,22.01218],[90.56891,22.01292],[90.57106,22.01459],[90.56977,22.01238],[90.5697,22.01218]]],[[[90.3748,22.01812],[90.37379,22.01858],[90.37495,22.01992],[90.37825,22.02147],[90.37531,22.01872],[90.3748,22.01812]]],[[[90.41779,22.02],[90.42064,22.01442],[90.42078,22.01146],[90.41695,22.00222],[90.41633,21.9926],[90.41031,21.97739],[90.40945,21.97169],[90.40987,21.96033],[90.40498,21.9496],[90.40282,21.94671],[90.39916,21.94474],[90.39,21.9429],[90.3774,21.93728],[90.37416,21.93662],[90.37252,21.93792],[90.37305,21.94258],[90.37485,21.94678],[90.38653,21.96018],[90.389,21.97318],[90.39239,21.98252],[90.4005,21.9907],[90.40188,21.99315],[90.40214,22.00489],[90.39944,22.01222],[90.40028,22.01444],[90.405,22.01972],[90.41278,22.02611],[90.41745,22.02061],[90.41779,22.02]]],[[[90.61153,22.00606],[90.61655,22.00074],[90.61733,21.99864],[90.61995,21.99557],[90.62023,21.98998],[90.61498,21.98392],[90.61089,21.98284],[90.60567,21.97807],[90.6003,21.97933],[90.59696,21.9832],[90.59389,21.98389],[90.58778,21.98788],[90.58777,21.99654],[90.58542,22.00599],[90.58467,22.00528],[90.585,22],[90.5861,21.99654],[90.58583,21.98861],[90.58499,21.98779],[90.58028,21.9875],[90.5751,21.98846],[90.56929,21.99016],[90.56686,21.99251],[90.56867,22.00154],[90.57361,22.01389],[90.57777,22.02],[90.59099,22.02959],[90.59457,22.02888],[90.59886,22.02432],[90.60642,22.01055],[90.61113,22.00638],[90.61153,22.00606]]],[[[90.37527,22.05],[90.37527,22.04833],[90.3717,22.04381],[90.36889,22.04167],[90.36667,22.04083],[90.36555,22.04139],[90.3675,22.04694],[90.36945,22.04917],[90.375,22.05167],[90.37556,22.05028],[90.37527,22.05]]],[[[90.34026,21.99099],[90.33883,21.99118],[90.34033,21.99394],[90.34808,22.00226],[90.3544,22.01148],[90.36389,22.03555],[90.36572,22.03774],[90.37326,22.04326],[90.37991,22.05247],[90.38125,22.0531],[90.38206,22.05267],[90.38534,22.04916],[90.38978,22.04654],[90.39082,22.04468],[90.39047,22.0427],[90.38024,22.02889],[90.37216,22.01966],[90.35457,22.00179],[90.34449,21.99333],[90.34077,21.99145],[90.34026,21.99099]]],[[[90.46473,22.05445],[90.46806,22.05111],[90.46828,22.04782],[90.47222,22.04194],[90.47417,22.03695],[90.47833,22.03],[90.48112,22.00031],[90.48552,21.98218],[90.48894,21.97483],[90.49319,21.96244],[90.49298,21.95635],[90.49068,21.95017],[90.48495,21.93995],[90.48054,21.93415],[90.4696,21.92678],[90.46172,21.91889],[90.45856,21.91675],[90.45322,21.91434],[90.45426,21.91654],[90.44768,21.91167],[90.43179,21.9044],[90.42586,21.90089],[90.41621,21.89772],[90.41334,21.89551],[90.4105,21.8946],[90.40671,21.8948],[90.39979,21.88433],[90.39655,21.87597],[90.39297,21.87536],[90.39118,21.87604],[90.38769,21.87509],[90.3854,21.87818],[90.38232,21.87757],[90.37953,21.87845],[90.37792,21.8808],[90.37221,21.88449],[90.37002,21.88723],[90.35992,21.91729],[90.36046,21.92363],[90.36426,21.92822],[90.37254,21.9339],[90.38035,21.93625],[90.38887,21.94069],[90.40102,21.9436],[90.40831,21.9526],[90.41111,21.96],[90.41077,21.97533],[90.41598,21.98818],[90.41775,21.99425],[90.41889,22.00361],[90.42167,22.01028],[90.42153,22.01463],[90.42026,22.01783],[90.41388,22.02709],[90.41506,22.02887],[90.4181,22.03211],[90.42812,22.03804],[90.43139,22.03885],[90.43584,22.04167],[90.44456,22.04552],[90.4525,22.04806],[90.46361,22.05445],[90.46473,22.05445]]],[[[90.40889,22.05861],[90.41,22.05722],[90.40318,22.05028],[90.39451,22.03938],[90.39116,22.03659],[90.39,22.03833],[90.39417,22.04528],[90.39889,22.05],[90.4,22.05305],[90.405,22.05778],[90.40694,22.05861],[90.40889,22.05861]]],[[[90.48528,22.03139],[90.48389,22.03139],[90.48168,22.03411],[90.47536,22.04789],[90.47466,22.05194],[90.475,22.05694],[90.47667,22.06083],[90.47861,22.0625],[90.48,22.06222],[90.48083,22.05833],[90.47897,22.04383],[90.48264,22.03494],[90.48541,22.03177],[90.48528,22.03139]]],[[[90.42023,22.08175],[90.42403,22.08175],[90.42612,22.08121],[90.4267,22.08014],[90.41707,22.0814],[90.42001,22.08181],[90.42023,22.08175]]],[[[90.41131,22.08061],[90.42137,22.07903],[90.42355,22.07932],[90.42659,22.078],[90.42805,22.07583],[90.41225,22.06033],[90.40806,22.06028],[90.40183,22.05722],[90.39651,22.05277],[90.39294,22.04815],[90.39014,22.04785],[90.38577,22.04986],[90.38332,22.05388],[90.38435,22.05501],[90.38333,22.05519],[90.37805,22.05417],[90.36806,22.04944],[90.36515,22.04469],[90.36392,22.0401],[90.36069,22.03392],[90.35135,22.00969],[90.3466,22.00301],[90.342,22.00191],[90.34028,22.00666],[90.34084,22.00917],[90.34,22.01056],[90.34,22.01278],[90.33888,22.015],[90.34002,22.02029],[90.34454,22.02764],[90.35074,22.04043],[90.36409,22.06085],[90.37347,22.0659],[90.37859,22.06988],[90.38634,22.07748],[90.38925,22.08392],[90.39265,22.08604],[90.39481,22.08606],[90.40277,22.08257],[90.41064,22.08079],[90.41131,22.08061]]],[[[90.48934,22.09302],[90.49099,22.09217],[90.48934,22.08829],[90.48795,22.08856],[90.48795,22.08773],[90.48572,22.08744],[90.48516,22.08608],[90.4843,22.08608],[90.48458,22.08744],[90.48627,22.08884],[90.48707,22.09189],[90.48848,22.09221],[90.48791,22.09333],[90.48903,22.09333],[90.48934,22.09302]]],[[[90.49125,22.09583],[90.49099,22.09331],[90.48957,22.09442],[90.48957,22.09578],[90.49097,22.09637],[90.49125,22.09583]]],[[[90.38131,22.10917],[90.38131,22.10746],[90.37962,22.10746],[90.37932,22.10831],[90.38016,22.10831],[90.38043,22.10917],[90.38131,22.10917]]],[[[90.53833,22.13417],[90.54153,22.13254],[90.54972,22.13139],[90.53917,22.12904],[90.53178,22.12495],[90.53458,22.12168],[90.53661,22.12169],[90.54247,22.12394],[90.55804,22.12787],[90.56619,22.12852],[90.57576,22.1333],[90.57446,22.12694],[90.57375,22.11154],[90.57529,22.09367],[90.58266,22.10863],[90.58461,22.11012],[90.58594,22.10712],[90.58562,22.1049],[90.57919,22.09154],[90.5766,22.08111],[90.5763,22.06917],[90.57907,22.06319],[90.575,22.05694],[90.57548,22.05062],[90.57361,22.04778],[90.57278,22.04417],[90.56973,22.04056],[90.56223,22.02777],[90.55611,22.02084],[90.55527,22.01889],[90.54195,22.00611],[90.53303,21.9961],[90.52615,21.98406],[90.51382,21.96778],[90.50941,21.96031],[90.50586,21.95798],[90.503,21.95724],[90.50207,21.95778],[90.50199,21.9709],[90.49963,21.98546],[90.50077,21.99177],[90.49934,21.99231],[90.49798,21.98928],[90.49597,21.98989],[90.49447,21.99547],[90.49139,22.00083],[90.48805,22.01028],[90.48917,22.0125],[90.48639,22.01471],[90.48889,22.02],[90.49389,22.02306],[90.50191,22.02618],[90.50764,22.03094],[90.51129,22.03631],[90.51334,22.04194],[90.51361,22.04528],[90.5128,22.0478],[90.51998,22.05635],[90.52396,22.06283],[90.5263,22.06352],[90.53694,22.06055],[90.54083,22.06361],[90.54528,22.07111],[90.54723,22.07833],[90.54708,22.08139],[90.54444,22.08695],[90.54222,22.08917],[90.54585,22.08208],[90.54611,22.07917],[90.54389,22.07139],[90.54028,22.06472],[90.53778,22.06222],[90.53611,22.06195],[90.52639,22.065],[90.52333,22.06444],[90.51906,22.05754],[90.51028,22.0475],[90.50945,22.03778],[90.50443,22.03033],[90.49578,22.02643],[90.49028,22.02528],[90.48861,22.02528],[90.48778,22.02611],[90.48724,22.03475],[90.48182,22.04552],[90.48219,22.04728],[90.48129,22.05149],[90.48312,22.06345],[90.48487,22.06941],[90.48468,22.07214],[90.49154,22.08748],[90.49136,22.08969],[90.49257,22.0917],[90.50472,22.10083],[90.5175,22.11305],[90.53426,22.13248],[90.53806,22.13417],[90.53833,22.13417]]],[[[90.39611,22.14167],[90.39692,22.14062],[90.39667,22.13667],[90.39555,22.1345],[90.39,22.13194],[90.38805,22.13305],[90.38951,22.13799],[90.39167,22.14028],[90.39558,22.14166],[90.39611,22.14167]]],[[[90.51028,22.14583],[90.50971,22.1411],[90.50548,22.14056],[90.50361,22.1393],[90.50056,22.13917],[90.49917,22.14028],[90.50073,22.14257],[90.50222,22.14222],[90.50667,22.14583],[90.51,22.14611],[90.51028,22.14583]]],[[[90.51111,22.14917],[90.51006,22.14791],[90.50121,22.14728],[90.50166,22.14861],[90.50528,22.15],[90.50972,22.15111],[90.51111,22.15],[90.51111,22.14917]]],[[[90.52292,22.16024],[90.52265,22.15859],[90.52321,22.15859],[90.52431,22.15493],[90.52402,22.15161],[90.52236,22.15133],[90.52183,22.14967],[90.52098,22.14993],[90.52098,22.14883],[90.5193,22.148],[90.51791,22.14883],[90.51791,22.15078],[90.51651,22.15242],[90.5196,22.15303],[90.52067,22.15439],[90.51373,22.15466],[90.51457,22.15773],[90.51347,22.15718],[90.51317,22.15775],[90.51873,22.15857],[90.52262,22.16024],[90.52292,22.16024]]],[[[90.37446,22.11139],[90.3744,22.10454],[90.36994,22.10589],[90.36706,22.11109],[90.36253,22.10978],[90.35867,22.10416],[90.35647,22.10467],[90.35328,22.10732],[90.34793,22.11207],[90.34322,22.11778],[90.3469,22.12814],[90.34619,22.13124],[90.34196,22.13396],[90.34129,22.13672],[90.34251,22.14691],[90.34203,22.14956],[90.33991,22.15342],[90.3399,22.1597],[90.34141,22.16497],[90.34115,22.1669],[90.34573,22.16156],[90.34772,22.15589],[90.35567,22.14844],[90.3604,22.14591],[90.38544,22.13773],[90.3838,22.13326],[90.37727,22.12197],[90.37454,22.11174],[90.37446,22.11139]]],[[[90.39788,22.21962],[90.4037,22.21462],[90.40828,22.2083],[90.40793,22.20641],[90.40019,22.20504],[90.39557,22.20615],[90.39503,22.21143],[90.39639,22.21778],[90.39778,22.21972],[90.39788,22.21962]]],[[[90.4802,22.23532],[90.48428,22.2228],[90.47083,22.22806],[90.47111,22.22917],[90.47652,22.23208],[90.48009,22.23523],[90.4802,22.23532]]],[[[90.51638,22.28693],[90.5173,22.2855],[90.51464,22.28083],[90.51211,22.27837],[90.50658,22.28555],[90.50723,22.28669],[90.51595,22.28691],[90.51638,22.28693]]],[[[90.35056,22.30381],[90.35771,22.30536],[90.36159,22.30765],[90.36495,22.31099],[90.36952,22.31339],[90.36977,22.30225],[90.37444,22.30208],[90.37028,22.29528],[90.37028,22.29333],[90.37167,22.29111],[90.38033,22.28837],[90.39832,22.288],[90.40253,22.28718],[90.40685,22.28562],[90.41215,22.28189],[90.41563,22.27887],[90.41657,22.27689],[90.41665,22.27483],[90.41487,22.27058],[90.40432,22.26104],[90.399,22.25177],[90.39772,22.24128],[90.39421,22.22865],[90.39256,22.21787],[90.39278,22.20751],[90.39361,22.20528],[90.39583,22.20311],[90.39939,22.20223],[90.4116,22.20162],[90.42386,22.19913],[90.4306,22.19691],[90.43156,22.19506],[90.43132,22.19373],[90.42775,22.18838],[90.42271,22.18476],[90.40566,22.17732],[90.39867,22.17195],[90.39639,22.16551],[90.39642,22.15941],[90.39859,22.14956],[90.39828,22.14739],[90.38634,22.13837],[90.35512,22.15034],[90.34861,22.15639],[90.34528,22.165],[90.34131,22.16795],[90.34658,22.17355],[90.35059,22.17599],[90.35379,22.17569],[90.35699,22.17784],[90.35731,22.18023],[90.36405,22.18137],[90.36534,22.18534],[90.36803,22.18699],[90.37248,22.19161],[90.37537,22.1956],[90.37571,22.19759],[90.37511,22.19937],[90.369,22.20157],[90.36445,22.20239],[90.36193,22.20175],[90.36103,22.20508],[90.36449,22.21401],[90.36259,22.21651],[90.36327,22.21884],[90.36295,22.22467],[90.36427,22.22595],[90.36528,22.22872],[90.36496,22.23079],[90.35977,22.23034],[90.35495,22.22783],[90.35073,22.23125],[90.34784,22.23582],[90.34608,22.2369],[90.33893,22.23667],[90.34091,22.24147],[90.33962,22.24402],[90.33511,22.24344],[90.33334,22.24423],[90.33474,22.25213],[90.33915,22.25995],[90.33894,22.26139],[90.33816,22.26198],[90.3341,22.26019],[90.33305,22.26455],[90.33115,22.26728],[90.32938,22.27218],[90.32758,22.27394],[90.32162,22.27242],[90.31994,22.27423],[90.32076,22.27684],[90.3166,22.28025],[90.31456,22.28047],[90.31418,22.28225],[90.31549,22.28502],[90.31675,22.28596],[90.32158,22.28664],[90.32378,22.28796],[90.32389,22.28978],[90.32218,22.29205],[90.32011,22.29324],[90.31998,22.29541],[90.32193,22.29685],[90.3241,22.29714],[90.32672,22.29611],[90.32909,22.29673],[90.32999,22.29814],[90.33041,22.30898],[90.33246,22.31378],[90.33675,22.3151],[90.33883,22.31225],[90.34377,22.30997],[90.34898,22.30904],[90.34825,22.30507],[90.35056,22.30381]]],[[[90.47988,22.34351],[90.48475,22.34262],[90.48808,22.34476],[90.49409,22.34541],[90.49069,22.33704],[90.49318,22.32727],[90.49713,22.31884],[90.49755,22.31421],[90.49662,22.30983],[90.49715,22.30508],[90.50082,22.29934],[90.50401,22.29697],[90.50958,22.295],[90.51551,22.28837],[90.51095,22.2882],[90.50594,22.28684],[90.50607,22.28456],[90.50988,22.27828],[90.4955,22.28217],[90.49194,22.28084],[90.49052,22.27648],[90.49589,22.25973],[90.49327,22.25631],[90.48903,22.25539],[90.4864,22.25791],[90.48358,22.25862],[90.4774,22.25546],[90.4736,22.25469],[90.47271,22.25141],[90.47971,22.23706],[90.46944,22.22889],[90.46944,22.22778],[90.47285,22.22531],[90.4859,22.22043],[90.48723,22.2189],[90.49347,22.21532],[90.49613,22.21189],[90.48444,22.20667],[90.48361,22.20555],[90.48361,22.2034],[90.48514,22.19767],[90.49184,22.18564],[90.49284,22.1758],[90.49693,22.16407],[90.49746,22.15624],[90.49496,22.14919],[90.48856,22.13927],[90.48033,22.12964],[90.46553,22.10928],[90.44556,22.08778],[90.43777,22.08055],[90.43295,22.07714],[90.42529,22.0827],[90.40779,22.08315],[90.39785,22.08765],[90.39424,22.08851],[90.39059,22.08833],[90.38914,22.09623],[90.38615,22.10413],[90.38693,22.10913],[90.38704,22.12019],[90.38975,22.1238],[90.39683,22.12921],[90.40022,22.13313],[90.40329,22.1384],[90.40495,22.14327],[90.40584,22.15443],[90.40418,22.1642],[90.40488,22.17097],[90.40704,22.17323],[90.43195,22.18139],[90.43334,22.18274],[90.43609,22.1905],[90.43527,22.19576],[90.43267,22.19882],[90.42749,22.20163],[90.42065,22.2031],[90.41126,22.20973],[90.40291,22.22019],[90.39926,22.22699],[90.39908,22.23371],[90.40417,22.25056],[90.40799,22.25857],[90.41828,22.2673],[90.4205,22.2716],[90.42074,22.27411],[90.41897,22.27916],[90.41514,22.28327],[90.41019,22.28672],[90.40361,22.28972],[90.4025,22.2912],[90.40936,22.29369],[90.4097,22.29893],[90.41351,22.2985],[90.41587,22.29695],[90.43603,22.29657],[90.43863,22.2969],[90.44386,22.30065],[90.44659,22.30144],[90.45727,22.29946],[90.45887,22.29937],[90.46119,22.30051],[90.46459,22.3031],[90.47071,22.31208],[90.47158,22.31629],[90.47538,22.32179],[90.47543,22.32378],[90.47384,22.32811],[90.4663,22.33206],[90.45927,22.33424],[90.45624,22.34036],[90.45412,22.34156],[90.45271,22.34434],[90.45284,22.34662],[90.45763,22.34564],[90.46333,22.34036],[90.46813,22.33778],[90.47169,22.33718],[90.47442,22.3374],[90.47558,22.33919],[90.47371,22.34072],[90.47347,22.34296],[90.47588,22.34706],[90.47903,22.34761],[90.48108,22.34568],[90.47988,22.34351]]]]}},{"type":"Feature","properties":{"name":"Kalapara","district_id":"patuakhali","pcode":"107866","sql_upazila_id":"patuakhali-kalapara","sql_name_bn":"কলাপাড়া"},"geometry":{"type":"MultiPolygon","coordinates":[[[[90.24986,21.82991],[90.2487,21.82924],[90.24805,21.82991],[90.25128,21.83314],[90.25258,21.83287],[90.25286,21.83153],[90.25092,21.83037],[90.24986,21.82991]]],[[[90.21223,21.98333],[90.22467,21.97952],[90.22736,21.97792],[90.23282,21.97255],[90.23674,21.96386],[90.23542,21.96017],[90.23318,21.95753],[90.22697,21.9549],[90.22043,21.95605],[90.2157,21.95432],[90.21075,21.95467],[90.20873,21.95351],[90.20798,21.94968],[90.20688,21.94839],[90.20519,21.9479],[90.20108,21.94857],[90.19744,21.94717],[90.19509,21.94438],[90.19444,21.93753],[90.19275,21.93279],[90.18826,21.92946],[90.18298,21.92885],[90.17983,21.92748],[90.17165,21.90978],[90.16893,21.90893],[90.16296,21.91191],[90.15713,21.91101],[90.15413,21.90714],[90.14918,21.90401],[90.14754,21.90013],[90.14758,21.89632],[90.14646,21.8952],[90.14007,21.89773],[90.1347,21.89752],[90.12775,21.89895],[90.12296,21.90257],[90.11865,21.90396],[90.11611,21.91852],[90.11724,21.92386],[90.12811,21.92472],[90.13866,21.9234],[90.14405,21.92561],[90.14693,21.92934],[90.14778,21.93203],[90.14718,21.93646],[90.13925,21.94783],[90.13724,21.95271],[90.13727,21.95612],[90.13889,21.95984],[90.14616,21.96588],[90.15939,21.9812],[90.16149,21.98135],[90.16556,21.97756],[90.16996,21.97533],[90.17424,21.97494],[90.18745,21.97778],[90.19948,21.97831],[90.208,21.98281],[90.21191,21.98334],[90.21223,21.98333]]],[[[90.30098,21.95312],[90.29662,21.93451],[90.29137,21.9252],[90.286,21.91861],[90.28397,21.91479],[90.28118,21.90348],[90.27862,21.89801],[90.27585,21.89511],[90.2729,21.88924],[90.2689,21.87729],[90.26746,21.87494],[90.26539,21.87581],[90.26489,21.8783],[90.26817,21.88625],[90.26874,21.89055],[90.26559,21.88302],[90.26439,21.87548],[90.26467,21.87319],[90.26639,21.87],[90.26639,21.8675],[90.26192,21.85789],[90.26108,21.85107],[90.25958,21.84807],[90.25999,21.84472],[90.25833,21.84083],[90.25555,21.83861],[90.25389,21.83833],[90.25139,21.83556],[90.24852,21.83546],[90.24554,21.83419],[90.24217,21.83231],[90.24074,21.83022],[90.23921,21.83015],[90.23756,21.82753],[90.23339,21.82474],[90.22894,21.81843],[90.22708,21.8177],[90.2215,21.81159],[90.21194,21.80972],[90.21083,21.80778],[90.19889,21.80278],[90.19556,21.80028],[90.19361,21.80083],[90.18916,21.79944],[90.18333,21.80028],[90.18195,21.79944],[90.18056,21.79972],[90.17917,21.80112],[90.17944,21.80222],[90.18361,21.80639],[90.185,21.80667],[90.185,21.8075],[90.18305,21.80722],[90.17861,21.80333],[90.17639,21.80028],[90.16708,21.80035],[90.16006,21.8017],[90.15476,21.80331],[90.15326,21.80506],[90.145,21.80502],[90.13233,21.80918],[90.12933,21.80952],[90.1266,21.8114],[90.1231,21.81187],[90.12009,21.81362],[90.12159,21.8153],[90.11801,21.81497],[90.11631,21.8162],[90.11187,21.8166],[90.11079,21.81855],[90.10699,21.8194],[90.10513,21.82108],[90.10208,21.82181],[90.09141,21.83216],[90.08546,21.83983],[90.08375,21.84521],[90.08366,21.84938],[90.08654,21.8594],[90.08868,21.86209],[90.0947,21.86471],[90.09851,21.86339],[90.10346,21.85507],[90.10626,21.85319],[90.0996,21.86321],[90.09995,21.86689],[90.11114,21.8796],[90.11314,21.88369],[90.11493,21.89142],[90.11787,21.89856],[90.11894,21.89884],[90.12885,21.89527],[90.13278,21.89494],[90.13871,21.89604],[90.14472,21.89211],[90.14902,21.89178],[90.14973,21.89293],[90.15668,21.89683],[90.15524,21.89743],[90.15182,21.89622],[90.15004,21.89972],[90.15972,21.90945],[90.16135,21.90968],[90.16574,21.90668],[90.16869,21.90585],[90.17169,21.90644],[90.1741,21.90811],[90.1767,21.9159],[90.18156,21.92637],[90.18266,21.92718],[90.18901,21.9279],[90.19487,21.93253],[90.19686,21.93633],[90.19643,21.94059],[90.19783,21.94504],[90.19966,21.94606],[90.20752,21.94678],[90.20917,21.94812],[90.21008,21.95237],[90.21088,21.95305],[90.21592,21.95311],[90.22182,21.95454],[90.22417,21.95339],[90.22813,21.95372],[90.23358,21.95564],[90.23727,21.95991],[90.23888,21.96059],[90.24846,21.95233],[90.25591,21.95091],[90.26032,21.953],[90.26347,21.95717],[90.26541,21.96043],[90.26562,21.96571],[90.26723,21.97015],[90.26943,21.9747],[90.27287,21.97895],[90.28575,21.98775],[90.29343,21.99054],[90.29576,21.99],[90.2972,21.98836],[90.30013,21.98142],[90.30345,21.97675],[90.30419,21.97385],[90.30363,21.96598],[90.30112,21.95401],[90.30098,21.95312]]],[[[90.2661,22.04538],[90.27176,22.04536],[90.27967,22.04692],[90.28167,22.04306],[90.28222,22.04111],[90.28167,22.03861],[90.27439,22.03187],[90.27139,22.0275],[90.26972,22.02306],[90.27226,22.0153],[90.27856,22.00697],[90.28222,22],[90.28167,21.99973],[90.28339,21.99231],[90.27996,21.98908],[90.27041,21.98248],[90.26522,21.97746],[90.2607,21.96873],[90.25809,21.95619],[90.2555,21.95401],[90.25133,21.95612],[90.24203,21.96311],[90.23457,21.97485],[90.2304,21.97939],[90.22653,21.98148],[90.21562,21.98525],[90.21207,21.98608],[90.20777,21.9856],[90.20655,21.9868],[90.20583,21.99136],[90.20863,22.00801],[90.21021,22.00755],[90.21221,22.00394],[90.2188,21.99619],[90.2211,21.99466],[90.22209,21.99563],[90.22306,21.99528],[90.23,22.0026],[90.234,22.00821],[90.23583,22.01241],[90.23766,22.02113],[90.23951,22.02454],[90.24126,22.02623],[90.24774,22.02675],[90.25094,22.02907],[90.25357,22.03511],[90.25468,22.04451],[90.25654,22.04686],[90.2595,22.04725],[90.2628,22.04631],[90.2661,22.04538]]],[[[90.21139,22.07776],[90.20971,22.07473],[90.20588,22.07412],[90.20276,22.07495],[90.20228,22.07313],[90.20712,22.06975],[90.21132,22.06824],[90.21613,22.06864],[90.21871,22.06624],[90.21962,22.06348],[90.22276,22.06078],[90.23358,22.05596],[90.23987,22.05416],[90.24007,22.05278],[90.22977,22.04281],[90.23343,22.04135],[90.2384,22.04084],[90.24606,22.04203],[90.24493,22.03869],[90.24341,22.0373],[90.23944,22.03608],[90.23711,22.03436],[90.23426,22.03797],[90.2237,22.03451],[90.22305,22.03304],[90.22295,22.03191],[90.23798,22.03012],[90.23727,22.0266],[90.23995,22.02634],[90.2375,22.02333],[90.23411,22.01088],[90.23035,22.00481],[90.22318,21.99677],[90.22112,21.99617],[90.21759,21.99928],[90.21042,22.00886],[90.20818,22.00952],[90.20623,22.0065],[90.20406,21.99614],[90.20394,21.9841],[90.19774,21.98176],[90.19353,21.9817],[90.19096,21.98223],[90.19067,21.98367],[90.19186,21.98508],[90.1882,21.98894],[90.18729,21.99181],[90.1903,21.9938],[90.18803,21.99893],[90.18337,22.00166],[90.18202,22.00648],[90.18626,22.01067],[90.18594,22.01278],[90.18697,22.0163],[90.18361,22.01963],[90.18437,22.02064],[90.18806,22.02112],[90.19044,22.02432],[90.19675,22.02321],[90.20193,22.02366],[90.2054,22.01964],[90.20753,22.02164],[90.20667,22.02394],[90.20432,22.02783],[90.19891,22.0304],[90.20582,22.03098],[90.21022,22.02997],[90.21062,22.02865],[90.21421,22.02731],[90.21427,22.02936],[90.21523,22.03089],[90.20863,22.03731],[90.20782,22.03927],[90.20821,22.04411],[90.21177,22.04608],[90.2151,22.04629],[90.21518,22.04931],[90.21159,22.05105],[90.20639,22.05197],[90.20318,22.04931],[90.20091,22.04999],[90.20096,22.05838],[90.20424,22.06127],[90.20225,22.06297],[90.19873,22.06254],[90.19386,22.05997],[90.19017,22.06001],[90.18662,22.06527],[90.18642,22.06967],[90.19109,22.07139],[90.18834,22.08144],[90.18964,22.08387],[90.19468,22.08586],[90.19859,22.08685],[90.20233,22.08677],[90.20472,22.08591],[90.20732,22.08203],[90.21041,22.08007],[90.21139,22.07776]]],[[[90.35647,22.10467],[90.35867,22.10416],[90.36253,22.10978],[90.36706,22.11109],[90.36994,22.10589],[90.3744,22.10454],[90.37797,22.09009],[90.37817,22.08385],[90.37576,22.08007],[90.3725,22.07707],[90.36174,22.07002],[90.34496,22.06161],[90.33974,22.0569],[90.33461,22.05072],[90.33063,22.04404],[90.32581,22.02715],[90.32111,22.01861],[90.32111,22.01694],[90.31917,22.01417],[90.31805,22.01028],[90.31639,22.00805],[90.30976,21.98535],[90.30769,21.9824],[90.30497,21.98141],[90.30331,21.98309],[90.30264,21.98687],[90.29977,21.99091],[90.29495,21.99261],[90.28815,21.99335],[90.28701,21.99423],[90.28555,22],[90.28329,22.00495],[90.27784,22.01152],[90.27225,22.02024],[90.27113,22.02333],[90.27145,22.02524],[90.27397,22.02886],[90.27971,22.03372],[90.28301,22.03939],[90.28298,22.04245],[90.28104,22.04707],[90.28665,22.04762],[90.2899,22.04998],[90.2946,22.05132],[90.29533,22.05267],[90.29425,22.05469],[90.28775,22.05841],[90.2863,22.0601],[90.29343,22.06018],[90.29466,22.06085],[90.29626,22.06971],[90.29527,22.07425],[90.30111,22.07588],[90.30462,22.07601],[90.30865,22.07284],[90.3131,22.07741],[90.31697,22.07972],[90.31956,22.08645],[90.31803,22.08911],[90.31813,22.09242],[90.32124,22.09594],[90.32962,22.09808],[90.33344,22.10061],[90.33422,22.10413],[90.33836,22.11328],[90.34322,22.11778],[90.34793,22.11207],[90.35328,22.10732],[90.35647,22.10467]]]]}},{"type":"Feature","properties":{"name":"Mirzaganj","district_id":"patuakhali","pcode":"107876","sql_upazila_id":"patuakhali-mirzaganj","sql_name_bn":"মির্জাগঞ্জ"},"geometry":{"type":"Polygon","coordinates":[[[90.30667,22.47084],[90.30194,22.46861],[90.29945,22.46361],[90.29889,22.45611],[90.30027,22.44955],[90.29996,22.4461],[90.29832,22.44167],[90.26846,22.41163],[90.26278,22.40139],[90.26158,22.39696],[90.26222,22.39528],[90.26167,22.39361],[90.26222,22.39278],[90.26167,22.39194],[90.26195,22.38111],[90.26064,22.37923],[90.25921,22.37187],[90.25629,22.35159],[90.25301,22.34567],[90.24982,22.34394],[90.24443,22.34337],[90.23088,22.34902],[90.23038,22.34977],[90.23135,22.35401],[90.22943,22.36121],[90.22752,22.36244],[90.22117,22.36174],[90.21958,22.36237],[90.22344,22.37285],[90.23087,22.38345],[90.23037,22.38386],[90.22821,22.38212],[90.22271,22.37406],[90.21778,22.36167],[90.22205,22.35998],[90.2282,22.3605],[90.22988,22.35243],[90.22617,22.35002],[90.21743,22.34664],[90.21278,22.34318],[90.20611,22.33972],[90.20111,22.33417],[90.1975,22.32361],[90.19722,22.30972],[90.19781,22.30303],[90.20087,22.28818],[90.20856,22.26831],[90.20972,22.25777],[90.20752,22.23317],[90.21068,22.22182],[90.20657,22.22297],[90.20502,22.22523],[90.19681,22.2289],[90.18571,22.23162],[90.1808,22.23429],[90.17564,22.24218],[90.1711,22.24291],[90.16354,22.24851],[90.16181,22.25529],[90.15951,22.25671],[90.16025,22.26126],[90.15901,22.26352],[90.15527,22.2664],[90.15368,22.26929],[90.15258,22.27211],[90.15215,22.27697],[90.15098,22.27917],[90.14928,22.28012],[90.14853,22.28448],[90.14877,22.29098],[90.15029,22.29722],[90.14951,22.30027],[90.14989,22.30287],[90.15095,22.3056],[90.15329,22.30794],[90.15852,22.30537],[90.16187,22.30575],[90.16381,22.3093],[90.16389,22.31244],[90.16332,22.31582],[90.16099,22.32135],[90.15746,22.32109],[90.15533,22.3176],[90.15422,22.31968],[90.15405,22.32243],[90.15237,22.32435],[90.14746,22.32783],[90.14481,22.32783],[90.14336,22.32946],[90.1433,22.33386],[90.14566,22.33665],[90.15205,22.33081],[90.16105,22.32826],[90.17046,22.32713],[90.175,22.32394],[90.17733,22.32332],[90.17749,22.32487],[90.17422,22.32978],[90.1711,22.33745],[90.17221,22.33976],[90.17972,22.33902],[90.18197,22.34228],[90.18361,22.34824],[90.18435,22.35524],[90.18381,22.36016],[90.1856,22.36286],[90.19008,22.36624],[90.18864,22.38368],[90.19081,22.38889],[90.18936,22.3924],[90.19018,22.39513],[90.19369,22.39961],[90.19994,22.40449],[90.19976,22.40941],[90.20067,22.41344],[90.20388,22.41553],[90.21414,22.41557],[90.21794,22.41749],[90.21898,22.42152],[90.22297,22.42508],[90.22928,22.43681],[90.23052,22.43729],[90.22768,22.44427],[90.22831,22.44682],[90.23081,22.44796],[90.23402,22.44757],[90.23901,22.45434],[90.25058,22.4572],[90.25591,22.46022],[90.26348,22.46141],[90.27039,22.46113],[90.27859,22.4743],[90.28068,22.47579],[90.28128,22.47304],[90.28294,22.47071],[90.29125,22.46959],[90.29575,22.46921],[90.2984,22.47055],[90.30006,22.47305],[90.30717,22.47648],[90.30712,22.47345],[90.30667,22.47084]]]}},{"type":"Feature","properties":{"name":"Patuakhali S.","district_id":"patuakhali","pcode":"107895","sql_upazila_id":null,"sql_name_bn":null},"geometry":{"type":"MultiPolygon","coordinates":[[[[90.3082,22.36667],[90.3195,22.36746],[90.32615,22.36503],[90.33334,22.36416],[90.34365,22.36574],[90.34692,22.36536],[90.35081,22.36175],[90.35196,22.35914],[90.35159,22.35731],[90.3461,22.35054],[90.34666,22.3475],[90.34917,22.34639],[90.35382,22.34611],[90.37699,22.34782],[90.39723,22.35247],[90.40578,22.3536],[90.40955,22.35322],[90.41495,22.35074],[90.41872,22.34708],[90.41988,22.34434],[90.41059,22.33965],[90.40807,22.33763],[90.37444,22.30208],[90.36977,22.30225],[90.36952,22.31339],[90.36495,22.31099],[90.36159,22.30765],[90.35771,22.30536],[90.35229,22.30376],[90.34825,22.30507],[90.34898,22.30904],[90.34377,22.30997],[90.33883,22.31225],[90.33675,22.3151],[90.33246,22.31378],[90.33041,22.30898],[90.32999,22.29814],[90.32909,22.29673],[90.32672,22.29611],[90.3241,22.29714],[90.32193,22.29685],[90.31998,22.29541],[90.32011,22.29324],[90.32218,22.29205],[90.32389,22.28978],[90.32378,22.28796],[90.32158,22.28664],[90.31675,22.28596],[90.31549,22.28502],[90.31418,22.28225],[90.31456,22.28047],[90.3166,22.28025],[90.32076,22.27684],[90.31994,22.27423],[90.32162,22.27242],[90.32758,22.27394],[90.32938,22.27218],[90.33115,22.26728],[90.33305,22.26455],[90.3341,22.26019],[90.31461,22.25341],[90.3133,22.2507],[90.30371,22.245],[90.29511,22.24178],[90.29165,22.23906],[90.28806,22.23869],[90.28665,22.24128],[90.29032,22.24908],[90.29382,22.25054],[90.29473,22.25457],[90.29298,22.256],[90.28581,22.25536],[90.2824,22.25632],[90.27695,22.26265],[90.27677,22.26744],[90.27177,22.27001],[90.27262,22.28004],[90.27522,22.28272],[90.27216,22.28342],[90.26401,22.28316],[90.26438,22.28554],[90.26905,22.29623],[90.26634,22.30314],[90.26465,22.30421],[90.26288,22.30265],[90.26172,22.29869],[90.25503,22.29976],[90.25289,22.29832],[90.25004,22.2977],[90.24815,22.29838],[90.24598,22.29604],[90.24072,22.2977],[90.23347,22.29849],[90.23109,22.29981],[90.22858,22.29798],[90.22825,22.29542],[90.22926,22.2934],[90.22644,22.29186],[90.22514,22.29395],[90.21783,22.29315],[90.21626,22.29288],[90.21665,22.2915],[90.2107,22.29013],[90.20695,22.30722],[90.20667,22.31361],[90.2075,22.3225],[90.2121,22.33376],[90.21333,22.33583],[90.21543,22.33712],[90.22083,22.33722],[90.23222,22.33361],[90.24167,22.33222],[90.25,22.335],[90.25555,22.33833],[90.25889,22.34139],[90.2712,22.35769],[90.28056,22.36728],[90.28308,22.37179],[90.28873,22.37694],[90.29091,22.37646],[90.29377,22.37262],[90.29836,22.36896],[90.3028,22.36722],[90.30753,22.36668],[90.3082,22.36667]]],[[[90.42829,22.42462],[90.43139,22.41972],[90.42937,22.4144],[90.42944,22.41234],[90.43208,22.40537],[90.43548,22.40129],[90.43325,22.39255],[90.43369,22.39043],[90.43472,22.38755],[90.43729,22.38491],[90.4415,22.38327],[90.43905,22.37956],[90.43153,22.37324],[90.42908,22.3677],[90.43071,22.36013],[90.43242,22.35752],[90.43312,22.35402],[90.43922,22.34479],[90.4458,22.34228],[90.44908,22.33609],[90.45927,22.33424],[90.4663,22.33206],[90.47384,22.32811],[90.47501,22.32591],[90.47538,22.32179],[90.47158,22.31629],[90.47071,22.31208],[90.46849,22.30963],[90.46677,22.30596],[90.46459,22.3031],[90.45887,22.29937],[90.44659,22.30144],[90.44386,22.30065],[90.43863,22.2969],[90.43603,22.29657],[90.41587,22.29695],[90.41351,22.2985],[90.4097,22.29893],[90.40936,22.29369],[90.40341,22.29109],[90.4025,22.2912],[90.40417,22.29902],[90.40411,22.30076],[90.40354,22.30084],[90.40195,22.29694],[90.40278,22.29639],[90.40113,22.29026],[90.39042,22.29194],[90.37473,22.29167],[90.37222,22.29333],[90.37222,22.295],[90.37478,22.2986],[90.38434,22.30706],[90.39725,22.32196],[90.41113,22.33534],[90.42253,22.34317],[90.42941,22.34007],[90.43223,22.34006],[90.4345,22.3439],[90.43361,22.34667],[90.43278,22.34639],[90.43337,22.34377],[90.43291,22.34208],[90.43189,22.34114],[90.43008,22.34123],[90.42208,22.34408],[90.41943,22.34859],[90.41437,22.35301],[90.40862,22.35494],[90.40377,22.35555],[90.39708,22.35499],[90.38263,22.35143],[90.35405,22.34876],[90.34966,22.34772],[90.34746,22.34875],[90.36286,22.36198],[90.37033,22.37671],[90.37312,22.3802],[90.37953,22.3858],[90.38711,22.38975],[90.38966,22.39259],[90.39265,22.40117],[90.39261,22.41394],[90.39543,22.41913],[90.40348,22.42264],[90.41702,22.4255],[90.42361,22.42631],[90.42789,22.42497],[90.42829,22.42462]]],[[[90.37534,22.4856],[90.37932,22.48548],[90.40507,22.47977],[90.41583,22.47833],[90.41804,22.47549],[90.41833,22.47056],[90.41722,22.46389],[90.41835,22.4592],[90.42548,22.44981],[90.43323,22.44836],[90.4384,22.44968],[90.44278,22.45278],[90.44806,22.45361],[90.44889,22.45139],[90.44611,22.44695],[90.44504,22.44301],[90.44504,22.43925],[90.44615,22.43465],[90.44775,22.43138],[90.45131,22.42733],[90.45248,22.42306],[90.45266,22.41851],[90.45103,22.41531],[90.44829,22.41413],[90.43906,22.41477],[90.43481,22.41597],[90.43163,22.42375],[90.42853,22.42619],[90.42489,22.42773],[90.40423,22.42546],[90.39715,22.4222],[90.39343,22.41926],[90.39172,22.41659],[90.39057,22.41159],[90.38995,22.39995],[90.3875,22.39361],[90.38435,22.39093],[90.37611,22.38667],[90.37315,22.38382],[90.36837,22.37836],[90.35986,22.36466],[90.35653,22.36222],[90.35393,22.36275],[90.34846,22.36688],[90.32909,22.36602],[90.31891,22.36966],[90.31476,22.36992],[90.30574,22.3684],[90.30209,22.36892],[90.29921,22.37039],[90.2945,22.37482],[90.29372,22.37649],[90.29774,22.3806],[90.30592,22.39497],[90.31082,22.40021],[90.30743,22.39796],[90.3032,22.39348],[90.29766,22.3826],[90.29413,22.37797],[90.29019,22.37944],[90.2864,22.37822],[90.28308,22.37506],[90.27446,22.36338],[90.26933,22.35912],[90.26752,22.35959],[90.26667,22.37008],[90.26711,22.37638],[90.26914,22.38371],[90.27144,22.39914],[90.27417,22.40833],[90.28308,22.41735],[90.29768,22.42564],[90.30275,22.4316],[90.30551,22.43739],[90.30804,22.44646],[90.30971,22.45881],[90.30917,22.46294],[90.30966,22.46524],[90.31279,22.4655],[90.32244,22.46314],[90.32916,22.46259],[90.34322,22.46396],[90.35052,22.46695],[90.35545,22.47144],[90.35905,22.47642],[90.36079,22.48028],[90.36111,22.485],[90.35815,22.4913],[90.36108,22.49381],[90.36446,22.49261],[90.37075,22.48724],[90.37476,22.48581],[90.37534,22.4856]]]]}}]}