{"type":"FeatureCollection","features":[{"type":"Feature","properties":{"name":"Bhandaria","district_id":"pirojpur","pcode":"107914","sql_upazila_id":"pirojpur-bhandaria","sql_name_bn":"ভান্ডারিয়া"},"geometry":{"type":"MultiPolygon","coordinates":[[[[90.00723,22.50056],[90.01309,22.49886],[90.01,22.49639],[90.00611,22.49889],[90.00584,22.50056],[90.00723,22.50056]]],[[[90.06365,22.53405],[90.06801,22.5258],[90.06935,22.51325],[90.06568,22.50523],[90.06686,22.50292],[90.07069,22.50557],[90.07375,22.50893],[90.07573,22.509],[90.07629,22.50699],[90.07361,22.49791],[90.07397,22.49631],[90.07543,22.49502],[90.08286,22.49326],[90.08325,22.49187],[90.08178,22.48734],[90.08341,22.48622],[90.08628,22.48718],[90.09025,22.49006],[90.09192,22.49265],[90.09505,22.49395],[90.10146,22.49369],[90.10487,22.4967],[90.10649,22.49455],[90.10912,22.49358],[90.11141,22.49381],[90.11307,22.49132],[90.11597,22.49125],[90.11639,22.49501],[90.11764,22.49796],[90.12054,22.50029],[90.12632,22.49449],[90.12682,22.49238],[90.12388,22.48166],[90.13033,22.47306],[90.12815,22.46791],[90.12543,22.4654],[90.11929,22.46223],[90.11681,22.45949],[90.11396,22.45881],[90.11142,22.46121],[90.11044,22.45906],[90.11008,22.45262],[90.1051,22.444],[90.09776,22.44456],[90.09261,22.44131],[90.08992,22.44228],[90.08725,22.44131],[90.08534,22.43919],[90.08269,22.4393],[90.08141,22.44253],[90.07918,22.44452],[90.08011,22.44952],[90.0785,22.45144],[90.0765,22.45069],[90.07376,22.45212],[90.0729,22.45461],[90.06882,22.45714],[90.06991,22.46089],[90.06913,22.46422],[90.06641,22.46405],[90.0656,22.46127],[90.06359,22.46017],[90.06114,22.45611],[90.06274,22.45128],[90.06677,22.44976],[90.06432,22.4428],[90.05881,22.43995],[90.05008,22.44168],[90.04295,22.4451],[90.04242,22.44631],[90.03958,22.4462],[90.03284,22.44327],[90.03378,22.42988],[90.03129,22.42628],[90.03075,22.42207],[90.03124,22.41994],[90.03648,22.41732],[90.03761,22.41518],[90.03581,22.41243],[90.03733,22.41154],[90.03849,22.40883],[90.03817,22.40587],[90.03918,22.40396],[90.04111,22.40266],[90.04096,22.39913],[90.03553,22.39433],[90.03021,22.394],[90.02741,22.38824],[90.02107,22.39123],[90.01591,22.3922],[90.01338,22.39471],[90.00906,22.3944],[90.00587,22.39824],[90.00338,22.39961],[90.00309,22.39779],[90.00438,22.39507],[90.00233,22.39244],[89.99597,22.39229],[89.99284,22.39064],[89.98854,22.39114],[89.98425,22.39266],[89.98184,22.39477],[89.97739,22.40223],[89.97433,22.40303],[89.96972,22.40136],[89.96801,22.39963],[89.96688,22.3964],[89.96885,22.39367],[89.9746,22.3895],[89.97712,22.38625],[89.97811,22.38411],[89.97811,22.37635],[89.97659,22.3725],[89.97037,22.3679],[89.96734,22.36779],[89.96251,22.36966],[89.95702,22.37983],[89.95318,22.38391],[89.9446,22.38386],[89.94038,22.3807],[89.93672,22.36748],[89.93672,22.36508],[89.93448,22.36164],[89.92921,22.36353],[89.92389,22.37014],[89.91779,22.37547],[89.91303,22.377],[89.9125,22.37972],[89.9232,22.39679],[89.93658,22.40542],[89.94283,22.4111],[89.96333,22.42278],[89.96857,22.42794],[89.97678,22.43844],[89.98126,22.44682],[89.98768,22.46551],[89.98916,22.47833],[89.99071,22.48166],[89.99059,22.48236],[89.98916,22.48195],[89.98861,22.4825],[89.98778,22.48639],[89.98944,22.4925],[89.99151,22.49407],[89.99918,22.49179],[90.00806,22.49056],[90.01334,22.49083],[90.01611,22.49195],[90.01801,22.49453],[90.015,22.50056],[90.01899,22.50078],[90.02286,22.50737],[90.02362,22.51369],[90.03306,22.51468],[90.03415,22.52357],[90.03568,22.52753],[90.04056,22.5329],[90.04522,22.53354],[90.04655,22.53466],[90.04944,22.54367],[90.05177,22.54596],[90.05226,22.54761],[90.05415,22.54905],[90.05655,22.54865],[90.05925,22.54545],[90.06216,22.53894],[90.06365,22.53405]]]]}},{"type":"Feature","properties":{"name":"Kawkhali","district_id":"pirojpur","pcode":"107947","sql_upazila_id":"pirojpur-kawkhali","sql_name_bn":"কাউখালী"},"geometry":{"type":"Polygon","coordinates":[[[90.02642,22.6639],[90.05157,22.65771],[90.05357,22.65853],[90.05449,22.66027],[90.05423,22.66222],[90.05612,22.66366],[90.05936,22.66422],[90.06245,22.6666],[90.06536,22.66672],[90.06729,22.6649],[90.07798,22.65987],[90.08103,22.66054],[90.0846,22.65995],[90.08923,22.65454],[90.10236,22.6531],[90.09753,22.64104],[90.09792,22.63658],[90.1027,22.6351],[90.10348,22.63167],[90.10263,22.62562],[90.10348,22.62224],[90.10907,22.6188],[90.1123,22.60502],[90.10902,22.60019],[90.10585,22.59734],[90.10244,22.59702],[90.10081,22.5941],[90.09587,22.59192],[90.09441,22.58778],[90.08799,22.58575],[90.07858,22.58551],[90.07581,22.5882],[90.0722,22.5897],[90.07048,22.59248],[90.06683,22.59262],[90.0657,22.58939],[90.06385,22.58703],[90.06157,22.58018],[90.0587,22.57687],[90.05932,22.57457],[90.06245,22.57359],[90.06303,22.56038],[90.06399,22.55648],[90.06756,22.55126],[90.06801,22.5258],[90.06365,22.53405],[90.05925,22.54545],[90.05655,22.54865],[90.05415,22.54905],[90.04944,22.54367],[90.04655,22.53466],[90.04522,22.53354],[90.04056,22.5329],[90.03568,22.52753],[90.03415,22.52357],[90.03306,22.51468],[90.02362,22.51369],[90.02538,22.52839],[90.02461,22.53965],[90.02106,22.55075],[90.02007,22.56003],[90.02208,22.56831],[90.03436,22.58717],[90.02642,22.59585],[90.02114,22.59717],[90.01826,22.60317],[90.02096,22.61682],[90.02654,22.62947],[90.0314,22.65256],[90.02888,22.66067],[90.02665,22.6636],[90.02642,22.6639]]]}},{"type":"Feature","properties":{"name":"Mathbaria","district_id":"pirojpur","pcode":"107958","sql_upazila_id":"pirojpur-mathbaria","sql_name_bn":"মঠবাড়ীয়া"},"geometry":{"type":"MultiPolygon","coordinates":[[[[89.84373,21.79745],[89.84531,21.79691],[89.84216,21.79705],[89.84102,21.79799],[89.83687,21.80391],[89.83672,21.80565],[89.8413,21.7988],[89.84302,21.79772],[89.84373,21.79745]]],[[[89.8453,21.81978],[89.8519,21.81897],[89.8519,21.81803],[89.84932,21.81749],[89.85018,21.81735],[89.85047,21.81561],[89.85162,21.81561],[89.85548,21.81991],[89.8572,21.81991],[89.85606,21.81803],[89.85405,21.81681],[89.85348,21.81561],[89.85418,21.81238],[89.8519,21.80955],[89.85534,21.81117],[89.85706,21.80431],[89.85562,21.80229],[89.85176,21.79974],[89.8446,21.79839],[89.84145,21.80041],[89.83958,21.8027],[89.83686,21.80888],[89.83286,21.81507],[89.83443,21.81493],[89.83643,21.81131],[89.83858,21.80969],[89.83443,21.81668],[89.83428,21.81897],[89.83958,21.81951],[89.84116,21.81897],[89.84073,21.82058],[89.84431,21.81991],[89.8453,21.81978]]],[[[89.85525,21.85836],[89.86083,21.85688],[89.86359,21.85252],[89.86398,21.84887],[89.86657,21.84416],[89.86327,21.83375],[89.86126,21.8324],[89.85954,21.83335],[89.85889,21.83605],[89.85602,21.84036],[89.8513,21.84373],[89.85115,21.84507],[89.85224,21.84653],[89.85052,21.85009],[89.85002,21.85594],[89.85196,21.85802],[89.85453,21.85849],[89.85525,21.85836]]],[[[89.83926,22.0499],[89.84473,22.04636],[89.85177,22.03851],[89.85463,22.0337],[89.85801,22.02528],[89.86098,22.00611],[89.86055,21.99771],[89.86189,21.98927],[89.8618,21.97554],[89.86323,21.96077],[89.86509,21.95445],[89.86966,21.94517],[89.87051,21.94194],[89.86994,21.9367],[89.87109,21.93508],[89.87467,21.92325],[89.87467,21.92029],[89.87696,21.9102],[89.87594,21.8981],[89.86678,21.88667],[89.8662,21.88331],[89.86291,21.87981],[89.85532,21.87443],[89.84957,21.87262],[89.84697,21.87372],[89.84219,21.88066],[89.84786,21.8881],[89.84802,21.89058],[89.84619,21.89592],[89.83914,21.9011],[89.81285,21.91593],[89.81001,21.91954],[89.80891,21.92499],[89.81122,21.93256],[89.81667,21.93868],[89.82956,21.94748],[89.83578,21.95048],[89.84296,21.95271],[89.845,21.95596],[89.84409,21.96051],[89.83656,21.96942],[89.8274,21.97589],[89.80654,21.98757],[89.80544,21.9901],[89.80983,21.993],[89.82475,21.99588],[89.83774,22.00047],[89.84068,22.00307],[89.84245,22.00757],[89.84303,22.0135],[89.84328,22.01759],[89.84243,22.0217],[89.84,22.0264],[89.83203,22.03325],[89.82869,22.03727],[89.82639,22.04399],[89.82748,22.04969],[89.83534,22.05072],[89.83862,22.05002],[89.83926,22.0499]]],[[[89.8007,22.07197],[89.798,22.07326],[89.80183,22.07278],[89.80103,22.07213],[89.8007,22.07197]]],[[[89.7775,22.08861],[89.78833,22.08194],[89.79778,22.07111],[89.81194,22.05889],[89.81662,22.05662],[89.82083,22.0525],[89.82322,22.05134],[89.82439,22.04849],[89.82453,22.04146],[89.82695,22.03574],[89.83571,22.02818],[89.84021,22.0206],[89.84084,22.01648],[89.84055,22.00789],[89.83791,22.00306],[89.83456,22.00114],[89.82967,22.00039],[89.82944,21.99972],[89.82192,21.99726],[89.80907,21.99498],[89.80478,21.99246],[89.80364,21.98983],[89.80424,21.98788],[89.80627,21.98568],[89.81212,21.98116],[89.83129,21.97051],[89.84274,21.9571],[89.84084,21.95475],[89.83528,21.95333],[89.83167,21.95083],[89.82917,21.95028],[89.82118,21.94579],[89.81645,21.94263],[89.81023,21.93665],[89.80836,21.93375],[89.80672,21.92764],[89.80636,21.92192],[89.80765,21.91735],[89.80851,21.9158],[89.82368,21.90504],[89.82713,21.90383],[89.8292,21.90188],[89.8397,21.89611],[89.84402,21.89267],[89.84445,21.89105],[89.8383,21.88238],[89.83658,21.87754],[89.83787,21.86779],[89.83751,21.86449],[89.83901,21.85699],[89.83729,21.85215],[89.83099,21.84906],[89.8234,21.84748],[89.81194,21.84655],[89.80665,21.84385],[89.79011,21.84264],[89.78889,21.84143],[89.78681,21.83598],[89.77779,21.83141],[89.76841,21.83464],[89.7674,21.83625],[89.77048,21.83934],[89.77857,21.85696],[89.78291,21.86296],[89.78491,21.86753],[89.78591,21.87398],[89.7887,21.8758],[89.79314,21.87176],[89.79515,21.87156],[89.80131,21.87741],[89.8046,21.87714],[89.80475,21.87775],[89.80138,21.87909],[89.7998,21.87822],[89.79752,21.87452],[89.79386,21.8725],[89.78978,21.87654],[89.78706,21.87674],[89.78548,21.87593],[89.78405,21.87015],[89.78326,21.87008],[89.78298,21.87264],[89.78523,21.8805],[89.78568,21.88521],[89.78429,21.89213],[89.78638,21.89764],[89.78502,21.90154],[89.7803,21.9037],[89.77929,21.90491],[89.78717,21.90719],[89.7876,21.91022],[89.78631,21.9144],[89.78252,21.91977],[89.7813,21.92037],[89.77829,21.91883],[89.77471,21.91351],[89.7732,21.90961],[89.77142,21.90928],[89.76976,21.92152],[89.7698,21.91243],[89.77107,21.90791],[89.77242,21.90769],[89.7738,21.90864],[89.7784,21.91671],[89.78047,21.91852],[89.78207,21.91799],[89.78578,21.91036],[89.78506,21.90843],[89.78062,21.90769],[89.77612,21.90497],[89.77704,21.90281],[89.78246,21.90028],[89.78468,21.89827],[89.78278,21.89333],[89.78389,21.88333],[89.78111,21.87861],[89.77975,21.87273],[89.78008,21.86303],[89.77615,21.85826],[89.77447,21.85342],[89.77183,21.85208],[89.76058,21.8537],[89.7553,21.8516],[89.75366,21.85209],[89.75177,21.85569],[89.75069,21.85589],[89.74983,21.85488],[89.74844,21.85524],[89.74798,21.8645],[89.74266,21.8747],[89.73779,21.87908],[89.73692,21.88573],[89.73526,21.88998],[89.72897,21.89813],[89.72141,21.90246],[89.71704,21.90382],[89.71599,21.90518],[89.71759,21.90729],[89.72549,21.91317],[89.73167,21.92],[89.73306,21.92805],[89.73023,21.93474],[89.72592,21.94083],[89.73143,21.94744],[89.73519,21.94823],[89.75006,21.94644],[89.76135,21.94784],[89.76722,21.95028],[89.76583,21.95083],[89.76334,21.94944],[89.7534,21.94771],[89.74684,21.94773],[89.73333,21.94934],[89.7299,21.94775],[89.72539,21.94183],[89.72388,21.94139],[89.72085,21.94423],[89.71504,21.95985],[89.71624,21.96249],[89.72028,21.96412],[89.74139,21.9678],[89.74448,21.96956],[89.74798,21.97302],[89.74914,21.97758],[89.74745,21.98252],[89.73849,21.98902],[89.73758,21.99114],[89.74796,21.99393],[89.75043,21.99539],[89.75196,21.99784],[89.75333,22.00028],[89.75285,22.00441],[89.75389,22.00611],[89.74611,22.01361],[89.74445,22.01667],[89.74778,22.01917],[89.75138,22.01972],[89.7575,22.0225],[89.75972,22.02472],[89.76028,22.02917],[89.75945,22.03416],[89.7575,22.03611],[89.75361,22.03695],[89.74639,22.03583],[89.74528,22.03673],[89.74167,22.05167],[89.74306,22.05333],[89.74917,22.05388],[89.75139,22.05556],[89.75278,22.05861],[89.75222,22.06139],[89.75278,22.0625],[89.75195,22.06278],[89.75257,22.06521],[89.75723,22.06778],[89.76278,22.07417],[89.7675,22.07583],[89.77194,22.07861],[89.77472,22.08333],[89.77639,22.08861],[89.7775,22.08861]]],[[[89.86945,22.06111],[89.86861,22.06111],[89.86833,22.06222],[89.86972,22.06639],[89.87055,22.06694],[89.87055,22.06944],[89.87361,22.07417],[89.87361,22.07528],[89.87527,22.07694],[89.87527,22.07806],[89.87722,22.07972],[89.87778,22.08194],[89.87889,22.08278],[89.88028,22.08555],[89.87972,22.08667],[89.88472,22.09083],[89.88611,22.09083],[89.88695,22.08833],[89.88611,22.07694],[89.88418,22.07584],[89.88472,22.07528],[89.8839,22.07389],[89.88111,22.07278],[89.88167,22.07194],[89.87917,22.07055],[89.87527,22.06583],[89.87139,22.06361],[89.86948,22.06124],[89.86945,22.06111]]],[[[89.80684,22.08332],[89.80636,22.08297],[89.80772,22.08615],[89.81441,22.0932],[89.8073,22.08372],[89.80684,22.08332]]],[[[89.88556,22.17139],[89.88971,22.165],[89.88944,22.16306],[89.89167,22.15833],[89.89306,22.15278],[89.89333,22.14472],[89.89194,22.14305],[89.89306,22.14222],[89.89306,22.13861],[89.89222,22.13778],[89.89194,22.13083],[89.89083,22.12667],[89.89027,22.1275],[89.89139,22.13972],[89.88834,22.14778],[89.88861,22.15222],[89.88778,22.15278],[89.8875,22.15833],[89.88611,22.16028],[89.88639,22.16556],[89.88446,22.16779],[89.88388,22.17084],[89.88223,22.17056],[89.88167,22.17167],[89.88306,22.17306],[89.88556,22.17194],[89.88556,22.17139]]],[[[89.88084,22.17222],[89.88,22.17389],[89.87972,22.17889],[89.87833,22.18],[89.87861,22.1825],[89.87972,22.1825],[89.88083,22.18112],[89.88306,22.17639],[89.88306,22.17444],[89.88084,22.17236],[89.88084,22.17222]]],[[[89.86444,22.25743],[89.86583,22.25694],[89.865,22.25667],[89.86667,22.25444],[89.86945,22.24389],[89.86945,22.24028],[89.86833,22.23861],[89.86916,22.23444],[89.86833,22.23333],[89.86723,22.23333],[89.86333,22.23639],[89.86028,22.23749],[89.85697,22.24088],[89.85389,22.24556],[89.85194,22.25028],[89.85278,22.25472],[89.85694,22.26083],[89.85861,22.26168],[89.86166,22.26168],[89.86417,22.25889],[89.86389,22.25805],[89.86444,22.25743]]],[[[89.86651,22.2646],[89.86594,22.2642],[89.86536,22.26521],[89.86665,22.26661],[89.8668,22.26514],[89.86651,22.2646]]],[[[89.86745,22.27244],[89.866,22.2715],[89.86636,22.27083],[89.86514,22.2711],[89.86472,22.27258],[89.86543,22.27338],[89.86701,22.27271],[89.86745,22.27244]]],[[[89.86464,22.2638],[89.86694,22.26266],[89.86155,22.26326],[89.85882,22.2646],[89.85983,22.2705],[89.86219,22.27485],[89.864,22.27633],[89.86478,22.27492],[89.86127,22.2701],[89.85997,22.26588],[89.86235,22.2642],[89.86428,22.26414],[89.86464,22.2638]]],[[[89.81987,22.38488],[89.82401,22.37797],[89.83021,22.37259],[89.83971,22.37069],[89.8459,22.37185],[89.85045,22.37108],[89.85004,22.36801],[89.84798,22.36493],[89.84592,22.36377],[89.84632,22.36147],[89.85252,22.36224],[89.85583,22.36187],[89.86781,22.35842],[89.87151,22.3588],[89.87564,22.36188],[89.88019,22.35727],[89.88226,22.34959],[89.8822,22.34665],[89.87444,22.33833],[89.865,22.32306],[89.86166,22.31917],[89.85149,22.298],[89.84059,22.27072],[89.83916,22.26056],[89.83583,22.24694],[89.83556,22.23917],[89.835,22.23861],[89.83528,22.23167],[89.83694,22.22667],[89.83667,22.22472],[89.83945,22.21944],[89.84409,22.21546],[89.84628,22.21549],[89.85188,22.21329],[89.86075,22.20856],[89.86568,22.20387],[89.87606,22.18888],[89.87724,22.17527],[89.88413,22.14563],[89.8849,22.13832],[89.88412,22.12271],[89.88219,22.11098],[89.87666,22.09725],[89.87222,22.09278],[89.86417,22.0875],[89.8575,22.08083],[89.85,22.06889],[89.84472,22.06333],[89.8386,22.06528],[89.83556,22.06472],[89.83195,22.06556],[89.82043,22.06535],[89.81447,22.06779],[89.80634,22.07463],[89.80701,22.07688],[89.83183,22.09794],[89.83649,22.10392],[89.84038,22.11137],[89.84135,22.12111],[89.83852,22.1263],[89.83294,22.13101],[89.82284,22.13667],[89.8159,22.14197],[89.81425,22.14474],[89.81544,22.14611],[89.83023,22.15367],[89.83471,22.15833],[89.83579,22.16054],[89.83639,22.16528],[89.82781,22.17972],[89.82023,22.19539],[89.813,22.20542],[89.80892,22.20936],[89.80417,22.21944],[89.80334,22.22374],[89.80444,22.2308],[89.80415,22.23436],[89.80096,22.24557],[89.7989,22.25707],[89.79972,22.26611],[89.8025,22.27512],[89.80137,22.27973],[89.79961,22.28172],[89.79661,22.28258],[89.7861,22.28832],[89.78083,22.29291],[89.77193,22.30434],[89.7625,22.31305],[89.76103,22.31722],[89.76389,22.32611],[89.76538,22.33777],[89.76523,22.34207],[89.76138,22.35205],[89.76075,22.35909],[89.7661,22.36101],[89.77156,22.36464],[89.77566,22.36247],[89.77695,22.36433],[89.77729,22.36737],[89.77595,22.3732],[89.79057,22.37486],[89.79469,22.37639],[89.79593,22.3787],[89.79923,22.38178],[89.80418,22.38294],[89.81079,22.38294],[89.81368,22.38525],[89.8174,22.3868],[89.81987,22.38488]]]]}},{"type":"Feature","properties":{"name":"Nazirpur","district_id":"pirojpur","pcode":"107976","sql_upazila_id":"pirojpur-nazirpur","sql_name_bn":"নাজিরপুর"},"geometry":{"type":"Polygon","coordinates":[[[90.03476,22.86521],[90.03542,22.85744],[90.03425,22.85243],[90.03499,22.84751],[90.03374,22.83514],[90.03121,22.82589],[90.03049,22.81728],[90.03261,22.8154],[90.0351,22.81569],[90.04097,22.81996],[90.0451,22.82444],[90.04737,22.82565],[90.05328,22.8266],[90.05431,22.82589],[90.05463,22.82371],[90.05302,22.81907],[90.05413,22.81402],[90.05273,22.80805],[90.0482,22.80758],[90.0452,22.80627],[90.0462,22.80191],[90.04185,22.79441],[90.04478,22.79229],[90.04487,22.79121],[90.04106,22.78595],[90.04124,22.78243],[90.04254,22.77995],[90.03855,22.76713],[90.0392,22.76118],[90.03463,22.7566],[90.03619,22.75016],[90.03857,22.7461],[90.03234,22.73757],[90.03191,22.73295],[90.02871,22.72617],[90.02645,22.72685],[90.01877,22.71508],[90.01481,22.71248],[90.01447,22.70431],[90.01025,22.70356],[90.00697,22.70161],[89.99931,22.69459],[89.99866,22.68817],[90.00191,22.68267],[90.01008,22.67882],[90.01173,22.67657],[90.00405,22.67657],[90.00298,22.67557],[90.00274,22.67357],[89.99808,22.67506],[89.99626,22.67663],[89.99063,22.67669],[89.98779,22.68149],[89.98317,22.68263],[89.98097,22.67901],[89.97662,22.68048],[89.97144,22.68367],[89.97048,22.68506],[89.97044,22.68786],[89.9676,22.69072],[89.96421,22.69131],[89.95709,22.69135],[89.95464,22.68974],[89.95434,22.68273],[89.953,22.68349],[89.94059,22.68479],[89.93095,22.68424],[89.92915,22.68618],[89.91105,22.69329],[89.90348,22.69405],[89.90214,22.69204],[89.89126,22.6909],[89.88976,22.69275],[89.87602,22.69084],[89.87376,22.68873],[89.86499,22.69341],[89.8656,22.69401],[89.86407,22.69723],[89.86767,22.70357],[89.8765,22.70982],[89.89817,22.7206],[89.90635,22.72578],[89.90841,22.72653],[89.91477,22.72668],[89.91727,22.72157],[89.91972,22.72098],[89.92121,22.72216],[89.92608,22.72067],[89.93086,22.72143],[89.93236,22.72954],[89.93417,22.72993],[89.93391,22.7345],[89.93484,22.73928],[89.93381,22.73984],[89.93382,22.75089],[89.93208,22.75104],[89.92751,22.74925],[89.92664,22.75064],[89.9188,22.74932],[89.9137,22.74957],[89.91245,22.75283],[89.91384,22.75657],[89.91421,22.76124],[89.91354,22.76232],[89.91494,22.76345],[89.91223,22.76642],[89.90618,22.77018],[89.90545,22.77234],[89.90982,22.77308],[89.91069,22.77171],[89.91427,22.77129],[89.92245,22.77175],[89.9228,22.77272],[89.93457,22.77349],[89.938,22.77462],[89.94028,22.77634],[89.9402,22.77818],[89.94163,22.77825],[89.94168,22.78059],[89.93943,22.78721],[89.93808,22.78735],[89.93781,22.79147],[89.9365,22.79378],[89.93418,22.79514],[89.9208,22.79505],[89.91697,22.79595],[89.9206,22.7996],[89.92026,22.80029],[89.92467,22.80368],[89.93135,22.8115],[89.93248,22.81135],[89.93735,22.81794],[89.94318,22.81837],[89.9472,22.82062],[89.94867,22.82465],[89.94639,22.83277],[89.94233,22.84129],[89.94209,22.84415],[89.94344,22.84852],[89.94313,22.8511],[89.94251,22.85362],[89.93847,22.86033],[89.939,22.86192],[89.94098,22.8617],[89.94961,22.85736],[89.951,22.85355],[89.95294,22.85196],[89.96394,22.85105],[89.97423,22.85568],[89.98238,22.85682],[89.98627,22.85908],[89.98825,22.8612],[89.99922,22.86388],[90.01768,22.86642],[90.03187,22.86614],[90.03476,22.86521]]]}},{"type":"Feature","properties":{"name":"Nesarabad","district_id":"pirojpur","pcode":"107987","sql_upazila_id":"pirojpur-nesarabad","sql_name_bn":"নেছারাবাদ"},"geometry":{"type":"Polygon","coordinates":[[[90.05273,22.80805],[90.06335,22.80416],[90.06533,22.80172],[90.06886,22.79422],[90.06944,22.79038],[90.07461,22.78444],[90.08838,22.78322],[90.09531,22.7834],[90.09702,22.78221],[90.10007,22.77793],[90.10381,22.77676],[90.11649,22.77584],[90.12137,22.77304],[90.12285,22.77052],[90.12357,22.76689],[90.12778,22.76485],[90.13979,22.76749],[90.14192,22.76596],[90.13916,22.76231],[90.14001,22.75915],[90.14328,22.75651],[90.14494,22.75607],[90.15269,22.75624],[90.15452,22.75779],[90.15532,22.75989],[90.15941,22.75774],[90.16801,22.76006],[90.16615,22.75027],[90.1678,22.74493],[90.17393,22.74496],[90.17779,22.75052],[90.18228,22.74476],[90.18452,22.74294],[90.18747,22.74219],[90.19007,22.73996],[90.18867,22.73834],[90.18271,22.73539],[90.17791,22.72962],[90.17404,22.72628],[90.16651,22.72474],[90.16571,22.72236],[90.16392,22.72029],[90.15894,22.71686],[90.15774,22.71375],[90.15726,22.70619],[90.1522,22.70098],[90.14874,22.68957],[90.1445,22.68361],[90.14169,22.67585],[90.13692,22.67065],[90.12649,22.66472],[90.12337,22.66364],[90.11971,22.66545],[90.10905,22.66014],[90.1101,22.65566],[90.10236,22.6531],[90.09168,22.6538],[90.08923,22.65454],[90.0846,22.65995],[90.08103,22.66054],[90.07798,22.65987],[90.06729,22.6649],[90.06536,22.66672],[90.06245,22.6666],[90.05936,22.66422],[90.05612,22.66366],[90.05423,22.66222],[90.05449,22.66027],[90.05357,22.65853],[90.05157,22.65771],[90.02642,22.6639],[90.02234,22.67075],[90.01422,22.67675],[90.00191,22.68267],[89.99866,22.68817],[89.99931,22.69459],[90.00697,22.70161],[90.01025,22.70356],[90.01447,22.70431],[90.01481,22.71248],[90.01877,22.71508],[90.02645,22.72685],[90.02871,22.72617],[90.03191,22.73295],[90.03234,22.73757],[90.03857,22.7461],[90.03619,22.75016],[90.03463,22.7566],[90.0392,22.76118],[90.03855,22.76713],[90.04254,22.77995],[90.04124,22.78243],[90.04106,22.78595],[90.04487,22.79121],[90.04478,22.79229],[90.04185,22.79441],[90.0462,22.80191],[90.0452,22.80627],[90.0482,22.80758],[90.05273,22.80805]]]}},{"type":"Feature","properties":{"name":"Pirojpur S.","district_id":"pirojpur","pcode":"107980","sql_upazila_id":null,"sql_name_bn":null},"geometry":{"type":"MultiPolygon","coordinates":[[[[89.96584,22.44417],[89.96401,22.43977],[89.95744,22.43315],[89.95376,22.43058],[89.94849,22.42837],[89.94477,22.4275],[89.94314,22.42797],[89.94292,22.42864],[89.94537,22.43216],[89.95483,22.44038],[89.96034,22.44351],[89.96528,22.44472],[89.96584,22.44417]]],[[[89.90123,22.50632],[89.90647,22.50529],[89.91694,22.5056],[89.9195,22.50431],[89.9284,22.50252],[89.93542,22.49894],[89.95909,22.49386],[89.96361,22.49399],[89.96494,22.49116],[89.96895,22.48897],[89.97665,22.49022],[89.97806,22.48639],[89.97945,22.47472],[89.97667,22.46333],[89.97278,22.45278],[89.96579,22.44758],[89.95652,22.44325],[89.95199,22.43997],[89.9275,22.41694],[89.92056,22.40861],[89.90417,22.395],[89.895,22.39],[89.8925,22.39],[89.89083,22.39028],[89.87971,22.39977],[89.87234,22.40909],[89.87115,22.41289],[89.87132,22.41573],[89.87664,22.42232],[89.88044,22.4286],[89.88195,22.43469],[89.88068,22.44055],[89.88266,22.44018],[89.88362,22.434],[89.88165,22.42837],[89.88784,22.43159],[89.9025,22.44165],[89.91404,22.44649],[89.92709,22.4474],[89.93747,22.45095],[89.94612,22.46278],[89.94205,22.46983],[89.93468,22.47439],[89.92518,22.47465],[89.91801,22.47189],[89.91144,22.47054],[89.89855,22.47241],[89.88969,22.47652],[89.88566,22.481],[89.88324,22.48923],[89.88476,22.50126],[89.89037,22.50507],[89.89592,22.50555],[89.90123,22.50632]]],[[[89.92383,22.60274],[89.95051,22.59966],[89.95554,22.59801],[89.96057,22.59423],[89.95259,22.59719],[89.95184,22.59853],[89.93575,22.60116],[89.92383,22.60274]]],[[[89.97144,22.68367],[89.97662,22.68048],[89.98097,22.67901],[89.98317,22.68263],[89.98779,22.68149],[89.99063,22.67669],[89.99626,22.67663],[89.99808,22.67506],[90.00274,22.67357],[90.00298,22.67557],[90.00405,22.67657],[90.01173,22.67657],[90.01008,22.67882],[90.01422,22.67675],[90.02234,22.67075],[90.02888,22.66067],[90.0314,22.65256],[90.02654,22.62947],[90.02096,22.61682],[90.01826,22.60317],[90.02114,22.59717],[90.02642,22.59585],[90.03436,22.58717],[90.02208,22.56831],[90.02007,22.56003],[90.02106,22.55075],[90.02461,22.53965],[90.02538,22.52839],[90.02286,22.50737],[90.01899,22.50078],[90.015,22.50056],[90.01361,22.49972],[90.00667,22.50194],[90.00555,22.50111],[90.00195,22.50139],[89.99555,22.50334],[89.99194,22.50167],[89.98394,22.50011],[89.98003,22.49705],[89.97967,22.49507],[89.97833,22.49343],[89.97652,22.49371],[89.96832,22.49069],[89.9667,22.4932],[89.96854,22.49898],[89.9685,22.50239],[89.96634,22.50686],[89.96276,22.50888],[89.94932,22.51052],[89.92385,22.50889],[89.92126,22.5096],[89.92281,22.51232],[89.9399,22.52897],[89.94621,22.53659],[89.95247,22.546],[89.95747,22.55869],[89.96188,22.57332],[89.96354,22.589],[89.96243,22.59327],[89.95918,22.5971],[89.95303,22.60045],[89.93094,22.60406],[89.91678,22.60432],[89.91816,22.6085],[89.92212,22.61534],[89.9243,22.63495],[89.92616,22.64343],[89.92529,22.64236],[89.9182,22.64441],[89.90198,22.65072],[89.89558,22.65482],[89.89082,22.65977],[89.89287,22.66065],[89.89335,22.67102],[89.89593,22.67583],[89.89971,22.67682],[89.9036,22.67522],[89.90546,22.67241],[89.9087,22.67307],[89.91341,22.66472],[89.91423,22.66178],[89.92366,22.66581],[89.9301,22.6723],[89.93742,22.67729],[89.93095,22.68424],[89.94059,22.68479],[89.953,22.68349],[89.95434,22.68273],[89.95464,22.68974],[89.95709,22.69135],[89.9676,22.69072],[89.97044,22.68786],[89.97048,22.68506],[89.97144,22.68367]]]]}}]}