{"type":"FeatureCollection","features":[{"type":"Feature","properties":{"name":"Baliakandi","district_id":"rajbari","pcode":"308207","sql_upazila_id":"rajbari-baliakandi","sql_name_bn":"বালিয়াকান্দি"},"geometry":{"type":"Polygon","coordinates":[[[89.59798,23.7445],[89.59732,23.73899],[89.59512,23.73516],[89.59827,23.72686],[89.59554,23.71184],[89.5971,23.70872],[89.60388,23.70177],[89.61166,23.70044],[89.61311,23.69773],[89.61257,23.69624],[89.6075,23.69168],[89.60656,23.68831],[89.60648,23.6809],[89.61014,23.67788],[89.61527,23.67795],[89.61755,23.67683],[89.61844,23.67459],[89.61851,23.6712],[89.62052,23.669],[89.62019,23.66774],[89.61581,23.66439],[89.61491,23.65992],[89.61532,23.65814],[89.62498,23.65156],[89.63509,23.64912],[89.63693,23.65054],[89.63804,23.64989],[89.64135,23.64412],[89.64301,23.64285],[89.6445,23.64254],[89.64619,23.64333],[89.65069,23.64645],[89.65379,23.64573],[89.6541,23.64246],[89.65573,23.63951],[89.6552,23.63843],[89.65141,23.63868],[89.65091,23.63622],[89.65215,23.63265],[89.65685,23.62692],[89.6683,23.62039],[89.66976,23.61854],[89.67119,23.60853],[89.66716,23.61006],[89.66199,23.60976],[89.65958,23.60818],[89.65517,23.59667],[89.65212,23.59372],[89.64925,23.59322],[89.64254,23.59403],[89.64082,23.58899],[89.63987,23.58849],[89.63365,23.5925],[89.62481,23.59252],[89.62257,23.59318],[89.61565,23.59892],[89.61085,23.60511],[89.60477,23.6097],[89.60049,23.61129],[89.59769,23.61132],[89.59676,23.60862],[89.59924,23.60131],[89.59938,23.59815],[89.59686,23.59714],[89.59256,23.59762],[89.57981,23.602],[89.5701,23.60259],[89.5677,23.60077],[89.57089,23.59518],[89.57049,23.59363],[89.55492,23.58779],[89.55011,23.58404],[89.549,23.58141],[89.5504,23.57939],[89.55814,23.57731],[89.5591,23.57512],[89.55866,23.57179],[89.55759,23.56806],[89.55533,23.567],[89.5519,23.56726],[89.54651,23.56925],[89.54333,23.57163],[89.53388,23.57613],[89.52286,23.58599],[89.51931,23.58659],[89.516,23.58593],[89.51127,23.58291],[89.50307,23.57443],[89.49383,23.58329],[89.49006,23.58826],[89.47419,23.59252],[89.47309,23.5942],[89.4761,23.59883],[89.49007,23.60934],[89.49239,23.61322],[89.49258,23.61707],[89.49028,23.62346],[89.48438,23.62799],[89.47023,23.63138],[89.46448,23.63395],[89.44921,23.63447],[89.44393,23.63537],[89.44141,23.6374],[89.43874,23.64115],[89.43934,23.64436],[89.44334,23.65078],[89.44344,23.65289],[89.45172,23.6596],[89.45367,23.66332],[89.46014,23.66924],[89.46264,23.67026],[89.46664,23.6704],[89.46985,23.67152],[89.47169,23.67312],[89.47311,23.67632],[89.4739,23.68148],[89.47544,23.68411],[89.47822,23.68593],[89.48218,23.68716],[89.49054,23.69445],[89.50343,23.69963],[89.51022,23.70578],[89.52001,23.70959],[89.5218,23.71143],[89.52265,23.71383],[89.51807,23.72517],[89.51653,23.73261],[89.5187,23.73574],[89.52528,23.73747],[89.53188,23.73633],[89.5434,23.73882],[89.54884,23.74262],[89.55107,23.74145],[89.55546,23.74273],[89.55972,23.74011],[89.56403,23.74341],[89.57397,23.74177],[89.59299,23.74753],[89.59798,23.7445]]]}},{"type":"Feature","properties":{"name":"Goalandaghat","district_id":"rajbari","pcode":"308229","sql_upazila_id":null,"sql_name_bn":null},"geometry":{"type":"Polygon","coordinates":[[[89.73973,23.83266],[89.74444,23.83117],[89.77096,23.83012],[89.77209,23.82804],[89.77255,23.8186],[89.77637,23.81721],[89.77871,23.80578],[89.7864,23.79231],[89.78752,23.78702],[89.79038,23.78479],[89.79575,23.78314],[89.80112,23.77399],[89.80556,23.76945],[89.8279,23.75115],[89.84559,23.74055],[89.85426,23.73414],[89.86955,23.71881],[89.86317,23.71552],[89.85421,23.71372],[89.85037,23.71215],[89.84965,23.71021],[89.85007,23.70383],[89.84821,23.70408],[89.84206,23.70799],[89.82637,23.71263],[89.81545,23.7213],[89.81244,23.72036],[89.79875,23.71056],[89.79757,23.70787],[89.79665,23.69421],[89.79684,23.69071],[89.79855,23.68638],[89.79747,23.6853],[89.79372,23.68522],[89.79244,23.68105],[89.78029,23.67801],[89.77222,23.67947],[89.76859,23.67899],[89.76356,23.67726],[89.75919,23.67724],[89.75674,23.67594],[89.75276,23.68293],[89.75053,23.68985],[89.74873,23.68998],[89.74612,23.69339],[89.7352,23.69924],[89.73312,23.70139],[89.73261,23.70312],[89.73375,23.70442],[89.73215,23.70881],[89.72778,23.7143],[89.72784,23.72344],[89.72621,23.72897],[89.72379,23.73272],[89.72253,23.74462],[89.72083,23.74688],[89.71401,23.75182],[89.71498,23.75383],[89.71809,23.75575],[89.72001,23.75837],[89.7189,23.7651],[89.71514,23.77307],[89.71477,23.7795],[89.71354,23.78348],[89.71137,23.78746],[89.70247,23.79737],[89.70046,23.80043],[89.70009,23.80336],[89.69608,23.8061],[89.68746,23.80894],[89.69274,23.8105],[89.70189,23.8088],[89.70565,23.8098],[89.71223,23.81709],[89.71694,23.82451],[89.71978,23.82586],[89.72924,23.82738],[89.73244,23.82867],[89.73453,23.83233],[89.73973,23.83266]]]}},{"type":"Feature","properties":{"name":"Pangsha","district_id":"rajbari","pcode":"308273","sql_upazila_id":null,"sql_name_bn":null},"geometry":{"type":"Polygon","coordinates":[[[89.38881,23.90668],[89.39385,23.90304],[89.40358,23.88815],[89.40749,23.88358],[89.43596,23.86516],[89.46058,23.84562],[89.48373,23.83125],[89.49198,23.82826],[89.50719,23.81688],[89.51165,23.81185],[89.51567,23.80993],[89.52148,23.8093],[89.53061,23.811],[89.53417,23.81091],[89.54341,23.80762],[89.54714,23.80702],[89.55328,23.80777],[89.55582,23.80717],[89.55481,23.80333],[89.55577,23.80132],[89.56023,23.79914],[89.56739,23.79823],[89.57932,23.79853],[89.58619,23.80203],[89.58875,23.80494],[89.5927,23.80629],[89.59682,23.8059],[89.60786,23.80242],[89.60722,23.79829],[89.60032,23.79657],[89.5988,23.79503],[89.59791,23.79148],[89.59785,23.78861],[89.5991,23.78532],[89.60579,23.77602],[89.60574,23.77395],[89.599,23.7674],[89.59812,23.76402],[89.59775,23.75776],[89.59635,23.75347],[89.6004,23.74683],[89.59798,23.7445],[89.59299,23.74753],[89.58911,23.74681],[89.57397,23.74177],[89.56403,23.74341],[89.55972,23.74011],[89.55546,23.74273],[89.55107,23.74145],[89.54884,23.74262],[89.5434,23.73882],[89.53188,23.73633],[89.52528,23.73747],[89.5187,23.73574],[89.51653,23.73261],[89.51807,23.72517],[89.52265,23.71383],[89.5218,23.71143],[89.52001,23.70959],[89.51022,23.70578],[89.50343,23.69963],[89.49054,23.69445],[89.48218,23.68716],[89.47822,23.68593],[89.47544,23.68411],[89.4739,23.68148],[89.47311,23.67632],[89.47169,23.67312],[89.46985,23.67152],[89.46664,23.6704],[89.46264,23.67026],[89.46014,23.66924],[89.45729,23.66714],[89.45367,23.66332],[89.45172,23.6596],[89.44344,23.65289],[89.44334,23.65078],[89.44167,23.64852],[89.44086,23.6507],[89.42096,23.66473],[89.41539,23.67249],[89.4118,23.67508],[89.40686,23.67544],[89.40209,23.67476],[89.38732,23.6662],[89.38284,23.66167],[89.37877,23.6597],[89.37119,23.6601],[89.36296,23.66505],[89.35882,23.66576],[89.35413,23.66525],[89.35268,23.66713],[89.35272,23.67148],[89.35065,23.67562],[89.34581,23.67809],[89.33555,23.68642],[89.32644,23.69689],[89.32328,23.70519],[89.31415,23.71491],[89.31256,23.72447],[89.30984,23.72766],[89.30648,23.72933],[89.29872,23.73092],[89.30128,23.73513],[89.30968,23.74066],[89.31824,23.74487],[89.3183,23.7475],[89.31725,23.75058],[89.3244,23.76115],[89.32462,23.76285],[89.3158,23.76392],[89.31355,23.76548],[89.31527,23.7708],[89.32766,23.77235],[89.33031,23.77443],[89.33273,23.78037],[89.33234,23.78283],[89.32809,23.78969],[89.33543,23.80608],[89.33983,23.81221],[89.34064,23.81831],[89.34025,23.82308],[89.34378,23.82604],[89.34305,23.82967],[89.35299,23.83721],[89.35471,23.83972],[89.35426,23.85028],[89.35529,23.85488],[89.35924,23.86034],[89.36652,23.86546],[89.36694,23.86739],[89.3634,23.87273],[89.36409,23.87585],[89.3624,23.87774],[89.35951,23.87895],[89.36134,23.88368],[89.36126,23.8909],[89.36193,23.89339],[89.36408,23.8924],[89.36613,23.88734],[89.3675,23.88781],[89.36992,23.89075],[89.37036,23.894],[89.36854,23.89853],[89.36909,23.90472],[89.38055,23.90744],[89.38756,23.90751],[89.38881,23.90668]]]}},{"type":"Feature","properties":{"name":"Rajbari S.","district_id":"rajbari","pcode":"308276","sql_upazila_id":null,"sql_name_bn":null},"geometry":{"type":"Polygon","coordinates":[[[89.68746,23.80894],[89.69608,23.8061],[89.70009,23.80336],[89.70046,23.80043],[89.70247,23.79737],[89.71137,23.78746],[89.71354,23.78348],[89.71477,23.7795],[89.71514,23.77307],[89.7189,23.7651],[89.72001,23.75837],[89.71809,23.75575],[89.71498,23.75383],[89.71401,23.75182],[89.72083,23.74688],[89.72253,23.74462],[89.72379,23.73272],[89.72621,23.72897],[89.72784,23.72344],[89.72778,23.7143],[89.73215,23.70881],[89.73375,23.70442],[89.73261,23.70312],[89.73312,23.70139],[89.7352,23.69924],[89.74612,23.69339],[89.74873,23.68998],[89.75053,23.68985],[89.75504,23.67832],[89.75674,23.67594],[89.76035,23.67309],[89.76081,23.67119],[89.76038,23.66821],[89.7585,23.66489],[89.75494,23.66453],[89.75214,23.66473],[89.74861,23.66626],[89.74248,23.66529],[89.74004,23.66812],[89.73775,23.67498],[89.7359,23.67586],[89.73283,23.67543],[89.72457,23.67063],[89.72583,23.66826],[89.73176,23.66252],[89.73318,23.64694],[89.73449,23.64164],[89.73335,23.63712],[89.72929,23.63032],[89.73095,23.62048],[89.7325,23.61674],[89.73819,23.61473],[89.7443,23.60881],[89.75468,23.60165],[89.7568,23.59864],[89.75668,23.59594],[89.74863,23.58901],[89.74255,23.58757],[89.744,23.58262],[89.74129,23.58105],[89.73837,23.58136],[89.73299,23.58021],[89.72907,23.58093],[89.72324,23.58524],[89.71896,23.59487],[89.71685,23.59535],[89.71497,23.59503],[89.71348,23.58878],[89.71208,23.58782],[89.70879,23.58808],[89.70605,23.58535],[89.70001,23.58885],[89.68537,23.58273],[89.6774,23.58291],[89.67456,23.58449],[89.67707,23.59435],[89.67668,23.59699],[89.67119,23.60853],[89.66976,23.61854],[89.6683,23.62039],[89.65685,23.62692],[89.65215,23.63265],[89.65091,23.63622],[89.65141,23.63868],[89.6552,23.63843],[89.65573,23.63951],[89.6541,23.64246],[89.65379,23.64573],[89.65069,23.64645],[89.64619,23.64333],[89.6445,23.64254],[89.64301,23.64285],[89.64135,23.64412],[89.63804,23.64989],[89.63693,23.65054],[89.63509,23.64912],[89.62498,23.65156],[89.61532,23.65814],[89.61491,23.65992],[89.61581,23.66439],[89.62019,23.66774],[89.62052,23.669],[89.61851,23.6712],[89.61844,23.67459],[89.61755,23.67683],[89.61527,23.67795],[89.61014,23.67788],[89.60648,23.6809],[89.60656,23.68831],[89.6075,23.69168],[89.61257,23.69624],[89.61311,23.69773],[89.61166,23.70044],[89.60388,23.70177],[89.5971,23.70872],[89.59554,23.71184],[89.59827,23.72686],[89.59512,23.73516],[89.59732,23.73899],[89.59798,23.7445],[89.6004,23.74683],[89.59635,23.75347],[89.59775,23.75776],[89.599,23.7674],[89.60574,23.77395],[89.60579,23.77602],[89.5991,23.78532],[89.59785,23.78861],[89.5988,23.79503],[89.60032,23.79657],[89.60722,23.79829],[89.60786,23.80242],[89.61409,23.80179],[89.61716,23.80251],[89.62089,23.80443],[89.6245,23.80761],[89.66866,23.8052],[89.6791,23.80603],[89.68746,23.80894]]]}}]}