{"type":"FeatureCollection","features":[{"type":"Feature","properties":{"name":"Bagha","district_id":"rajshahi","pcode":"508110","sql_upazila_id":"rajshahi-bagha","sql_name_bn":"বাঘা"},"geometry":{"type":"Polygon","coordinates":[[[88.91584,24.25509],[88.91579,24.24901],[88.91401,24.24433],[88.91082,24.24147],[88.90496,24.2391],[88.90038,24.24122],[88.89814,24.24021],[88.89833,24.2338],[88.89714,24.23239],[88.89229,24.23268],[88.88276,24.22854],[88.87904,24.2308],[88.87878,24.2362],[88.87773,24.23803],[88.87618,24.23748],[88.87452,24.23097],[88.87101,24.22687],[88.87168,24.21789],[88.8726,24.21624],[88.86907,24.20907],[88.8701,24.20622],[88.87397,24.20072],[88.87383,24.19789],[88.87231,24.1949],[88.87185,24.19093],[88.86699,24.18866],[88.86685,24.18662],[88.8708,24.18339],[88.87019,24.17732],[88.86707,24.17458],[88.86483,24.17444],[88.86233,24.17203],[88.86173,24.16715],[88.8632,24.16538],[88.87718,24.16611],[88.88071,24.16527],[88.88628,24.16214],[88.88879,24.1646],[88.89133,24.1652],[88.89256,24.16376],[88.89069,24.15539],[88.89156,24.15367],[88.88197,24.13461],[88.87942,24.13316],[88.87115,24.13326],[88.86823,24.13217],[88.86592,24.12981],[88.86288,24.1215],[88.8597,24.11916],[88.85748,24.12106],[88.85469,24.122],[88.84062,24.12547],[88.83225,24.12699],[88.82047,24.1273],[88.81062,24.12889],[88.79575,24.13458],[88.78716,24.14007],[88.77703,24.14837],[88.76161,24.16291],[88.75581,24.16956],[88.75034,24.17712],[88.74359,24.18877],[88.7403,24.19857],[88.73779,24.20937],[88.73287,24.20937],[88.73264,24.21501],[88.73474,24.23283],[88.73706,24.23283],[88.73979,24.23502],[88.74483,24.23497],[88.747,24.23579],[88.75099,24.23751],[88.75711,24.24243],[88.76266,24.2443],[88.77002,24.24035],[88.77969,24.23768],[88.78217,24.23606],[88.78333,24.23361],[88.78674,24.23198],[88.79015,24.23143],[88.7942,24.232],[88.79619,24.23346],[88.79884,24.23763],[88.80307,24.23934],[88.80898,24.23183],[88.81091,24.23039],[88.81761,24.23099],[88.81992,24.23272],[88.8232,24.23881],[88.82862,24.24198],[88.83101,24.24519],[88.83322,24.25067],[88.83683,24.27679],[88.83815,24.27842],[88.85054,24.28145],[88.85567,24.28536],[88.86073,24.29626],[88.85964,24.30932],[88.86285,24.31382],[88.86782,24.3141],[88.87061,24.31305],[88.87234,24.3111],[88.87436,24.30733],[88.87831,24.29581],[88.87967,24.29426],[88.8814,24.29344],[88.88831,24.29432],[88.89831,24.29323],[88.90332,24.29124],[88.90435,24.28759],[88.90245,24.27501],[88.90446,24.27084],[88.90566,24.26458],[88.90682,24.26207],[88.9088,24.26023],[88.91468,24.25766],[88.91584,24.25509]]]}},{"type":"Feature","properties":{"name":"Bagmara","district_id":"rajshahi","pcode":"508112","sql_upazila_id":"rajshahi-bagmara","sql_name_bn":"বাগমারা"},"geometry":{"type":"Polygon","coordinates":[[[88.81482,24.67235],[88.81464,24.66571],[88.81085,24.6586],[88.81406,24.65425],[88.81898,24.65209],[88.8437,24.65741],[88.85075,24.65709],[88.85703,24.65429],[88.86754,24.64605],[88.87054,24.64516],[88.87702,24.63622],[88.88014,24.63658],[88.88134,24.63918],[88.88088,24.64389],[88.88239,24.64485],[88.88425,24.64459],[88.88995,24.64032],[88.8927,24.64023],[88.90063,24.64285],[88.90582,24.64313],[88.91029,24.6416],[88.91208,24.63907],[88.91216,24.63322],[88.91337,24.62946],[88.92248,24.61555],[88.92667,24.60199],[88.92901,24.59855],[88.93211,24.59579],[88.93417,24.58934],[88.94073,24.5913],[88.94618,24.58544],[88.95348,24.58052],[88.95956,24.58453],[88.96171,24.58166],[88.96316,24.58301],[88.96089,24.57361],[88.96124,24.57031],[88.96407,24.56574],[88.9621,24.55327],[88.96071,24.55119],[88.9484,24.5476],[88.93974,24.53937],[88.9365,24.53941],[88.9315,24.54436],[88.92615,24.54545],[88.9148,24.54422],[88.89988,24.53993],[88.89813,24.53842],[88.89711,24.53486],[88.89825,24.53019],[88.89663,24.53021],[88.89353,24.53228],[88.88917,24.53183],[88.8858,24.53046],[88.88409,24.52849],[88.88212,24.52244],[88.8864,24.52023],[88.87595,24.51422],[88.87135,24.51429],[88.8672,24.5182],[88.85802,24.51542],[88.85087,24.51613],[88.84462,24.5128],[88.83889,24.51332],[88.83524,24.51535],[88.83215,24.51903],[88.81847,24.52402],[88.81385,24.52958],[88.80862,24.53043],[88.80258,24.53005],[88.80038,24.52713],[88.79948,24.5235],[88.79692,24.52308],[88.79051,24.52452],[88.78556,24.52691],[88.78167,24.53138],[88.77905,24.53175],[88.77486,24.52982],[88.76863,24.52858],[88.75301,24.52984],[88.7502,24.52925],[88.74857,24.5279],[88.74618,24.52385],[88.74559,24.52039],[88.7461,24.513],[88.74428,24.50984],[88.73129,24.50397],[88.72911,24.50457],[88.72882,24.5073],[88.73028,24.51148],[88.72963,24.51756],[88.72263,24.52389],[88.71493,24.52596],[88.71149,24.53497],[88.71086,24.54315],[88.70919,24.5443],[88.70639,24.54451],[88.70736,24.55108],[88.71133,24.55745],[88.71141,24.56074],[88.70565,24.56586],[88.69496,24.57052],[88.69435,24.57229],[88.6953,24.57398],[88.69785,24.5752],[88.70081,24.5796],[88.70052,24.58261],[88.69382,24.58751],[88.69309,24.58996],[88.69373,24.59319],[88.69318,24.59552],[88.69052,24.59816],[88.68507,24.60214],[88.67815,24.60381],[88.67543,24.60581],[88.6747,24.60907],[88.67998,24.61644],[88.68066,24.63699],[88.68467,24.63905],[88.68753,24.63901],[88.68846,24.63742],[88.69431,24.63599],[88.69467,24.63411],[88.69247,24.6301],[88.69501,24.62956],[88.69784,24.63192],[88.70364,24.63225],[88.70418,24.63832],[88.70232,24.64078],[88.6964,24.64187],[88.69685,24.64362],[88.70104,24.64647],[88.7044,24.65364],[88.70404,24.65683],[88.70183,24.66213],[88.70303,24.66513],[88.70554,24.66658],[88.70966,24.6671],[88.71635,24.67122],[88.7181,24.67126],[88.72229,24.6636],[88.72486,24.66431],[88.72686,24.66594],[88.73534,24.66635],[88.73759,24.66809],[88.73756,24.67138],[88.73627,24.6748],[88.73655,24.6794],[88.73788,24.68171],[88.74119,24.68394],[88.74344,24.68431],[88.75751,24.67229],[88.76822,24.66995],[88.77041,24.67026],[88.77531,24.6757],[88.7825,24.67824],[88.78632,24.68132],[88.78947,24.68582],[88.79673,24.68909],[88.80077,24.6879],[88.80238,24.68584],[88.80412,24.67685],[88.80742,24.67431],[88.81482,24.67235]]]}},{"type":"Feature","properties":{"name":"Boalia","district_id":"rajshahi","pcode":"508122","sql_upazila_id":"rajshahi-boalia","sql_name_bn":"বোয়ালিয়া"},"geometry":{"type":"Polygon","coordinates":[[[88.47279,24.36772],[88.48013,24.36845],[88.50336,24.36368],[88.51164,24.36388],[88.52898,24.36177],[88.54086,24.3625],[88.54727,24.36318],[88.55208,24.36631],[88.56171,24.36485],[88.56377,24.36483],[88.56438,24.36573],[88.56154,24.36786],[88.55452,24.36952],[88.54445,24.36951],[88.54159,24.37062],[88.54117,24.37312],[88.54205,24.37669],[88.54475,24.38234],[88.55485,24.38542],[88.561,24.38422],[88.56329,24.38283],[88.56602,24.37928],[88.57204,24.37803],[88.57606,24.38503],[88.57925,24.38721],[88.58023,24.38623],[88.5812,24.38151],[88.58858,24.37763],[88.59917,24.37962],[88.61401,24.38638],[88.61769,24.38594],[88.62728,24.37915],[88.63021,24.37799],[88.63412,24.37806],[88.63998,24.38174],[88.64665,24.38274],[88.65371,24.3779],[88.65463,24.37608],[88.65405,24.37273],[88.65012,24.36983],[88.65035,24.368],[88.65463,24.36546],[88.65565,24.35755],[88.65662,24.35539],[88.66312,24.34976],[88.67075,24.34627],[88.67324,24.33658],[88.67246,24.33138],[88.67635,24.32617],[88.67597,24.3155],[88.65875,24.31388],[88.65769,24.31243],[88.65576,24.31181],[88.65477,24.3091],[88.6518,24.30667],[88.65002,24.31056],[88.62975,24.30608],[88.6285,24.30657],[88.62556,24.31486],[88.60779,24.31663],[88.60724,24.31484],[88.60474,24.31383],[88.60399,24.3109],[88.58899,24.3153],[88.58731,24.32468],[88.58626,24.32594],[88.57973,24.32555],[88.57328,24.32732],[88.56973,24.32747],[88.56811,24.32664],[88.55595,24.29641],[88.555,24.29649],[88.5305,24.34206],[88.52871,24.34418],[88.51434,24.34347],[88.50719,24.34468],[88.49829,24.35306],[88.48735,24.35583],[88.47704,24.35985],[88.47128,24.36337],[88.47279,24.36772]]]}},{"type":"Feature","properties":{"name":"Charghat","district_id":"rajshahi","pcode":"508125","sql_upazila_id":"rajshahi-charghat","sql_name_bn":"চারঘাট"},"geometry":{"type":"Polygon","coordinates":[[[88.70344,24.36368],[88.70573,24.36013],[88.7047,24.3556],[88.70543,24.35326],[88.70958,24.35038],[88.71054,24.34548],[88.71147,24.34422],[88.71232,24.34382],[88.71348,24.34738],[88.71691,24.34859],[88.71839,24.34727],[88.71974,24.34413],[88.72192,24.34388],[88.72195,24.34036],[88.72866,24.33932],[88.73386,24.33454],[88.73798,24.3383],[88.73935,24.33812],[88.7407,24.3347],[88.74238,24.33553],[88.74409,24.34118],[88.74734,24.34365],[88.74539,24.34929],[88.74597,24.35104],[88.74984,24.35383],[88.75079,24.3557],[88.7498,24.35838],[88.74237,24.36226],[88.74257,24.36391],[88.74432,24.36553],[88.74793,24.36617],[88.75382,24.36366],[88.75619,24.36352],[88.76048,24.36478],[88.7647,24.36314],[88.76653,24.36619],[88.76809,24.36719],[88.76996,24.367],[88.77016,24.36069],[88.77158,24.36005],[88.77359,24.36185],[88.77422,24.36422],[88.77716,24.36635],[88.77714,24.37117],[88.77896,24.37399],[88.7815,24.37259],[88.7827,24.36611],[88.7829,24.35907],[88.78506,24.35677],[88.78577,24.35182],[88.78714,24.35147],[88.7887,24.3527],[88.79118,24.35233],[88.79185,24.34982],[88.79142,24.34228],[88.79222,24.34062],[88.7975,24.33999],[88.79992,24.3382],[88.80399,24.34338],[88.80605,24.34438],[88.81245,24.34328],[88.81902,24.34053],[88.8196,24.34284],[88.81792,24.35076],[88.8186,24.35138],[88.82146,24.35134],[88.8232,24.35036],[88.82434,24.34495],[88.82608,24.34447],[88.82977,24.34721],[88.83232,24.34786],[88.83474,24.34749],[88.83652,24.34373],[88.84103,24.33936],[88.84569,24.33907],[88.85101,24.32691],[88.85043,24.32499],[88.84656,24.32202],[88.84586,24.3196],[88.84615,24.31681],[88.8475,24.3147],[88.85072,24.31397],[88.85263,24.31151],[88.85493,24.30291],[88.85716,24.30215],[88.85966,24.30421],[88.86073,24.29626],[88.85567,24.28536],[88.85378,24.28334],[88.84612,24.27997],[88.83815,24.27842],[88.83683,24.27679],[88.83322,24.25067],[88.83101,24.24519],[88.82862,24.24198],[88.8232,24.23881],[88.81992,24.23272],[88.81761,24.23099],[88.81091,24.23039],[88.80898,24.23183],[88.80307,24.23934],[88.79884,24.23763],[88.79619,24.23346],[88.7942,24.232],[88.79015,24.23143],[88.78674,24.23198],[88.78333,24.23361],[88.78217,24.23606],[88.77969,24.23768],[88.77002,24.24035],[88.76266,24.2443],[88.75711,24.24243],[88.75099,24.23751],[88.747,24.23579],[88.74483,24.23497],[88.73979,24.23502],[88.73706,24.23283],[88.73323,24.23283],[88.73516,24.24235],[88.73648,24.25826],[88.73785,24.2603],[88.73757,24.26755],[88.73469,24.27524],[88.73369,24.27567],[88.73192,24.2793],[88.73095,24.28313],[88.72877,24.28498],[88.72658,24.289],[88.72623,24.29238],[88.72387,24.29413],[88.72276,24.29691],[88.72102,24.29826],[88.70251,24.31066],[88.68879,24.31342],[88.68046,24.31397],[88.67347,24.31349],[88.67347,24.31516],[88.6751,24.31538],[88.67482,24.31457],[88.67597,24.3155],[88.67635,24.32617],[88.67246,24.33138],[88.67324,24.33658],[88.67075,24.34627],[88.67282,24.34931],[88.67215,24.35034],[88.66773,24.35118],[88.66743,24.35243],[88.67051,24.35745],[88.6686,24.36106],[88.6688,24.36213],[88.67384,24.36237],[88.68661,24.35597],[88.69798,24.3542],[88.69978,24.35457],[88.7018,24.35818],[88.70344,24.36368]]]}},{"type":"Feature","properties":{"name":"Durgapur","district_id":"rajshahi","pcode":"508131","sql_upazila_id":"rajshahi-durgapur","sql_name_bn":"দুর্গাপুর"},"geometry":{"type":"Polygon","coordinates":[[[88.71493,24.52596],[88.72263,24.52389],[88.72963,24.51756],[88.73028,24.51148],[88.72861,24.50537],[88.73129,24.50397],[88.74428,24.50984],[88.7461,24.513],[88.74559,24.52039],[88.74618,24.52385],[88.74857,24.5279],[88.7502,24.52925],[88.75301,24.52984],[88.76863,24.52858],[88.77486,24.52982],[88.77905,24.53175],[88.78167,24.53138],[88.78556,24.52691],[88.79051,24.52452],[88.79692,24.52308],[88.79948,24.5235],[88.80038,24.52713],[88.80258,24.53005],[88.80862,24.53043],[88.81385,24.52958],[88.81847,24.52402],[88.83215,24.51903],[88.83524,24.51535],[88.83889,24.51332],[88.84462,24.5128],[88.8475,24.51447],[88.84896,24.51076],[88.84819,24.50526],[88.84673,24.50267],[88.8402,24.49673],[88.83968,24.49367],[88.84016,24.49156],[88.84525,24.48969],[88.84473,24.48549],[88.84794,24.48193],[88.84563,24.48077],[88.84298,24.47643],[88.83453,24.47012],[88.83756,24.46798],[88.8434,24.4662],[88.84599,24.46243],[88.85413,24.46125],[88.85711,24.45945],[88.85802,24.45688],[88.8577,24.45547],[88.85519,24.45431],[88.85394,24.45251],[88.8534,24.44695],[88.85214,24.44487],[88.84946,24.44371],[88.84639,24.44096],[88.83949,24.44184],[88.83655,24.44011],[88.83572,24.43757],[88.83273,24.43755],[88.83143,24.43836],[88.83083,24.44195],[88.82918,24.44549],[88.82735,24.44341],[88.8248,24.44242],[88.81603,24.44315],[88.81172,24.44144],[88.8101,24.43987],[88.8092,24.43738],[88.80708,24.4369],[88.80051,24.43958],[88.79829,24.43399],[88.79812,24.42735],[88.80139,24.42368],[88.80489,24.4171],[88.8026,24.41112],[88.79779,24.40766],[88.79865,24.4052],[88.79572,24.40382],[88.78646,24.40665],[88.78304,24.40573],[88.78152,24.40223],[88.77927,24.4014],[88.77622,24.40178],[88.77061,24.39867],[88.76872,24.39596],[88.76654,24.39559],[88.76763,24.40086],[88.76584,24.40202],[88.76124,24.40201],[88.75944,24.40294],[88.75893,24.40908],[88.758,24.41108],[88.75533,24.41173],[88.75277,24.41108],[88.74746,24.4078],[88.74564,24.40497],[88.74426,24.40419],[88.73822,24.4029],[88.73697,24.4015],[88.73997,24.39533],[88.73891,24.39347],[88.7307,24.39379],[88.7307,24.38499],[88.72796,24.38366],[88.72659,24.3843],[88.71856,24.39274],[88.70962,24.39607],[88.71248,24.40422],[88.71186,24.40559],[88.7105,24.40747],[88.70429,24.40874],[88.70268,24.41035],[88.70213,24.41217],[88.70326,24.41419],[88.70745,24.41665],[88.70802,24.41863],[88.70726,24.4267],[88.70596,24.42796],[88.69832,24.42986],[88.69828,24.4327],[88.69476,24.43814],[88.69641,24.44254],[88.69842,24.44462],[88.69763,24.44673],[88.68838,24.4516],[88.68276,24.45053],[88.67599,24.45174],[88.66893,24.44779],[88.66621,24.4502],[88.66628,24.45253],[88.66973,24.45692],[88.67201,24.46297],[88.67336,24.46914],[88.6739,24.47697],[88.67892,24.48463],[88.6776,24.49089],[88.67731,24.50424],[88.6785,24.50553],[88.67968,24.50558],[88.68104,24.50397],[88.68207,24.4993],[88.68349,24.49781],[88.68455,24.49797],[88.68681,24.50033],[88.6889,24.50627],[88.68773,24.5081],[88.67647,24.51045],[88.68214,24.51094],[88.68645,24.51345],[88.69386,24.51422],[88.70899,24.52302],[88.71493,24.52596]]]}},{"type":"Feature","properties":{"name":"Godagari","district_id":"rajshahi","pcode":"508134","sql_upazila_id":"rajshahi-godagari","sql_name_bn":"গোদাগাড়ী"},"geometry":{"type":"Polygon","coordinates":[[[88.54021,24.49467],[88.53542,24.49489],[88.53291,24.49134],[88.52847,24.48804],[88.52461,24.48874],[88.51604,24.49446],[88.51651,24.49962],[88.51514,24.50088],[88.51379,24.5047],[88.51105,24.50484],[88.50811,24.5009],[88.50784,24.49664],[88.50996,24.48487],[88.51108,24.48338],[88.51473,24.48164],[88.51374,24.47955],[88.50943,24.47613],[88.50823,24.47427],[88.50854,24.47205],[88.51027,24.47056],[88.51499,24.46864],[88.51422,24.46422],[88.51627,24.46335],[88.52088,24.46325],[88.52369,24.46509],[88.52637,24.46523],[88.53532,24.4618],[88.53543,24.4602],[88.53162,24.4578],[88.53149,24.45582],[88.53309,24.45211],[88.53463,24.43597],[88.53238,24.43406],[88.5274,24.43501],[88.52242,24.43206],[88.51812,24.43188],[88.51593,24.43014],[88.51992,24.41829],[88.52014,24.41284],[88.52341,24.40617],[88.52221,24.4026],[88.51965,24.40047],[88.51518,24.39927],[88.51434,24.39644],[88.51462,24.38923],[88.51267,24.38629],[88.50994,24.3861],[88.5079,24.38725],[88.50412,24.39143],[88.49621,24.39037],[88.49156,24.39303],[88.48646,24.3928],[88.48239,24.38863],[88.48138,24.38495],[88.4814,24.37564],[88.47498,24.37406],[88.47343,24.37186],[88.47128,24.36337],[88.45924,24.37137],[88.44838,24.37704],[88.43776,24.38083],[88.4326,24.38167],[88.4239,24.38169],[88.41798,24.37926],[88.4109,24.38477],[88.38494,24.39471],[88.36848,24.40445],[88.36519,24.40715],[88.35472,24.417],[88.34586,24.42826],[88.34189,24.43204],[88.33644,24.44289],[88.32217,24.45627],[88.31442,24.46668],[88.30917,24.47626],[88.30609,24.48611],[88.30541,24.49401],[88.31133,24.51138],[88.31165,24.51655],[88.31136,24.52586],[88.30544,24.5464],[88.30405,24.55521],[88.304,24.5626],[88.30513,24.56571],[88.30757,24.56841],[88.31031,24.56913],[88.31554,24.56857],[88.32308,24.5697],[88.32696,24.57478],[88.32977,24.57697],[88.33128,24.57968],[88.32998,24.5819],[88.33048,24.58451],[88.33266,24.5863],[88.33915,24.58608],[88.34282,24.58503],[88.34699,24.58669],[88.35125,24.59137],[88.35426,24.59617],[88.35689,24.5987],[88.35982,24.59971],[88.36406,24.59994],[88.36785,24.59866],[88.37547,24.60143],[88.38967,24.59983],[88.39628,24.60147],[88.40325,24.59869],[88.40616,24.5936],[88.40896,24.59193],[88.41238,24.59156],[88.42306,24.59651],[88.42798,24.59669],[88.43215,24.59535],[88.44047,24.5888],[88.44359,24.58815],[88.44665,24.59022],[88.44916,24.5936],[88.45084,24.59427],[88.45736,24.59046],[88.45904,24.58789],[88.45847,24.58698],[88.45355,24.58686],[88.45372,24.58425],[88.45602,24.58156],[88.46272,24.5757],[88.46534,24.5746],[88.46912,24.57099],[88.4921,24.55441],[88.49453,24.55451],[88.49777,24.55589],[88.50057,24.55552],[88.51418,24.54722],[88.51649,24.54793],[88.51649,24.55009],[88.51887,24.55069],[88.52209,24.54896],[88.52602,24.55],[88.53172,24.55441],[88.53564,24.55365],[88.53535,24.54729],[88.53178,24.53978],[88.5317,24.53751],[88.53337,24.53579],[88.5346,24.53146],[88.53746,24.53126],[88.54021,24.53435],[88.54184,24.53479],[88.55209,24.53003],[88.55251,24.5281],[88.54907,24.52478],[88.54869,24.52291],[88.5442,24.52137],[88.54393,24.51763],[88.54286,24.51514],[88.53295,24.51422],[88.5322,24.51269],[88.5338,24.50819],[88.53378,24.50303],[88.53855,24.49986],[88.54004,24.49802],[88.54021,24.49467]]]}},{"type":"Feature","properties":{"name":"Mohanpur","district_id":"rajshahi","pcode":"508153","sql_upazila_id":null,"sql_name_bn":null},"geometry":{"type":"Polygon","coordinates":[[[88.68066,24.63699],[88.67998,24.61644],[88.6747,24.60907],[88.67543,24.60581],[88.67815,24.60381],[88.68507,24.60214],[88.69318,24.59552],[88.69373,24.59319],[88.69309,24.58996],[88.69382,24.58751],[88.70052,24.58261],[88.70081,24.5796],[88.69785,24.5752],[88.6953,24.57398],[88.69435,24.57229],[88.69496,24.57052],[88.70565,24.56586],[88.71141,24.56074],[88.71133,24.55745],[88.70736,24.55108],[88.70639,24.54451],[88.70919,24.5443],[88.71086,24.54315],[88.71149,24.53497],[88.71493,24.52596],[88.69386,24.51422],[88.68645,24.51345],[88.68214,24.51094],[88.67279,24.5098],[88.66804,24.50627],[88.66395,24.4995],[88.66032,24.49693],[88.64796,24.49309],[88.64585,24.49164],[88.64492,24.48972],[88.64515,24.47876],[88.64381,24.47412],[88.6386,24.47531],[88.62935,24.48109],[88.61983,24.48255],[88.6176,24.48405],[88.61305,24.48325],[88.611,24.48378],[88.60809,24.48574],[88.60575,24.48883],[88.59528,24.4882],[88.59087,24.49092],[88.58862,24.49071],[88.58582,24.48898],[88.58371,24.49116],[88.58035,24.49107],[88.58032,24.49841],[88.57935,24.50216],[88.58115,24.51361],[88.57998,24.51482],[88.57693,24.51519],[88.5709,24.51809],[88.57103,24.51917],[88.5783,24.52897],[88.57915,24.53464],[88.5771,24.53608],[88.57929,24.53952],[88.58499,24.54536],[88.58848,24.54521],[88.58961,24.54844],[88.59319,24.55374],[88.59152,24.55569],[88.59643,24.56239],[88.59718,24.56448],[88.59384,24.56878],[88.59312,24.57361],[88.58756,24.57248],[88.58864,24.57462],[88.58942,24.5808],[88.59332,24.58768],[88.59396,24.59057],[88.59385,24.59415],[88.59532,24.60067],[88.59377,24.60346],[88.59373,24.60641],[88.59801,24.61506],[88.6019,24.61905],[88.6131,24.61598],[88.62261,24.61111],[88.62634,24.61056],[88.62897,24.61297],[88.62881,24.61553],[88.624,24.62585],[88.62501,24.62765],[88.62724,24.62588],[88.63757,24.62156],[88.64099,24.62192],[88.64694,24.62617],[88.64866,24.63234],[88.65116,24.63379],[88.65315,24.63349],[88.65662,24.62862],[88.67168,24.63612],[88.67393,24.63638],[88.67654,24.63545],[88.68066,24.63699]]]}},{"type":"Feature","properties":{"name":"Paba","district_id":"rajshahi","pcode":"508172","sql_upazila_id":"rajshahi-paba","sql_name_bn":"পবা"},"geometry":{"type":"Polygon","coordinates":[[[88.54021,24.49467],[88.5418,24.49023],[88.53998,24.48678],[88.5409,24.48359],[88.54289,24.48346],[88.54713,24.48501],[88.54887,24.48476],[88.55244,24.48768],[88.55642,24.48764],[88.55811,24.4887],[88.55774,24.49012],[88.55706,24.49144],[88.55408,24.49272],[88.55341,24.49413],[88.55515,24.49526],[88.5607,24.49594],[88.56285,24.49126],[88.56664,24.48952],[88.56969,24.48949],[88.57655,24.49265],[88.58035,24.49107],[88.58371,24.49116],[88.58582,24.48898],[88.58862,24.49071],[88.59087,24.49092],[88.59528,24.4882],[88.60575,24.48883],[88.60809,24.48574],[88.611,24.48378],[88.61305,24.48325],[88.6176,24.48405],[88.61983,24.48255],[88.62935,24.48109],[88.6386,24.47531],[88.64381,24.47412],[88.64515,24.47876],[88.64492,24.48972],[88.64585,24.49164],[88.64796,24.49309],[88.66032,24.49693],[88.66395,24.4995],[88.66804,24.50627],[88.67279,24.5098],[88.67647,24.51045],[88.68773,24.5081],[88.6889,24.50627],[88.68832,24.50378],[88.68681,24.50033],[88.68455,24.49797],[88.68349,24.49781],[88.68207,24.4993],[88.68104,24.50397],[88.67968,24.50558],[88.6785,24.50553],[88.67731,24.50424],[88.6776,24.49089],[88.67892,24.48463],[88.6739,24.47697],[88.67336,24.46914],[88.67201,24.46297],[88.66973,24.45692],[88.66628,24.45253],[88.66621,24.4502],[88.66893,24.44779],[88.67599,24.45174],[88.68276,24.45053],[88.68838,24.4516],[88.69763,24.44673],[88.69842,24.44462],[88.69641,24.44254],[88.69476,24.43814],[88.69828,24.4327],[88.69832,24.42986],[88.70596,24.42796],[88.70726,24.4267],[88.70802,24.41863],[88.70745,24.41665],[88.70326,24.41419],[88.70213,24.41217],[88.70268,24.41035],[88.70429,24.40874],[88.7105,24.40747],[88.71248,24.40422],[88.70962,24.39607],[88.70531,24.39186],[88.70285,24.38735],[88.70352,24.38615],[88.70806,24.38519],[88.70904,24.38246],[88.70623,24.3813],[88.70393,24.38177],[88.7026,24.37685],[88.70109,24.37465],[88.70026,24.3712],[88.70344,24.36368],[88.7018,24.35818],[88.69978,24.35457],[88.69798,24.3542],[88.68661,24.35597],[88.67384,24.36237],[88.66998,24.36257],[88.6688,24.36213],[88.6686,24.36106],[88.67051,24.35745],[88.66743,24.35243],[88.66773,24.35118],[88.67215,24.35034],[88.67282,24.34931],[88.67075,24.34627],[88.66312,24.34976],[88.65662,24.35539],[88.65565,24.35755],[88.65463,24.36546],[88.65035,24.368],[88.65012,24.36983],[88.65405,24.37273],[88.65463,24.37608],[88.65371,24.3779],[88.64665,24.38274],[88.64423,24.38283],[88.63693,24.38036],[88.63412,24.37806],[88.63021,24.37799],[88.62728,24.37915],[88.61675,24.38642],[88.61401,24.38638],[88.61083,24.38523],[88.59917,24.37962],[88.58858,24.37763],[88.5812,24.38151],[88.58023,24.38623],[88.57925,24.38721],[88.57606,24.38503],[88.57204,24.37803],[88.56602,24.37928],[88.56329,24.38283],[88.55808,24.38504],[88.55205,24.38488],[88.54475,24.38234],[88.54117,24.37312],[88.54159,24.37062],[88.54252,24.36976],[88.55452,24.36952],[88.55775,24.36881],[88.56396,24.36659],[88.56438,24.36573],[88.56377,24.36483],[88.55208,24.36631],[88.54727,24.36318],[88.52898,24.36177],[88.51164,24.36388],[88.49889,24.36429],[88.48013,24.36845],[88.47279,24.36772],[88.47343,24.37186],[88.47498,24.37406],[88.4814,24.37564],[88.48138,24.38495],[88.48239,24.38863],[88.48646,24.3928],[88.49156,24.39303],[88.49621,24.39037],[88.50412,24.39143],[88.5079,24.38725],[88.50994,24.3861],[88.51267,24.38629],[88.51462,24.38923],[88.51434,24.39644],[88.51518,24.39927],[88.51965,24.40047],[88.52221,24.4026],[88.52341,24.40617],[88.52014,24.41284],[88.51992,24.41829],[88.51593,24.43014],[88.51812,24.43188],[88.52242,24.43206],[88.5274,24.43501],[88.53238,24.43406],[88.53463,24.43597],[88.53309,24.45211],[88.53149,24.45582],[88.53162,24.4578],[88.53543,24.4602],[88.53532,24.4618],[88.52637,24.46523],[88.52369,24.46509],[88.52088,24.46325],[88.51627,24.46335],[88.51422,24.46422],[88.51499,24.46864],[88.51027,24.47056],[88.50854,24.47205],[88.50823,24.47427],[88.50943,24.47613],[88.51374,24.47955],[88.51473,24.48164],[88.51108,24.48338],[88.50996,24.48487],[88.50784,24.49664],[88.50811,24.5009],[88.51105,24.50484],[88.51379,24.5047],[88.51514,24.50088],[88.51651,24.49962],[88.51604,24.49446],[88.52461,24.48874],[88.52847,24.48804],[88.53291,24.49134],[88.53542,24.49489],[88.54021,24.49467]]]}},{"type":"Feature","properties":{"name":"Puthia","district_id":"rajshahi","pcode":"508182","sql_upazila_id":"rajshahi-puthia","sql_name_bn":"পুঠিয়া"},"geometry":{"type":"Polygon","coordinates":[[[88.8475,24.51447],[88.85087,24.51613],[88.85802,24.51542],[88.8672,24.5182],[88.87135,24.51429],[88.87595,24.51422],[88.8864,24.52023],[88.89349,24.52008],[88.89784,24.51844],[88.89755,24.51294],[88.89865,24.51043],[88.89971,24.51024],[88.90839,24.51286],[88.91611,24.51361],[88.9248,24.51713],[88.92622,24.51689],[88.92702,24.51546],[88.92316,24.50796],[88.92289,24.50399],[88.91611,24.50493],[88.91285,24.50315],[88.90906,24.48804],[88.90724,24.48636],[88.89695,24.48405],[88.89522,24.47777],[88.8924,24.47434],[88.89558,24.4676],[88.89677,24.46174],[88.89362,24.45542],[88.89391,24.45286],[88.90028,24.44773],[88.90125,24.44528],[88.89983,24.43803],[88.89672,24.43159],[88.8967,24.42853],[88.89785,24.42488],[88.90189,24.42426],[88.90281,24.42187],[88.89899,24.4117],[88.90057,24.40782],[88.89809,24.39956],[88.89167,24.38999],[88.88993,24.38348],[88.89365,24.38026],[88.8945,24.37105],[88.89318,24.3679],[88.88941,24.36442],[88.88367,24.36273],[88.87964,24.36261],[88.87222,24.36066],[88.86277,24.3614],[88.85588,24.35546],[88.8511,24.3457],[88.84778,24.34438],[88.84569,24.33907],[88.84103,24.33936],[88.83652,24.34373],[88.83474,24.34749],[88.83232,24.34786],[88.82977,24.34721],[88.82608,24.34447],[88.82434,24.34495],[88.8232,24.35036],[88.82146,24.35134],[88.8186,24.35138],[88.81792,24.35076],[88.8196,24.34284],[88.81902,24.34053],[88.81245,24.34328],[88.80605,24.34438],[88.80399,24.34338],[88.79992,24.3382],[88.7975,24.33999],[88.79222,24.34062],[88.79142,24.34228],[88.79185,24.34982],[88.79118,24.35233],[88.7887,24.3527],[88.78714,24.35147],[88.78577,24.35182],[88.78506,24.35677],[88.7829,24.35907],[88.7827,24.36611],[88.7815,24.37259],[88.77896,24.37399],[88.77714,24.37117],[88.77716,24.36635],[88.77422,24.36422],[88.77359,24.36185],[88.77158,24.36005],[88.77016,24.36069],[88.76996,24.367],[88.76809,24.36719],[88.76653,24.36619],[88.7647,24.36314],[88.76048,24.36478],[88.75619,24.36352],[88.75382,24.36366],[88.74793,24.36617],[88.74432,24.36553],[88.74257,24.36391],[88.74237,24.36226],[88.7498,24.35838],[88.75079,24.3557],[88.74984,24.35383],[88.74597,24.35104],[88.74539,24.34929],[88.74734,24.34365],[88.74409,24.34118],[88.74238,24.33553],[88.7407,24.3347],[88.73935,24.33812],[88.7368,24.33776],[88.73386,24.33454],[88.72866,24.33932],[88.72195,24.34036],[88.72192,24.34388],[88.71974,24.34413],[88.71839,24.34727],[88.71691,24.34859],[88.71348,24.34738],[88.71232,24.34382],[88.71147,24.34422],[88.71054,24.34548],[88.70958,24.35038],[88.70543,24.35326],[88.7047,24.3556],[88.70573,24.36013],[88.70026,24.3712],[88.70393,24.38177],[88.70623,24.3813],[88.70904,24.38246],[88.70806,24.38519],[88.70352,24.38615],[88.70285,24.38735],[88.70531,24.39186],[88.70962,24.39607],[88.71856,24.39274],[88.72183,24.38884],[88.72394,24.38779],[88.72659,24.3843],[88.72796,24.38366],[88.7307,24.38499],[88.7307,24.39379],[88.73729,24.39309],[88.73891,24.39347],[88.73997,24.39533],[88.73697,24.4015],[88.73822,24.4029],[88.74426,24.40419],[88.74564,24.40497],[88.74746,24.4078],[88.75277,24.41108],[88.75533,24.41173],[88.758,24.41108],[88.75893,24.40908],[88.75944,24.40294],[88.76124,24.40201],[88.76584,24.40202],[88.76763,24.40086],[88.76654,24.39559],[88.76872,24.39596],[88.77061,24.39867],[88.77622,24.40178],[88.77927,24.4014],[88.78152,24.40223],[88.78304,24.40573],[88.78646,24.40665],[88.79572,24.40382],[88.79865,24.4052],[88.79779,24.40766],[88.8026,24.41112],[88.80489,24.4171],[88.80139,24.42368],[88.79812,24.42735],[88.79829,24.43399],[88.80051,24.43958],[88.80708,24.4369],[88.8092,24.43738],[88.8101,24.43987],[88.81172,24.44144],[88.81603,24.44315],[88.8248,24.44242],[88.82735,24.44341],[88.82918,24.44549],[88.83083,24.44195],[88.83143,24.43836],[88.83273,24.43755],[88.83572,24.43757],[88.83655,24.44011],[88.83949,24.44184],[88.84639,24.44096],[88.84946,24.44371],[88.85214,24.44487],[88.8541,24.44904],[88.85394,24.45251],[88.85519,24.45431],[88.8577,24.45547],[88.85802,24.45688],[88.85711,24.45945],[88.85413,24.46125],[88.84599,24.46243],[88.8434,24.4662],[88.83756,24.46798],[88.83453,24.47012],[88.84298,24.47643],[88.84563,24.48077],[88.84794,24.48193],[88.84473,24.48549],[88.84525,24.48969],[88.84016,24.49156],[88.83968,24.49367],[88.8402,24.49673],[88.84673,24.50267],[88.84819,24.50526],[88.84896,24.51076],[88.8475,24.51447]]]}},{"type":"Feature","properties":{"name":"Tanore","district_id":"rajshahi","pcode":"508194","sql_upazila_id":"rajshahi-tanore","sql_name_bn":"তানোর"},"geometry":{"type":"Polygon","coordinates":[[[88.59065,24.69501],[88.59404,24.69997],[88.60159,24.70024],[88.60517,24.70184],[88.61401,24.70147],[88.61668,24.69974],[88.61823,24.6975],[88.62291,24.69762],[88.6244,24.69664],[88.62579,24.68982],[88.62185,24.68685],[88.62255,24.67776],[88.62347,24.6761],[88.62708,24.67567],[88.62963,24.67331],[88.62986,24.66985],[88.62952,24.66616],[88.62553,24.66592],[88.62446,24.66372],[88.62404,24.65515],[88.62522,24.65446],[88.62883,24.64261],[88.6262,24.64031],[88.62402,24.63976],[88.62845,24.62961],[88.63125,24.62901],[88.63415,24.62308],[88.62724,24.62588],[88.62501,24.62765],[88.624,24.62585],[88.62881,24.61553],[88.62897,24.61297],[88.62634,24.61056],[88.62261,24.61111],[88.6131,24.61598],[88.6019,24.61905],[88.59801,24.61506],[88.59373,24.60641],[88.59377,24.60346],[88.59532,24.60067],[88.59385,24.59415],[88.59396,24.59057],[88.59332,24.58768],[88.58942,24.5808],[88.58864,24.57462],[88.58756,24.57248],[88.59312,24.57361],[88.59384,24.56878],[88.59718,24.56448],[88.59643,24.56239],[88.59152,24.55569],[88.59319,24.55374],[88.58961,24.54844],[88.58848,24.54521],[88.58499,24.54536],[88.57929,24.53952],[88.5771,24.53608],[88.57915,24.53464],[88.5783,24.52897],[88.5743,24.5243],[88.5709,24.51809],[88.57693,24.51519],[88.57998,24.51482],[88.58115,24.51361],[88.57935,24.50216],[88.58032,24.49841],[88.58035,24.49107],[88.57655,24.49265],[88.56969,24.48949],[88.56664,24.48952],[88.56285,24.49126],[88.5607,24.49594],[88.55515,24.49526],[88.55341,24.49413],[88.55408,24.49272],[88.55706,24.49144],[88.55811,24.4887],[88.55642,24.48764],[88.55244,24.48768],[88.54887,24.48476],[88.54713,24.48501],[88.54289,24.48346],[88.5409,24.48359],[88.53998,24.48678],[88.5418,24.49023],[88.54021,24.49467],[88.54004,24.49802],[88.53855,24.49986],[88.53378,24.50303],[88.5338,24.50819],[88.5322,24.51269],[88.53295,24.51422],[88.54286,24.51514],[88.54393,24.51763],[88.5442,24.52137],[88.54869,24.52291],[88.54907,24.52478],[88.55251,24.5281],[88.55209,24.53003],[88.54184,24.53479],[88.54021,24.53435],[88.53746,24.53126],[88.5346,24.53146],[88.53337,24.53579],[88.5317,24.53751],[88.53178,24.53978],[88.53535,24.54729],[88.53564,24.55365],[88.53172,24.55441],[88.52602,24.55],[88.52209,24.54896],[88.51887,24.55069],[88.51649,24.55009],[88.51649,24.54793],[88.51418,24.54722],[88.50057,24.55552],[88.49777,24.55589],[88.49453,24.55451],[88.4921,24.55441],[88.46912,24.57099],[88.46534,24.5746],[88.46272,24.5757],[88.45602,24.58156],[88.45372,24.58425],[88.45355,24.58686],[88.45847,24.58698],[88.45904,24.58789],[88.45736,24.59046],[88.45084,24.59427],[88.44916,24.5936],[88.44665,24.59022],[88.44359,24.58815],[88.44047,24.5888],[88.43215,24.59535],[88.42798,24.59669],[88.42306,24.59651],[88.41238,24.59156],[88.40896,24.59193],[88.40616,24.5936],[88.40325,24.59869],[88.39628,24.60147],[88.41333,24.61085],[88.41601,24.6135],[88.42107,24.61521],[88.42319,24.61672],[88.42308,24.61865],[88.41894,24.62778],[88.4197,24.63032],[88.4285,24.63467],[88.42939,24.63726],[88.42864,24.63898],[88.42928,24.64148],[88.42319,24.64687],[88.42445,24.65055],[88.42738,24.64938],[88.43037,24.64993],[88.43337,24.65171],[88.43539,24.65555],[88.43697,24.66376],[88.43848,24.66637],[88.44141,24.66685],[88.44633,24.66334],[88.46083,24.65839],[88.4679,24.66223],[88.46996,24.66198],[88.47,24.65903],[88.47118,24.65703],[88.48051,24.65552],[88.48619,24.65677],[88.49025,24.65623],[88.49294,24.65858],[88.48979,24.66446],[88.49167,24.667],[88.4948,24.66833],[88.50109,24.66771],[88.50174,24.67354],[88.50754,24.67308],[88.51067,24.67516],[88.51156,24.67855],[88.51063,24.68169],[88.50796,24.68228],[88.50203,24.68171],[88.49877,24.67908],[88.49372,24.67884],[88.49034,24.67689],[88.48541,24.6766],[88.48344,24.67803],[88.48056,24.67823],[88.47862,24.67592],[88.47836,24.67314],[88.4761,24.67067],[88.47174,24.67094],[88.46812,24.67228],[88.46053,24.67587],[88.4583,24.67856],[88.45931,24.68201],[88.464,24.68566],[88.47074,24.68611],[88.4814,24.68345],[88.48564,24.68494],[88.49022,24.69063],[88.49167,24.69481],[88.4913,24.70668],[88.4978,24.7106],[88.5005,24.71551],[88.50855,24.71719],[88.51446,24.71282],[88.52019,24.71032],[88.54317,24.70293],[88.55103,24.70479],[88.55858,24.70488],[88.56537,24.70311],[88.57519,24.69619],[88.57467,24.69246],[88.5714,24.68647],[88.57188,24.68408],[88.57436,24.6819],[88.57798,24.68129],[88.58362,24.68492],[88.58962,24.69037],[88.59065,24.69501]]]}}]}