{"type":"FeatureCollection","features":[{"type":"Feature","properties":{"name":"Bagaichhari","district_id":"rangamati","pcode":"208407","sql_upazila_id":null,"sql_name_bn":null},"geometry":{"type":"Polygon","coordinates":[[[92.17392,23.74277],[92.17792,23.74346],[92.17945,23.74318],[92.181,23.74155],[92.17887,23.7324],[92.18007,23.72142],[92.18337,23.71816],[92.18443,23.71429],[92.18655,23.71052],[92.19083,23.7101],[92.1939,23.71161],[92.19918,23.70706],[92.20335,23.70697],[92.21158,23.70162],[92.21773,23.69519],[92.21819,23.69197],[92.21679,23.69084],[92.21578,23.67837],[92.21341,23.67083],[92.21294,23.6642],[92.22025,23.65856],[92.22405,23.65732],[92.22844,23.65919],[92.23256,23.66361],[92.23496,23.6675],[92.23814,23.67027],[92.23752,23.67678],[92.23955,23.68028],[92.2396,23.68248],[92.24174,23.68457],[92.24236,23.68891],[92.24691,23.69176],[92.24703,23.69469],[92.24252,23.7043],[92.24079,23.70614],[92.24147,23.71363],[92.24745,23.7241],[92.25181,23.72652],[92.2558,23.72727],[92.262,23.7271],[92.26748,23.72856],[92.26918,23.72811],[92.27626,23.72187],[92.28301,23.70835],[92.28881,23.70527],[92.29069,23.70306],[92.2949,23.69423],[92.29594,23.68686],[92.29533,23.67551],[92.29252,23.6701],[92.28521,23.65127],[92.28004,23.64384],[92.28053,23.63937],[92.28621,23.63654],[92.28246,23.63337],[92.28144,23.63005],[92.28357,23.629],[92.2838,23.62809],[92.28848,23.62723],[92.29014,23.62887],[92.29295,23.6298],[92.30018,23.62526],[92.30063,23.62211],[92.29773,23.62156],[92.29459,23.61951],[92.29334,23.61553],[92.2929,23.6013],[92.29361,23.59596],[92.30183,23.58807],[92.30586,23.59126],[92.31149,23.57909],[92.31202,23.57554],[92.31146,23.57055],[92.31367,23.56663],[92.3135,23.56259],[92.31799,23.55461],[92.317,23.55105],[92.31515,23.54866],[92.31614,23.5454],[92.31282,23.53378],[92.31467,23.53119],[92.31719,23.53068],[92.3232,23.52465],[92.32122,23.52197],[92.32153,23.51963],[92.32342,23.51132],[92.32635,23.50834],[92.3262,23.50135],[92.32694,23.49875],[92.32679,23.49692],[92.32451,23.49591],[92.32452,23.49511],[92.32653,23.49373],[92.32751,23.49188],[92.32344,23.49015],[92.32564,23.48589],[92.32826,23.48259],[92.33122,23.48102],[92.33255,23.47865],[92.3311,23.47715],[92.32453,23.47618],[92.3232,23.4738],[92.32711,23.47071],[92.33552,23.46746],[92.33805,23.46448],[92.33776,23.46196],[92.33657,23.45997],[92.33234,23.46133],[92.33293,23.45843],[92.3346,23.45584],[92.33908,23.45601],[92.33848,23.45387],[92.33659,23.45255],[92.33585,23.44939],[92.33863,23.43648],[92.34077,23.43118],[92.34218,23.43007],[92.34261,23.43243],[92.34522,23.43364],[92.34713,23.43564],[92.35021,23.43426],[92.35237,23.43127],[92.35393,23.42259],[92.35408,23.41951],[92.3525,23.41477],[92.35851,23.41195],[92.36177,23.40907],[92.36231,23.4038],[92.36038,23.40206],[92.35867,23.39815],[92.35859,23.39472],[92.35944,23.39202],[92.3632,23.39102],[92.36339,23.38906],[92.36209,23.38652],[92.35953,23.38532],[92.35982,23.38129],[92.36645,23.38134],[92.36869,23.38037],[92.36914,23.3789],[92.3642,23.37496],[92.36351,23.37357],[92.36419,23.36952],[92.3664,23.36738],[92.36939,23.3671],[92.37233,23.36856],[92.37436,23.37102],[92.37581,23.36529],[92.3804,23.36249],[92.38156,23.35913],[92.38147,23.35647],[92.38372,23.35362],[92.38354,23.35021],[92.38174,23.34678],[92.38115,23.3413],[92.37936,23.33518],[92.37517,23.32818],[92.37222,23.3268],[92.37286,23.32293],[92.37533,23.31819],[92.37673,23.32116],[92.38123,23.32067],[92.38243,23.31935],[92.38423,23.31347],[92.38771,23.30856],[92.38968,23.29726],[92.39004,23.29038],[92.38904,23.28881],[92.39086,23.28523],[92.39455,23.28213],[92.40043,23.26935],[92.40061,23.26632],[92.39722,23.26881],[92.3961,23.26735],[92.3992,23.26144],[92.40193,23.25886],[92.4036,23.25841],[92.40551,23.25581],[92.40653,23.25],[92.40863,23.24608],[92.40863,23.24224],[92.39756,23.2406],[92.37316,23.2397],[92.36796,23.23855],[92.36252,23.23852],[92.3611,23.23754],[92.3622,23.22742],[92.36403,23.22016],[92.36451,23.21151],[92.36414,23.2015],[92.36157,23.19709],[92.3622,23.19203],[92.36301,23.1892],[92.36865,23.18625],[92.36955,23.18391],[92.36624,23.18346],[92.36541,23.1815],[92.36563,23.17748],[92.37163,23.15975],[92.36824,23.15239],[92.36869,23.14603],[92.36627,23.14246],[92.36474,23.13742],[92.36729,23.13218],[92.37061,23.13133],[92.37344,23.12787],[92.36885,23.11747],[92.36787,23.11326],[92.36536,23.11035],[92.3658,23.10595],[92.36883,23.10088],[92.36905,23.09851],[92.37301,23.09738],[92.37748,23.08935],[92.38244,23.08571],[92.38388,23.08743],[92.38587,23.08368],[92.38597,23.08165],[92.38846,23.07622],[92.38844,23.07008],[92.39367,23.05817],[92.39311,23.0491],[92.39046,23.04183],[92.37387,23.06377],[92.37009,23.06682],[92.36115,23.079],[92.35245,23.08803],[92.34667,23.0977],[92.34171,23.10185],[92.33548,23.10411],[92.33292,23.10616],[92.33121,23.10901],[92.32333,23.11532],[92.31906,23.12062],[92.31549,23.12196],[92.30711,23.1222],[92.28999,23.12871],[92.27102,23.12951],[92.26429,23.13202],[92.25826,23.13739],[92.25272,23.13221],[92.24829,23.13169],[92.23872,23.12509],[92.22876,23.12374],[92.21957,23.12854],[92.21395,23.13472],[92.20952,23.13702],[92.20644,23.13994],[92.20054,23.14329],[92.19587,23.14416],[92.1918,23.1307],[92.19223,23.12739],[92.19432,23.11997],[92.19418,23.11775],[92.19758,23.11203],[92.20133,23.10897],[92.20166,23.10602],[92.20021,23.09925],[92.19649,23.09174],[92.19187,23.08737],[92.18677,23.09424],[92.18208,23.10271],[92.18012,23.1039],[92.17857,23.10759],[92.1742,23.11218],[92.17123,23.11954],[92.16608,23.12895],[92.16289,23.13895],[92.15312,23.15531],[92.15262,23.15861],[92.15347,23.16437],[92.14693,23.17422],[92.14505,23.17487],[92.13491,23.19312],[92.13439,23.19833],[92.13261,23.20207],[92.13128,23.21034],[92.13002,23.21305],[92.12789,23.22587],[92.12727,23.24479],[92.12775,23.25902],[92.12628,23.26525],[92.12734,23.29814],[92.12561,23.31002],[92.12644,23.31654],[92.12555,23.31924],[92.12308,23.32174],[92.11019,23.3286],[92.10721,23.33124],[92.09479,23.33701],[92.08633,23.34453],[92.08057,23.34767],[92.0778,23.35068],[92.07246,23.35316],[92.06403,23.3589],[92.05464,23.36398],[92.05355,23.36681],[92.05551,23.36943],[92.06249,23.37318],[92.06803,23.37804],[92.07667,23.38252],[92.07877,23.38239],[92.08196,23.3843],[92.10064,23.39881],[92.11946,23.41111],[92.12288,23.41412],[92.1306,23.42395],[92.13407,23.4263],[92.13719,23.43135],[92.13612,23.44015],[92.13705,23.45018],[92.13268,23.46376],[92.12968,23.4811],[92.1254,23.49493],[92.12183,23.5001],[92.11795,23.51656],[92.11531,23.52111],[92.11497,23.52346],[92.11594,23.52658],[92.11365,23.54093],[92.10041,23.56961],[92.08964,23.60749],[92.08172,23.62865],[92.07941,23.63938],[92.08355,23.64976],[92.08703,23.65387],[92.08701,23.65748],[92.08535,23.66054],[92.08544,23.66437],[92.0881,23.67284],[92.09065,23.67712],[92.09624,23.67948],[92.10098,23.67656],[92.10306,23.67592],[92.10589,23.67647],[92.10853,23.67867],[92.11453,23.68706],[92.1211,23.69322],[92.13515,23.70977],[92.14215,23.71521],[92.14611,23.72153],[92.15046,23.73249],[92.16308,23.73965],[92.1718,23.74246],[92.17392,23.74277]]]}},{"type":"Feature","properties":{"name":"Barkal","district_id":"rangamati","pcode":"208421","sql_upazila_id":"rangamati-barkal","sql_name_bn":"বরকল"},"geometry":{"type":"Polygon","coordinates":[[[92.39046,23.04183],[92.38546,23.038],[92.38655,23.02805],[92.38579,23.02211],[92.38179,23.00997],[92.38584,23.00171],[92.3848,22.99828],[92.38558,22.99346],[92.38304,22.99097],[92.3855,22.98693],[92.3805,22.98189],[92.37784,22.96477],[92.38032,22.9555],[92.37966,22.95125],[92.37578,22.93989],[92.37578,22.93376],[92.37731,22.93175],[92.38099,22.93028],[92.39655,22.9316],[92.40012,22.92746],[92.402,22.91992],[92.40441,22.91653],[92.40563,22.9161],[92.40879,22.91628],[92.41002,22.91715],[92.41537,22.91548],[92.41865,22.92027],[92.42143,22.92012],[92.41876,22.91296],[92.42303,22.90608],[92.42419,22.90606],[92.42809,22.90178],[92.42995,22.89671],[92.43127,22.89526],[92.43072,22.88972],[92.4329,22.88693],[92.43633,22.88555],[92.43691,22.88683],[92.43941,22.88689],[92.44193,22.89158],[92.44521,22.8951],[92.44753,22.89359],[92.44837,22.88669],[92.45017,22.88542],[92.45056,22.87753],[92.45827,22.87196],[92.45539,22.86899],[92.45353,22.86556],[92.45453,22.86348],[92.4562,22.8625],[92.46094,22.86153],[92.46206,22.86039],[92.46222,22.85843],[92.46437,22.85603],[92.46466,22.85379],[92.46386,22.85303],[92.4592,22.85377],[92.46167,22.84868],[92.46113,22.84701],[92.4645,22.84322],[92.46319,22.84251],[92.46125,22.84339],[92.45751,22.84173],[92.46312,22.83651],[92.46476,22.83276],[92.45918,22.82803],[92.45843,22.82637],[92.45915,22.82358],[92.45749,22.82299],[92.45769,22.82114],[92.46067,22.82011],[92.46064,22.81838],[92.46262,22.81406],[92.46647,22.81055],[92.46963,22.81029],[92.46883,22.8071],[92.47282,22.80082],[92.47779,22.79833],[92.47797,22.79616],[92.47599,22.7907],[92.47766,22.78428],[92.48252,22.7817],[92.48278,22.7769],[92.48653,22.77283],[92.48325,22.77082],[92.48313,22.76689],[92.48465,22.76445],[92.4813,22.76245],[92.48742,22.75966],[92.48816,22.75707],[92.49213,22.75386],[92.49141,22.75204],[92.48723,22.75178],[92.48462,22.75025],[92.48865,22.74744],[92.50552,22.74396],[92.50308,22.74114],[92.5057,22.73943],[92.51007,22.73819],[92.5114,22.73661],[92.50421,22.73568],[92.49291,22.74132],[92.48953,22.74159],[92.48322,22.74027],[92.47983,22.73675],[92.47035,22.72103],[92.46207,22.70198],[92.45805,22.68929],[92.45604,22.68742],[92.45422,22.68353],[92.45248,22.68308],[92.45128,22.68636],[92.4492,22.7025],[92.44908,22.71804],[92.44714,22.73171],[92.44431,22.73424],[92.43567,22.73696],[92.4304,22.73682],[92.42052,22.73218],[92.41776,22.73193],[92.40464,22.73617],[92.40108,22.72719],[92.40007,22.72345],[92.40043,22.72065],[92.39883,22.71804],[92.39427,22.71984],[92.3921,22.72196],[92.3813,22.72329],[92.37696,22.72294],[92.36382,22.72707],[92.35837,22.7315],[92.35454,22.73353],[92.35089,22.73251],[92.34616,22.72942],[92.33953,22.72659],[92.33509,22.72913],[92.33262,22.73154],[92.33207,22.73416],[92.3282,22.74209],[92.32431,22.74205],[92.31755,22.73543],[92.31266,22.7285],[92.31115,22.72305],[92.31234,22.71159],[92.30534,22.70172],[92.30285,22.6958],[92.30091,22.68433],[92.29952,22.68107],[92.29497,22.67495],[92.28584,22.67985],[92.27862,22.68152],[92.26734,22.68649],[92.24515,22.69838],[92.23389,22.70323],[92.23187,22.71001],[92.22021,22.72604],[92.2181,22.7334],[92.21267,22.73722],[92.20731,22.74421],[92.20565,22.75035],[92.20335,22.75478],[92.20353,22.75733],[92.20068,22.7638],[92.19636,22.76659],[92.19544,22.76848],[92.19075,22.78038],[92.18874,22.79812],[92.18614,22.8048],[92.18371,22.81439],[92.19291,22.8177],[92.19647,22.81783],[92.20548,22.82247],[92.2134,22.83268],[92.22138,22.83892],[92.22464,22.84307],[92.22709,22.84399],[92.23007,22.84349],[92.24054,22.83252],[92.24484,22.82912],[92.25398,22.83359],[92.26212,22.83295],[92.26833,22.83827],[92.27499,22.84026],[92.28478,22.83795],[92.29011,22.8375],[92.30156,22.83359],[92.30863,22.83625],[92.31017,22.8378],[92.31051,22.84002],[92.30911,22.84179],[92.30531,22.85169],[92.29994,22.85761],[92.29881,22.86231],[92.29418,22.86896],[92.29482,22.87663],[92.29236,22.88729],[92.29312,22.89163],[92.29555,22.89794],[92.29545,22.90335],[92.29527,22.90476],[92.29161,22.9068],[92.29391,22.91726],[92.28998,22.92002],[92.29106,22.92301],[92.29357,22.92358],[92.30295,22.92263],[92.30526,22.92338],[92.30707,22.92576],[92.30699,22.92978],[92.30657,22.9317],[92.30506,22.93332],[92.30496,22.93687],[92.30672,22.9479],[92.31254,22.964],[92.31252,22.97018],[92.31423,22.97647],[92.31164,23.0001],[92.30752,23.00843],[92.30726,23.01115],[92.30364,23.01549],[92.29991,23.02585],[92.29862,23.04658],[92.29785,23.04951],[92.29917,23.05423],[92.30325,23.05774],[92.30431,23.06277],[92.30583,23.06355],[92.30845,23.06816],[92.30886,23.07061],[92.30221,23.07269],[92.29019,23.07218],[92.28796,23.07107],[92.28354,23.07045],[92.28113,23.07078],[92.28105,23.07343],[92.30265,23.10872],[92.30711,23.1222],[92.31549,23.12196],[92.31906,23.12062],[92.32333,23.11532],[92.33121,23.10901],[92.33292,23.10616],[92.33548,23.10411],[92.34171,23.10185],[92.34667,23.0977],[92.35245,23.08803],[92.36115,23.079],[92.37009,23.06682],[92.37387,23.06377],[92.3844,23.05051],[92.39046,23.04183]]]}},{"type":"Feature","properties":{"name":"Belaichhari","district_id":"rangamati","pcode":"208429","sql_upazila_id":null,"sql_name_bn":null},"geometry":{"type":"Polygon","coordinates":[[[92.36266,22.55387],[92.37128,22.55175],[92.38273,22.55141],[92.39018,22.5496],[92.40142,22.53979],[92.40014,22.53607],[92.40164,22.5294],[92.40143,22.52087],[92.40068,22.51855],[92.40394,22.5002],[92.41526,22.5066],[92.43875,22.51326],[92.44512,22.51726],[92.45092,22.51734],[92.45832,22.51572],[92.46751,22.51578],[92.47682,22.51988],[92.47989,22.52197],[92.4847,22.53035],[92.48894,22.54904],[92.48945,22.55537],[92.49136,22.55772],[92.49511,22.56106],[92.51039,22.56726],[92.52905,22.57637],[92.53604,22.58069],[92.53989,22.58542],[92.5405,22.57875],[92.53968,22.5765],[92.53868,22.57545],[92.53575,22.57569],[92.53373,22.57499],[92.53314,22.56611],[92.53145,22.56234],[92.53497,22.56194],[92.53685,22.56074],[92.53755,22.55889],[92.53714,22.55543],[92.53796,22.55388],[92.53926,22.55469],[92.54162,22.5541],[92.54298,22.54984],[92.54565,22.53289],[92.54763,22.52794],[92.5471,22.52572],[92.54872,22.52239],[92.55278,22.5205],[92.54993,22.50981],[92.55146,22.49216],[92.5532,22.48111],[92.55761,22.46269],[92.55946,22.4379],[92.56407,22.41487],[92.56562,22.39187],[92.57031,22.37709],[92.57634,22.36314],[92.58109,22.34093],[92.58753,22.32098],[92.58567,22.30368],[92.58617,22.28938],[92.58849,22.28457],[92.59042,22.27679],[92.59768,22.25715],[92.59827,22.2385],[92.5977,22.23208],[92.60073,22.21487],[92.60042,22.20938],[92.6025,22.20002],[92.60475,22.18251],[92.60638,22.17839],[92.60906,22.17655],[92.61161,22.17609],[92.61389,22.17294],[92.61375,22.15071],[92.61479,22.14686],[92.60998,22.12131],[92.6049,22.126],[92.59648,22.13656],[92.58764,22.13966],[92.58531,22.13481],[92.57539,22.1337],[92.57118,22.13233],[92.57042,22.12912],[92.5753,22.1183],[92.58414,22.1062],[92.59501,22.07814],[92.59971,22.07061],[92.5992,22.06448],[92.60116,22.06047],[92.60498,22.05763],[92.60474,22.04988],[92.60059,22.04382],[92.59903,22.03776],[92.60308,22.03199],[92.60486,22.03089],[92.60419,22.01506],[92.60513,22.0101],[92.60646,22.00931],[92.6102,22.00398],[92.61155,22.00017],[92.61154,21.99581],[92.60889,21.99284],[92.60809,21.98744],[92.61162,21.96352],[92.61184,21.95704],[92.61538,21.94959],[92.61509,21.94778],[92.61229,21.94418],[92.61242,21.94034],[92.61354,21.93652],[92.61503,21.93629],[92.62059,21.92396],[92.62479,21.90107],[92.62543,21.89075],[92.62068,21.89215],[92.61649,21.89655],[92.61475,21.90121],[92.60932,21.90631],[92.60131,21.91979],[92.59659,21.92592],[92.58362,21.95398],[92.5801,21.96671],[92.57072,21.98457],[92.55396,22.01307],[92.54437,22.03887],[92.5402,22.04605],[92.5351,22.06234],[92.53287,22.06471],[92.53096,22.07028],[92.51533,22.09989],[92.51446,22.10673],[92.51481,22.11276],[92.51289,22.11649],[92.51157,22.12165],[92.50675,22.12871],[92.50572,22.13517],[92.50211,22.14807],[92.50147,22.15362],[92.49733,22.16681],[92.49548,22.17048],[92.49468,22.18289],[92.49132,22.20149],[92.48381,22.21758],[92.48224,22.21931],[92.47942,22.23524],[92.47835,22.23949],[92.47655,22.24277],[92.45907,22.25819],[92.45784,22.26081],[92.44706,22.27421],[92.4392,22.28024],[92.41524,22.30907],[92.41051,22.31149],[92.40083,22.32285],[92.38957,22.33112],[92.37495,22.33733],[92.36329,22.34],[92.34428,22.37275],[92.33884,22.37838],[92.3307,22.39597],[92.32369,22.40487],[92.32176,22.40631],[92.32073,22.41113],[92.3177,22.41806],[92.31593,22.41993],[92.31269,22.42946],[92.30726,22.43691],[92.30203,22.448],[92.30053,22.45001],[92.29472,22.45354],[92.27249,22.47736],[92.2694,22.48249],[92.27398,22.49919],[92.28632,22.51313],[92.29086,22.52068],[92.29116,22.52398],[92.28921,22.52615],[92.28645,22.52814],[92.27656,22.53252],[92.27363,22.5364],[92.27659,22.54404],[92.27819,22.55359],[92.27924,22.55186],[92.28187,22.55077],[92.28535,22.5509],[92.29201,22.55273],[92.30975,22.55983],[92.31202,22.56036],[92.31987,22.55906],[92.32411,22.55779],[92.33309,22.55295],[92.33617,22.55035],[92.34044,22.54474],[92.34339,22.54296],[92.36434,22.53902],[92.36687,22.53985],[92.36802,22.54125],[92.36809,22.54377],[92.36333,22.55181],[92.36266,22.55387]]]}},{"type":"Feature","properties":{"name":"Juraichhari","district_id":"rangamati","pcode":"208447","sql_upazila_id":null,"sql_name_bn":null},"geometry":{"type":"Polygon","coordinates":[[[92.50421,22.73568],[92.50718,22.73237],[92.51342,22.71931],[92.51762,22.70772],[92.52157,22.68782],[92.52698,22.67616],[92.5278,22.66596],[92.53175,22.65614],[92.53397,22.64284],[92.53405,22.63569],[92.53623,22.62693],[92.53596,22.61775],[92.5398,22.60411],[92.53989,22.58542],[92.53604,22.58069],[92.52905,22.57637],[92.51039,22.56726],[92.49511,22.56106],[92.49136,22.55772],[92.48945,22.55537],[92.48894,22.54904],[92.4847,22.53035],[92.47989,22.52197],[92.47682,22.51988],[92.46751,22.51578],[92.45832,22.51572],[92.45092,22.51734],[92.44512,22.51726],[92.43875,22.51326],[92.41526,22.5066],[92.40394,22.5002],[92.40068,22.51855],[92.40143,22.52087],[92.40164,22.5294],[92.40014,22.53607],[92.40142,22.53979],[92.39018,22.5496],[92.38273,22.55141],[92.37128,22.55175],[92.36266,22.55387],[92.35289,22.57031],[92.34214,22.58371],[92.3389,22.58923],[92.33603,22.59918],[92.33472,22.6091],[92.33328,22.61224],[92.32255,22.63003],[92.31001,22.64654],[92.30705,22.65203],[92.30212,22.66878],[92.29818,22.67322],[92.29497,22.67495],[92.29952,22.68107],[92.30091,22.68433],[92.30285,22.6958],[92.30534,22.70172],[92.31234,22.71159],[92.31115,22.72305],[92.31266,22.7285],[92.31755,22.73543],[92.32216,22.7402],[92.32431,22.74205],[92.3282,22.74209],[92.33207,22.73416],[92.33262,22.73154],[92.33509,22.72913],[92.33953,22.72659],[92.34616,22.72942],[92.35089,22.73251],[92.35454,22.73353],[92.35837,22.7315],[92.36382,22.72707],[92.37696,22.72294],[92.3813,22.72329],[92.3921,22.72196],[92.39427,22.71984],[92.39883,22.71804],[92.40043,22.72065],[92.40007,22.72345],[92.40108,22.72719],[92.40464,22.73617],[92.41776,22.73193],[92.42052,22.73218],[92.4304,22.73682],[92.43567,22.73696],[92.44088,22.73578],[92.44431,22.73424],[92.44714,22.73171],[92.44908,22.71804],[92.4492,22.7025],[92.45128,22.68636],[92.45248,22.68308],[92.45422,22.68353],[92.45604,22.68742],[92.45805,22.68929],[92.46207,22.70198],[92.46635,22.71123],[92.4677,22.71595],[92.47983,22.73675],[92.48322,22.74027],[92.48953,22.74159],[92.49604,22.74009],[92.50208,22.73643],[92.50421,22.73568]]]}},{"type":"Feature","properties":{"name":"Kawkhali","district_id":"rangamati","pcode":"208425","sql_upazila_id":"rangamati-kawkhali","sql_name_bn":"কাউখালী"},"geometry":{"type":"Polygon","coordinates":[[[92.00696,22.73236],[92.02233,22.72649],[92.02515,22.72413],[92.03006,22.72216],[92.03242,22.71939],[92.03603,22.71763],[92.04029,22.71425],[92.04646,22.71209],[92.05247,22.70843],[92.05798,22.70363],[92.06185,22.69846],[92.09598,22.66749],[92.09899,22.66389],[92.10601,22.65071],[92.11231,22.63492],[92.11395,22.62633],[92.10927,22.62419],[92.0942,22.61397],[92.08639,22.60975],[92.07917,22.60348],[92.07869,22.60496],[92.08099,22.60804],[92.08176,22.61116],[92.0844,22.61611],[92.08461,22.61861],[92.08388,22.62029],[92.07706,22.61917],[92.07401,22.62175],[92.07417,22.62359],[92.07131,22.62442],[92.06265,22.62112],[92.05652,22.62196],[92.05243,22.61829],[92.04893,22.6177],[92.04679,22.61969],[92.04546,22.62361],[92.04631,22.62867],[92.04537,22.63127],[92.03863,22.62714],[92.0335,22.61756],[92.02801,22.61934],[92.0253,22.61837],[92.02243,22.61575],[92.019,22.61519],[92.01399,22.60266],[92.01093,22.59824],[92.01063,22.59375],[92.01541,22.58887],[92.02078,22.57695],[92.01795,22.56953],[92.0168,22.56282],[92.01756,22.5611],[92.02399,22.55817],[92.02403,22.55057],[92.02735,22.54563],[92.02726,22.53723],[92.02203,22.53277],[92.02017,22.52966],[92.02239,22.52684],[92.02298,22.52272],[92.01965,22.52224],[92.02036,22.51828],[92.01991,22.51672],[92.01584,22.51282],[92.00986,22.51333],[92.00258,22.50806],[91.99629,22.4997],[91.99333,22.49921],[91.98778,22.50051],[91.98122,22.50083],[91.97571,22.49961],[91.97132,22.50212],[91.97396,22.50849],[91.97479,22.51352],[91.97729,22.51575],[91.97795,22.51972],[91.97642,22.52111],[91.97679,22.52414],[91.97306,22.5263],[91.9743,22.53617],[91.97127,22.55824],[91.96856,22.56484],[91.96448,22.56828],[91.96581,22.57079],[91.96628,22.57673],[91.96404,22.57947],[91.96215,22.58363],[91.96126,22.58789],[91.96183,22.59088],[91.96025,22.59381],[91.95731,22.59393],[91.95508,22.60161],[91.95254,22.60657],[91.95003,22.60886],[91.9471,22.60973],[91.95081,22.61605],[91.9437,22.6276],[91.94657,22.62934],[91.9421,22.63564],[91.94363,22.63694],[91.94444,22.63922],[91.9446,22.64458],[91.94129,22.65716],[91.94838,22.66961],[91.94732,22.67265],[91.94402,22.67664],[91.93308,22.68153],[91.93252,22.68274],[91.93379,22.68572],[91.93312,22.68891],[91.934,22.69699],[91.93466,22.7012],[91.93582,22.70287],[91.93785,22.70395],[91.94871,22.70705],[91.95462,22.70706],[91.96173,22.70837],[91.96398,22.70957],[91.96386,22.72022],[91.96576,22.73331],[91.98316,22.73411],[91.98484,22.73518],[91.98734,22.73485],[92.00182,22.74487],[92.00563,22.73656],[92.00696,22.73236]]]}},{"type":"Feature","properties":{"name":"Langadu","district_id":"rangamati","pcode":"208458","sql_upazila_id":"rangamati-langadu","sql_name_bn":"লংগদু"},"geometry":{"type":"Polygon","coordinates":[[[92.30711,23.1222],[92.30265,23.10872],[92.28105,23.07343],[92.28113,23.07078],[92.28354,23.07045],[92.28796,23.07107],[92.29019,23.07218],[92.30221,23.07269],[92.30886,23.07061],[92.30845,23.06816],[92.30583,23.06355],[92.30431,23.06277],[92.30325,23.05774],[92.29917,23.05423],[92.29785,23.04951],[92.29862,23.04658],[92.29991,23.02585],[92.30364,23.01549],[92.30726,23.01115],[92.30752,23.00843],[92.31164,23.0001],[92.31423,22.97647],[92.31252,22.97018],[92.31254,22.964],[92.30672,22.9479],[92.30496,22.93687],[92.30506,22.93332],[92.30657,22.9317],[92.30699,22.92978],[92.30707,22.92576],[92.30526,22.92338],[92.30295,22.92263],[92.29357,22.92358],[92.29106,22.92301],[92.28998,22.92002],[92.29391,22.91726],[92.29161,22.9068],[92.29527,22.90476],[92.29545,22.90335],[92.29555,22.89794],[92.29312,22.89163],[92.29236,22.88729],[92.29482,22.87663],[92.29418,22.86896],[92.29881,22.86231],[92.29994,22.85761],[92.30531,22.85169],[92.30911,22.84179],[92.31051,22.84002],[92.31017,22.8378],[92.30863,22.83625],[92.30156,22.83359],[92.29011,22.8375],[92.28478,22.83795],[92.27499,22.84026],[92.26833,22.83827],[92.26212,22.83295],[92.25398,22.83359],[92.24484,22.82912],[92.24054,22.83252],[92.23007,22.84349],[92.22709,22.84399],[92.22464,22.84307],[92.22138,22.83892],[92.2134,22.83268],[92.20548,22.82247],[92.19647,22.81783],[92.19291,22.8177],[92.18371,22.81439],[92.17655,22.82714],[92.17386,22.8348],[92.16461,22.8481],[92.15894,22.86032],[92.14649,22.87956],[92.1417,22.89129],[92.13702,22.89738],[92.13043,22.90838],[92.12575,22.92112],[92.12162,22.92896],[92.12167,22.93293],[92.11656,22.96645],[92.11235,22.97886],[92.11236,22.99365],[92.11165,22.99732],[92.10055,23.01732],[92.09956,23.03081],[92.0961,23.03741],[92.09427,23.04353],[92.08605,23.05785],[92.08221,23.06622],[92.08042,23.07264],[92.07807,23.07568],[92.07569,23.08275],[92.07751,23.08751],[92.07911,23.08851],[92.08518,23.08894],[92.09387,23.08828],[92.11186,23.09289],[92.11801,23.09728],[92.12226,23.09902],[92.12939,23.10482],[92.13577,23.10573],[92.14399,23.10213],[92.15816,23.10324],[92.16604,23.10492],[92.1742,23.11218],[92.17857,23.10759],[92.18012,23.1039],[92.18208,23.10271],[92.18677,23.09424],[92.19187,23.08737],[92.19649,23.09174],[92.20021,23.09925],[92.20166,23.10602],[92.20133,23.10897],[92.19758,23.11203],[92.19418,23.11775],[92.19432,23.11997],[92.19223,23.12739],[92.1918,23.1307],[92.19587,23.14416],[92.20054,23.14329],[92.20644,23.13994],[92.20952,23.13702],[92.21395,23.13472],[92.21957,23.12854],[92.22876,23.12374],[92.23872,23.12509],[92.24829,23.13169],[92.25272,23.13221],[92.25826,23.13739],[92.26429,23.13202],[92.27102,23.12951],[92.28999,23.12871],[92.30208,23.12407],[92.30711,23.1222]]]}},{"type":"Feature","properties":{"name":"Nannerchar","district_id":"rangamati","pcode":"208475","sql_upazila_id":null,"sql_name_bn":null},"geometry":{"type":"Polygon","coordinates":[[[92.11235,22.97886],[92.11656,22.96645],[92.12167,22.93293],[92.12162,22.92896],[92.12575,22.92112],[92.13043,22.90838],[92.13702,22.89738],[92.1417,22.89129],[92.14649,22.87956],[92.15894,22.86032],[92.16314,22.85073],[92.16725,22.84475],[92.16071,22.83621],[92.14591,22.83044],[92.14061,22.82662],[92.13732,22.82119],[92.13734,22.81856],[92.13505,22.81019],[92.12751,22.80182],[92.12077,22.79724],[92.11889,22.79498],[92.1177,22.79245],[92.11856,22.78548],[92.1176,22.78255],[92.11468,22.77828],[92.10834,22.77432],[92.09647,22.77186],[92.08962,22.76858],[92.08544,22.76314],[92.07652,22.75539],[92.06446,22.74256],[92.05854,22.74],[92.05192,22.73866],[92.04098,22.73736],[92.03163,22.73758],[92.01224,22.7351],[92.00696,22.73236],[92.005,22.73901],[91.99932,22.75069],[92.00095,22.75451],[92.00514,22.75798],[92.00601,22.76053],[92.00554,22.76398],[91.99954,22.77757],[91.98289,22.8042],[91.98149,22.81013],[91.98079,22.82699],[91.98587,22.85393],[91.9873,22.87469],[91.97816,22.90061],[91.99675,22.90325],[92.0046,22.90566],[92.01069,22.90605],[92.01349,22.90518],[92.01622,22.90318],[92.02164,22.9023],[92.03277,22.90285],[92.04547,22.90547],[92.04709,22.90648],[92.05787,22.9202],[92.06098,22.92622],[92.06231,22.93486],[92.06575,22.94552],[92.06924,22.94939],[92.07881,22.95623],[92.08748,22.95969],[92.09293,22.96306],[92.101,22.96551],[92.10419,22.96725],[92.10763,22.97212],[92.11235,22.97886]]]}},{"type":"Feature","properties":{"name":"Rajasthali","district_id":"rangamati","pcode":"208478","sql_upazila_id":"rangamati-rajasthali","sql_name_bn":"রাজস্থলী"},"geometry":{"type":"Polygon","coordinates":[[[92.2694,22.48249],[92.27249,22.47736],[92.29472,22.45354],[92.30053,22.45001],[92.30203,22.448],[92.30726,22.43691],[92.31269,22.42946],[92.31593,22.41993],[92.3177,22.41806],[92.32073,22.41113],[92.32176,22.40631],[92.32369,22.40487],[92.3307,22.39597],[92.33884,22.37838],[92.34428,22.37275],[92.36329,22.34],[92.34223,22.34484],[92.3127,22.35472],[92.29186,22.35933],[92.28393,22.35895],[92.27264,22.3604],[92.26476,22.36019],[92.24244,22.35579],[92.22822,22.35047],[92.21798,22.3492],[92.19404,22.34912],[92.18303,22.35129],[92.18149,22.355],[92.18357,22.36825],[92.18321,22.37404],[92.17432,22.37488],[92.1657,22.37457],[92.15111,22.37363],[92.14652,22.3722],[92.14401,22.37417],[92.1365,22.37518],[92.13376,22.3777],[92.1349,22.38037],[92.14105,22.38089],[92.14125,22.38366],[92.1401,22.3859],[92.14168,22.39089],[92.14026,22.39236],[92.13515,22.39279],[92.12775,22.39138],[92.12241,22.39365],[92.11975,22.39584],[92.11302,22.40867],[92.11038,22.41174],[92.10698,22.41183],[92.10586,22.41432],[92.10437,22.41528],[92.10122,22.42166],[92.10292,22.42343],[92.10925,22.42692],[92.11329,22.43057],[92.1172,22.43258],[92.11935,22.43528],[92.11782,22.43934],[92.11821,22.44215],[92.11953,22.44405],[92.12709,22.44493],[92.13037,22.44868],[92.1384,22.4511],[92.14137,22.45403],[92.14223,22.45763],[92.14064,22.46179],[92.14152,22.46598],[92.13973,22.46883],[92.13528,22.47134],[92.13445,22.47381],[92.1367,22.47882],[92.14367,22.48259],[92.14683,22.4857],[92.14538,22.49122],[92.13851,22.50133],[92.13788,22.5038],[92.13845,22.50729],[92.14267,22.51154],[92.1528,22.51344],[92.1582,22.51371],[92.16319,22.51294],[92.17033,22.51028],[92.17512,22.50763],[92.17806,22.50497],[92.18816,22.50106],[92.19108,22.5022],[92.19827,22.50875],[92.20607,22.50997],[92.21412,22.50607],[92.21443,22.50197],[92.21245,22.48988],[92.2134,22.48638],[92.22164,22.48192],[92.22874,22.47924],[92.23905,22.47927],[92.24463,22.48379],[92.24558,22.48864],[92.24874,22.49074],[92.25256,22.49172],[92.25612,22.49238],[92.26056,22.49053],[92.26494,22.48697],[92.2694,22.48249]]]}},{"type":"Feature","properties":{"name":"Rangamati S.","district_id":"rangamati","pcode":"208487","sql_upazila_id":null,"sql_name_bn":null},"geometry":{"type":"Polygon","coordinates":[[[92.18371,22.81439],[92.18614,22.8048],[92.18874,22.79812],[92.19075,22.78038],[92.19544,22.76848],[92.19636,22.76659],[92.20068,22.7638],[92.20353,22.75733],[92.20335,22.75478],[92.20565,22.75035],[92.20731,22.74421],[92.21267,22.73722],[92.2181,22.7334],[92.22021,22.72604],[92.23187,22.71001],[92.23389,22.70323],[92.24515,22.69838],[92.26734,22.68649],[92.27862,22.68152],[92.28584,22.67985],[92.29759,22.67367],[92.30104,22.67033],[92.30356,22.66465],[92.30705,22.65203],[92.31001,22.64654],[92.32255,22.63003],[92.33328,22.61224],[92.33472,22.6091],[92.33603,22.59918],[92.3389,22.58923],[92.34214,22.58371],[92.35289,22.57031],[92.36266,22.55387],[92.36397,22.54984],[92.36744,22.54536],[92.36802,22.54125],[92.36687,22.53985],[92.36434,22.53902],[92.34339,22.54296],[92.34044,22.54474],[92.33617,22.55035],[92.33309,22.55295],[92.32411,22.55779],[92.31202,22.56036],[92.2875,22.55131],[92.28187,22.55077],[92.27924,22.55186],[92.27705,22.55543],[92.27549,22.56006],[92.26916,22.56988],[92.26377,22.58834],[92.26152,22.59068],[92.25899,22.59149],[92.2571,22.59092],[92.25083,22.58301],[92.2486,22.58231],[92.24115,22.58335],[92.23926,22.58287],[92.22559,22.57293],[92.22378,22.57004],[92.22283,22.56389],[92.22386,22.55816],[92.22231,22.55482],[92.21998,22.5531],[92.21473,22.5534],[92.21228,22.55459],[92.20898,22.55645],[92.20622,22.55864],[92.205,22.56088],[92.20257,22.56218],[92.19855,22.56116],[92.19214,22.56138],[92.18953,22.55996],[92.18607,22.55937],[92.18445,22.55448],[92.17991,22.5468],[92.17386,22.54169],[92.1683,22.54129],[92.15186,22.54402],[92.14919,22.54539],[92.14104,22.5549],[92.13827,22.56239],[92.12864,22.57891],[92.12714,22.58257],[92.12662,22.58932],[92.12245,22.60272],[92.11966,22.60911],[92.11807,22.61653],[92.11395,22.62633],[92.11231,22.63492],[92.10601,22.65071],[92.09899,22.66389],[92.08016,22.68237],[92.06185,22.69846],[92.05798,22.70363],[92.05247,22.70843],[92.04646,22.71209],[92.04029,22.71425],[92.03603,22.71763],[92.03242,22.71939],[92.03006,22.72216],[92.02515,22.72413],[92.02233,22.72649],[92.00696,22.73236],[92.01224,22.7351],[92.03163,22.73758],[92.04098,22.73736],[92.05192,22.73866],[92.05854,22.74],[92.06446,22.74256],[92.07652,22.75539],[92.08544,22.76314],[92.08962,22.76858],[92.09647,22.77186],[92.10834,22.77432],[92.11468,22.77828],[92.1176,22.78255],[92.11856,22.78548],[92.1177,22.79245],[92.11889,22.79498],[92.12077,22.79724],[92.12751,22.80182],[92.13505,22.81019],[92.13734,22.81856],[92.13732,22.82119],[92.14061,22.82662],[92.14591,22.83044],[92.16071,22.83621],[92.16725,22.84475],[92.17386,22.8348],[92.17655,22.82714],[92.17848,22.82418],[92.18371,22.81439]]]}}]}