{"type":"FeatureCollection","features":[{"type":"Feature","properties":{"name":"Badarganj","district_id":"rangpur","pcode":"558503","sql_upazila_id":null,"sql_name_bn":null},"geometry":{"type":"Polygon","coordinates":[[[88.94117,25.74008],[88.94838,25.74607],[88.95396,25.74484],[88.95516,25.7454],[88.95834,25.74343],[88.96391,25.74286],[88.96623,25.74448],[88.96928,25.75143],[88.97118,25.75333],[88.98008,25.75344],[88.98293,25.75869],[88.98611,25.76007],[88.98866,25.75924],[88.99671,25.75192],[89.00429,25.7495],[89.00764,25.74752],[89.01407,25.74148],[89.01693,25.7403],[89.01799,25.74001],[89.02391,25.74256],[89.02781,25.74297],[89.03547,25.74284],[89.04181,25.74118],[89.04468,25.73837],[89.04865,25.73254],[89.05814,25.72655],[89.06023,25.72676],[89.06046,25.72909],[89.05712,25.73611],[89.05729,25.74031],[89.06021,25.74137],[89.07006,25.74232],[89.0816,25.74212],[89.08469,25.73994],[89.0878,25.73526],[89.09106,25.73351],[89.09032,25.73034],[89.08767,25.72985],[89.08569,25.72845],[89.08547,25.72657],[89.08739,25.72439],[89.08951,25.71832],[89.09101,25.71808],[89.09489,25.72043],[89.10074,25.71921],[89.10165,25.7212],[89.10166,25.72456],[89.10357,25.72761],[89.105,25.72691],[89.10661,25.72346],[89.1141,25.72956],[89.11751,25.73036],[89.12778,25.72809],[89.13444,25.72413],[89.13668,25.7241],[89.1407,25.72717],[89.14227,25.7276],[89.14388,25.72701],[89.14429,25.72434],[89.14285,25.71777],[89.14389,25.71486],[89.15158,25.71239],[89.15289,25.70959],[89.15251,25.70604],[89.1476,25.69719],[89.14817,25.69464],[89.14956,25.69355],[89.15472,25.69469],[89.158,25.69443],[89.15977,25.69203],[89.15991,25.68779],[89.1588,25.6813],[89.16087,25.67027],[89.15758,25.66906],[89.14359,25.66946],[89.13974,25.66721],[89.13968,25.66328],[89.1415,25.65597],[89.13723,25.65532],[89.13315,25.64275],[89.13065,25.63787],[89.13067,25.63519],[89.13446,25.63287],[89.14194,25.6324],[89.14436,25.63078],[89.14474,25.62809],[89.13869,25.62354],[89.13574,25.62004],[89.13473,25.61636],[89.13486,25.61141],[89.14147,25.59308],[89.14555,25.58753],[89.14528,25.58617],[89.14329,25.58699],[89.13944,25.59044],[89.13831,25.58932],[89.14005,25.58112],[89.13696,25.57588],[89.12777,25.57249],[89.12434,25.56862],[89.11825,25.55931],[89.11272,25.55645],[89.11124,25.55471],[89.10961,25.54652],[89.10798,25.54388],[89.09958,25.53879],[89.09793,25.54451],[89.09257,25.548],[89.09176,25.54982],[89.0929,25.55541],[89.09498,25.56055],[89.10111,25.56789],[89.10153,25.57066],[89.10072,25.57186],[89.09476,25.57045],[89.09225,25.5715],[89.07906,25.58148],[89.07461,25.58306],[89.07462,25.58578],[89.07193,25.58814],[89.06767,25.58794],[89.05676,25.59136],[89.05092,25.59028],[89.04301,25.584],[89.04114,25.58436],[89.03953,25.58654],[89.03875,25.59661],[89.03778,25.60014],[89.03599,25.60243],[89.0333,25.60354],[89.02361,25.60614],[89.02023,25.60595],[89.0116,25.60279],[89.00867,25.60301],[89.00662,25.60541],[89.00292,25.61649],[88.99322,25.62306],[88.99187,25.62598],[88.99192,25.63024],[88.9929,25.63358],[88.99467,25.63567],[88.99458,25.63794],[88.99342,25.6404],[88.98874,25.64254],[88.98866,25.64614],[88.98931,25.64914],[88.9953,25.65147],[88.99606,25.65282],[88.99265,25.65514],[88.99034,25.66159],[88.98705,25.66344],[88.97633,25.65821],[88.97389,25.65858],[88.96899,25.66273],[88.96821,25.6654],[88.97159,25.66947],[88.97119,25.67271],[88.96971,25.67432],[88.96734,25.67532],[88.96203,25.67611],[88.96045,25.67914],[88.95979,25.68547],[88.95856,25.68691],[88.95542,25.68688],[88.95358,25.68571],[88.9529,25.68184],[88.94939,25.68188],[88.94504,25.68478],[88.93766,25.68666],[88.93468,25.68846],[88.93707,25.69259],[88.9373,25.69454],[88.93476,25.70105],[88.92807,25.70994],[88.92724,25.72386],[88.92844,25.72681],[88.93086,25.72822],[88.94022,25.73019],[88.9417,25.73245],[88.94162,25.73547],[88.94117,25.74008]]]}},{"type":"Feature","properties":{"name":"Gangachhara","district_id":"rangpur","pcode":"558527","sql_upazila_id":null,"sql_name_bn":null},"geometry":{"type":"Polygon","coordinates":[[[89.28317,25.8947],[89.28711,25.8938],[89.2965,25.88837],[89.29929,25.88491],[89.29825,25.88048],[89.30506,25.87035],[89.31315,25.861],[89.31851,25.85896],[89.32261,25.85472],[89.33418,25.85098],[89.33916,25.84654],[89.3371,25.83952],[89.3318,25.83069],[89.33016,25.83008],[89.32558,25.83037],[89.32117,25.82566],[89.31754,25.82475],[89.31314,25.8176],[89.30963,25.81452],[89.30586,25.81581],[89.30438,25.81816],[89.30353,25.82185],[89.30043,25.82438],[89.29765,25.82474],[89.2965,25.82379],[89.29537,25.81965],[89.2941,25.81938],[89.29093,25.82088],[89.28519,25.82649],[89.28316,25.82685],[89.28091,25.82579],[89.2791,25.82262],[89.27668,25.82258],[89.27123,25.82422],[89.26958,25.82401],[89.26529,25.82115],[89.26256,25.82072],[89.25726,25.82259],[89.25601,25.82408],[89.25518,25.82784],[89.25331,25.8295],[89.24691,25.82894],[89.23825,25.82352],[89.23603,25.82292],[89.22881,25.82396],[89.22517,25.82599],[89.22219,25.82483],[89.21795,25.82743],[89.21078,25.82729],[89.20816,25.82869],[89.20851,25.83181],[89.21092,25.83309],[89.21087,25.83428],[89.20851,25.83636],[89.20791,25.83818],[89.20077,25.83997],[89.1982,25.83978],[89.19481,25.83527],[89.19217,25.83513],[89.19153,25.83332],[89.19268,25.83075],[89.19108,25.82815],[89.19137,25.82741],[89.19718,25.82495],[89.19698,25.82331],[89.19398,25.81976],[89.19115,25.81963],[89.18879,25.82045],[89.18914,25.82351],[89.18644,25.8227],[89.18353,25.82062],[89.18134,25.82049],[89.18085,25.82163],[89.18174,25.82725],[89.18112,25.82794],[89.17943,25.82722],[89.17809,25.82484],[89.17487,25.82183],[89.17342,25.82145],[89.16522,25.82423],[89.15925,25.82466],[89.15566,25.82057],[89.15361,25.82082],[89.14986,25.82378],[89.14818,25.82415],[89.1447,25.82301],[89.14007,25.82535],[89.13528,25.81804],[89.13546,25.81241],[89.13464,25.81089],[89.13167,25.81184],[89.12916,25.8145],[89.12448,25.81258],[89.12125,25.81342],[89.12058,25.81036],[89.12122,25.8071],[89.11939,25.80627],[89.11491,25.811],[89.10883,25.8154],[89.10833,25.8233],[89.10709,25.82592],[89.10596,25.82701],[89.09598,25.83093],[89.08896,25.83585],[89.09079,25.83719],[89.09122,25.84593],[89.09249,25.84954],[89.09369,25.85111],[89.10014,25.85251],[89.10289,25.85445],[89.10345,25.85632],[89.09945,25.86225],[89.10014,25.86474],[89.10409,25.86809],[89.10567,25.87623],[89.10706,25.87888],[89.11681,25.8846],[89.1213,25.88937],[89.12672,25.89192],[89.13519,25.90064],[89.13871,25.90049],[89.14312,25.89691],[89.14308,25.89446],[89.14104,25.89193],[89.14057,25.88983],[89.14646,25.88424],[89.14606,25.88198],[89.14786,25.88042],[89.15012,25.88005],[89.15282,25.88098],[89.16008,25.87885],[89.16127,25.87946],[89.15926,25.88767],[89.16374,25.88956],[89.16618,25.89243],[89.16541,25.89888],[89.16611,25.90245],[89.16873,25.90465],[89.17838,25.90585],[89.18081,25.90719],[89.1823,25.90923],[89.18233,25.9106],[89.17715,25.91299],[89.17558,25.91546],[89.17635,25.9215],[89.18316,25.92657],[89.18391,25.93147],[89.1882,25.93661],[89.19127,25.93785],[89.19142,25.93356],[89.19252,25.93229],[89.19414,25.9321],[89.19588,25.93317],[89.19651,25.93584],[89.19574,25.94463],[89.19644,25.94894],[89.20252,25.94437],[89.20601,25.94341],[89.21023,25.93902],[89.21385,25.93686],[89.21906,25.93626],[89.22058,25.93447],[89.21991,25.93266],[89.22272,25.92966],[89.22201,25.92539],[89.22261,25.92441],[89.22447,25.92353],[89.22722,25.91991],[89.22996,25.91958],[89.23167,25.9203],[89.23316,25.91903],[89.23329,25.91528],[89.23438,25.91219],[89.23969,25.90861],[89.24451,25.90379],[89.24761,25.90251],[89.24956,25.90028],[89.25228,25.89868],[89.25521,25.89881],[89.25657,25.90028],[89.2579,25.90867],[89.26167,25.91142],[89.26725,25.90927],[89.26915,25.9075],[89.26729,25.89566],[89.26885,25.89366],[89.26842,25.89009],[89.2691,25.8891],[89.27221,25.88879],[89.2749,25.89064],[89.28004,25.8919],[89.28317,25.8947]]]}},{"type":"Feature","properties":{"name":"Kaunia","district_id":"rangpur","pcode":"558542","sql_upazila_id":"rangpur-kaunia","sql_name_bn":"কাউনিয়া"},"geometry":{"type":"Polygon","coordinates":[[[89.33916,25.84654],[89.3429,25.84098],[89.3497,25.8374],[89.35298,25.83131],[89.35622,25.82858],[89.36472,25.82484],[89.37234,25.82397],[89.37442,25.82161],[89.37738,25.81326],[89.37928,25.81095],[89.3839,25.80753],[89.39291,25.80307],[89.41022,25.80107],[89.41721,25.7987],[89.42415,25.79997],[89.42979,25.79972],[89.4318,25.79919],[89.43321,25.7928],[89.44675,25.79023],[89.44819,25.79016],[89.4539,25.79321],[89.45795,25.79128],[89.45961,25.79297],[89.46304,25.79377],[89.45891,25.78638],[89.45921,25.78525],[89.46096,25.78488],[89.46589,25.78713],[89.46788,25.78643],[89.46968,25.78442],[89.47556,25.77416],[89.48212,25.76742],[89.48304,25.76513],[89.48169,25.75948],[89.48228,25.75725],[89.48807,25.75728],[89.48987,25.75663],[89.49135,25.75451],[89.49525,25.7544],[89.4968,25.75341],[89.49989,25.75007],[89.5049,25.74903],[89.50542,25.74215],[89.50256,25.73514],[89.50108,25.73374],[89.49164,25.73136],[89.4903,25.73002],[89.48933,25.72782],[89.48949,25.726],[89.49125,25.72228],[89.48657,25.72115],[89.47688,25.72037],[89.47096,25.71533],[89.46742,25.71396],[89.46007,25.71747],[89.45824,25.71726],[89.4549,25.70747],[89.45274,25.70597],[89.44853,25.70511],[89.44546,25.70652],[89.44318,25.70911],[89.44246,25.71184],[89.44249,25.71412],[89.44632,25.71839],[89.44764,25.72286],[89.44646,25.72412],[89.4434,25.72474],[89.43994,25.72416],[89.43781,25.7247],[89.43864,25.72622],[89.44359,25.72928],[89.44394,25.732],[89.43798,25.73231],[89.43565,25.73655],[89.43352,25.73703],[89.42856,25.73641],[89.42494,25.73828],[89.42107,25.73572],[89.40776,25.74283],[89.40217,25.74325],[89.3999,25.7422],[89.39733,25.73331],[89.39574,25.73152],[89.3926,25.73116],[89.38992,25.73182],[89.38863,25.73383],[89.38922,25.73602],[89.38792,25.73679],[89.38279,25.73289],[89.38041,25.73252],[89.37493,25.7347],[89.36935,25.73273],[89.36477,25.72632],[89.35821,25.72574],[89.35569,25.72385],[89.35252,25.71918],[89.34898,25.72014],[89.34638,25.72235],[89.34535,25.72497],[89.34657,25.72779],[89.34462,25.7397],[89.34564,25.74264],[89.3422,25.74542],[89.34251,25.75064],[89.3403,25.75318],[89.33854,25.75701],[89.33575,25.75751],[89.33251,25.75648],[89.3297,25.75386],[89.31793,25.75451],[89.31655,25.75119],[89.31138,25.7502],[89.30707,25.74401],[89.30438,25.74432],[89.29995,25.74858],[89.3028,25.76237],[89.30968,25.78286],[89.31355,25.80198],[89.3168,25.80336],[89.3174,25.80501],[89.31574,25.80891],[89.31807,25.81241],[89.31767,25.81458],[89.31314,25.8176],[89.31754,25.82475],[89.32117,25.82566],[89.32558,25.83037],[89.33016,25.83008],[89.3318,25.83069],[89.3371,25.83952],[89.33916,25.84654]]]}},{"type":"Feature","properties":{"name":"Mithapukur","district_id":"rangpur","pcode":"558558","sql_upazila_id":"rangpur-mithapukur","sql_name_bn":"মিঠাপুকুর"},"geometry":{"type":"Polygon","coordinates":[[[89.31828,25.66807],[89.32042,25.66739],[89.32117,25.66323],[89.32446,25.66154],[89.32455,25.65892],[89.32571,25.65714],[89.32727,25.65706],[89.33093,25.65934],[89.3377,25.65742],[89.33976,25.65808],[89.34033,25.65903],[89.33913,25.66474],[89.33989,25.66575],[89.34151,25.66573],[89.34666,25.65836],[89.34925,25.65697],[89.35005,25.65694],[89.35193,25.66135],[89.3554,25.66118],[89.35638,25.6602],[89.35651,25.65701],[89.35485,25.65464],[89.35452,25.65032],[89.35748,25.64895],[89.36181,25.64849],[89.36439,25.64686],[89.36369,25.63986],[89.36416,25.63815],[89.36544,25.63699],[89.36681,25.63691],[89.37049,25.64039],[89.37509,25.63958],[89.37712,25.63819],[89.3833,25.62979],[89.392,25.62592],[89.39136,25.61916],[89.39548,25.61808],[89.39537,25.6144],[89.39629,25.61155],[89.39471,25.61067],[89.39266,25.6066],[89.39352,25.6042],[89.39841,25.60069],[89.39852,25.59972],[89.39336,25.59876],[89.3914,25.59765],[89.39108,25.59556],[89.39275,25.59327],[89.39749,25.59163],[89.39799,25.59083],[89.39767,25.58953],[89.39307,25.58987],[89.38978,25.58826],[89.39077,25.58259],[89.3902,25.58089],[89.38714,25.57776],[89.38808,25.57564],[89.39049,25.57375],[89.3936,25.57287],[89.39165,25.56693],[89.39189,25.56472],[89.39578,25.56122],[89.39574,25.55878],[89.39884,25.5579],[89.40247,25.55541],[89.4082,25.56025],[89.41344,25.56223],[89.41529,25.55669],[89.41296,25.55347],[89.41667,25.55177],[89.4172,25.55066],[89.4165,25.548],[89.41026,25.547],[89.41243,25.54405],[89.41477,25.54259],[89.41519,25.53996],[89.41435,25.53906],[89.41111,25.53938],[89.40993,25.53797],[89.40646,25.54224],[89.40488,25.54209],[89.40391,25.54101],[89.40345,25.53811],[89.4043,25.53484],[89.40769,25.53161],[89.41039,25.53123],[89.41624,25.53504],[89.41779,25.53376],[89.41881,25.52913],[89.4216,25.52744],[89.42387,25.52764],[89.42538,25.52865],[89.42692,25.53375],[89.42972,25.53599],[89.43102,25.53585],[89.43043,25.53091],[89.43247,25.52911],[89.4346,25.52915],[89.437,25.53048],[89.4401,25.53379],[89.44281,25.53017],[89.44185,25.5278],[89.43818,25.52489],[89.43961,25.52267],[89.43791,25.52161],[89.43816,25.52002],[89.44048,25.51852],[89.44337,25.52114],[89.44505,25.51892],[89.446,25.51568],[89.443,25.51159],[89.44286,25.5096],[89.44726,25.50491],[89.44323,25.50083],[89.44395,25.49668],[89.44831,25.49294],[89.44604,25.4891],[89.44362,25.48708],[89.44067,25.48757],[89.43913,25.4865],[89.43585,25.4756],[89.42992,25.47625],[89.428,25.47553],[89.42538,25.46985],[89.42229,25.46541],[89.41848,25.46377],[89.41608,25.46528],[89.4119,25.46591],[89.41254,25.46795],[89.40624,25.47358],[89.40317,25.479],[89.40305,25.48137],[89.40663,25.48507],[89.40759,25.48715],[89.4069,25.48869],[89.40432,25.49025],[89.4023,25.49004],[89.40046,25.48808],[89.3936,25.49201],[89.39007,25.49318],[89.38706,25.49599],[89.38365,25.50318],[89.38095,25.50389],[89.37926,25.50538],[89.37068,25.50383],[89.36808,25.50216],[89.36205,25.50342],[89.35587,25.50229],[89.35248,25.50313],[89.35081,25.50519],[89.34835,25.50488],[89.34378,25.5063],[89.33942,25.50447],[89.33609,25.5094],[89.33283,25.51001],[89.32663,25.5065],[89.31886,25.50727],[89.31774,25.50871],[89.32047,25.5159],[89.31705,25.51821],[89.30779,25.51992],[89.29729,25.51851],[89.2962,25.51693],[89.2962,25.51221],[89.29444,25.51144],[89.29247,25.51447],[89.28798,25.51589],[89.28595,25.51927],[89.28426,25.5202],[89.279,25.51992],[89.27431,25.52595],[89.27168,25.52626],[89.27083,25.52349],[89.27233,25.51796],[89.27185,25.51501],[89.2616,25.51752],[89.26242,25.52291],[89.26157,25.52434],[89.25932,25.52499],[89.25567,25.52424],[89.25292,25.52467],[89.25031,25.52647],[89.24682,25.52748],[89.24535,25.52556],[89.24516,25.52062],[89.24395,25.51802],[89.24255,25.51646],[89.23798,25.51559],[89.23682,25.51442],[89.23646,25.50999],[89.23444,25.50899],[89.22745,25.5101],[89.21911,25.50855],[89.21015,25.51355],[89.19904,25.5163],[89.18831,25.51228],[89.18505,25.51204],[89.17307,25.51384],[89.171,25.51284],[89.16928,25.51008],[89.16949,25.50565],[89.16809,25.50311],[89.15902,25.5022],[89.15543,25.49957],[89.14858,25.50011],[89.14693,25.49899],[89.1457,25.49396],[89.14394,25.49182],[89.14417,25.48887],[89.14777,25.48452],[89.14876,25.47386],[89.15332,25.4721],[89.15551,25.47026],[89.15564,25.46619],[89.15333,25.46373],[89.15289,25.46084],[89.15682,25.45536],[89.15669,25.45377],[89.15065,25.44291],[89.14314,25.44061],[89.13808,25.44396],[89.13728,25.44538],[89.13967,25.44718],[89.13924,25.44979],[89.13201,25.45213],[89.12846,25.45017],[89.12601,25.45376],[89.12386,25.45395],[89.12058,25.45636],[89.11824,25.45621],[89.11717,25.45701],[89.11711,25.45854],[89.12028,25.46095],[89.12849,25.46235],[89.12994,25.46331],[89.12408,25.46698],[89.12276,25.46886],[89.1224,25.47419],[89.12171,25.47477],[89.11912,25.47281],[89.11866,25.46743],[89.11765,25.46556],[89.11645,25.46501],[89.11456,25.4661],[89.11478,25.47245],[89.11384,25.47376],[89.10706,25.47536],[89.10657,25.47713],[89.10709,25.47877],[89.11543,25.47727],[89.11594,25.47844],[89.11233,25.48224],[89.10899,25.48744],[89.10448,25.4888],[89.10548,25.49322],[89.1036,25.49711],[89.10373,25.50093],[89.10267,25.50453],[89.10493,25.50484],[89.10837,25.50743],[89.10906,25.51039],[89.10663,25.51133],[89.1059,25.51385],[89.10999,25.51448],[89.11087,25.51539],[89.10977,25.51637],[89.10558,25.51614],[89.10398,25.5173],[89.10501,25.51826],[89.1081,25.51896],[89.1085,25.51999],[89.10394,25.52216],[89.10193,25.53223],[89.10267,25.53478],[89.09958,25.53879],[89.10798,25.54388],[89.10961,25.54652],[89.11124,25.55471],[89.11272,25.55645],[89.11825,25.55931],[89.12434,25.56862],[89.12777,25.57249],[89.13696,25.57588],[89.14005,25.58112],[89.13831,25.58932],[89.13944,25.59044],[89.14329,25.58699],[89.14528,25.58617],[89.14518,25.5885],[89.14147,25.59308],[89.13599,25.6069],[89.13486,25.61141],[89.13473,25.61636],[89.13574,25.62004],[89.13869,25.62354],[89.14474,25.62809],[89.14436,25.63078],[89.14194,25.6324],[89.13446,25.63287],[89.13067,25.63519],[89.13065,25.63787],[89.13315,25.64275],[89.13723,25.65532],[89.1415,25.65597],[89.13968,25.66328],[89.13974,25.66721],[89.14359,25.66946],[89.15758,25.66906],[89.16087,25.67027],[89.1669,25.66399],[89.16962,25.66276],[89.17508,25.66233],[89.17917,25.65982],[89.18123,25.65756],[89.18447,25.65608],[89.19226,25.65812],[89.19844,25.65779],[89.21352,25.65877],[89.22326,25.66802],[89.22823,25.66904],[89.22964,25.6659],[89.23201,25.66463],[89.23327,25.66511],[89.23457,25.67301],[89.23593,25.6764],[89.24049,25.67868],[89.24446,25.67825],[89.24428,25.67381],[89.245,25.67091],[89.24852,25.66951],[89.25043,25.67091],[89.25942,25.67105],[89.26012,25.67571],[89.26987,25.67926],[89.27329,25.67991],[89.2767,25.67926],[89.2793,25.67759],[89.28083,25.67814],[89.28194,25.68131],[89.28365,25.68187],[89.29069,25.6805],[89.2911,25.67794],[89.29362,25.67718],[89.29404,25.67286],[89.2963,25.67181],[89.30515,25.67218],[89.30924,25.6677],[89.31535,25.66773],[89.31828,25.66807]]]}},{"type":"Feature","properties":{"name":"Pirgachha","district_id":"rangpur","pcode":"558573","sql_upazila_id":null,"sql_name_bn":null},"geometry":{"type":"Polygon","coordinates":[[[89.49125,25.72228],[89.49295,25.71855],[89.49619,25.71664],[89.49875,25.71632],[89.51071,25.71798],[89.51321,25.71749],[89.51537,25.71444],[89.5189,25.70695],[89.51963,25.6892],[89.52103,25.6864],[89.52444,25.68345],[89.51822,25.66211],[89.51869,25.65602],[89.52298,25.65704],[89.52388,25.64617],[89.52557,25.64586],[89.53054,25.65108],[89.53381,25.65144],[89.53675,25.65059],[89.53439,25.6483],[89.53789,25.64707],[89.53808,25.64314],[89.53444,25.64177],[89.53073,25.63739],[89.52396,25.626],[89.52607,25.62415],[89.52442,25.6227],[89.52254,25.62301],[89.51551,25.61764],[89.5099,25.61722],[89.50443,25.62036],[89.50255,25.62038],[89.5025,25.618],[89.50588,25.61272],[89.50562,25.61154],[89.50428,25.61064],[89.49892,25.61321],[89.4976,25.61317],[89.4938,25.60544],[89.49149,25.59729],[89.49187,25.5937],[89.49286,25.59204],[89.50165,25.5843],[89.5015,25.58238],[89.4969,25.58124],[89.49855,25.5777],[89.49725,25.57465],[89.49511,25.57383],[89.49187,25.57473],[89.48907,25.57658],[89.48622,25.58367],[89.48377,25.58655],[89.47791,25.58992],[89.47572,25.59478],[89.473,25.59704],[89.47018,25.59713],[89.46648,25.59594],[89.46123,25.59164],[89.45201,25.58837],[89.44737,25.58407],[89.44569,25.5837],[89.4437,25.58493],[89.44032,25.59002],[89.43845,25.59068],[89.43027,25.58774],[89.41986,25.58864],[89.41773,25.5868],[89.41644,25.58422],[89.41608,25.57529],[89.41275,25.56787],[89.41344,25.56223],[89.4082,25.56025],[89.40247,25.55541],[89.39884,25.5579],[89.39574,25.55878],[89.39578,25.56122],[89.39189,25.56472],[89.39165,25.56693],[89.3936,25.57287],[89.39049,25.57375],[89.38808,25.57564],[89.38714,25.57776],[89.3902,25.58089],[89.39077,25.58259],[89.38978,25.58826],[89.39307,25.58987],[89.39767,25.58953],[89.39799,25.59083],[89.39749,25.59163],[89.39275,25.59327],[89.39108,25.59556],[89.3914,25.59765],[89.39336,25.59876],[89.39852,25.59972],[89.39841,25.60069],[89.39352,25.6042],[89.39266,25.6066],[89.39471,25.61067],[89.39629,25.61155],[89.39537,25.6144],[89.39548,25.61808],[89.39136,25.61916],[89.392,25.62592],[89.3833,25.62979],[89.37712,25.63819],[89.37509,25.63958],[89.37049,25.64039],[89.36681,25.63691],[89.36544,25.63699],[89.36416,25.63815],[89.36369,25.63986],[89.36439,25.64686],[89.36181,25.64849],[89.35748,25.64895],[89.35452,25.65032],[89.35485,25.65464],[89.35651,25.65701],[89.35638,25.6602],[89.3554,25.66118],[89.35193,25.66135],[89.35005,25.65694],[89.34925,25.65697],[89.34666,25.65836],[89.34151,25.66573],[89.33989,25.66575],[89.33913,25.66474],[89.34033,25.65903],[89.33976,25.65808],[89.3377,25.65742],[89.33093,25.65934],[89.32727,25.65706],[89.32571,25.65714],[89.32455,25.65892],[89.32446,25.66154],[89.32063,25.66404],[89.32042,25.66739],[89.31636,25.66887],[89.31703,25.67284],[89.32284,25.67549],[89.3243,25.67785],[89.323,25.68139],[89.32593,25.68617],[89.32481,25.68784],[89.31547,25.68965],[89.31309,25.69132],[89.31084,25.69435],[89.31065,25.69792],[89.31098,25.70205],[89.31225,25.70391],[89.31483,25.70359],[89.31753,25.70464],[89.31901,25.70949],[89.32027,25.71033],[89.32522,25.71066],[89.32629,25.71144],[89.32568,25.71372],[89.32439,25.71556],[89.31007,25.7247],[89.30663,25.73171],[89.30516,25.73315],[89.30048,25.73464],[89.30019,25.73584],[89.30143,25.74078],[89.30438,25.74432],[89.30707,25.74401],[89.31138,25.7502],[89.31655,25.75119],[89.31793,25.75451],[89.3297,25.75386],[89.33251,25.75648],[89.33575,25.75751],[89.33854,25.75701],[89.3403,25.75318],[89.34215,25.75167],[89.3422,25.74542],[89.34564,25.74264],[89.34462,25.7397],[89.34637,25.73109],[89.34657,25.72779],[89.34535,25.72497],[89.34638,25.72235],[89.34898,25.72014],[89.35252,25.71918],[89.35569,25.72385],[89.35821,25.72574],[89.36477,25.72632],[89.36935,25.73273],[89.37493,25.7347],[89.38041,25.73252],[89.38279,25.73289],[89.38792,25.73679],[89.38922,25.73602],[89.38863,25.73383],[89.38992,25.73182],[89.3926,25.73116],[89.39574,25.73152],[89.39733,25.73331],[89.3999,25.7422],[89.40468,25.74344],[89.40776,25.74283],[89.42107,25.73572],[89.42494,25.73828],[89.42856,25.73641],[89.43352,25.73703],[89.43565,25.73655],[89.43798,25.73231],[89.44394,25.732],[89.44359,25.72928],[89.43864,25.72622],[89.43781,25.7247],[89.43994,25.72416],[89.4434,25.72474],[89.44646,25.72412],[89.44764,25.72286],[89.44632,25.71839],[89.44249,25.71412],[89.44246,25.71184],[89.44318,25.70911],[89.44546,25.70652],[89.44853,25.70511],[89.45274,25.70597],[89.4549,25.70747],[89.45824,25.71726],[89.46007,25.71747],[89.46742,25.71396],[89.47096,25.71533],[89.47688,25.72037],[89.48657,25.72115],[89.49125,25.72228]]]}},{"type":"Feature","properties":{"name":"Pirganj","district_id":"rangpur","pcode":"558576","sql_upazila_id":null,"sql_name_bn":null},"geometry":{"type":"Polygon","coordinates":[[[89.14314,25.44061],[89.15065,25.44291],[89.15669,25.45377],[89.15682,25.45536],[89.15289,25.46084],[89.15333,25.46373],[89.15564,25.46619],[89.15551,25.47026],[89.15332,25.4721],[89.14876,25.47386],[89.14777,25.48452],[89.14417,25.48887],[89.14394,25.49182],[89.1457,25.49396],[89.14693,25.49899],[89.14858,25.50011],[89.15543,25.49957],[89.15902,25.5022],[89.16809,25.50311],[89.16949,25.50565],[89.16928,25.51008],[89.171,25.51284],[89.17307,25.51384],[89.18505,25.51204],[89.18831,25.51228],[89.19904,25.5163],[89.21015,25.51355],[89.21911,25.50855],[89.22745,25.5101],[89.23444,25.50899],[89.23646,25.50999],[89.23682,25.51442],[89.23798,25.51559],[89.24255,25.51646],[89.24395,25.51802],[89.24516,25.52062],[89.24535,25.52556],[89.24682,25.52748],[89.25031,25.52647],[89.25292,25.52467],[89.25567,25.52424],[89.25932,25.52499],[89.26157,25.52434],[89.26242,25.52291],[89.2616,25.51752],[89.27185,25.51501],[89.27233,25.51796],[89.27083,25.52349],[89.27168,25.52626],[89.27431,25.52595],[89.279,25.51992],[89.28426,25.5202],[89.28595,25.51927],[89.28798,25.51589],[89.29247,25.51447],[89.29444,25.51144],[89.2962,25.51221],[89.2962,25.51693],[89.29729,25.51851],[89.30779,25.51992],[89.31705,25.51821],[89.32047,25.5159],[89.31774,25.50871],[89.31886,25.50727],[89.32663,25.5065],[89.33283,25.51001],[89.33609,25.5094],[89.33942,25.50447],[89.34378,25.5063],[89.34835,25.50488],[89.35081,25.50519],[89.35248,25.50313],[89.35587,25.50229],[89.36205,25.50342],[89.36808,25.50216],[89.37068,25.50383],[89.37926,25.50538],[89.38095,25.50389],[89.38365,25.50318],[89.38706,25.49599],[89.39007,25.49318],[89.3936,25.49201],[89.40046,25.48808],[89.4023,25.49004],[89.40432,25.49025],[89.4069,25.48869],[89.40759,25.48715],[89.40663,25.48507],[89.40305,25.48137],[89.40317,25.479],[89.40624,25.47358],[89.41254,25.46795],[89.4119,25.46591],[89.40842,25.46425],[89.40622,25.4649],[89.40461,25.46685],[89.40276,25.46539],[89.39977,25.45351],[89.39495,25.44368],[89.39277,25.44256],[89.38739,25.4445],[89.38452,25.44089],[89.38175,25.4318],[89.38425,25.43143],[89.38672,25.42843],[89.38293,25.42467],[89.3811,25.42123],[89.38383,25.41885],[89.38049,25.41422],[89.3808,25.41047],[89.3783,25.40724],[89.37136,25.40342],[89.36659,25.38972],[89.35938,25.38402],[89.35474,25.37749],[89.35523,25.37135],[89.35254,25.37127],[89.34933,25.37001],[89.34599,25.36682],[89.34577,25.36347],[89.34789,25.3555],[89.34812,25.35175],[89.34282,25.34292],[89.34406,25.33928],[89.35201,25.33662],[89.35188,25.33278],[89.34683,25.32787],[89.34338,25.32843],[89.33994,25.32773],[89.33736,25.32312],[89.33552,25.31646],[89.33652,25.31514],[89.33861,25.31518],[89.34138,25.31674],[89.34466,25.32044],[89.34692,25.31967],[89.34939,25.31188],[89.34728,25.3081],[89.34089,25.30471],[89.33727,25.30366],[89.31921,25.30395],[89.3075,25.30098],[89.29829,25.30079],[89.29244,25.30213],[89.28706,25.30198],[89.28591,25.30431],[89.28349,25.30596],[89.27726,25.30706],[89.27539,25.30832],[89.27148,25.31266],[89.26138,25.30834],[89.26095,25.30977],[89.26865,25.32071],[89.26503,25.3214],[89.26184,25.31827],[89.25616,25.31594],[89.25237,25.3168],[89.24819,25.31601],[89.24203,25.31921],[89.23862,25.32372],[89.23888,25.32612],[89.24,25.32759],[89.24536,25.3281],[89.25004,25.32998],[89.2508,25.33346],[89.24818,25.33574],[89.2427,25.33347],[89.24107,25.3337],[89.23705,25.33918],[89.23349,25.33885],[89.23193,25.33793],[89.22748,25.33093],[89.22455,25.32911],[89.22355,25.33424],[89.22576,25.3388],[89.23257,25.34256],[89.23698,25.34204],[89.2406,25.3406],[89.2431,25.34066],[89.24397,25.3414],[89.24408,25.34225],[89.24098,25.34443],[89.24018,25.34665],[89.24149,25.34808],[89.24524,25.34927],[89.24624,25.35029],[89.24812,25.35469],[89.24731,25.356],[89.24519,25.35549],[89.24251,25.35241],[89.23932,25.35122],[89.23758,25.35122],[89.23472,25.3539],[89.23286,25.35767],[89.23405,25.35887],[89.23779,25.35972],[89.23824,25.36194],[89.23818,25.36605],[89.23589,25.37005],[89.23334,25.37079],[89.23438,25.36571],[89.23412,25.36395],[89.23251,25.36378],[89.2307,25.3643],[89.22834,25.3692],[89.2269,25.37011],[89.21924,25.3675],[89.21381,25.3678],[89.21238,25.36882],[89.2129,25.3726],[89.21467,25.37427],[89.22057,25.37608],[89.22134,25.37715],[89.21709,25.37765],[89.21456,25.38019],[89.21151,25.38096],[89.20971,25.38229],[89.20957,25.38605],[89.20556,25.39332],[89.20387,25.39363],[89.19972,25.3914],[89.19323,25.39132],[89.19205,25.39099],[89.19114,25.38929],[89.19003,25.39039],[89.18901,25.39649],[89.18747,25.39719],[89.1822,25.39578],[89.17923,25.39651],[89.1756,25.39866],[89.17519,25.40009],[89.17715,25.40155],[89.1763,25.40561],[89.17208,25.40601],[89.17032,25.40512],[89.16789,25.39934],[89.16577,25.39914],[89.16404,25.39984],[89.16241,25.40432],[89.16105,25.40502],[89.15212,25.4049],[89.15058,25.40578],[89.15578,25.41114],[89.15417,25.41184],[89.14958,25.41087],[89.14786,25.41192],[89.14923,25.4143],[89.15227,25.41558],[89.15322,25.41682],[89.15315,25.42458],[89.1497,25.434],[89.14314,25.44061]]]}},{"type":"Feature","properties":{"name":"Rangpur S.","district_id":"rangpur","pcode":"558549","sql_upazila_id":null,"sql_name_bn":null},"geometry":{"type":"Polygon","coordinates":[[[89.31314,25.8176],[89.31767,25.81458],[89.31807,25.81241],[89.31574,25.80891],[89.3174,25.80501],[89.3168,25.80336],[89.31355,25.80198],[89.30968,25.78286],[89.3028,25.76237],[89.29995,25.74858],[89.30438,25.74432],[89.30143,25.74078],[89.30019,25.73584],[89.30048,25.73464],[89.30516,25.73315],[89.30663,25.73171],[89.31007,25.7247],[89.32439,25.71556],[89.32629,25.71144],[89.32522,25.71066],[89.32027,25.71033],[89.31901,25.70949],[89.31753,25.70464],[89.31483,25.70359],[89.31225,25.70391],[89.31098,25.70205],[89.31084,25.69435],[89.31309,25.69132],[89.31547,25.68965],[89.32481,25.68784],[89.32593,25.68617],[89.32346,25.68308],[89.323,25.68139],[89.3243,25.67785],[89.32284,25.67549],[89.31703,25.67284],[89.31636,25.66887],[89.31828,25.66807],[89.30924,25.6677],[89.30515,25.67218],[89.2963,25.67181],[89.29404,25.67286],[89.29362,25.67718],[89.2911,25.67794],[89.29069,25.6805],[89.28587,25.68173],[89.28194,25.68131],[89.28083,25.67814],[89.2793,25.67759],[89.2767,25.67926],[89.27329,25.67991],[89.26987,25.67926],[89.26012,25.67571],[89.25942,25.67105],[89.25043,25.67091],[89.24852,25.66951],[89.245,25.67091],[89.24428,25.67381],[89.24446,25.67825],[89.24271,25.67889],[89.2374,25.67763],[89.23593,25.6764],[89.23457,25.67301],[89.23327,25.66511],[89.23201,25.66463],[89.22964,25.6659],[89.22823,25.66904],[89.22604,25.66884],[89.22326,25.66802],[89.2201,25.66556],[89.2159,25.66039],[89.21352,25.65877],[89.19844,25.65779],[89.19226,25.65812],[89.18447,25.65608],[89.18123,25.65756],[89.17917,25.65982],[89.17508,25.66233],[89.16962,25.66276],[89.1669,25.66399],[89.16087,25.67027],[89.1588,25.6813],[89.15991,25.68779],[89.15977,25.69203],[89.158,25.69443],[89.15472,25.69469],[89.14956,25.69355],[89.14817,25.69464],[89.1476,25.69719],[89.15251,25.70604],[89.15289,25.70959],[89.15158,25.71239],[89.14389,25.71486],[89.14285,25.71777],[89.14429,25.72434],[89.14388,25.72701],[89.14227,25.7276],[89.1407,25.72717],[89.13668,25.7241],[89.13444,25.72413],[89.12778,25.72809],[89.11751,25.73036],[89.1141,25.72956],[89.10661,25.72346],[89.105,25.72691],[89.10357,25.72761],[89.10166,25.72456],[89.10165,25.7212],[89.10074,25.71921],[89.09489,25.72043],[89.09101,25.71808],[89.08884,25.71907],[89.08739,25.72439],[89.08547,25.72657],[89.08569,25.72845],[89.08767,25.72985],[89.09032,25.73034],[89.09106,25.73351],[89.09759,25.73577],[89.10029,25.73835],[89.10105,25.74043],[89.10088,25.74361],[89.09925,25.75196],[89.10013,25.75359],[89.10843,25.75597],[89.10968,25.75737],[89.10962,25.75862],[89.10658,25.76291],[89.10677,25.76478],[89.10342,25.76862],[89.10328,25.77215],[89.10517,25.77798],[89.10543,25.78163],[89.09964,25.78414],[89.0998,25.78591],[89.10271,25.78901],[89.1069,25.78857],[89.10841,25.78895],[89.10914,25.79037],[89.10822,25.80464],[89.10883,25.8154],[89.11491,25.811],[89.11939,25.80627],[89.12122,25.8071],[89.12058,25.81036],[89.12125,25.81342],[89.12448,25.81258],[89.12916,25.8145],[89.13167,25.81184],[89.13464,25.81089],[89.13546,25.81241],[89.13528,25.81804],[89.14007,25.82535],[89.1447,25.82301],[89.14818,25.82415],[89.14986,25.82378],[89.15361,25.82082],[89.15566,25.82057],[89.15925,25.82466],[89.16522,25.82423],[89.17342,25.82145],[89.17487,25.82183],[89.17809,25.82484],[89.17943,25.82722],[89.18112,25.82794],[89.18174,25.82725],[89.18085,25.82163],[89.18134,25.82049],[89.18353,25.82062],[89.18644,25.8227],[89.18914,25.82351],[89.18879,25.82045],[89.19115,25.81963],[89.19398,25.81976],[89.19698,25.82331],[89.19718,25.82495],[89.19137,25.82741],[89.19108,25.82815],[89.19268,25.83075],[89.19153,25.83332],[89.19217,25.83513],[89.19481,25.83527],[89.1982,25.83978],[89.20077,25.83997],[89.20791,25.83818],[89.20851,25.83636],[89.21087,25.83428],[89.21092,25.83309],[89.20851,25.83181],[89.20816,25.82869],[89.21078,25.82729],[89.21795,25.82743],[89.22219,25.82483],[89.22517,25.82599],[89.22881,25.82396],[89.23603,25.82292],[89.23825,25.82352],[89.24691,25.82894],[89.25331,25.8295],[89.25518,25.82784],[89.25601,25.82408],[89.25726,25.82259],[89.26256,25.82072],[89.26529,25.82115],[89.26958,25.82401],[89.27123,25.82422],[89.27668,25.82258],[89.2791,25.82262],[89.28091,25.82579],[89.28316,25.82685],[89.28519,25.82649],[89.29093,25.82088],[89.2941,25.81938],[89.29537,25.81965],[89.2965,25.82379],[89.29765,25.82474],[89.30043,25.82438],[89.30353,25.82185],[89.30438,25.81816],[89.30586,25.81581],[89.30963,25.81452],[89.3111,25.81586],[89.31314,25.8176]]]}},{"type":"Feature","properties":{"name":"Taraganj","district_id":"rangpur","pcode":"558592","sql_upazila_id":null,"sql_name_bn":null},"geometry":{"type":"Polygon","coordinates":[[[89.08896,25.83585],[89.0984,25.82966],[89.10596,25.82701],[89.10833,25.8233],[89.10868,25.81983],[89.10822,25.80464],[89.10914,25.79037],[89.10841,25.78895],[89.1069,25.78857],[89.10271,25.78901],[89.0998,25.78591],[89.09964,25.78414],[89.10543,25.78163],[89.10517,25.77798],[89.10328,25.77215],[89.10342,25.76862],[89.10677,25.76478],[89.10658,25.76291],[89.10962,25.75862],[89.10968,25.75737],[89.10843,25.75597],[89.10013,25.75359],[89.09925,25.75196],[89.09938,25.74992],[89.10105,25.74043],[89.10029,25.73835],[89.09759,25.73577],[89.09106,25.73351],[89.08898,25.73429],[89.08469,25.73994],[89.0816,25.74212],[89.07006,25.74232],[89.06021,25.74137],[89.05729,25.74031],[89.05695,25.73867],[89.05712,25.73611],[89.06046,25.72909],[89.06023,25.72676],[89.05814,25.72655],[89.04865,25.73254],[89.04468,25.73837],[89.04181,25.74118],[89.03547,25.74284],[89.02781,25.74297],[89.02391,25.74256],[89.01799,25.74001],[89.01693,25.7403],[89.01407,25.74148],[89.00764,25.74752],[89.00429,25.7495],[88.99671,25.75192],[88.98866,25.75924],[88.98611,25.76007],[88.98293,25.75869],[88.98008,25.75344],[88.97118,25.75333],[88.96928,25.75143],[88.96623,25.74448],[88.96391,25.74286],[88.95834,25.74343],[88.95516,25.7454],[88.95588,25.74794],[88.95555,25.7555],[88.95386,25.75688],[88.94707,25.75853],[88.94695,25.76074],[88.94866,25.76293],[88.94935,25.76536],[88.94437,25.76688],[88.94476,25.76836],[88.9479,25.77048],[88.9491,25.778],[88.95087,25.7798],[88.95458,25.78169],[88.95879,25.78182],[88.96137,25.78281],[88.96258,25.78558],[88.96266,25.78853],[88.9594,25.79111],[88.96081,25.79411],[88.96039,25.7969],[88.95689,25.80642],[88.95576,25.80688],[88.94924,25.80529],[88.94629,25.80674],[88.94568,25.80857],[88.94653,25.81055],[88.95042,25.81387],[88.95315,25.81487],[88.95807,25.81471],[88.96017,25.81612],[88.96731,25.81725],[88.98088,25.81162],[88.98531,25.81079],[88.98817,25.81162],[88.99158,25.81535],[88.99477,25.81698],[88.99964,25.81643],[89.00528,25.81752],[89.01553,25.82322],[89.04665,25.82139],[89.04817,25.82217],[89.06036,25.83518],[89.06451,25.8384],[89.06712,25.83905],[89.07712,25.83829],[89.08157,25.83518],[89.08399,25.83653],[89.08776,25.83591],[89.08896,25.83585]]]}}]}