{"type":"FeatureCollection","features":[{"type":"Feature","properties":{"name":"Assasuni","district_id":"satkhira","pcode":"408704","sql_upazila_id":"satkhira-assasuni","sql_name_bn":"আশাশুনি"},"geometry":{"type":"MultiPolygon","coordinates":[[[[89.26281,22.45423],[89.26112,22.45331],[89.26,22.4575],[89.25723,22.46278],[89.25723,22.46472],[89.26028,22.46667],[89.26707,22.4675],[89.26254,22.46664],[89.25794,22.46255],[89.2606,22.45847],[89.26281,22.45423]]],[[[89.18263,22.55294],[89.18031,22.55214],[89.18195,22.55568],[89.18417,22.55667],[89.18555,22.55419],[89.18321,22.55314],[89.18263,22.55294]]],[[[89.28607,22.47587],[89.28416,22.47917],[89.28194,22.48111],[89.27278,22.48389],[89.26195,22.48944],[89.25611,22.495],[89.25305,22.5],[89.25,22.50945],[89.25056,22.52639],[89.24973,22.53083],[89.24695,22.53639],[89.23695,22.54583],[89.23556,22.54833],[89.23556,22.55139],[89.23666,22.55472],[89.24028,22.55917],[89.24389,22.56667],[89.24611,22.56833],[89.24983,22.56882],[89.24599,22.56691],[89.24426,22.56118],[89.23864,22.55395],[89.24072,22.54873],[89.24403,22.54429],[89.25114,22.53717],[89.25469,22.51468],[89.2608,22.49386],[89.26516,22.48945],[89.27402,22.48557],[89.28703,22.47831],[89.28607,22.47587]]],[[[89.10799,22.66871],[89.11069,22.66112],[89.11948,22.6565],[89.12211,22.64215],[89.12398,22.63623],[89.12852,22.62711],[89.13064,22.63235],[89.13218,22.63232],[89.13415,22.63021],[89.13616,22.62936],[89.15006,22.64612],[89.1547,22.64791],[89.16943,22.6462],[89.1776,22.65055],[89.18522,22.65211],[89.18974,22.65102],[89.19491,22.64844],[89.19922,22.64409],[89.20576,22.64038],[89.21006,22.63367],[89.21345,22.63359],[89.21492,22.63126],[89.21793,22.63107],[89.22176,22.62726],[89.22342,22.62693],[89.22549,22.62666],[89.23119,22.63009],[89.23775,22.63982],[89.24203,22.64334],[89.25105,22.64278],[89.24992,22.64144],[89.24861,22.63601],[89.25742,22.63046],[89.26306,22.62556],[89.26476,22.62271],[89.26428,22.62065],[89.25759,22.61696],[89.24634,22.61491],[89.24756,22.61017],[89.25133,22.60877],[89.26049,22.6085],[89.26511,22.60638],[89.2682,22.59435],[89.26534,22.57569],[89.26285,22.57241],[89.26035,22.57115],[89.25316,22.56961],[89.24693,22.56964],[89.243,22.56751],[89.23771,22.55817],[89.2349,22.55511],[89.23417,22.54944],[89.23583,22.54472],[89.24695,22.53417],[89.24834,22.53083],[89.24889,22.52167],[89.24805,22.51194],[89.24861,22.50778],[89.24973,22.50333],[89.255,22.49417],[89.26195,22.48694],[89.26806,22.48333],[89.28222,22.47889],[89.28445,22.47667],[89.28472,22.475],[89.28111,22.47222],[89.25833,22.46778],[89.25611,22.46556],[89.25472,22.46166],[89.25639,22.45667],[89.25667,22.45306],[89.25584,22.45222],[89.24778,22.45111],[89.24416,22.4475],[89.23944,22.43472],[89.23972,22.42444],[89.2425,22.4175],[89.25389,22.405],[89.25584,22.39944],[89.25611,22.39611],[89.25417,22.39056],[89.25222,22.38861],[89.23695,22.38111],[89.235,22.37861],[89.23444,22.37528],[89.23639,22.37111],[89.23889,22.36889],[89.24472,22.36833],[89.24834,22.36944],[89.25639,22.37444],[89.26139,22.37556],[89.26361,22.37278],[89.26417,22.3675],[89.26722,22.36083],[89.27361,22.35028],[89.27389,22.34667],[89.27167,22.34361],[89.26861,22.34417],[89.2625,22.34861],[89.26139,22.34833],[89.25972,22.34945],[89.25534,22.34917],[89.25236,22.35023],[89.24182,22.35946],[89.23027,22.3723],[89.22533,22.37546],[89.22095,22.37447],[89.21844,22.3754],[89.20331,22.37246],[89.19674,22.37209],[89.19503,22.37483],[89.1954,22.38562],[89.19401,22.39111],[89.19099,22.3971],[89.19778,22.40055],[89.20084,22.40083],[89.205,22.4025],[89.21389,22.41055],[89.21416,22.4125],[89.21362,22.41807],[89.20989,22.42108],[89.20544,22.42222],[89.20115,22.42484],[89.19945,22.42902],[89.20027,22.43222],[89.2,22.43889],[89.20722,22.445],[89.21024,22.45331],[89.20876,22.45748],[89.19817,22.46743],[89.19289,22.48133],[89.18989,22.49272],[89.19141,22.50538],[89.19063,22.5104],[89.19472,22.52312],[89.18843,22.52637],[89.1885,22.53102],[89.1907,22.53499],[89.19288,22.54477],[89.19188,22.54924],[89.18777,22.55364],[89.18694,22.55778],[89.19028,22.56222],[89.19278,22.5675],[89.19139,22.56778],[89.18773,22.56219],[89.18083,22.55799],[89.17966,22.55386],[89.17706,22.55104],[89.17227,22.55339],[89.16718,22.55339],[89.16264,22.55194],[89.15627,22.55288],[89.15221,22.55121],[89.14819,22.55203],[89.14578,22.55858],[89.14331,22.56254],[89.14174,22.55907],[89.13822,22.55639],[89.13453,22.55418],[89.13011,22.55456],[89.12745,22.56117],[89.12312,22.58017],[89.12672,22.58388],[89.12432,22.58784],[89.11221,22.59937],[89.09773,22.60649],[89.09515,22.60555],[89.09377,22.60673],[89.0923,22.61406],[89.10051,22.61756],[89.09962,22.62568],[89.09088,22.62524],[89.08848,22.63196],[89.08917,22.63441],[89.09576,22.63754],[89.09621,22.64018],[89.09492,22.64256],[89.09482,22.64584],[89.09225,22.6486],[89.07978,22.64502],[89.07728,22.64806],[89.07672,22.6502],[89.07656,22.65342],[89.0862,22.65476],[89.08819,22.65771],[89.08317,22.66333],[89.08081,22.66494],[89.0798,22.66869],[89.08504,22.67139],[89.09102,22.67149],[89.0968,22.66671],[89.09944,22.66643],[89.10079,22.66864],[89.10171,22.67298],[89.10466,22.67275],[89.10681,22.67046],[89.10799,22.66871]]]]}},{"type":"Feature","properties":{"name":"Debhata","district_id":"satkhira","pcode":"408725","sql_upazila_id":"satkhira-debhata","sql_name_bn":"দেবহাটা"},"geometry":{"type":"Polygon","coordinates":[[[89.0798,22.66869],[89.08081,22.66494],[89.08317,22.66333],[89.08819,22.65771],[89.0862,22.65476],[89.07656,22.65342],[89.07728,22.64806],[89.07978,22.64502],[89.09225,22.6486],[89.09482,22.64584],[89.09492,22.64256],[89.09621,22.64018],[89.09576,22.63754],[89.08917,22.63441],[89.08848,22.63196],[89.08971,22.62728],[89.09088,22.62524],[89.09962,22.62568],[89.10051,22.61756],[89.0923,22.61406],[89.09377,22.60673],[89.09515,22.60555],[89.09773,22.60649],[89.11074,22.6],[89.1103,22.59712],[89.10831,22.59618],[89.10657,22.58893],[89.10497,22.58643],[89.0898,22.59205],[89.08761,22.59532],[89.07949,22.60211],[89.06452,22.6107],[89.06014,22.61041],[89.05492,22.60143],[89.0483,22.59542],[89.04971,22.59011],[89.05383,22.58824],[89.05635,22.58801],[89.06105,22.594],[89.06581,22.59223],[89.06998,22.58972],[89.06683,22.58204],[89.06896,22.57906],[89.07174,22.57699],[89.08168,22.5785],[89.08428,22.57676],[89.08602,22.57513],[89.08621,22.573],[89.08513,22.57181],[89.08042,22.57066],[89.0791,22.56718],[89.08,22.56187],[89.07781,22.56278],[89.07269,22.56226],[89.06915,22.55406],[89.06664,22.55429],[89.061,22.55976],[89.05581,22.55681],[89.05299,22.55901],[89.04531,22.55693],[89.0408,22.55393],[89.03336,22.55397],[89.03195,22.55194],[89.03255,22.54876],[89.03675,22.54471],[89.03549,22.54152],[89.03477,22.53574],[89.03259,22.5321],[89.03332,22.52921],[89.03693,22.52615],[89.03662,22.52403],[89.034,22.52224],[89.02334,22.52615],[89.01695,22.52577],[89.00656,22.51933],[89.00421,22.51909],[89.00248,22.52097],[89.00191,22.52483],[88.99941,22.52586],[88.98147,22.51905],[88.97892,22.51882],[88.97904,22.51996],[88.97474,22.51759],[88.97311,22.52335],[88.97353,22.52492],[88.97119,22.529],[88.96858,22.53852],[88.96262,22.54978],[88.95966,22.55326],[88.95752,22.55457],[88.94876,22.55614],[88.94417,22.55778],[88.94139,22.56222],[88.94444,22.57889],[88.94141,22.58653],[88.94078,22.5913],[88.95164,22.59888],[88.95718,22.60426],[88.96194,22.615],[88.96194,22.61667],[88.95767,22.62143],[88.95583,22.62194],[88.95415,22.62541],[88.95342,22.62795],[88.95645,22.63087],[88.9564,22.63352],[88.95796,22.63492],[88.96278,22.63523],[88.96281,22.64126],[88.97537,22.6322],[88.97667,22.62976],[88.98129,22.62782],[88.9827,22.63475],[88.98597,22.64192],[88.98842,22.64618],[88.98999,22.64511],[88.99253,22.64592],[88.99674,22.65841],[88.99571,22.66105],[88.991,22.66256],[88.99319,22.66377],[88.99637,22.66313],[89.00131,22.66372],[89.00491,22.66255],[89.02041,22.66187],[89.0203,22.66032],[89.01457,22.65079],[89.02412,22.65116],[89.0355,22.64839],[89.03764,22.64594],[89.04036,22.64599],[89.04922,22.6647],[89.05434,22.66701],[89.06078,22.66158],[89.06263,22.66188],[89.06464,22.66552],[89.06828,22.66584],[89.0735,22.67021],[89.07514,22.66925],[89.0798,22.66869]]]}},{"type":"Feature","properties":{"name":"Kalaroa","district_id":"satkhira","pcode":"408743","sql_upazila_id":"satkhira-kalaroa","sql_name_bn":"কলারোয়া"},"geometry":{"type":"Polygon","coordinates":[[[89.08116,22.94027],[89.08866,22.93177],[89.09566,22.92821],[89.10583,22.92751],[89.10834,22.92976],[89.10928,22.93385],[89.10864,22.93588],[89.1013,22.94077],[89.10164,22.94225],[89.10613,22.94295],[89.1105,22.94674],[89.11599,22.94786],[89.11695,22.94674],[89.11636,22.94453],[89.11314,22.94281],[89.11161,22.94046],[89.11187,22.93805],[89.11363,22.93587],[89.12494,22.93084],[89.12796,22.92862],[89.13144,22.92409],[89.14133,22.9028],[89.1423,22.89551],[89.13957,22.89428],[89.13506,22.89587],[89.12664,22.90143],[89.12321,22.9051],[89.12144,22.90607],[89.11819,22.90579],[89.11555,22.90268],[89.11137,22.89264],[89.11235,22.88946],[89.12308,22.88244],[89.12747,22.87817],[89.12997,22.87431],[89.12973,22.87105],[89.12409,22.85586],[89.12373,22.85307],[89.12695,22.84495],[89.13064,22.8387],[89.13908,22.83119],[89.14103,22.82657],[89.13985,22.82449],[89.13309,22.82291],[89.11914,22.82706],[89.10957,22.82649],[89.10713,22.82728],[89.10252,22.82554],[89.1014,22.82264],[89.09361,22.82211],[89.08816,22.82304],[89.08566,22.82172],[89.08472,22.81921],[89.08147,22.81624],[89.07861,22.81659],[89.07899,22.8214],[89.07336,22.82296],[89.0704,22.8228],[89.06602,22.81829],[89.0584,22.8188],[89.05773,22.82399],[89.05643,22.82626],[89.05032,22.82789],[89.03899,22.82589],[89.03604,22.82417],[89.02113,22.82454],[89.01132,22.82625],[89.00828,22.82528],[89.00014,22.82562],[89.00155,22.82272],[89.00517,22.81966],[89.00284,22.81781],[88.99912,22.8172],[88.98347,22.81948],[88.97866,22.81716],[88.97158,22.8115],[88.965,22.80832],[88.96352,22.80356],[88.95863,22.80184],[88.95911,22.80599],[88.96108,22.80984],[88.96201,22.81686],[88.96642,22.82889],[88.96722,22.84361],[88.96316,22.85014],[88.95974,22.85241],[88.95854,22.85514],[88.95631,22.85693],[88.9519,22.86644],[88.95068,22.8671],[88.94822,22.87435],[88.94601,22.87744],[88.9377,22.86911],[88.93257,22.86795],[88.91476,22.87401],[88.90933,22.8774],[88.90736,22.88918],[88.9033,22.89665],[88.9034,22.90387],[88.90878,22.90796],[88.90974,22.91023],[88.91342,22.9141],[88.91426,22.91681],[88.91388,22.91862],[88.91019,22.92179],[88.90326,22.9233],[88.90601,22.92588],[88.90621,22.92717],[88.91046,22.92884],[88.91291,22.92711],[88.91666,22.93082],[88.91944,22.93175],[88.9222,22.93166],[88.92209,22.92892],[88.9195,22.92494],[88.92049,22.92172],[88.92415,22.92054],[88.9268,22.92149],[88.92859,22.92498],[88.93102,22.92678],[88.93359,22.92664],[88.93735,22.92022],[88.93892,22.91897],[88.94215,22.92109],[88.94479,22.92105],[88.94677,22.92196],[88.94804,22.92398],[88.95181,22.92596],[88.95458,22.92604],[88.96017,22.91944],[88.96328,22.91791],[88.9653,22.91795],[88.96857,22.92557],[88.96999,22.92609],[88.97692,22.92196],[88.97884,22.92287],[88.98035,22.92545],[88.98326,22.92626],[88.99086,22.9223],[88.9938,22.9223],[88.99367,22.92791],[88.99218,22.93065],[88.99276,22.93641],[88.98862,22.94433],[88.98865,22.9456],[88.98923,22.947],[89.00443,22.94917],[89.01567,22.94907],[89.02605,22.93973],[89.03557,22.93641],[89.03963,22.93291],[89.04547,22.9438],[89.04826,22.94474],[89.04727,22.93493],[89.04909,22.93309],[89.05431,22.93343],[89.06003,22.93723],[89.07349,22.93488],[89.07683,22.93899],[89.08025,22.94123],[89.08116,22.94027]]]}},{"type":"Feature","properties":{"name":"Satkhira S.","district_id":"satkhira","pcode":"408782","sql_upazila_id":null,"sql_name_bn":null},"geometry":{"type":"Polygon","coordinates":[[[88.95863,22.80184],[88.96352,22.80356],[88.965,22.80832],[88.97158,22.8115],[88.97866,22.81716],[88.98347,22.81948],[88.99912,22.8172],[89.00284,22.81781],[89.00517,22.81966],[89.00155,22.82272],[89.00014,22.82562],[89.00828,22.82528],[89.01132,22.82625],[89.02113,22.82454],[89.03604,22.82417],[89.03899,22.82589],[89.05032,22.82789],[89.05643,22.82626],[89.05773,22.82399],[89.0584,22.8188],[89.06602,22.81829],[89.0704,22.8228],[89.07336,22.82296],[89.07899,22.8214],[89.07861,22.81659],[89.08147,22.81624],[89.08472,22.81921],[89.08566,22.82172],[89.08816,22.82304],[89.09361,22.82211],[89.1014,22.82264],[89.10128,22.8185],[89.10342,22.81075],[89.10546,22.80904],[89.10568,22.80565],[89.10179,22.80303],[89.09953,22.8063],[89.09547,22.80869],[89.0943,22.81331],[89.09224,22.81445],[89.08786,22.81219],[89.08863,22.80624],[89.09097,22.80384],[89.09832,22.80023],[89.1014,22.79522],[89.09723,22.78945],[89.09731,22.78531],[89.10098,22.78112],[89.10142,22.77792],[89.10017,22.77082],[89.10071,22.76782],[89.10528,22.76347],[89.10692,22.75861],[89.11674,22.75247],[89.1192,22.75001],[89.12378,22.74859],[89.12368,22.74692],[89.1252,22.74424],[89.12495,22.74195],[89.12308,22.73906],[89.12457,22.73449],[89.12337,22.73348],[89.10622,22.73272],[89.10587,22.73083],[89.10703,22.72815],[89.11025,22.72687],[89.11722,22.72695],[89.12421,22.7284],[89.12885,22.72204],[89.12943,22.71875],[89.13301,22.71683],[89.13708,22.71697],[89.14091,22.71941],[89.14246,22.72403],[89.14479,22.7257],[89.14841,22.72562],[89.15244,22.72438],[89.15218,22.71732],[89.14876,22.7047],[89.1522,22.70249],[89.15717,22.70158],[89.16311,22.69846],[89.16472,22.69653],[89.16388,22.6885],[89.16247,22.68629],[89.1619,22.68326],[89.1655,22.68019],[89.16632,22.67655],[89.16769,22.67485],[89.17475,22.672],[89.17568,22.66772],[89.17528,22.6599],[89.17473,22.6555],[89.17206,22.64798],[89.16943,22.6462],[89.1547,22.64791],[89.15006,22.64612],[89.13616,22.62936],[89.13415,22.63021],[89.13218,22.63232],[89.13064,22.63235],[89.12852,22.62711],[89.12398,22.63623],[89.12211,22.64215],[89.11948,22.6565],[89.11069,22.66112],[89.10799,22.66871],[89.10466,22.67275],[89.10171,22.67298],[89.10079,22.66864],[89.09944,22.66643],[89.0968,22.66671],[89.09102,22.67149],[89.08504,22.67139],[89.0798,22.66869],[89.07514,22.66925],[89.0735,22.67021],[89.06828,22.66584],[89.06464,22.66552],[89.06263,22.66188],[89.06078,22.66158],[89.05434,22.66701],[89.04922,22.6647],[89.04036,22.64599],[89.03764,22.64594],[89.0355,22.64839],[89.02412,22.65116],[89.01457,22.65079],[89.0203,22.66032],[89.02041,22.66187],[89.00491,22.66255],[89.00131,22.66372],[88.99637,22.66313],[88.99319,22.66377],[88.991,22.66256],[88.99571,22.66105],[88.99674,22.65841],[88.99253,22.64592],[88.98999,22.64511],[88.98842,22.64618],[88.98597,22.64192],[88.9827,22.63475],[88.98129,22.62782],[88.97667,22.62976],[88.97537,22.6322],[88.96281,22.64126],[88.96278,22.63523],[88.95796,22.63492],[88.9564,22.63352],[88.95645,22.63087],[88.95342,22.62795],[88.95563,22.62226],[88.95417,22.62278],[88.94541,22.62033],[88.93651,22.61914],[88.93605,22.62157],[88.93457,22.62149],[88.93528,22.63303],[88.93445,22.64111],[88.93195,22.64555],[88.93308,22.64736],[88.93879,22.65055],[88.94728,22.65985],[88.94875,22.67028],[88.95309,22.68003],[88.958,22.68573],[88.95944,22.68889],[88.95931,22.69071],[88.94768,22.7004],[88.94599,22.70106],[88.94573,22.70245],[88.9389,22.70875],[88.93472,22.71441],[88.93102,22.72459],[88.92077,22.73385],[88.9195,22.73746],[88.92125,22.74223],[88.92122,22.74653],[88.91922,22.75285],[88.91919,22.76171],[88.92068,22.76532],[88.92969,22.77397],[88.93259,22.78122],[88.93659,22.78457],[88.93917,22.78667],[88.9477,22.791],[88.95844,22.79421],[88.9585,22.80068],[88.95863,22.80184]]]}},{"type":"Feature","properties":{"name":"Shyamnagar","district_id":"satkhira","pcode":"408786","sql_upazila_id":"satkhira-shyamnagar","sql_name_bn":"শ্যামনগর"},"geometry":{"type":"MultiPolygon","coordinates":[[[[89.23109,21.70012],[89.23195,21.6971],[89.23486,21.69387],[89.24619,21.68896],[89.24852,21.68951],[89.25313,21.69279],[89.25646,21.69685],[89.27,21.69666],[89.27747,21.69588],[89.28857,21.69291],[89.29415,21.6888],[89.29501,21.68571],[89.29171,21.67858],[89.28689,21.67616],[89.28416,21.67192],[89.27868,21.66735],[89.27667,21.66648],[89.27317,21.66653],[89.27081,21.66486],[89.26849,21.66444],[89.26338,21.66656],[89.2601,21.66889],[89.25834,21.66881],[89.26379,21.66265],[89.26292,21.66016],[89.25935,21.65751],[89.25256,21.65692],[89.24776,21.65558],[89.2434,21.65282],[89.24111,21.65302],[89.23712,21.6516],[89.23413,21.65196],[89.23026,21.65083],[89.2289,21.65205],[89.22559,21.65177],[89.21944,21.65306],[89.21876,21.65395],[89.21221,21.65073],[89.20959,21.65264],[89.20673,21.65675],[89.20631,21.66252],[89.20728,21.6658],[89.21034,21.66865],[89.21352,21.67439],[89.21611,21.67998],[89.21705,21.68613],[89.22031,21.69092],[89.22025,21.69264],[89.22326,21.69634],[89.22371,21.69883],[89.22548,21.69989],[89.2307,21.70062],[89.23109,21.70012]]],[[[89.26401,21.75827],[89.27391,21.75637],[89.28424,21.75048],[89.28653,21.74375],[89.28796,21.74173],[89.2881,21.73595],[89.28925,21.7303],[89.28539,21.72533],[89.2841,21.71981],[89.2808,21.71215],[89.28005,21.70921],[89.28134,21.70605],[89.28091,21.70504],[89.27744,21.7027],[89.26809,21.70226],[89.26099,21.70465],[89.25911,21.70448],[89.25596,21.70602],[89.25614,21.70804],[89.25822,21.71087],[89.26034,21.71651],[89.25796,21.72671],[89.25768,21.72969],[89.25862,21.73344],[89.25799,21.73564],[89.25698,21.73571],[89.25677,21.72461],[89.25884,21.71688],[89.25784,21.71278],[89.25455,21.70787],[89.25476,21.70511],[89.25727,21.70336],[89.26414,21.70168],[89.26235,21.69973],[89.25641,21.69946],[89.25182,21.69745],[89.25011,21.69516],[89.24925,21.69227],[89.24739,21.69213],[89.2375,21.69543],[89.23342,21.7037],[89.22691,21.70464],[89.22476,21.70363],[89.22404,21.70431],[89.22433,21.70659],[89.22655,21.71009],[89.22684,21.71466],[89.22605,21.71493],[89.22526,21.71258],[89.22383,21.71338],[89.22483,21.71849],[89.22204,21.72401],[89.22354,21.72676],[89.22096,21.73092],[89.2224,21.73335],[89.21975,21.7351],[89.2181,21.73752],[89.21939,21.73982],[89.2191,21.74244],[89.22347,21.74155],[89.22068,21.74346],[89.2198,21.74629],[89.22095,21.74783],[89.23103,21.75267],[89.23909,21.75363],[89.24418,21.75655],[89.2524,21.75557],[89.26074,21.75828],[89.26344,21.75833],[89.26401,21.75827]]],[[[89.28771,21.77153],[89.28671,21.77187],[89.28678,21.77308],[89.28793,21.77268],[89.288,21.77187],[89.28771,21.77153]]],[[[89.29051,21.77517],[89.28771,21.77886],[89.28736,21.78505],[89.28593,21.78848],[89.28879,21.78565],[89.28944,21.779],[89.29051,21.77779],[89.29065,21.77557],[89.29051,21.77517]]],[[[89.27209,21.81636],[89.2728,21.81401],[89.28319,21.7976],[89.28354,21.7935],[89.2809,21.7933],[89.27667,21.79451],[89.27159,21.79309],[89.26336,21.79363],[89.27198,21.79187],[89.27615,21.79371],[89.28385,21.79144],[89.28635,21.7833],[89.28621,21.78021],[89.28472,21.77597],[89.28621,21.76824],[89.28506,21.76501],[89.28826,21.75783],[89.28781,21.75374],[89.28062,21.75602],[89.275,21.76],[89.25942,21.76105],[89.25373,21.75867],[89.25111,21.75836],[89.24473,21.75938],[89.2366,21.75588],[89.22878,21.75516],[89.22629,21.75314],[89.21857,21.75026],[89.21635,21.75206],[89.21174,21.76122],[89.20845,21.76411],[89.20752,21.76721],[89.20795,21.77097],[89.20515,21.7738],[89.20222,21.77467],[89.20122,21.77581],[89.19807,21.77595],[89.19143,21.78008],[89.19001,21.7833],[89.1913,21.78599],[89.18935,21.78853],[89.18866,21.79704],[89.18711,21.79895],[89.18518,21.79955],[89.18525,21.8017],[89.18418,21.80352],[89.18432,21.8046],[89.18618,21.80527],[89.18633,21.80641],[89.18554,21.8087],[89.18207,21.81257],[89.18345,21.81339],[89.18335,21.81583],[89.18929,21.82464],[89.19133,21.82607],[89.19703,21.82664],[89.21309,21.82168],[89.23038,21.8219],[89.23328,21.81984],[89.23185,21.81539],[89.23443,21.81905],[89.24596,21.81629],[89.24953,21.81629],[89.25211,21.81764],[89.25491,21.82107],[89.25662,21.83015],[89.25755,21.83162],[89.2587,21.8325],[89.2645,21.8329],[89.26686,21.8321],[89.26872,21.82934],[89.26908,21.82443],[89.27166,21.81703],[89.27209,21.81636]]],[[[89.28914,21.84103],[89.291,21.84063],[89.28785,21.84002],[89.28577,21.84083],[89.28706,21.8415],[89.28864,21.8411],[89.28914,21.84103]]],[[[89.0486,21.92285],[89.05602,21.92163],[89.05856,21.91964],[89.05891,21.91666],[89.05728,21.90473],[89.05736,21.89699],[89.06024,21.88706],[89.0683,21.87339],[89.0754,21.86528],[89.08411,21.85697],[89.08311,21.85236],[89.08202,21.85144],[89.08279,21.84922],[89.08243,21.8427],[89.08085,21.84021],[89.07969,21.83456],[89.07729,21.834],[89.07854,21.8328],[89.07731,21.82164],[89.07624,21.81983],[89.07696,21.81895],[89.07696,21.81492],[89.07878,21.80849],[89.08128,21.8015],[89.08389,21.79755],[89.08396,21.79567],[89.0844,21.7952],[89.08553,21.79584],[89.10035,21.78382],[89.10502,21.78143],[89.12137,21.77579],[89.12491,21.77402],[89.12745,21.77162],[89.13267,21.76925],[89.13058,21.76673],[89.13271,21.76049],[89.13464,21.75955],[89.13529,21.75753],[89.1373,21.75822],[89.13831,21.75702],[89.14297,21.75627],[89.14569,21.75183],[89.1459,21.74994],[89.14383,21.74611],[89.14655,21.74268],[89.14805,21.73905],[89.14774,21.73417],[89.14304,21.72737],[89.13851,21.72231],[89.13572,21.7206],[89.12641,21.71936],[89.12576,21.71793],[89.12305,21.71664],[89.11308,21.71782],[89.10805,21.72087],[89.10432,21.72571],[89.10254,21.72645],[89.10095,21.73001],[89.10168,21.73297],[89.1047,21.73467],[89.10493,21.73655],[89.09992,21.74083],[89.09361,21.74472],[89.09243,21.74654],[89.09319,21.74946],[89.09827,21.7533],[89.09862,21.75531],[89.09311,21.75034],[89.09158,21.74678],[89.09417,21.74306],[89.10369,21.73645],[89.10368,21.73511],[89.09936,21.73476],[89.09162,21.73967],[89.0899,21.74203],[89.08912,21.74485],[89.08639,21.74741],[89.08482,21.7507],[89.08052,21.75575],[89.07981,21.7581],[89.07029,21.76969],[89.05629,21.77934],[89.05085,21.78096],[89.04942,21.78338],[89.04554,21.78531],[89.04403,21.78702],[89.04423,21.79109],[89.0493,21.80734],[89.05739,21.82754],[89.05985,21.83849],[89.06064,21.84589],[89.06021,21.85377],[89.05898,21.86042],[89.05315,21.87647],[89.04101,21.88854],[89.03531,21.89287],[89.03308,21.89591],[89.03242,21.9112],[89.03304,21.91691],[89.03482,21.91937],[89.04039,21.92168],[89.04807,21.92286],[89.0486,21.92285]]],[[[89.34856,21.92076],[89.35147,21.92281],[89.35443,21.92667],[89.35627,21.92485],[89.35756,21.91793],[89.35934,21.91481],[89.3592,21.91027],[89.36051,21.90745],[89.35992,21.90569],[89.36094,21.9035],[89.36035,21.90245],[89.36091,21.90026],[89.35909,21.89818],[89.35306,21.89455],[89.35154,21.8946],[89.3373,21.88917],[89.32898,21.88426],[89.32222,21.87806],[89.31087,21.86364],[89.30533,21.85428],[89.30201,21.84499],[89.30119,21.8382],[89.30199,21.82413],[89.29814,21.81772],[89.29516,21.8188],[89.28073,21.83469],[89.28325,21.838],[89.28693,21.83726],[89.28992,21.83758],[89.29364,21.83966],[89.29575,21.84203],[89.29782,21.85553],[89.30085,21.86029],[89.30659,21.86604],[89.30775,21.86806],[89.30771,21.87005],[89.30525,21.87316],[89.29455,21.87608],[89.29177,21.87775],[89.29098,21.87921],[89.29462,21.88462],[89.29827,21.88789],[89.30928,21.90112],[89.31194,21.90556],[89.31801,21.91221],[89.321,21.91726],[89.32013,21.91963],[89.31632,21.92211],[89.30564,21.9257],[89.29964,21.92874],[89.29166,21.93611],[89.29,21.93944],[89.29028,21.94278],[89.29139,21.94417],[89.28961,21.9483],[89.28978,21.94979],[89.29227,21.95188],[89.29597,21.95344],[89.29721,21.95505],[89.29272,21.96226],[89.29388,21.96358],[89.2979,21.96541],[89.29936,21.96815],[89.30227,21.97107],[89.30256,21.97272],[89.30037,21.97672],[89.30055,21.98209],[89.29233,21.98602],[89.28814,21.9869],[89.28812,21.98849],[89.2973,21.99128],[89.30412,21.9976],[89.30538,21.99766],[89.30656,21.99664],[89.32309,21.97568],[89.33302,21.96489],[89.3372,21.96154],[89.34831,21.94335],[89.34937,21.94049],[89.34906,21.93868],[89.35085,21.93674],[89.35091,21.93417],[89.35374,21.9282],[89.35027,21.92261],[89.34859,21.92127],[89.34856,21.92076]]],[[[89.17446,22.0214],[89.17856,22.0206],[89.18322,22.02147],[89.18485,22.02108],[89.1869,22.01652],[89.1889,22.0087],[89.19228,22.00398],[89.19586,22.00169],[89.20526,21.9981],[89.21545,21.9969],[89.21986,21.9951],[89.22278,21.99483],[89.22358,21.99396],[89.22465,21.9942],[89.22538,21.99301],[89.2271,21.99314],[89.22977,21.99108],[89.24039,21.98694],[89.24189,21.98509],[89.24178,21.98318],[89.2354,21.97807],[89.22435,21.97227],[89.21752,21.97079],[89.21123,21.96832],[89.2034,21.96173],[89.20199,21.95672],[89.20232,21.95214],[89.20172,21.95012],[89.20406,21.94486],[89.20948,21.9367],[89.21346,21.9335],[89.22089,21.9303],[89.22068,21.92818],[89.2219,21.92946],[89.22412,21.92973],[89.2408,21.92906],[89.24631,21.91413],[89.25648,21.90835],[89.26186,21.90667],[89.28248,21.90654],[89.28534,21.90579],[89.28527,21.90418],[89.28033,21.89624],[89.27782,21.89342],[89.27553,21.89214],[89.27417,21.88972],[89.27016,21.88609],[89.26958,21.88428],[89.26651,21.88407],[89.25548,21.88703],[89.24953,21.88757],[89.2476,21.88703],[89.26237,21.88441],[89.26794,21.88233],[89.26917,21.8793],[89.26809,21.86869],[89.27028,21.86304],[89.27385,21.85946],[89.27417,21.85564],[89.2739,21.84837],[89.26997,21.84202],[89.26688,21.84092],[89.26705,21.83875],[89.26562,21.83648],[89.25867,21.8349],[89.2561,21.83345],[89.25537,21.83457],[89.25706,21.83735],[89.25433,21.83554],[89.25426,21.83326],[89.25533,21.83204],[89.25412,21.82989],[89.2534,21.82236],[89.25133,21.81907],[89.24882,21.81805],[89.23593,21.82068],[89.23278,21.82317],[89.22862,21.82397],[89.21323,21.82404],[89.19325,21.82929],[89.1954,21.83594],[89.19633,21.83581],[89.19905,21.84791],[89.20006,21.86049],[89.19955,21.87111],[89.19962,21.87172],[89.20148,21.87205],[89.19945,21.87357],[89.20075,21.88679],[89.20399,21.89264],[89.20993,21.89994],[89.21276,21.9059],[89.21298,21.91366],[89.21053,21.91777],[89.20467,21.92222],[89.19836,21.92441],[89.19391,21.925],[89.18758,21.92449],[89.18158,21.92539],[89.18037,21.92705],[89.18249,21.93075],[89.1828,21.93351],[89.18155,21.93603],[89.17757,21.93854],[89.16769,21.94086],[89.17901,21.93689],[89.18123,21.93461],[89.18151,21.93037],[89.17672,21.92573],[89.16003,21.92431],[89.15179,21.92647],[89.14815,21.92869],[89.1432,21.93447],[89.14163,21.93756],[89.13984,21.94536],[89.1402,21.95814],[89.14463,21.9648],[89.15874,21.97811],[89.16917,21.99195],[89.17105,21.9991],[89.17053,22.005],[89.16558,22.01559],[89.16448,22.02029],[89.16582,22.02138],[89.174,22.02154],[89.17446,22.0214]]],[[[89.12284,22.0459],[89.11897,22.04133],[89.11472,22.02909],[89.11667,22.02722],[89.12178,22.02754],[89.12659,22.02609],[89.127,22.01545],[89.13107,22.00814],[89.13081,22.00682],[89.12761,22.00352],[89.12779,22.00142],[89.12969,21.99836],[89.1283,21.99694],[89.1254,21.99612],[89.1218,21.99789],[89.12318,21.99568],[89.11775,21.99271],[89.11454,21.98941],[89.11428,21.98634],[89.11803,21.98149],[89.11823,21.97942],[89.11393,21.97834],[89.10749,21.97826],[89.10526,21.97593],[89.10906,21.96838],[89.10855,21.96526],[89.1062,21.96158],[89.10616,21.96001],[89.10821,21.9574],[89.11473,21.95474],[89.11546,21.95274],[89.11094,21.94763],[89.10672,21.94449],[89.09671,21.94],[89.09544,21.94175],[89.09294,21.95556],[89.09444,21.97743],[89.09612,21.98041],[89.09383,21.98579],[89.09164,22.00733],[89.09003,22.01371],[89.09499,22.02133],[89.09495,22.02886],[89.0925,22.03732],[89.09263,22.03999],[89.09459,22.0443],[89.09448,22.04874],[89.09621,22.04941],[89.10034,22.04616],[89.10345,22.04616],[89.10497,22.04815],[89.10526,22.05003],[89.10938,22.05167],[89.11153,22.05391],[89.11561,22.06281],[89.11975,22.06918],[89.12502,22.07257],[89.12781,22.073],[89.13303,22.07105],[89.13545,22.06691],[89.13257,22.06533],[89.12761,22.05951],[89.12545,22.05478],[89.12434,22.04822],[89.12325,22.04637],[89.12284,22.0459]]],[[[89.16856,22.06643],[89.17171,22.06383],[89.17241,22.06206],[89.1601,22.05776],[89.15295,22.0539],[89.14861,22.04793],[89.14584,22.03882],[89.14674,22.03265],[89.14919,22.02759],[89.15526,22.01885],[89.16136,22.00362],[89.16247,21.99369],[89.15636,21.98767],[89.14306,21.97806],[89.13695,21.97167],[89.13361,21.96611],[89.13167,21.96056],[89.13055,21.95583],[89.13055,21.94861],[89.13269,21.94256],[89.13462,21.93954],[89.13842,21.92427],[89.14486,21.91627],[89.15431,21.91382],[89.16431,21.9136],[89.18808,21.91569],[89.19975,21.91374],[89.20111,21.913],[89.20147,21.91152],[89.20054,21.90748],[89.19617,21.89793],[89.1928,21.89316],[89.19267,21.89134],[89.1855,21.8758],[89.18336,21.8588],[89.18543,21.83782],[89.185,21.8358],[89.18256,21.83338],[89.18027,21.83318],[89.17899,21.84051],[89.17297,21.84434],[89.17068,21.84804],[89.16316,21.84932],[89.1628,21.8514],[89.16517,21.85436],[89.16553,21.85631],[89.16445,21.86008],[89.16238,21.8627],[89.15865,21.86357],[89.15464,21.86196],[89.15299,21.86048],[89.15077,21.86129],[89.1502,21.86579],[89.15464,21.86936],[89.15471,21.87319],[89.15077,21.87366],[89.14905,21.87504],[89.14668,21.87511],[89.14482,21.87612],[89.14317,21.87336],[89.14239,21.87343],[89.14389,21.87834],[89.14861,21.8823],[89.1479,21.88278],[89.14368,21.88022],[89.14153,21.8747],[89.14159,21.87296],[89.14389,21.87316],[89.14497,21.87518],[89.1541,21.87196],[89.15403,21.87007],[89.15102,21.86799],[89.14894,21.86476],[89.14923,21.8622],[89.15088,21.85918],[89.1531,21.85945],[89.15811,21.86254],[89.1619,21.86207],[89.1637,21.85918],[89.16448,21.85541],[89.16148,21.85158],[89.16177,21.84969],[89.16441,21.84775],[89.17064,21.84701],[89.17315,21.8425],[89.17773,21.84001],[89.17867,21.83833],[89.17902,21.83033],[89.17823,21.82744],[89.17329,21.82246],[89.17193,21.81916],[89.16964,21.81244],[89.16964,21.80747],[89.1685,21.80343],[89.16634,21.80175],[89.15746,21.80061],[89.15596,21.79799],[89.15668,21.7957],[89.15366,21.79402],[89.14894,21.79429],[89.14429,21.79617],[89.13484,21.79792],[89.13262,21.7996],[89.13419,21.80101],[89.13741,21.80182],[89.13684,21.80283],[89.13212,21.80141],[89.12711,21.80168],[89.12123,21.80518],[89.11708,21.80585],[89.1067,21.81044],[89.10247,21.8109],[89.09904,21.81339],[89.09911,21.81568],[89.1029,21.82179],[89.10412,21.82186],[89.11314,21.81619],[89.11607,21.81594],[89.11781,21.81729],[89.12031,21.82253],[89.11852,21.82959],[89.11543,21.83396],[89.11522,21.84136],[89.11643,21.84311],[89.11922,21.84452],[89.12703,21.84627],[89.1304,21.84775],[89.13097,21.84869],[89.13097,21.85165],[89.12939,21.8577],[89.12173,21.86967],[89.11973,21.87491],[89.12023,21.87841],[89.12517,21.88298],[89.12717,21.88668],[89.12703,21.88863],[89.12474,21.89132],[89.12453,21.89347],[89.12331,21.89179],[89.12582,21.8895],[89.12596,21.88661],[89.12353,21.88251],[89.1208,21.8807],[89.11844,21.87579],[89.12066,21.86933],[89.12911,21.85461],[89.12961,21.84889],[89.12639,21.84748],[89.11829,21.84633],[89.11364,21.84163],[89.11292,21.83685],[89.11372,21.8341],[89.11772,21.82757],[89.11865,21.82468],[89.118,21.81997],[89.11679,21.81802],[89.11479,21.81715],[89.10263,21.8254],[89.10433,21.84385],[89.1037,21.85155],[89.09968,21.87234],[89.09718,21.88008],[89.09344,21.88675],[89.08887,21.8924],[89.08457,21.89616],[89.08319,21.89837],[89.08456,21.90025],[89.08248,21.89924],[89.08112,21.90032],[89.08005,21.90194],[89.07933,21.90577],[89.08076,21.92004],[89.08298,21.92462],[89.08858,21.92588],[89.0913,21.92434],[89.09417,21.92083],[89.09537,21.92079],[89.09019,21.92638],[89.08316,21.92696],[89.08515,21.93146],[89.08826,21.94338],[89.0906,21.94757],[89.09154,21.94772],[89.09271,21.94615],[89.09502,21.93912],[89.09708,21.93837],[89.102,21.93979],[89.10583,21.94195],[89.11359,21.94785],[89.11655,21.95159],[89.11687,21.95398],[89.11552,21.9561],[89.10786,21.95982],[89.11082,21.96748],[89.1097,21.97159],[89.1071,21.97583],[89.10821,21.97687],[89.11664,21.9773],[89.12054,21.97944],[89.12055,21.98033],[89.11561,21.98666],[89.11588,21.98907],[89.1226,21.99386],[89.12911,21.99591],[89.13085,21.99816],[89.12838,22.003],[89.12874,22.00407],[89.13252,22.00672],[89.13262,22.00825],[89.12793,22.01568],[89.12735,22.0272],[89.12402,22.02832],[89.11694,22.02833],[89.11611,22.02917],[89.11972,22.04056],[89.12527,22.04778],[89.12605,22.054],[89.12888,22.05947],[89.13241,22.06416],[89.13996,22.06741],[89.14332,22.07167],[89.1489,22.07658],[89.16816,22.06668],[89.16856,22.06643]]],[[[89.23326,22.09976],[89.23824,22.09889],[89.2419,22.09641],[89.25056,22.09333],[89.25528,22.08528],[89.25833,22.08222],[89.26096,22.08087],[89.27148,22.08196],[89.28123,22.0869],[89.28445,22.08746],[89.28834,22.08774],[89.2927,22.08665],[89.29434,22.08524],[89.29331,22.08314],[89.28395,22.07513],[89.28056,22.07031],[89.27717,22.0627],[89.27666,22.05841],[89.27671,22.05556],[89.27977,22.04724],[89.29111,22.03305],[89.29333,22.02806],[89.2925,22.02667],[89.29774,22.01884],[89.3055,21.99929],[89.302,21.99773],[89.29884,21.99332],[89.28843,21.98965],[89.28621,21.98701],[89.29926,21.98177],[89.29993,21.98027],[89.29915,21.97808],[89.29952,21.97556],[89.30137,21.9725],[89.2973,21.96637],[89.29264,21.96454],[89.29163,21.96324],[89.29166,21.96108],[89.29534,21.95498],[89.29011,21.95226],[89.28835,21.95032],[89.28822,21.94875],[89.28997,21.94496],[89.28917,21.93896],[89.29172,21.93402],[89.29873,21.92773],[89.30592,21.92391],[89.31828,21.91934],[89.31947,21.91755],[89.31867,21.91564],[89.3118,21.9086],[89.30965,21.9049],[89.30185,21.89549],[89.29508,21.88861],[89.29003,21.8806],[89.28978,21.87845],[89.29139,21.87612],[89.29707,21.87337],[89.30595,21.87079],[89.30653,21.86957],[89.29901,21.8616],[89.29613,21.85748],[89.29476,21.85109],[89.29471,21.84477],[89.29395,21.84207],[89.29272,21.84137],[89.285,21.8423],[89.28361,21.84344],[89.28466,21.84896],[89.28385,21.85672],[89.28105,21.86754],[89.27674,21.87473],[89.28,21.87902],[89.28159,21.87947],[89.28629,21.88319],[89.2936,21.89444],[89.29562,21.89993],[89.29611,21.9039],[89.29333,21.91167],[89.28949,21.91522],[89.28458,21.91801],[89.28031,21.91926],[89.27715,21.92578],[89.26963,21.92847],[89.26917,21.92997],[89.27016,21.93642],[89.26949,21.939],[89.26813,21.94043],[89.26228,21.94319],[89.26166,21.94249],[89.26757,21.93932],[89.26864,21.93778],[89.26803,21.92829],[89.2702,21.92669],[89.27608,21.92486],[89.27843,21.92044],[89.27566,21.91893],[89.26881,21.91823],[89.26478,21.91625],[89.26039,21.91611],[89.25866,21.91796],[89.25304,21.92911],[89.24111,21.93917],[89.23656,21.94198],[89.23135,21.94801],[89.23239,21.94947],[89.24169,21.95037],[89.24958,21.95348],[89.26099,21.96364],[89.25889,21.96278],[89.25043,21.95555],[89.24632,21.95313],[89.24052,21.95139],[89.23056,21.95021],[89.2303,21.9475],[89.23423,21.94284],[89.23431,21.94151],[89.23042,21.94274],[89.21965,21.94422],[89.21553,21.94629],[89.20962,21.95186],[89.2114,21.95538],[89.21535,21.95862],[89.22087,21.96129],[89.23286,21.96474],[89.24329,21.97112],[89.24747,21.97569],[89.25051,21.98233],[89.24744,21.99001],[89.24138,21.99677],[89.23481,22.00095],[89.22142,22.00508],[89.21825,22.00788],[89.22066,22.01163],[89.23194,22.02351],[89.23653,22.03082],[89.24696,22.04423],[89.24936,22.04789],[89.25246,22.05664],[89.25242,22.06465],[89.25107,22.06962],[89.24777,22.07421],[89.24362,22.07882],[89.23212,22.08678],[89.22495,22.09312],[89.22453,22.0949],[89.22674,22.09853],[89.23046,22.09996],[89.23263,22.09994],[89.23326,22.09976]]],[[[89.08139,22.18],[89.0975,22.16917],[89.10167,22.165],[89.10445,22.15861],[89.10728,22.15597],[89.12106,22.15357],[89.12557,22.151],[89.12691,22.14663],[89.12756,22.13989],[89.1289,22.1368],[89.13249,22.13348],[89.13911,22.12991],[89.13966,22.12793],[89.1385,22.12712],[89.1365,22.12726],[89.12761,22.13022],[89.12195,22.13028],[89.11584,22.12806],[89.11472,22.12306],[89.115,22.12111],[89.12055,22.11194],[89.12611,22.10028],[89.14083,22.08805],[89.14584,22.08222],[89.14722,22.07806],[89.13834,22.06861],[89.13723,22.06868],[89.13548,22.07102],[89.12972,22.07417],[89.12611,22.07472],[89.12334,22.07389],[89.1175,22.06972],[89.11667,22.06639],[89.11389,22.06306],[89.10973,22.05417],[89.10472,22.05278],[89.10194,22.04861],[89.09666,22.05194],[89.095,22.05194],[89.09278,22.05028],[89.09278,22.04444],[89.09111,22.04056],[89.09084,22.03667],[89.09306,22.03056],[89.09333,22.02278],[89.09278,22.02111],[89.08972,22.01889],[89.08889,22.01917],[89.08556,22.02667],[89.08139,22.03111],[89.07722,22.03861],[89.07389,22.04222],[89.07056,22.0475],[89.06722,22.05528],[89.06861,22.05639],[89.07528,22.05667],[89.08528,22.05417],[89.08806,22.05556],[89.09111,22.06139],[89.09084,22.06278],[89.09306,22.07],[89.09444,22.08417],[89.0975,22.09278],[89.0975,22.09528],[89.09666,22.09639],[89.09278,22.09778],[89.08083,22.09889],[89.07724,22.10038],[89.07703,22.10393],[89.08126,22.10909],[89.08227,22.11338],[89.08392,22.11338],[89.08126,22.11425],[89.08061,22.10942],[89.07623,22.10453],[89.07587,22.10098],[89.07645,22.09991],[89.07961,22.09803],[89.0938,22.09662],[89.09574,22.09555],[89.0961,22.09374],[89.09312,22.08391],[89.09022,22.065],[89.08772,22.05791],[89.08462,22.05586],[89.07618,22.05828],[89.06725,22.05835],[89.06222,22.05921],[89.0545,22.0656],[89.05283,22.07054],[89.05334,22.07556],[89.05194,22.07805],[89.04722,22.09694],[89.05002,22.10318],[89.05756,22.11215],[89.07248,22.12505],[89.08004,22.13268],[89.09458,22.14028],[89.09971,22.14585],[89.1008,22.14916],[89.10111,22.15611],[89.10028,22.15833],[89.09722,22.16139],[89.09417,22.1625],[89.08861,22.1625],[89.085,22.16083],[89.07528,22.15],[89.07361,22.15055],[89.07083,22.15389],[89.06667,22.16417],[89.06611,22.1725],[89.06667,22.17472],[89.07389,22.18389],[89.07528,22.18861],[89.07528,22.19305],[89.07611,22.19444],[89.07694,22.19444],[89.07806,22.19278],[89.07944,22.18889],[89.08,22.18361],[89.08139,22.18056],[89.08139,22.18]]],[[[89.24639,22.21611],[89.2525,22.21361],[89.26861,22.21445],[89.30167,22.21417],[89.30389,22.21305],[89.30583,22.21056],[89.31277,22.18833],[89.30945,22.18278],[89.30111,22.17444],[89.29082,22.16917],[89.28111,22.16195],[89.27778,22.15833],[89.275,22.15306],[89.27139,22.14944],[89.26527,22.13806],[89.26334,22.13583],[89.265,22.12086],[89.26468,22.11386],[89.25382,22.10318],[89.24999,22.10059],[89.24657,22.1003],[89.23889,22.10389],[89.23341,22.1047],[89.22222,22.10222],[89.21694,22.09861],[89.21461,22.10399],[89.21194,22.11639],[89.207,22.12605],[89.21168,22.1283],[89.2226,22.12977],[89.22523,22.13085],[89.22655,22.13267],[89.22632,22.13537],[89.22464,22.1375],[89.21278,22.14101],[89.21201,22.14262],[89.21313,22.14476],[89.22078,22.14978],[89.22821,22.15611],[89.24098,22.15699],[89.24379,22.15808],[89.24524,22.15976],[89.24525,22.16344],[89.24002,22.16974],[89.23657,22.18093],[89.23263,22.18748],[89.22785,22.19315],[89.22639,22.19847],[89.22855,22.20272],[89.24167,22.20917],[89.24416,22.21194],[89.24611,22.21583],[89.24639,22.21611]]],[[[89.18002,22.22769],[89.18108,22.22708],[89.18334,22.22826],[89.19144,22.22848],[89.19165,22.22694],[89.18977,22.22217],[89.19027,22.21925],[89.19278,22.21755],[89.19872,22.21624],[89.19956,22.21508],[89.1977,22.2095],[89.19597,22.20696],[89.19587,22.20157],[89.19748,22.19498],[89.19675,22.19288],[89.19392,22.18997],[89.19353,22.18829],[89.19393,22.18536],[89.19602,22.18164],[89.19861,22.17917],[89.19917,22.1775],[89.20293,22.17771],[89.21541,22.17386],[89.21889,22.1712],[89.20946,22.16446],[89.20807,22.1599],[89.20851,22.15394],[89.20706,22.14931],[89.20466,22.14667],[89.2028,22.14703],[89.1972,22.15237],[89.19387,22.1544],[89.19197,22.15434],[89.18923,22.15254],[89.1881,22.1493],[89.18837,22.14596],[89.19097,22.13487],[89.19407,22.129],[89.20145,22.12267],[89.20609,22.11648],[89.21088,22.09679],[89.21555,22.0875],[89.22444,22.08111],[89.23361,22.07694],[89.23666,22.07417],[89.24167,22.0675],[89.24528,22.05722],[89.24472,22.05556],[89.23444,22.04333],[89.22916,22.03416],[89.22334,22.02778],[89.22111,22.02361],[89.21279,22.01694],[89.21028,22.01194],[89.21028,22.00889],[89.20834,22.00417],[89.205,22.00222],[89.20222,22.0025],[89.19443,22.01],[89.1925,22.01389],[89.19139,22.01861],[89.18694,22.02444],[89.17889,22.02722],[89.1725,22.02583],[89.16222,22.0275],[89.15556,22.03305],[89.15278,22.03806],[89.15305,22.04139],[89.15611,22.04528],[89.17083,22.05222],[89.17416,22.05556],[89.17611,22.05889],[89.17722,22.06389],[89.17639,22.06833],[89.17333,22.07222],[89.15276,22.08226],[89.15006,22.08504],[89.15147,22.08603],[89.15827,22.08737],[89.16233,22.08626],[89.16818,22.08171],[89.17176,22.08008],[89.17397,22.07982],[89.17708,22.0814],[89.17939,22.08569],[89.1797,22.08927],[89.1787,22.09633],[89.17946,22.09944],[89.18159,22.10324],[89.18664,22.10759],[89.19216,22.11411],[89.19352,22.1183],[89.1919,22.12143],[89.18984,22.12303],[89.18551,22.12377],[89.17654,22.12224],[89.17464,22.12283],[89.17175,22.12522],[89.16861,22.12867],[89.16781,22.1307],[89.17049,22.13988],[89.16884,22.14602],[89.16167,22.15222],[89.14807,22.1525],[89.1435,22.15343],[89.14233,22.15498],[89.14068,22.1627],[89.1409,22.16666],[89.14723,22.18221],[89.14987,22.18521],[89.15642,22.1894],[89.15803,22.19187],[89.1594,22.19685],[89.16009,22.20641],[89.16866,22.20753],[89.171,22.21047],[89.17113,22.21231],[89.16987,22.21437],[89.16515,22.2166],[89.16048,22.21752],[89.15639,22.22053],[89.15544,22.22296],[89.15688,22.22688],[89.1603,22.22856],[89.16937,22.22778],[89.17128,22.22854],[89.17596,22.23271],[89.17729,22.23213],[89.17968,22.22794],[89.18002,22.22769]]],[[[89.20475,22.26533],[89.20991,22.26659],[89.21462,22.26646],[89.21662,22.26423],[89.2183,22.2596],[89.21759,22.25839],[89.20531,22.25446],[89.20328,22.25154],[89.20451,22.2495],[89.20715,22.24897],[89.21613,22.24995],[89.22858,22.25377],[89.22951,22.25344],[89.23318,22.24792],[89.23969,22.24546],[89.23911,22.2428],[89.23672,22.23845],[89.23601,22.23114],[89.23726,22.22679],[89.24129,22.2194],[89.24163,22.21712],[89.23421,22.20841],[89.22556,22.205],[89.22222,22.20028],[89.22388,22.1939],[89.23081,22.18461],[89.23524,22.17519],[89.23781,22.1669],[89.24139,22.16163],[89.24052,22.16043],[89.23769,22.15952],[89.23163,22.15912],[89.22515,22.15732],[89.22111,22.15361],[89.21161,22.14828],[89.20893,22.14388],[89.2096,22.14013],[89.21403,22.13668],[89.22097,22.13523],[89.22301,22.13379],[89.21811,22.13202],[89.20834,22.13163],[89.20531,22.13016],[89.2034,22.12811],[89.19763,22.13066],[89.19475,22.13365],[89.19088,22.14688],[89.19103,22.14996],[89.19186,22.15072],[89.19358,22.15054],[89.19958,22.14587],[89.20312,22.14448],[89.20742,22.14549],[89.21001,22.1485],[89.21107,22.15141],[89.21111,22.16271],[89.21368,22.16523],[89.21967,22.16791],[89.2211,22.17221],[89.22018,22.17398],[89.21611,22.17611],[89.19961,22.18069],[89.19587,22.18443],[89.19506,22.18788],[89.1991,22.19367],[89.19782,22.20323],[89.20079,22.21197],[89.20106,22.21493],[89.19854,22.2183],[89.19097,22.21991],[89.19296,22.22664],[89.19174,22.22907],[89.1887,22.23026],[89.18426,22.22979],[89.18337,22.23085],[89.18455,22.23403],[89.18707,22.23549],[89.19664,22.23421],[89.19945,22.23472],[89.20084,22.23611],[89.20071,22.23888],[89.19827,22.24283],[89.1961,22.2495],[89.19308,22.25424],[89.19247,22.25706],[89.19489,22.25984],[89.19787,22.26764],[89.19942,22.26969],[89.20113,22.2695],[89.2029,22.26618],[89.20423,22.26547],[89.20475,22.26533]]],[[[89.19083,22.39641],[89.19401,22.39111],[89.1954,22.38562],[89.19503,22.37483],[89.19674,22.37209],[89.20331,22.37246],[89.21844,22.3754],[89.22095,22.37447],[89.22533,22.37546],[89.23027,22.3723],[89.24541,22.35604],[89.25236,22.35023],[89.25534,22.34917],[89.25139,22.34778],[89.24861,22.34472],[89.24861,22.33778],[89.25027,22.335],[89.25361,22.33194],[89.25833,22.32444],[89.27389,22.30889],[89.27472,22.30667],[89.27472,22.2975],[89.27639,22.29083],[89.28222,22.28389],[89.28722,22.28167],[89.2925,22.28167],[89.30305,22.28528],[89.30833,22.28555],[89.31139,22.28417],[89.31416,22.28167],[89.31389,22.27861],[89.31028,22.27389],[89.30527,22.27028],[89.29472,22.26667],[89.29028,22.26306],[89.28807,22.25862],[89.28806,22.25333],[89.29111,22.24778],[89.29444,22.24444],[89.29861,22.24195],[89.30917,22.23167],[89.30278,22.21917],[89.29806,22.22056],[89.2575,22.22111],[89.25196,22.22222],[89.25,22.22333],[89.24834,22.22278],[89.24639,22.22417],[89.24695,22.22611],[89.24583,22.22917],[89.24583,22.23194],[89.25027,22.255],[89.25027,22.2675],[89.25417,22.27195],[89.26639,22.27695],[89.26945,22.28028],[89.27028,22.28555],[89.26583,22.29056],[89.26083,22.29194],[89.2575,22.29194],[89.24695,22.28944],[89.2375,22.29083],[89.23222,22.29333],[89.22472,22.29944],[89.21639,22.32889],[89.20722,22.34472],[89.2075,22.34639],[89.20917,22.34805],[89.21611,22.35139],[89.22111,22.35611],[89.22417,22.36194],[89.22361,22.36778],[89.22028,22.37194],[89.21778,22.37307],[89.2125,22.37278],[89.20834,22.37111],[89.20528,22.36889],[89.20139,22.36778],[89.19778,22.3675],[89.19472,22.36861],[89.1925,22.37528],[89.19083,22.39528],[89.19083,22.39641]]],[[[89.1043,22.39304],[89.10674,22.39134],[89.10918,22.38812],[89.11717,22.37284],[89.12458,22.36969],[89.13332,22.36817],[89.13783,22.36905],[89.14044,22.37048],[89.14193,22.37315],[89.14346,22.37955],[89.14395,22.38643],[89.14827,22.3938],[89.152,22.39562],[89.15932,22.39396],[89.16186,22.39448],[89.16533,22.39997],[89.16508,22.40193],[89.16145,22.40359],[89.17355,22.40444],[89.18484,22.39803],[89.18777,22.39806],[89.18667,22.39639],[89.18728,22.3794],[89.18977,22.37137],[89.19305,22.36555],[89.19806,22.36306],[89.20167,22.36278],[89.21472,22.36695],[89.21944,22.36639],[89.21891,22.36415],[89.21694,22.36528],[89.21555,22.36528],[89.21416,22.36417],[89.21306,22.365],[89.21167,22.36389],[89.20861,22.36389],[89.20444,22.36083],[89.20472,22.35861],[89.20778,22.35556],[89.20917,22.35639],[89.21111,22.35944],[89.21361,22.36028],[89.21694,22.36306],[89.2175,22.36278],[89.20556,22.35139],[89.20297,22.34512],[89.20529,22.33792],[89.20897,22.33243],[89.21306,22.31861],[89.21716,22.30947],[89.21758,22.30543],[89.22028,22.29972],[89.22361,22.295],[89.23,22.28889],[89.23722,22.28639],[89.25426,22.28527],[89.26083,22.28389],[89.25833,22.28083],[89.25027,22.27583],[89.24667,22.27139],[89.24306,22.26361],[89.24314,22.26122],[89.24523,22.25509],[89.24181,22.24758],[89.23558,22.24775],[89.22871,22.25465],[89.21104,22.2501],[89.20564,22.25034],[89.20441,22.25145],[89.20506,22.25313],[89.21864,22.25775],[89.21957,22.25896],[89.21943,22.26077],[89.21784,22.26465],[89.21593,22.26697],[89.21033,22.26786],[89.20481,22.2665],[89.20306,22.26778],[89.20194,22.27083],[89.2,22.27167],[89.19702,22.27004],[89.19434,22.26161],[89.19119,22.25584],[89.19497,22.24786],[89.19648,22.24273],[89.19909,22.23838],[89.19917,22.2362],[89.19641,22.23589],[89.18951,22.23712],[89.18575,22.2366],[89.18275,22.23386],[89.18185,22.22917],[89.18109,22.2285],[89.17802,22.23334],[89.17628,22.23392],[89.17352,22.23293],[89.1699,22.22933],[89.16085,22.22991],[89.15707,22.22859],[89.15536,22.22668],[89.15407,22.22229],[89.15541,22.21924],[89.15879,22.21685],[89.16873,22.21358],[89.16969,22.21245],[89.16961,22.21095],[89.16771,22.20909],[89.16103,22.20848],[89.15833,22.20667],[89.15721,22.19373],[89.1533,22.18882],[89.1475,22.18556],[89.14555,22.18333],[89.13944,22.16639],[89.13805,22.16444],[89.13944,22.1625],[89.14056,22.155],[89.14222,22.15278],[89.14639,22.15111],[89.15389,22.15028],[89.16167,22.15055],[89.16528,22.14722],[89.16917,22.14167],[89.16889,22.13861],[89.16611,22.13305],[89.16611,22.12944],[89.16805,22.12639],[89.1725,22.12194],[89.17722,22.12056],[89.18806,22.12194],[89.19,22.12139],[89.19195,22.11889],[89.19083,22.11472],[89.17861,22.1025],[89.17778,22.10083],[89.17694,22.09667],[89.1775,22.08694],[89.17583,22.08278],[89.17416,22.08139],[89.17223,22.08194],[89.16778,22.08583],[89.16139,22.08972],[89.15389,22.08972],[89.1475,22.0875],[89.13944,22.09583],[89.13583,22.09778],[89.12917,22.10333],[89.12444,22.11305],[89.11889,22.12167],[89.11833,22.12555],[89.12,22.12694],[89.12278,22.12694],[89.13389,22.12389],[89.13805,22.12389],[89.1425,22.12694],[89.14306,22.12778],[89.1425,22.13056],[89.13944,22.13361],[89.13194,22.13667],[89.13028,22.13833],[89.12945,22.14889],[89.12834,22.15167],[89.12528,22.155],[89.11945,22.15694],[89.11222,22.15694],[89.10833,22.15806],[89.10555,22.16055],[89.10278,22.16722],[89.09889,22.1714],[89.0925,22.17611],[89.085,22.18],[89.08195,22.18306],[89.08195,22.19],[89.08056,22.19389],[89.08083,22.19528],[89.08195,22.19611],[89.08389,22.1925],[89.08611,22.19111],[89.09244,22.19378],[89.0923,22.19431],[89.08602,22.19211],[89.0825,22.19693],[89.07932,22.19697],[89.07569,22.19919],[89.07422,22.20375],[89.07497,22.20876],[89.08401,22.21902],[89.08733,22.22147],[89.09143,22.22228],[89.09675,22.22095],[89.10024,22.22147],[89.08918,22.22296],[89.08245,22.21932],[89.07627,22.2129],[89.07372,22.20902],[89.07281,22.20457],[89.07389,22.2],[89.07306,22.19972],[89.05051,22.2206],[89.04423,22.22816],[89.03861,22.23838],[89.03721,22.25401],[89.03574,22.25888],[89.03207,22.26105],[89.02911,22.26109],[89.01711,22.25564],[89.01644,22.25641],[89.02079,22.2619],[89.02217,22.26522],[89.02053,22.27097],[89.01826,22.273],[89.00861,22.27722],[88.99684,22.28553],[88.99555,22.28984],[88.9962,22.29284],[89,22.29556],[89.00349,22.29639],[89.01125,22.29577],[89.01691,22.29252],[89.02161,22.29213],[89.02444,22.29306],[89.02612,22.295],[89.02639,22.2975],[89.02556,22.3],[89.01694,22.30722],[89.01139,22.31556],[89,22.32528],[88.99487,22.32493],[88.98915,22.32346],[88.98737,22.32424],[88.98583,22.32639],[88.98655,22.33496],[88.98954,22.34667],[88.98937,22.35112],[88.98722,22.3575],[88.99063,22.36146],[88.99281,22.35106],[88.98978,22.33625],[88.99249,22.32941],[88.99693,22.33052],[89.00313,22.3301],[89.0108,22.32445],[89.01111,22.32586],[89.01402,22.32884],[89.01582,22.33207],[89.01846,22.33437],[89.02449,22.33723],[89.02695,22.34424],[89.02885,22.34644],[89.03132,22.34696],[89.03352,22.34669],[89.03687,22.34121],[89.0385,22.34003],[89.04483,22.34249],[89.04767,22.3427],[89.05338,22.34562],[89.05702,22.34624],[89.0586,22.34574],[89.05966,22.344],[89.06142,22.34298],[89.06548,22.34341],[89.06825,22.33686],[89.0712,22.33674],[89.07272,22.33877],[89.07265,22.34096],[89.07148,22.34276],[89.06624,22.34661],[89.06184,22.354],[89.06154,22.35677],[89.06306,22.36081],[89.0674,22.36681],[89.06862,22.37126],[89.07139,22.37424],[89.07144,22.37562],[89.07047,22.37616],[89.06717,22.37434],[89.06576,22.3746],[89.06458,22.37629],[89.06518,22.38036],[89.06794,22.38501],[89.06741,22.38599],[89.06516,22.38633],[89.06619,22.39067],[89.0645,22.39628],[89.06653,22.39859],[89.06895,22.39957],[89.07249,22.39897],[89.07905,22.39608],[89.08249,22.39848],[89.0849,22.39888],[89.08718,22.39682],[89.08898,22.39316],[89.0915,22.39282],[89.09373,22.39415],[89.09664,22.3992],[89.09718,22.40533],[89.09954,22.40436],[89.10046,22.39774],[89.10207,22.39598],[89.10275,22.39355],[89.1043,22.39304]]]]}}]}