{"type":"FeatureCollection","features":[{"type":"Feature","properties":{"name":"Bhedarganj","district_id":"shariatpur","pcode":"308614","sql_upazila_id":"shariatpur-bhedarganj","sql_name_bn":"ভেদরগঞ্জ"},"geometry":{"type":"Polygon","coordinates":[[[90.54159,23.37303],[90.54349,23.37101],[90.54848,23.35582],[90.5516,23.35123],[90.55624,23.3477],[90.55912,23.34352],[90.56483,23.33973],[90.57989,23.33286],[90.58079,23.32953],[90.57887,23.32622],[90.5786,23.32336],[90.57642,23.31759],[90.57391,23.31331],[90.57263,23.30814],[90.57436,23.30165],[90.58064,23.29162],[90.58971,23.27314],[90.59806,23.25992],[90.61177,23.22996],[90.6137,23.22346],[90.61366,23.21855],[90.61195,23.21528],[90.60111,23.19889],[90.59333,23.18889],[90.59424,23.18142],[90.59302,23.17775],[90.59237,23.17741],[90.58949,23.17948],[90.58694,23.1775],[90.58779,23.1773],[90.58894,23.17456],[90.59089,23.17349],[90.59168,23.16982],[90.59032,23.16531],[90.58967,23.16525],[90.5893,23.16124],[90.58772,23.16017],[90.58858,23.16024],[90.58865,23.15837],[90.58801,23.15831],[90.58483,23.14743],[90.58303,23.14442],[90.58311,23.14282],[90.58222,23.14182],[90.56246,23.14883],[90.55997,23.15071],[90.54608,23.15391],[90.53964,23.15464],[90.52802,23.15447],[90.52118,23.15613],[90.51194,23.1569],[90.50671,23.15853],[90.5057,23.16015],[90.50861,23.16688],[90.50759,23.16822],[90.50399,23.16598],[90.50075,23.16562],[90.49599,23.16191],[90.49193,23.16317],[90.48965,23.16171],[90.48362,23.15216],[90.48214,23.15252],[90.47939,23.15871],[90.47583,23.16261],[90.46372,23.16974],[90.46003,23.17341],[90.45623,23.17542],[90.45044,23.18412],[90.44775,23.186],[90.44455,23.18696],[90.44241,23.18619],[90.43616,23.17267],[90.43253,23.1694],[90.42065,23.16658],[90.41211,23.17215],[90.40984,23.17581],[90.40759,23.18205],[90.40887,23.18582],[90.40887,23.19075],[90.40752,23.19399],[90.40385,23.19605],[90.40134,23.19534],[90.39509,23.19113],[90.39237,23.1918],[90.39018,23.19108],[90.38679,23.1944],[90.38557,23.19765],[90.38451,23.20489],[90.38573,23.20647],[90.39254,23.21011],[90.39276,23.21625],[90.3967,23.21706],[90.39613,23.2192],[90.40204,23.22186],[90.40646,23.2222],[90.41605,23.21827],[90.41953,23.21805],[90.42238,23.22502],[90.42453,23.22636],[90.42663,23.22581],[90.42804,23.22303],[90.43083,23.22036],[90.43368,23.21979],[90.43529,23.22201],[90.43568,23.22528],[90.43751,23.226],[90.45172,23.22538],[90.45343,23.23598],[90.45617,23.23629],[90.45973,23.23939],[90.46373,23.24468],[90.4687,23.24494],[90.4743,23.24951],[90.47744,23.26003],[90.47961,23.26241],[90.4793,23.26454],[90.48436,23.26538],[90.48689,23.26725],[90.48778,23.26998],[90.48843,23.27835],[90.48501,23.28053],[90.48471,23.28766],[90.48608,23.29022],[90.48762,23.29198],[90.49226,23.29346],[90.49625,23.29627],[90.50138,23.30429],[90.51062,23.31259],[90.5163,23.32031],[90.51679,23.3222],[90.50754,23.33164],[90.50648,23.33419],[90.50517,23.34523],[90.50492,23.35442],[90.50558,23.3582],[90.50719,23.36053],[90.5116,23.36294],[90.53687,23.37214],[90.54159,23.37303]]]}},{"type":"Feature","properties":{"name":"Damudya","district_id":"shariatpur","pcode":"308625","sql_upazila_id":"shariatpur-damudya","sql_name_bn":"ডামুড্যা"},"geometry":{"type":"Polygon","coordinates":[[[90.48362,23.15216],[90.48963,23.15178],[90.49426,23.15051],[90.49717,23.14788],[90.49881,23.14441],[90.49809,23.14074],[90.49163,23.13579],[90.48886,23.13003],[90.48682,23.12765],[90.47998,23.12523],[90.47581,23.12237],[90.4547,23.10373],[90.44966,23.10111],[90.44643,23.10127],[90.44158,23.10507],[90.441,23.10703],[90.43874,23.10821],[90.43585,23.10692],[90.43178,23.10791],[90.42842,23.10762],[90.42535,23.10635],[90.42269,23.10695],[90.42074,23.10836],[90.41457,23.10495],[90.40927,23.10646],[90.40845,23.10842],[90.39726,23.10554],[90.38484,23.10533],[90.3777,23.10295],[90.3745,23.10397],[90.37159,23.10654],[90.3721,23.11199],[90.36603,23.11236],[90.36391,23.11664],[90.35692,23.11777],[90.35361,23.1196],[90.34921,23.12471],[90.35033,23.13205],[90.35626,23.14035],[90.36095,23.13908],[90.36328,23.14059],[90.36315,23.1453],[90.36441,23.14827],[90.36634,23.15088],[90.36956,23.15285],[90.37767,23.16135],[90.37948,23.16632],[90.38177,23.16887],[90.38925,23.17203],[90.40019,23.18215],[90.40759,23.18205],[90.40984,23.17581],[90.41211,23.17215],[90.42065,23.16658],[90.43253,23.1694],[90.43616,23.17267],[90.44241,23.18619],[90.44455,23.18696],[90.44775,23.186],[90.45044,23.18412],[90.45623,23.17542],[90.46003,23.17341],[90.46372,23.16974],[90.47583,23.16261],[90.47939,23.15871],[90.48214,23.15252],[90.48362,23.15216]]]}},{"type":"Feature","properties":{"name":"Gosairhat","district_id":"shariatpur","pcode":"308636","sql_upazila_id":"shariatpur-gosairhat","sql_name_bn":"গোসাইরহাট"},"geometry":{"type":"MultiPolygon","coordinates":[[[[90.53539,23.05746],[90.53539,23.05582],[90.53456,23.05499],[90.52707,23.05388],[90.53407,23.05749],[90.53539,23.05746]]],[[[90.52824,23.0849],[90.5332,23.08112],[90.53342,23.07985],[90.53479,23.07939],[90.53709,23.07572],[90.54121,23.07151],[90.54358,23.07065],[90.54639,23.06832],[90.54755,23.06832],[90.54784,23.06718],[90.55007,23.06551],[90.55158,23.06544],[90.55418,23.06371],[90.55317,23.06004],[90.54748,23.05718],[90.54258,23.05698],[90.53965,23.05591],[90.53654,23.05625],[90.53489,23.05925],[90.531,23.05651],[90.52155,23.05247],[90.51665,23.04913],[90.50938,23.04619],[90.50754,23.0447],[90.50581,23.04421],[90.50531,23.04528],[90.5025,23.045],[90.50195,23.04555],[90.50221,23.0525],[90.50471,23.05965],[90.50909,23.06477],[90.51411,23.06867],[90.51432,23.07061],[90.51785,23.07575],[90.51879,23.07609],[90.51907,23.07749],[90.52325,23.08089],[90.52607,23.08436],[90.52766,23.08503],[90.52824,23.0849]]],[[[90.53403,23.0947],[90.53848,23.09411],[90.54176,23.09272],[90.54681,23.08918],[90.55375,23.08635],[90.55542,23.08386],[90.55624,23.08388],[90.55736,23.08027],[90.55982,23.07861],[90.55985,23.07637],[90.55567,23.07079],[90.55211,23.06913],[90.54846,23.06915],[90.54598,23.07054],[90.54571,23.07165],[90.54732,23.07178],[90.54567,23.07274],[90.54569,23.07361],[90.55037,23.07445],[90.55183,23.07607],[90.54762,23.07444],[90.54261,23.07471],[90.53765,23.07859],[90.53539,23.08243],[90.53322,23.08443],[90.53344,23.08552],[90.52901,23.08685],[90.52903,23.08805],[90.5332,23.09061],[90.53288,23.0922],[90.53015,23.0919],[90.53043,23.09389],[90.53235,23.09471],[90.53403,23.0947]]],[[[90.55434,23.10469],[90.55397,23.10056],[90.55817,23.09438],[90.55898,23.09215],[90.55848,23.09135],[90.55237,23.09193],[90.55033,23.09328],[90.54569,23.09443],[90.53902,23.09804],[90.54128,23.10084],[90.5468,23.10114],[90.55401,23.10468],[90.55434,23.10469]]],[[[90.50671,23.16335],[90.5057,23.16015],[90.50671,23.15853],[90.51194,23.1569],[90.52118,23.15613],[90.52802,23.15447],[90.53964,23.15464],[90.54608,23.15391],[90.55997,23.15071],[90.56246,23.14883],[90.58222,23.14182],[90.57742,23.12748],[90.57756,23.12427],[90.57583,23.11893],[90.57619,23.11753],[90.57439,23.11346],[90.57376,23.10703],[90.57195,23.1045],[90.57217,23.1033],[90.56994,23.09816],[90.56806,23.09589],[90.56756,23.09282],[90.5646,23.09228],[90.56568,23.09282],[90.56568,23.09369],[90.56273,23.09282],[90.55926,23.09466],[90.55515,23.10234],[90.55501,23.10401],[90.55623,23.10527],[90.5571,23.10806],[90.56329,23.1152],[90.56178,23.11513],[90.56207,23.11633],[90.5612,23.1176],[90.5595,23.11731],[90.56037,23.11651],[90.56008,23.11364],[90.55691,23.11063],[90.55537,23.10731],[90.55169,23.10511],[90.55112,23.10397],[90.54596,23.10173],[90.54243,23.1018],[90.54387,23.10407],[90.54322,23.10473],[90.53808,23.09907],[90.53159,23.09813],[90.52986,23.0972],[90.52674,23.09357],[90.52703,23.09237],[90.52436,23.08736],[90.51694,23.08167],[90.51525,23.07413],[90.51389,23.07139],[90.50972,23.06812],[90.50709,23.06734],[90.50083,23.05222],[90.50056,23.04333],[90.49528,23.03695],[90.48444,23.02695],[90.47611,23.02333],[90.46833,23.01861],[90.4625,23.01944],[90.46167,23.02028],[90.46194,23.02361],[90.46064,23.02309],[90.45944,23.02361],[90.45889,23.02139],[90.45695,23.01944],[90.44972,23.01833],[90.43833,23.015],[90.42722,23.01056],[90.42354,23.01255],[90.42572,23.01317],[90.42491,23.01398],[90.41167,23.01198],[90.41136,23.01399],[90.39217,23.01589],[90.38727,23.01789],[90.40676,23.02044],[90.4138,23.0233],[90.41517,23.02567],[90.42627,23.03407],[90.42647,23.03658],[90.42404,23.04081],[90.41445,23.04385],[90.41019,23.04252],[90.40662,23.04398],[90.40275,23.04699],[90.39442,23.04885],[90.39137,23.05041],[90.38523,23.05056],[90.38242,23.05463],[90.37673,23.05311],[90.37337,23.05496],[90.37236,23.05647],[90.35915,23.05445],[90.34323,23.0545],[90.34272,23.06504],[90.33847,23.06871],[90.33772,23.07091],[90.33913,23.07307],[90.34476,23.07678],[90.34807,23.09223],[90.3525,23.10274],[90.35274,23.11456],[90.34933,23.11983],[90.34921,23.12471],[90.35361,23.1196],[90.35692,23.11777],[90.36391,23.11664],[90.36603,23.11236],[90.3721,23.11199],[90.37159,23.10654],[90.3745,23.10397],[90.3777,23.10295],[90.38484,23.10533],[90.39726,23.10554],[90.40845,23.10842],[90.40927,23.10646],[90.41457,23.10495],[90.42074,23.10836],[90.42269,23.10695],[90.42535,23.10635],[90.42842,23.10762],[90.43178,23.10791],[90.43585,23.10692],[90.43874,23.10821],[90.441,23.10703],[90.44158,23.10507],[90.44643,23.10127],[90.44966,23.10111],[90.4547,23.10373],[90.47581,23.12237],[90.47998,23.12523],[90.48682,23.12765],[90.48886,23.13003],[90.49163,23.13579],[90.49809,23.14074],[90.49881,23.14441],[90.49717,23.14788],[90.49426,23.15051],[90.48963,23.15178],[90.48362,23.15216],[90.48965,23.16171],[90.49193,23.16317],[90.49599,23.16191],[90.50075,23.16562],[90.50399,23.16598],[90.50759,23.16822],[90.50861,23.16688],[90.50671,23.16335]]]]}},{"type":"Feature","properties":{"name":"Shariatpur S.","district_id":"shariatpur","pcode":"308669","sql_upazila_id":null,"sql_name_bn":null},"geometry":{"type":"Polygon","coordinates":[[[90.39613,23.2192],[90.3967,23.21706],[90.39276,23.21625],[90.39254,23.21011],[90.38573,23.20647],[90.38451,23.20489],[90.38557,23.19765],[90.38679,23.1944],[90.39018,23.19108],[90.39237,23.1918],[90.39509,23.19113],[90.40134,23.19534],[90.40385,23.19605],[90.40752,23.19399],[90.40887,23.19075],[90.40887,23.18582],[90.40759,23.18205],[90.40019,23.18215],[90.38925,23.17203],[90.38177,23.16887],[90.37948,23.16632],[90.37767,23.16135],[90.36956,23.15285],[90.36634,23.15088],[90.36441,23.14827],[90.36315,23.1453],[90.36328,23.14059],[90.36095,23.13908],[90.35626,23.14035],[90.35657,23.1427],[90.35519,23.14438],[90.35075,23.14319],[90.34423,23.14356],[90.34025,23.13828],[90.33575,23.14207],[90.33041,23.14186],[90.32595,23.13997],[90.32285,23.1376],[90.31956,23.13971],[90.31202,23.13918],[90.31132,23.14086],[90.31174,23.15027],[90.30946,23.15116],[90.30515,23.15002],[90.29987,23.14986],[90.297,23.15156],[90.29482,23.15647],[90.29327,23.16132],[90.29388,23.17084],[90.29194,23.17529],[90.29191,23.17862],[90.2889,23.18285],[90.28831,23.18636],[90.28764,23.19194],[90.28946,23.19513],[90.28915,23.19766],[90.28801,23.19923],[90.27975,23.20428],[90.28093,23.21391],[90.28025,23.21685],[90.2759,23.22161],[90.27604,23.22718],[90.27254,23.23355],[90.27049,23.23627],[90.26412,23.2328],[90.26199,23.23673],[90.25775,23.23615],[90.25233,23.23824],[90.24691,23.23527],[90.24493,23.23581],[90.24362,23.23811],[90.24432,23.24581],[90.2424,23.25628],[90.24538,23.26136],[90.24586,23.26521],[90.25129,23.27374],[90.25217,23.27688],[90.25223,23.28159],[90.25975,23.28666],[90.26202,23.29019],[90.26525,23.28756],[90.26939,23.28642],[90.27243,23.28654],[90.27988,23.28868],[90.29343,23.29591],[90.29379,23.29745],[90.29105,23.30013],[90.29089,23.30128],[90.29184,23.30431],[90.29432,23.30652],[90.30049,23.30695],[90.30846,23.31],[90.31262,23.30971],[90.31376,23.30798],[90.32274,23.30165],[90.32423,23.29933],[90.32872,23.2976],[90.33183,23.2971],[90.34164,23.30167],[90.34386,23.30147],[90.34537,23.29909],[90.34876,23.29819],[90.35083,23.29643],[90.35195,23.29401],[90.35178,23.292],[90.34804,23.28935],[90.34695,23.28587],[90.34798,23.28223],[90.34581,23.27267],[90.34737,23.26766],[90.35345,23.25781],[90.35529,23.26209],[90.35729,23.25999],[90.35833,23.25699],[90.35783,23.25442],[90.36098,23.24857],[90.37055,23.2466],[90.37341,23.24133],[90.37366,23.23662],[90.37479,23.23465],[90.37467,23.23029],[90.37617,23.22809],[90.37963,23.22511],[90.38573,23.22324],[90.38853,23.22343],[90.39346,23.21906],[90.39613,23.2192]]]}},{"type":"Feature","properties":{"name":"Zanjira","district_id":"shariatpur","pcode":"308694","sql_upazila_id":null,"sql_name_bn":null},"geometry":{"type":"Polygon","coordinates":[[[90.26232,23.46293],[90.27746,23.45188],[90.28419,23.44882],[90.2886,23.44739],[90.29427,23.44834],[90.30165,23.45246],[90.30488,23.4529],[90.30792,23.45116],[90.31653,23.4422],[90.32025,23.44023],[90.32736,23.43726],[90.33383,23.43579],[90.34804,23.43464],[90.36004,23.43177],[90.39079,23.41553],[90.39645,23.41391],[90.40331,23.4134],[90.40897,23.41394],[90.41614,23.41565],[90.42368,23.4193],[90.44404,23.42068],[90.45335,23.4193],[90.46884,23.41531],[90.48146,23.41071],[90.4938,23.40862],[90.50047,23.40623],[90.5018,23.39665],[90.50912,23.38646],[90.51797,23.38435],[90.52686,23.37915],[90.53164,23.37759],[90.5402,23.37767],[90.54064,23.37404],[90.54159,23.37303],[90.52909,23.36973],[90.5116,23.36294],[90.50719,23.36053],[90.50558,23.3582],[90.50492,23.35442],[90.50517,23.34523],[90.50648,23.33419],[90.50754,23.33164],[90.51679,23.3222],[90.5163,23.32031],[90.51062,23.31259],[90.50138,23.30429],[90.49625,23.29627],[90.49226,23.29346],[90.48762,23.29198],[90.48608,23.29022],[90.48471,23.28766],[90.48501,23.28053],[90.48843,23.27835],[90.48778,23.26998],[90.48689,23.26725],[90.48436,23.26538],[90.4793,23.26454],[90.47961,23.26241],[90.47744,23.26003],[90.4743,23.24951],[90.4687,23.24494],[90.46373,23.24468],[90.45973,23.23939],[90.45617,23.23629],[90.45343,23.23598],[90.45172,23.22538],[90.43751,23.226],[90.43568,23.22528],[90.43529,23.22201],[90.43368,23.21979],[90.43083,23.22036],[90.42804,23.22303],[90.42663,23.22581],[90.42453,23.22636],[90.42238,23.22502],[90.41953,23.21805],[90.41605,23.21827],[90.40646,23.2222],[90.40204,23.22186],[90.39613,23.2192],[90.39346,23.21906],[90.38853,23.22343],[90.38573,23.22324],[90.37963,23.22511],[90.37467,23.23029],[90.37479,23.23465],[90.37366,23.23662],[90.37341,23.24133],[90.37055,23.2466],[90.36098,23.24857],[90.35783,23.25442],[90.35833,23.25699],[90.35729,23.25999],[90.35529,23.26209],[90.35345,23.25781],[90.34737,23.26766],[90.34581,23.27267],[90.34798,23.28223],[90.34695,23.28587],[90.34804,23.28935],[90.35178,23.292],[90.35195,23.29401],[90.35083,23.29643],[90.34876,23.29819],[90.34537,23.29909],[90.34386,23.30147],[90.34164,23.30167],[90.33183,23.2971],[90.32872,23.2976],[90.32423,23.29933],[90.32274,23.30165],[90.31376,23.30798],[90.31262,23.30971],[90.30846,23.31],[90.30049,23.30695],[90.29432,23.30652],[90.29184,23.30431],[90.29089,23.30128],[90.29105,23.30013],[90.29379,23.29745],[90.29343,23.29591],[90.27988,23.28868],[90.27243,23.28654],[90.26939,23.28642],[90.26525,23.28756],[90.26202,23.29019],[90.25975,23.28666],[90.25223,23.28159],[90.25217,23.27688],[90.25129,23.27374],[90.24586,23.26521],[90.24538,23.26136],[90.2424,23.25628],[90.24058,23.26056],[90.2386,23.26282],[90.23518,23.26317],[90.23469,23.26609],[90.23875,23.28711],[90.23969,23.28957],[90.24297,23.29165],[90.24289,23.30089],[90.24717,23.3056],[90.24837,23.30915],[90.24586,23.31056],[90.24599,23.32084],[90.24229,23.32973],[90.2404,23.33108],[90.23596,23.32757],[90.23257,23.32882],[90.22608,23.33465],[90.22208,23.33717],[90.21403,23.34583],[90.2131,23.35372],[90.20901,23.35974],[90.20655,23.36086],[90.20457,23.36336],[90.20255,23.36735],[90.20147,23.37173],[90.20157,23.37551],[90.20271,23.37912],[90.21208,23.38319],[90.21475,23.38551],[90.2148,23.3874],[90.21245,23.39053],[90.20929,23.39867],[90.21033,23.40291],[90.21198,23.40443],[90.21449,23.40515],[90.21655,23.40776],[90.21919,23.40911],[90.21941,23.41301],[90.2326,23.41531],[90.23406,23.41661],[90.24303,23.41936],[90.24532,23.42146],[90.24533,23.42932],[90.2411,23.43472],[90.24083,23.4384],[90.24428,23.44421],[90.25426,23.45556],[90.26232,23.46293]]]}}]}