{"type":"FeatureCollection","features":[{"type":"Feature","properties":{"name":"Jhenaigati","district_id":"sherpur","pcode":"458937","sql_upazila_id":"sherpur-jhenaigati","sql_name_bn":"ঝিনাইগাতী"},"geometry":{"type":"Polygon","coordinates":[[[90.01511,25.27833],[90.03435,25.26699],[90.03898,25.26563],[90.05691,25.26406],[90.05978,25.26294],[90.06743,25.25471],[90.08071,25.24486],[90.08575,25.24246],[90.09933,25.23869],[90.1095,25.23043],[90.1152,25.22692],[90.11958,25.22555],[90.1288,25.22649],[90.13307,25.22127],[90.13323,25.21811],[90.13187,25.21405],[90.13653,25.20751],[90.13765,25.20266],[90.13422,25.191],[90.12978,25.18542],[90.12952,25.18329],[90.12606,25.1811],[90.12714,25.17684],[90.12332,25.17584],[90.12057,25.17633],[90.11742,25.17424],[90.11084,25.16673],[90.11063,25.16392],[90.11411,25.16216],[90.11686,25.15932],[90.11765,25.15346],[90.12353,25.15201],[90.12462,25.15056],[90.12413,25.1488],[90.12079,25.14705],[90.11669,25.14647],[90.11282,25.14305],[90.10773,25.14145],[90.10372,25.13799],[90.09015,25.13934],[90.08678,25.13846],[90.08424,25.13567],[90.08619,25.13295],[90.09015,25.13256],[90.09028,25.13066],[90.08714,25.12874],[90.08377,25.13004],[90.08207,25.12978],[90.08043,25.12738],[90.08821,25.12207],[90.089,25.11879],[90.08739,25.10888],[90.09129,25.10619],[90.09872,25.10399],[90.09641,25.09764],[90.10126,25.09144],[90.10023,25.08812],[90.09289,25.08464],[90.09088,25.08271],[90.08595,25.07518],[90.0844,25.07641],[90.08366,25.08158],[90.08182,25.08292],[90.07712,25.08349],[90.07638,25.08894],[90.07495,25.09167],[90.07149,25.09411],[90.0683,25.09265],[90.06424,25.08718],[90.06117,25.08567],[90.05846,25.08535],[90.05013,25.08934],[90.04841,25.08867],[90.04307,25.0912],[90.03887,25.09434],[90.03457,25.10271],[90.03248,25.11376],[90.02923,25.12367],[90.02668,25.1272],[90.01702,25.13097],[90.01379,25.13502],[90.01304,25.13807],[90.01018,25.13873],[90.00478,25.14172],[89.9977,25.14787],[89.99591,25.15151],[89.99226,25.15424],[89.98668,25.16199],[89.97797,25.16857],[89.97736,25.1711],[89.97871,25.17253],[89.98154,25.17232],[89.9874,25.16962],[89.99146,25.17079],[89.99275,25.16957],[89.99302,25.1679],[89.99538,25.16673],[89.99974,25.16944],[90.00296,25.16946],[90.00579,25.17174],[90.00678,25.17799],[89.99893,25.18559],[89.99677,25.19399],[89.99268,25.20345],[89.98546,25.20685],[89.9851,25.21013],[89.98664,25.22011],[89.98434,25.22357],[89.9754,25.22889],[89.97292,25.23287],[89.97329,25.23712],[89.97622,25.24249],[89.97874,25.24499],[89.99199,25.2475],[89.99484,25.25051],[89.99831,25.26168],[90.00521,25.26942],[90.00869,25.26996],[90.01228,25.2721],[90.01511,25.27833]]]}},{"type":"Feature","properties":{"name":"Nakla","district_id":"sherpur","pcode":"458967","sql_upazila_id":null,"sql_name_bn":null},"geometry":{"type":"Polygon","coordinates":[[[90.23863,25.03805],[90.24339,25.03537],[90.24387,25.03255],[90.24161,25.02739],[90.24204,25.02514],[90.24625,25.01939],[90.24863,25.00458],[90.24605,24.99461],[90.24199,24.98985],[90.24115,24.98437],[90.23576,24.9765],[90.23599,24.97143],[90.2387,24.96574],[90.24102,24.96429],[90.24316,24.96515],[90.24496,24.96928],[90.24604,24.97005],[90.2476,24.96983],[90.24887,24.96888],[90.2506,24.96355],[90.25584,24.96207],[90.2627,24.95802],[90.26558,24.95415],[90.26669,24.94981],[90.26415,24.94765],[90.26041,24.94724],[90.2489,24.94983],[90.24403,24.94733],[90.24113,24.94352],[90.24168,24.94098],[90.24531,24.9349],[90.25314,24.92772],[90.25265,24.92378],[90.2468,24.90628],[90.24524,24.89261],[90.24091,24.88683],[90.23735,24.88408],[90.22854,24.88318],[90.2223,24.88365],[90.21439,24.88989],[90.20981,24.89207],[90.19881,24.89467],[90.19629,24.892],[90.17897,24.89334],[90.16531,24.90131],[90.15602,24.90428],[90.15395,24.90677],[90.15575,24.91013],[90.15506,24.91233],[90.15032,24.91376],[90.14552,24.9129],[90.14163,24.90697],[90.13605,24.90973],[90.12865,24.91015],[90.12714,24.91241],[90.1254,24.91323],[90.12216,24.91217],[90.11358,24.91549],[90.11993,24.91766],[90.12238,24.91947],[90.11813,24.93628],[90.12409,24.94006],[90.12595,24.94326],[90.12738,24.95168],[90.12711,24.9553],[90.12159,24.96277],[90.11834,24.96574],[90.11726,24.96988],[90.11823,24.97297],[90.12108,24.97397],[90.12688,24.97403],[90.1335,24.97211],[90.13817,24.97247],[90.13872,24.97418],[90.13794,24.97563],[90.13242,24.9785],[90.13093,24.98116],[90.13064,24.98432],[90.12883,24.98721],[90.12581,24.98937],[90.12267,24.99417],[90.12136,24.99878],[90.11841,25.00128],[90.11875,25.00461],[90.1206,25.00734],[90.12248,25.01398],[90.13069,25.01711],[90.13397,25.0196],[90.13433,25.02361],[90.13092,25.02951],[90.13364,25.03637],[90.13947,25.02913],[90.14597,25.0294],[90.15453,25.02516],[90.15681,25.02549],[90.15823,25.02702],[90.15992,25.03516],[90.16235,25.03639],[90.16471,25.03562],[90.16605,25.02722],[90.16769,25.02542],[90.18092,25.02327],[90.18881,25.02445],[90.19581,25.03108],[90.2052,25.03362],[90.21494,25.03492],[90.21703,25.03359],[90.21796,25.03053],[90.21654,25.02969],[90.21059,25.03091],[90.20987,25.02977],[90.21047,25.02654],[90.21252,25.02377],[90.21693,25.02136],[90.22109,25.02384],[90.22613,25.02378],[90.22748,25.02491],[90.22701,25.03049],[90.23222,25.03204],[90.23492,25.03367],[90.23863,25.03805]]]}},{"type":"Feature","properties":{"name":"Nalitabari","district_id":"sherpur","pcode":"458970","sql_upazila_id":"sherpur-nalitabari","sql_name_bn":"নালিতাবাড়ী"},"geometry":{"type":"Polygon","coordinates":[[[90.1288,25.22649],[90.1432,25.22507],[90.15828,25.2253],[90.1749,25.22402],[90.18307,25.22129],[90.19465,25.21593],[90.19828,25.21313],[90.21258,25.21039],[90.21912,25.20773],[90.22536,25.2076],[90.22858,25.20342],[90.2306,25.20352],[90.23737,25.20665],[90.24141,25.20683],[90.24807,25.20384],[90.25302,25.20295],[90.25983,25.20294],[90.26123,25.20126],[90.26453,25.19984],[90.26819,25.19986],[90.26779,25.19727],[90.26984,25.18996],[90.26748,25.18034],[90.26439,25.17188],[90.26483,25.16751],[90.26796,25.16259],[90.26653,25.15882],[90.26751,25.15605],[90.27288,25.1522],[90.27344,25.14749],[90.27166,25.13883],[90.26989,25.13415],[90.26891,25.12461],[90.26487,25.10538],[90.26596,25.1018],[90.27035,25.09894],[90.27831,25.09758],[90.28107,25.09542],[90.28892,25.08585],[90.29134,25.08485],[90.29313,25.08563],[90.29871,25.09136],[90.30141,25.09299],[90.30611,25.08812],[90.30873,25.08706],[90.30962,25.08537],[90.30903,25.08234],[90.30741,25.08092],[90.30072,25.08244],[90.28911,25.07971],[90.29024,25.06907],[90.2888,25.06702],[90.28655,25.06578],[90.28474,25.05984],[90.28023,25.05857],[90.27617,25.05552],[90.26745,25.05239],[90.26219,25.05545],[90.26255,25.05901],[90.26017,25.06162],[90.26128,25.06505],[90.26017,25.06794],[90.25833,25.06744],[90.25651,25.06569],[90.25412,25.05922],[90.25149,25.05753],[90.24956,25.05405],[90.247,25.05276],[90.24366,25.0528],[90.24077,25.05117],[90.23643,25.04238],[90.23863,25.03805],[90.23492,25.03367],[90.23222,25.03204],[90.22701,25.03049],[90.22748,25.02491],[90.22613,25.02378],[90.22109,25.02384],[90.21693,25.02136],[90.21252,25.02377],[90.21047,25.02654],[90.20987,25.02977],[90.21059,25.03091],[90.21654,25.02969],[90.21796,25.03053],[90.21703,25.03359],[90.21494,25.03492],[90.2052,25.03362],[90.19581,25.03108],[90.18881,25.02445],[90.18092,25.02327],[90.16769,25.02542],[90.16605,25.02722],[90.16471,25.03562],[90.16235,25.03639],[90.15992,25.03516],[90.15823,25.02702],[90.15681,25.02549],[90.15453,25.02516],[90.14597,25.0294],[90.13947,25.02913],[90.13364,25.03637],[90.13087,25.03852],[90.12875,25.03723],[90.12672,25.03461],[90.12545,25.03439],[90.12278,25.03976],[90.12046,25.04013],[90.11773,25.03918],[90.11631,25.04029],[90.11559,25.04163],[90.11574,25.0446],[90.11947,25.05168],[90.12034,25.05574],[90.12019,25.05948],[90.11904,25.06093],[90.1144,25.05926],[90.10921,25.06064],[90.10436,25.06063],[90.09824,25.06478],[90.09469,25.06608],[90.08311,25.06832],[90.0759,25.07621],[90.07712,25.08349],[90.08182,25.08292],[90.08366,25.08158],[90.0844,25.07641],[90.08595,25.07518],[90.09088,25.08271],[90.09289,25.08464],[90.10023,25.08812],[90.10126,25.09144],[90.09641,25.09764],[90.09872,25.10399],[90.09129,25.10619],[90.08739,25.10888],[90.089,25.11879],[90.08821,25.12207],[90.08043,25.12738],[90.08207,25.12978],[90.08377,25.13004],[90.08714,25.12874],[90.09028,25.13066],[90.09015,25.13256],[90.08619,25.13295],[90.08424,25.13567],[90.08678,25.13846],[90.09015,25.13934],[90.10372,25.13799],[90.10773,25.14145],[90.11282,25.14305],[90.11669,25.14647],[90.12079,25.14705],[90.12413,25.1488],[90.12462,25.15056],[90.12353,25.15201],[90.11765,25.15346],[90.11686,25.15932],[90.11411,25.16216],[90.11063,25.16392],[90.11084,25.16673],[90.11742,25.17424],[90.12057,25.17633],[90.12332,25.17584],[90.12714,25.17684],[90.12606,25.1811],[90.12952,25.18329],[90.12978,25.18542],[90.13422,25.191],[90.13765,25.20266],[90.13653,25.20751],[90.13187,25.21405],[90.13323,25.21811],[90.13307,25.22127],[90.13089,25.22395],[90.1288,25.22649]]]}},{"type":"Feature","properties":{"name":"Sherpur S.","district_id":"sherpur","pcode":"458988","sql_upazila_id":null,"sql_name_bn":null},"geometry":{"type":"Polygon","coordinates":[[[90.07712,25.08349],[90.0759,25.07621],[90.08311,25.06832],[90.09469,25.06608],[90.09824,25.06478],[90.10436,25.06063],[90.10921,25.06064],[90.1144,25.05926],[90.11904,25.06093],[90.12019,25.05948],[90.12034,25.05574],[90.11947,25.05168],[90.11574,25.0446],[90.11559,25.04163],[90.11631,25.04029],[90.11773,25.03918],[90.12046,25.04013],[90.12278,25.03976],[90.12545,25.03439],[90.12672,25.03461],[90.12875,25.03723],[90.13087,25.03852],[90.13364,25.03637],[90.13092,25.02951],[90.13433,25.02361],[90.13397,25.0196],[90.13069,25.01711],[90.12248,25.01398],[90.1206,25.00734],[90.11875,25.00461],[90.11841,25.00128],[90.12136,24.99878],[90.12267,24.99417],[90.12581,24.98937],[90.12883,24.98721],[90.13064,24.98432],[90.13093,24.98116],[90.13242,24.9785],[90.13794,24.97563],[90.13872,24.97418],[90.13817,24.97247],[90.1335,24.97211],[90.12688,24.97403],[90.12108,24.97397],[90.11823,24.97297],[90.11726,24.96988],[90.11834,24.96574],[90.12159,24.96277],[90.12711,24.9553],[90.12738,24.95168],[90.12595,24.94326],[90.12409,24.94006],[90.11813,24.93628],[90.12238,24.91947],[90.11993,24.91766],[90.11358,24.91549],[90.10628,24.91516],[90.09394,24.91277],[90.08865,24.91248],[90.08009,24.91435],[90.05893,24.91544],[90.04924,24.91973],[90.03438,24.91679],[90.03344,24.91915],[90.03624,24.9228],[90.03654,24.92446],[90.03458,24.92643],[90.03235,24.92548],[90.03016,24.92119],[90.02533,24.91728],[90.01849,24.9177],[90.01325,24.91936],[90.00354,24.92078],[90.00162,24.9216],[89.99716,24.92675],[89.99468,24.92781],[89.98788,24.92736],[89.97661,24.92254],[89.97416,24.92279],[89.97151,24.92701],[89.96928,24.92812],[89.96051,24.92935],[89.95143,24.93341],[89.94792,24.93614],[89.94568,24.93927],[89.94318,24.95628],[89.94183,24.95974],[89.93865,24.96271],[89.93099,24.9661],[89.92239,24.9667],[89.90979,24.95907],[89.90727,24.95898],[89.90308,24.96453],[89.90446,24.96917],[89.90552,24.97806],[89.90541,24.9834],[89.90361,24.99151],[89.89994,24.9931],[89.89249,24.99443],[89.89325,25.00206],[89.89211,25.00649],[89.8895,25.01014],[89.89004,25.01357],[89.89416,25.01951],[89.89353,25.02204],[89.88432,25.02155],[89.88103,25.02283],[89.8823,25.03501],[89.88815,25.03719],[89.90504,25.0379],[89.9058,25.04771],[89.90867,25.05136],[89.91691,25.05799],[89.9227,25.065],[89.93108,25.06544],[89.93546,25.06195],[89.93764,25.06124],[89.94239,25.06217],[89.94733,25.06092],[89.95051,25.06187],[89.95698,25.06829],[89.95805,25.06834],[89.97321,25.06072],[89.98107,25.05823],[89.98481,25.05906],[89.98649,25.06071],[89.98866,25.06608],[89.99105,25.06646],[89.99451,25.06602],[90.00682,25.06027],[90.01287,25.06073],[90.01478,25.06347],[90.01443,25.06467],[90.01553,25.06759],[90.02262,25.0693],[90.02512,25.07306],[90.02632,25.0781],[90.02624,25.08166],[90.03197,25.08609],[90.03709,25.0873],[90.04017,25.08663],[90.04218,25.08431],[90.04461,25.0832],[90.04663,25.08369],[90.04841,25.08867],[90.05013,25.08934],[90.05846,25.08535],[90.06117,25.08567],[90.06424,25.08718],[90.0683,25.09265],[90.07149,25.09411],[90.07495,25.09167],[90.07638,25.08894],[90.07712,25.08349]]]}},{"type":"Feature","properties":{"name":"Sreebardi","district_id":"sherpur","pcode":"458990","sql_upazila_id":null,"sql_name_bn":null},"geometry":{"type":"Polygon","coordinates":[[[89.95093,25.29591],[89.95338,25.29565],[89.95659,25.29994],[89.96056,25.30213],[89.96716,25.30333],[89.97124,25.30306],[89.97549,25.30135],[89.97988,25.29821],[89.98344,25.29203],[89.98348,25.28456],[89.98595,25.28236],[89.9957,25.27927],[89.99929,25.27901],[90.00552,25.28314],[90.00828,25.28242],[90.01511,25.27833],[90.01228,25.2721],[90.00869,25.26996],[90.00521,25.26942],[89.99831,25.26168],[89.99484,25.25051],[89.99199,25.2475],[89.97874,25.24499],[89.97622,25.24249],[89.97329,25.23712],[89.97292,25.23287],[89.9754,25.22889],[89.98434,25.22357],[89.98664,25.22011],[89.9851,25.21013],[89.98546,25.20685],[89.99268,25.20345],[89.99677,25.19399],[89.99893,25.18559],[90.00678,25.17799],[90.00579,25.17174],[90.00296,25.16946],[89.99974,25.16944],[89.99538,25.16673],[89.99302,25.1679],[89.99275,25.16957],[89.99146,25.17079],[89.9874,25.16962],[89.98154,25.17232],[89.97871,25.17253],[89.97736,25.1711],[89.97797,25.16857],[89.98668,25.16199],[89.99226,25.15424],[89.99591,25.15151],[89.9977,25.14787],[90.00478,25.14172],[90.01018,25.13873],[90.01304,25.13807],[90.01379,25.13502],[90.01702,25.13097],[90.02668,25.1272],[90.02923,25.12367],[90.03248,25.11376],[90.03457,25.10271],[90.03651,25.09792],[90.03887,25.09434],[90.04307,25.0912],[90.04841,25.08867],[90.04663,25.08369],[90.04461,25.0832],[90.04218,25.08431],[90.04017,25.08663],[90.03709,25.0873],[90.03197,25.08609],[90.02805,25.0836],[90.02624,25.08166],[90.02632,25.0781],[90.02512,25.07306],[90.02262,25.0693],[90.01553,25.06759],[90.01443,25.06467],[90.01478,25.06347],[90.01287,25.06073],[90.00682,25.06027],[89.99451,25.06602],[89.99105,25.06646],[89.98866,25.06608],[89.98649,25.06071],[89.98481,25.05906],[89.98107,25.05823],[89.97321,25.06072],[89.95805,25.06834],[89.95698,25.06829],[89.95051,25.06187],[89.94733,25.06092],[89.94239,25.06217],[89.93764,25.06124],[89.93546,25.06195],[89.93108,25.06544],[89.9227,25.065],[89.91615,25.06944],[89.91795,25.08049],[89.916,25.08297],[89.91582,25.08792],[89.91465,25.09132],[89.91088,25.09629],[89.90791,25.09879],[89.90398,25.10463],[89.90089,25.11385],[89.89792,25.11818],[89.89719,25.12146],[89.89717,25.13036],[89.89565,25.13244],[89.89672,25.13455],[89.90045,25.1375],[89.90293,25.1454],[89.9025,25.14834],[89.90031,25.15117],[89.90394,25.16653],[89.90924,25.17164],[89.91076,25.17428],[89.90965,25.17721],[89.90054,25.18316],[89.89124,25.18209],[89.88838,25.18361],[89.88719,25.19086],[89.88814,25.19579],[89.90143,25.23069],[89.90765,25.25578],[89.91072,25.25994],[89.92206,25.26173],[89.92691,25.26375],[89.92867,25.26616],[89.93096,25.27365],[89.93607,25.28318],[89.94484,25.29247],[89.95093,25.29591]]]}}]}