{"type":"FeatureCollection","features":[{"type":"Feature","properties":{"name":"Belkuchi","district_id":"sirajganj","pcode":"508811","sql_upazila_id":"sirajganj-belkuchi","sql_name_bn":"বেলকুচি"},"geometry":{"type":"Polygon","coordinates":[[[89.7631,24.37251],[89.76013,24.36806],[89.74976,24.3573],[89.74606,24.34918],[89.74612,24.34659],[89.74739,24.34262],[89.74969,24.33985],[89.75375,24.33654],[89.76073,24.33332],[89.76637,24.32845],[89.76851,24.32379],[89.76888,24.30662],[89.77374,24.29825],[89.78117,24.28791],[89.78277,24.28216],[89.78312,24.27553],[89.77372,24.27809],[89.76339,24.28605],[89.75578,24.28535],[89.75523,24.28222],[89.74927,24.27511],[89.73813,24.26419],[89.73308,24.263],[89.72742,24.26337],[89.71938,24.25891],[89.70679,24.25799],[89.70522,24.2571],[89.7026,24.25274],[89.69788,24.25377],[89.69656,24.25248],[89.69548,24.24599],[89.69401,24.24452],[89.6857,24.24253],[89.68492,24.24036],[89.68681,24.23777],[89.6832,24.23815],[89.6784,24.234],[89.67508,24.23696],[89.66083,24.23999],[89.65937,24.23836],[89.65836,24.23375],[89.65531,24.22979],[89.65481,24.2254],[89.65559,24.22323],[89.65467,24.22079],[89.65298,24.22029],[89.65043,24.21987],[89.64902,24.22177],[89.64871,24.22972],[89.64596,24.23693],[89.6339,24.2372],[89.63237,24.23933],[89.63163,24.24408],[89.6299,24.24478],[89.62226,24.24174],[89.62408,24.25125],[89.62084,24.255],[89.62044,24.25706],[89.62197,24.2721],[89.62525,24.27491],[89.62888,24.27573],[89.63346,24.27458],[89.63651,24.2746],[89.63753,24.2755],[89.63833,24.27948],[89.63541,24.28814],[89.63593,24.29348],[89.63795,24.29558],[89.64235,24.2941],[89.64391,24.29437],[89.64455,24.2955],[89.64433,24.29749],[89.64281,24.29974],[89.63579,24.30086],[89.63528,24.30804],[89.63965,24.30891],[89.64368,24.30795],[89.64544,24.30895],[89.64751,24.30578],[89.64912,24.30502],[89.65144,24.30631],[89.65266,24.31331],[89.65948,24.31545],[89.65949,24.3199],[89.6557,24.32434],[89.65854,24.33048],[89.66447,24.33496],[89.67175,24.33475],[89.6735,24.33541],[89.67413,24.33985],[89.67551,24.34092],[89.67725,24.34055],[89.67992,24.33618],[89.68141,24.33565],[89.68791,24.34093],[89.69073,24.34642],[89.69503,24.35065],[89.69556,24.35224],[89.69492,24.35481],[89.69273,24.35884],[89.69304,24.36214],[89.69396,24.36573],[89.69892,24.37217],[89.70039,24.37032],[89.70268,24.36921],[89.70585,24.36888],[89.70718,24.36989],[89.71096,24.37703],[89.71534,24.37783],[89.71864,24.37744],[89.72352,24.3788],[89.72451,24.37868],[89.72726,24.37499],[89.72887,24.37502],[89.73241,24.38159],[89.73396,24.38128],[89.73851,24.3774],[89.7433,24.37694],[89.74464,24.37555],[89.74119,24.36225],[89.74144,24.35808],[89.74385,24.35707],[89.74712,24.35931],[89.7489,24.37293],[89.75259,24.37339],[89.75482,24.37273],[89.75919,24.37364],[89.7631,24.37251]]]}},{"type":"Feature","properties":{"name":"Chauhali","district_id":"sirajganj","pcode":"508827","sql_upazila_id":"sirajganj-chauhali","sql_name_bn":"চৌহালি"},"geometry":{"type":"Polygon","coordinates":[[[89.78312,24.27553],[89.78315,24.26763],[89.78127,24.25513],[89.77683,24.243],[89.77733,24.23542],[89.77991,24.2211],[89.79305,24.17782],[89.79295,24.17379],[89.79257,24.17139],[89.79103,24.16986],[89.7784,24.16721],[89.77625,24.16602],[89.7748,24.16282],[89.77912,24.15601],[89.78231,24.15374],[89.78631,24.15365],[89.798,24.15642],[89.79918,24.15601],[89.8036,24.1434],[89.80581,24.1416],[89.81446,24.13808],[89.81573,24.13653],[89.81197,24.1261],[89.81239,24.10825],[89.81535,24.09467],[89.81882,24.08902],[89.81978,24.08499],[89.81862,24.07387],[89.81619,24.06671],[89.80959,24.0577],[89.79875,24.04907],[89.79393,24.0436],[89.78985,24.04037],[89.7796,24.03512],[89.77899,24.0307],[89.77185,24.02724],[89.76708,24.02585],[89.76297,24.02547],[89.75275,24.02762],[89.74978,24.02597],[89.74625,24.02655],[89.73227,24.01638],[89.72511,24.02096],[89.71208,24.02616],[89.7086,24.02962],[89.70739,24.03163],[89.70671,24.03638],[89.70532,24.03873],[89.70626,24.04289],[89.70094,24.04473],[89.69808,24.04431],[89.6916,24.03943],[89.68995,24.04043],[89.68922,24.04203],[89.68861,24.06275],[89.69503,24.06831],[89.69594,24.07024],[89.69812,24.07038],[89.69878,24.0734],[89.69672,24.07645],[89.70699,24.08099],[89.71212,24.07967],[89.7155,24.08104],[89.71653,24.08326],[89.71678,24.0917],[89.71767,24.09272],[89.72035,24.09331],[89.72497,24.08623],[89.72684,24.08706],[89.73186,24.09789],[89.73387,24.099],[89.7468,24.09917],[89.74978,24.10284],[89.75273,24.1044],[89.75362,24.1057],[89.75246,24.11125],[89.75385,24.11186],[89.75923,24.11053],[89.76514,24.11079],[89.76749,24.11344],[89.76821,24.116],[89.76676,24.11882],[89.76,24.11965],[89.75632,24.12244],[89.75002,24.12498],[89.74747,24.12176],[89.74493,24.12214],[89.74359,24.12392],[89.74235,24.13181],[89.73958,24.13311],[89.73422,24.13295],[89.7271,24.13442],[89.72005,24.14096],[89.71898,24.14383],[89.72095,24.15053],[89.72294,24.1545],[89.72863,24.15642],[89.72945,24.16109],[89.72907,24.16475],[89.73024,24.1677],[89.73473,24.16872],[89.7352,24.17065],[89.73447,24.17534],[89.73351,24.1777],[89.73101,24.1799],[89.72366,24.18034],[89.72269,24.18189],[89.72327,24.19073],[89.71861,24.19484],[89.71534,24.20498],[89.71252,24.20799],[89.7113,24.21325],[89.70845,24.21757],[89.71066,24.22325],[89.70983,24.22657],[89.70807,24.22928],[89.70522,24.22983],[89.7012,24.2276],[89.70016,24.22829],[89.69802,24.23394],[89.68925,24.23582],[89.68492,24.24036],[89.6857,24.24253],[89.68726,24.24335],[89.69401,24.24452],[89.69611,24.24763],[89.69656,24.25248],[89.69788,24.25377],[89.7026,24.25274],[89.70522,24.2571],[89.70679,24.25799],[89.71938,24.25891],[89.72742,24.26337],[89.73308,24.263],[89.73813,24.26419],[89.74927,24.27511],[89.75523,24.28222],[89.75578,24.28535],[89.76339,24.28605],[89.77372,24.27809],[89.78312,24.27553]]]}},{"type":"Feature","properties":{"name":"Kamarkhanda","district_id":"sirajganj","pcode":"508844","sql_upazila_id":null,"sql_name_bn":null},"geometry":{"type":"Polygon","coordinates":[[[89.62206,24.45602],[89.62337,24.45246],[89.62837,24.4528],[89.63067,24.45221],[89.63094,24.44991],[89.62855,24.44389],[89.62907,24.44171],[89.63159,24.43883],[89.63104,24.43581],[89.62813,24.43682],[89.62598,24.43856],[89.62204,24.4381],[89.62177,24.43616],[89.6253,24.43497],[89.62614,24.43325],[89.62383,24.42951],[89.62425,24.4278],[89.62811,24.42758],[89.62572,24.4227],[89.6259,24.41722],[89.63142,24.41515],[89.6356,24.4155],[89.64496,24.42023],[89.64733,24.42037],[89.65177,24.41746],[89.65414,24.4172],[89.65621,24.41832],[89.65286,24.42367],[89.65289,24.42544],[89.65424,24.42816],[89.65613,24.42933],[89.66042,24.42842],[89.66193,24.42926],[89.66096,24.43538],[89.66186,24.43736],[89.66341,24.43728],[89.66601,24.43126],[89.66885,24.42935],[89.67011,24.42704],[89.66947,24.42163],[89.67068,24.41933],[89.67539,24.42098],[89.67986,24.42064],[89.6801,24.41561],[89.68158,24.41445],[89.687,24.41472],[89.69165,24.41335],[89.69231,24.41151],[89.68775,24.40689],[89.68775,24.39919],[89.68967,24.38992],[89.68773,24.3855],[89.68837,24.3824],[89.69124,24.37883],[89.69462,24.38381],[89.69712,24.38007],[89.69979,24.3798],[89.70145,24.37795],[89.70142,24.37601],[89.69396,24.36573],[89.69273,24.35884],[89.69556,24.35224],[89.69503,24.35065],[89.69003,24.34546],[89.68924,24.34251],[89.68141,24.33565],[89.67992,24.33618],[89.67725,24.34055],[89.67551,24.34092],[89.67413,24.33985],[89.6735,24.33541],[89.67175,24.33475],[89.66447,24.33496],[89.65854,24.33048],[89.6557,24.32434],[89.65949,24.3199],[89.65948,24.31545],[89.65266,24.31331],[89.65144,24.30631],[89.64912,24.30502],[89.64751,24.30578],[89.64544,24.30895],[89.64368,24.30795],[89.63965,24.30891],[89.63528,24.30804],[89.63464,24.3116],[89.62983,24.32227],[89.62769,24.33343],[89.62747,24.33964],[89.62449,24.34825],[89.62379,24.35961],[89.6204,24.36645],[89.6207,24.36941],[89.6265,24.38206],[89.62605,24.38565],[89.62299,24.38547],[89.62116,24.38401],[89.6181,24.37538],[89.61571,24.37329],[89.61427,24.37309],[89.61256,24.37505],[89.61279,24.37835],[89.61446,24.38113],[89.61391,24.38638],[89.6094,24.38884],[89.60307,24.39086],[89.5983,24.3968],[89.59045,24.401],[89.59079,24.40311],[89.59636,24.40846],[89.59628,24.4116],[89.59458,24.41504],[89.58979,24.41974],[89.58932,24.42253],[89.59246,24.43162],[89.59116,24.43649],[89.59445,24.4397],[89.59829,24.44656],[89.60121,24.44989],[89.60931,24.45418],[89.61543,24.4549],[89.62206,24.45602]]]}},{"type":"Feature","properties":{"name":"Kazipur","district_id":"sirajganj","pcode":"508850","sql_upazila_id":"sirajganj-kazipur","sql_name_bn":"কাজীপুর"},"geometry":{"type":"Polygon","coordinates":[[[89.77572,24.77642],[89.78008,24.77352],[89.78374,24.76891],[89.78518,24.76495],[89.78605,24.76094],[89.78477,24.74812],[89.78693,24.7458],[89.7914,24.74403],[89.79384,24.74063],[89.79355,24.73784],[89.78993,24.73109],[89.78822,24.73003],[89.78148,24.73007],[89.77883,24.7284],[89.7794,24.72513],[89.78108,24.72112],[89.78848,24.71069],[89.79697,24.70737],[89.79694,24.69396],[89.79976,24.69067],[89.80219,24.69001],[89.80553,24.68431],[89.80207,24.67865],[89.79734,24.67632],[89.79395,24.67574],[89.79047,24.67305],[89.78944,24.67095],[89.79073,24.6622],[89.78962,24.65126],[89.79058,24.63412],[89.78991,24.63099],[89.78606,24.62865],[89.77756,24.62781],[89.77411,24.62659],[89.77132,24.62491],[89.76917,24.62232],[89.76888,24.6161],[89.7726,24.60726],[89.76532,24.60872],[89.75851,24.61242],[89.75346,24.61267],[89.7411,24.60929],[89.73896,24.60777],[89.73728,24.60437],[89.73672,24.59674],[89.73737,24.59393],[89.74109,24.58897],[89.74112,24.58663],[89.7401,24.58556],[89.73371,24.58428],[89.73073,24.58494],[89.72878,24.58748],[89.72829,24.59268],[89.72738,24.59435],[89.72901,24.59838],[89.7285,24.60147],[89.72578,24.60738],[89.72313,24.60936],[89.72094,24.60887],[89.7196,24.60729],[89.7199,24.60266],[89.71616,24.6022],[89.70655,24.60284],[89.70639,24.60079],[89.70832,24.59677],[89.70544,24.59618],[89.70084,24.5975],[89.69645,24.59202],[89.69318,24.59069],[89.68797,24.58454],[89.68737,24.58226],[89.68796,24.57552],[89.6915,24.56646],[89.69189,24.56366],[89.68964,24.56015],[89.68529,24.55992],[89.68311,24.56098],[89.68131,24.56962],[89.67925,24.56981],[89.67654,24.56855],[89.67425,24.56885],[89.67302,24.57018],[89.67225,24.57259],[89.66862,24.57663],[89.66824,24.57994],[89.66906,24.58479],[89.66786,24.58777],[89.66282,24.59256],[89.66125,24.5927],[89.65601,24.58883],[89.65183,24.5886],[89.64835,24.59778],[89.65368,24.6037],[89.65311,24.60639],[89.64707,24.61189],[89.6449,24.61289],[89.64091,24.60916],[89.63885,24.60868],[89.63736,24.60956],[89.63083,24.6105],[89.62772,24.61191],[89.61929,24.61978],[89.6148,24.62017],[89.60946,24.62247],[89.60121,24.61733],[89.60006,24.61574],[89.59939,24.61261],[89.59181,24.61487],[89.5881,24.618],[89.584,24.61879],[89.58304,24.6216],[89.57721,24.61956],[89.57092,24.62106],[89.56589,24.61838],[89.56308,24.61847],[89.5593,24.6208],[89.55355,24.62024],[89.55121,24.62187],[89.55087,24.62433],[89.55221,24.6266],[89.55553,24.6269],[89.5571,24.63219],[89.55331,24.64165],[89.5523,24.64583],[89.55258,24.64782],[89.56244,24.65575],[89.55077,24.656],[89.54916,24.65734],[89.55352,24.66927],[89.55368,24.67195],[89.55119,24.67637],[89.55244,24.68086],[89.55416,24.68318],[89.55624,24.68424],[89.55789,24.69084],[89.56146,24.69171],[89.56245,24.69535],[89.55796,24.69957],[89.55608,24.70336],[89.55649,24.70598],[89.55814,24.70848],[89.56094,24.71067],[89.56383,24.71229],[89.56468,24.71125],[89.5677,24.69974],[89.57514,24.7044],[89.57715,24.70482],[89.58173,24.70162],[89.58516,24.70164],[89.59023,24.70237],[89.59634,24.70544],[89.6023,24.6992],[89.60404,24.69855],[89.6041,24.69358],[89.60566,24.6898],[89.60862,24.68696],[89.61098,24.68659],[89.61263,24.69148],[89.61687,24.69205],[89.62061,24.69115],[89.62761,24.6869],[89.62932,24.68864],[89.63241,24.69471],[89.63226,24.69723],[89.63311,24.69967],[89.63508,24.70164],[89.64607,24.70561],[89.64697,24.70685],[89.647,24.70942],[89.64598,24.71212],[89.64376,24.71397],[89.63928,24.71431],[89.63554,24.71602],[89.63574,24.71675],[89.64018,24.72081],[89.64458,24.72286],[89.64744,24.72169],[89.64933,24.72263],[89.65944,24.72981],[89.66129,24.73258],[89.66,24.73756],[89.6563,24.74497],[89.65827,24.74768],[89.66553,24.74839],[89.66743,24.74962],[89.66822,24.75229],[89.66631,24.75437],[89.66547,24.75678],[89.66666,24.7603],[89.67268,24.76571],[89.67493,24.7699],[89.67568,24.77303],[89.67501,24.77892],[89.67587,24.78216],[89.67872,24.78463],[89.68436,24.78547],[89.70273,24.78054],[89.71581,24.78129],[89.71996,24.78295],[89.72196,24.77904],[89.72943,24.77706],[89.73215,24.77554],[89.73568,24.76927],[89.73866,24.76815],[89.73999,24.7691],[89.74188,24.7741],[89.74503,24.77896],[89.75304,24.77549],[89.76077,24.76716],[89.76638,24.77405],[89.77038,24.77742],[89.77357,24.77743],[89.77572,24.77642]]]}},{"type":"Feature","properties":{"name":"Raiganj","district_id":"sirajganj","pcode":"508861","sql_upazila_id":null,"sql_name_bn":null},"geometry":{"type":"Polygon","coordinates":[[[89.60249,24.56908],[89.61192,24.56605],[89.61243,24.56234],[89.61461,24.55774],[89.61428,24.55649],[89.60598,24.55648],[89.60153,24.55551],[89.59964,24.554],[89.59942,24.55171],[89.60633,24.54649],[89.60592,24.54382],[89.59944,24.53637],[89.59837,24.53142],[89.60099,24.52316],[89.60603,24.51825],[89.61019,24.51266],[89.61254,24.50727],[89.61578,24.4949],[89.61768,24.49231],[89.62157,24.48923],[89.6174,24.48638],[89.61296,24.48558],[89.61313,24.48375],[89.62344,24.47352],[89.62439,24.47008],[89.62004,24.45884],[89.62206,24.45602],[89.60931,24.45418],[89.60121,24.44989],[89.59829,24.44656],[89.59445,24.4397],[89.59116,24.43649],[89.58675,24.43797],[89.57502,24.43669],[89.57068,24.43937],[89.56474,24.43738],[89.5576,24.44375],[89.5518,24.44336],[89.54639,24.43977],[89.54325,24.44244],[89.5415,24.44177],[89.53829,24.43582],[89.53699,24.43601],[89.53533,24.43802],[89.53396,24.43798],[89.53213,24.43641],[89.53178,24.43361],[89.5344,24.42976],[89.53224,24.4275],[89.53051,24.42741],[89.52809,24.42407],[89.52292,24.43001],[89.52046,24.43044],[89.51608,24.42935],[89.51688,24.42027],[89.51622,24.418],[89.51196,24.41611],[89.50934,24.41585],[89.50762,24.41787],[89.50855,24.42242],[89.50674,24.43038],[89.50758,24.43293],[89.50853,24.43349],[89.51212,24.43168],[89.51331,24.43252],[89.51354,24.43566],[89.51264,24.43824],[89.51044,24.44089],[89.5063,24.44356],[89.50329,24.44223],[89.49842,24.43755],[89.4958,24.43775],[89.4916,24.43563],[89.4871,24.43534],[89.48447,24.43399],[89.48351,24.43207],[89.48351,24.42734],[89.48268,24.42621],[89.47987,24.4259],[89.47565,24.42669],[89.47026,24.42972],[89.46796,24.42986],[89.46532,24.42841],[89.45685,24.42839],[89.45159,24.42571],[89.45002,24.42607],[89.44632,24.42902],[89.44452,24.42933],[89.44118,24.42743],[89.43934,24.42882],[89.43739,24.43215],[89.43834,24.43773],[89.43491,24.44279],[89.43798,24.44852],[89.44024,24.44952],[89.44198,24.45401],[89.43925,24.45883],[89.43855,24.46232],[89.44014,24.46533],[89.44454,24.46779],[89.4465,24.46988],[89.44774,24.4738],[89.44888,24.47504],[89.45246,24.47609],[89.45353,24.47745],[89.45652,24.48654],[89.45434,24.48799],[89.45013,24.4849],[89.44607,24.48408],[89.44443,24.48251],[89.44225,24.4782],[89.44036,24.4772],[89.43414,24.47801],[89.4276,24.48362],[89.42467,24.48376],[89.41941,24.48194],[89.41325,24.48218],[89.41172,24.48476],[89.41364,24.4884],[89.41718,24.49207],[89.41837,24.49667],[89.42301,24.50376],[89.42374,24.50723],[89.42267,24.51055],[89.41492,24.5192],[89.4126,24.52744],[89.40689,24.5295],[89.40569,24.53254],[89.40236,24.53617],[89.40152,24.53881],[89.40131,24.54582],[89.40051,24.54755],[89.39809,24.54854],[89.39271,24.54689],[89.39178,24.54724],[89.39189,24.5505],[89.39524,24.55788],[89.39762,24.55506],[89.4033,24.55482],[89.40668,24.55581],[89.40958,24.55795],[89.41196,24.5638],[89.41535,24.56513],[89.42002,24.56456],[89.42832,24.5603],[89.43079,24.55811],[89.43031,24.55486],[89.43106,24.55377],[89.44783,24.55341],[89.45354,24.55192],[89.45904,24.54786],[89.46599,24.54983],[89.47283,24.54793],[89.47472,24.54922],[89.47343,24.55448],[89.47462,24.55589],[89.48371,24.5587],[89.49324,24.55739],[89.49751,24.55928],[89.50063,24.55947],[89.51765,24.55339],[89.51964,24.55331],[89.52142,24.55609],[89.52355,24.5564],[89.52716,24.55043],[89.53078,24.55153],[89.53317,24.54836],[89.53486,24.54862],[89.53601,24.55055],[89.52997,24.56015],[89.53009,24.56415],[89.5331,24.5652],[89.536,24.5631],[89.54102,24.55597],[89.54722,24.5535],[89.54985,24.54987],[89.55266,24.55],[89.55537,24.5515],[89.55328,24.55416],[89.55537,24.55671],[89.56211,24.55623],[89.56464,24.55385],[89.56799,24.54828],[89.57041,24.54791],[89.57964,24.55145],[89.58498,24.55475],[89.59396,24.55755],[89.59425,24.56091],[89.59857,24.5661],[89.60249,24.56908]]]}},{"type":"Feature","properties":{"name":"Shahjadpur","district_id":"sirajganj","pcode":"508867","sql_upazila_id":"sirajganj-shahjadpur","sql_name_bn":"শাহজাদপুর"},"geometry":{"type":"Polygon","coordinates":[[[89.68681,24.23777],[89.68925,24.23582],[89.69802,24.23394],[89.70016,24.22829],[89.7012,24.2276],[89.70522,24.22983],[89.70807,24.22928],[89.70983,24.22657],[89.71066,24.22325],[89.70845,24.21757],[89.7113,24.21325],[89.71252,24.20799],[89.71534,24.20498],[89.71861,24.19484],[89.72327,24.19073],[89.72269,24.18189],[89.72366,24.18034],[89.73101,24.1799],[89.73351,24.1777],[89.73447,24.17534],[89.7352,24.17065],[89.73473,24.16872],[89.73024,24.1677],[89.72907,24.16475],[89.72945,24.16109],[89.72863,24.15642],[89.72294,24.1545],[89.72095,24.15053],[89.71898,24.14383],[89.72005,24.14096],[89.7271,24.13442],[89.73422,24.13295],[89.73958,24.13311],[89.74235,24.13181],[89.74359,24.12392],[89.74493,24.12214],[89.74747,24.12176],[89.75002,24.12498],[89.75632,24.12244],[89.76,24.11965],[89.76676,24.11882],[89.76821,24.116],[89.76749,24.11344],[89.76514,24.11079],[89.75923,24.11053],[89.75385,24.11186],[89.75246,24.11125],[89.75362,24.1057],[89.75273,24.1044],[89.74978,24.10284],[89.7468,24.09917],[89.73387,24.099],[89.73186,24.09789],[89.72684,24.08706],[89.72497,24.08623],[89.72035,24.09331],[89.71767,24.09272],[89.71678,24.0917],[89.71653,24.08326],[89.7155,24.08104],[89.71212,24.07967],[89.70699,24.08099],[89.69672,24.07645],[89.69878,24.0734],[89.69812,24.07038],[89.69594,24.07024],[89.69503,24.06831],[89.68861,24.06275],[89.68382,24.06715],[89.68147,24.07123],[89.66168,24.08569],[89.6524,24.08838],[89.64525,24.09155],[89.63586,24.0923],[89.63253,24.09354],[89.63008,24.0958],[89.62519,24.09763],[89.6233,24.09959],[89.62138,24.1043],[89.61562,24.10614],[89.60118,24.10883],[89.59834,24.11035],[89.59585,24.11403],[89.59375,24.11503],[89.58537,24.11633],[89.58366,24.11823],[89.58131,24.11935],[89.57784,24.11985],[89.57451,24.12148],[89.57301,24.12185],[89.57084,24.12073],[89.56949,24.11807],[89.56618,24.11782],[89.56322,24.11923],[89.55947,24.12578],[89.56178,24.12718],[89.56558,24.12747],[89.56733,24.12865],[89.56744,24.13098],[89.56529,24.13335],[89.55548,24.13838],[89.55385,24.13692],[89.55242,24.13283],[89.55061,24.13256],[89.54976,24.13799],[89.54833,24.13847],[89.5444,24.13755],[89.53854,24.1411],[89.53625,24.13662],[89.53438,24.1363],[89.53273,24.13899],[89.52839,24.15708],[89.53343,24.16592],[89.52869,24.16969],[89.52834,24.1714],[89.52956,24.17338],[89.53722,24.17439],[89.53794,24.17711],[89.53624,24.17964],[89.52481,24.18525],[89.52224,24.18835],[89.52222,24.19139],[89.5237,24.19457],[89.52911,24.19907],[89.52951,24.20094],[89.52774,24.20279],[89.52211,24.20526],[89.52728,24.21501],[89.52681,24.21672],[89.52239,24.22117],[89.51948,24.22589],[89.51897,24.22989],[89.52022,24.23432],[89.52695,24.23943],[89.52985,24.24619],[89.53543,24.24492],[89.54153,24.24502],[89.54689,24.24975],[89.55323,24.25378],[89.55251,24.25584],[89.54992,24.25724],[89.54852,24.25926],[89.5509,24.26054],[89.55853,24.25879],[89.56271,24.25954],[89.56636,24.25773],[89.56961,24.25855],[89.57168,24.26388],[89.574,24.26465],[89.5781,24.26477],[89.58604,24.26268],[89.5935,24.26185],[89.59507,24.26302],[89.59679,24.26608],[89.5999,24.27386],[89.60146,24.27401],[89.60263,24.27332],[89.60297,24.27091],[89.60198,24.26762],[89.59745,24.25991],[89.59749,24.25415],[89.60656,24.24907],[89.60894,24.24585],[89.6087,24.24157],[89.6132,24.23917],[89.61606,24.23868],[89.6299,24.24478],[89.63163,24.24408],[89.63237,24.23933],[89.6339,24.2372],[89.64596,24.23693],[89.64871,24.22972],[89.64902,24.22177],[89.65043,24.21987],[89.65467,24.22079],[89.65559,24.22323],[89.65481,24.2254],[89.65531,24.22979],[89.65836,24.23375],[89.65937,24.23836],[89.66083,24.23999],[89.67508,24.23696],[89.6784,24.234],[89.6832,24.23815],[89.68525,24.23825],[89.68681,24.23777]]]}},{"type":"Feature","properties":{"name":"Sirajganj S.","district_id":"sirajganj","pcode":"508878","sql_upazila_id":null,"sql_name_bn":null},"geometry":{"type":"Polygon","coordinates":[[[89.78384,24.57277],[89.78132,24.56853],[89.77432,24.56475],[89.7718,24.56185],[89.77116,24.55846],[89.77178,24.55294],[89.77038,24.55014],[89.76534,24.54679],[89.75336,24.54407],[89.74583,24.53858],[89.74716,24.52961],[89.74639,24.5237],[89.74416,24.52206],[89.73975,24.52398],[89.73667,24.52378],[89.73384,24.52082],[89.7337,24.51778],[89.73813,24.51505],[89.74672,24.51262],[89.74711,24.51016],[89.75053,24.51127],[89.75398,24.50687],[89.75536,24.50193],[89.75535,24.499],[89.75388,24.49522],[89.74638,24.4834],[89.74562,24.48071],[89.7458,24.4783],[89.74718,24.478],[89.75433,24.48063],[89.75534,24.47879],[89.74641,24.46996],[89.73972,24.46779],[89.73905,24.45625],[89.73138,24.45545],[89.72182,24.44674],[89.72112,24.44342],[89.7238,24.44018],[89.72648,24.44016],[89.72866,24.43693],[89.73041,24.42411],[89.73411,24.41191],[89.73685,24.40649],[89.7403,24.40411],[89.74628,24.40515],[89.75393,24.40801],[89.75578,24.40697],[89.76254,24.37992],[89.7631,24.37251],[89.75919,24.37364],[89.75482,24.37273],[89.75259,24.37339],[89.7489,24.37293],[89.74712,24.35931],[89.74385,24.35707],[89.74144,24.35808],[89.74119,24.36225],[89.74464,24.37555],[89.7433,24.37694],[89.73851,24.3774],[89.73396,24.38128],[89.73241,24.38159],[89.72887,24.37502],[89.72726,24.37499],[89.72451,24.37868],[89.71864,24.37744],[89.71265,24.37758],[89.71096,24.37703],[89.70718,24.36989],[89.70585,24.36888],[89.70039,24.37032],[89.69892,24.37217],[89.70142,24.37601],[89.70145,24.37795],[89.69979,24.3798],[89.69712,24.38007],[89.69462,24.38381],[89.69124,24.37883],[89.68837,24.3824],[89.68773,24.3855],[89.68967,24.38992],[89.68775,24.39919],[89.68775,24.40689],[89.69231,24.41151],[89.69165,24.41335],[89.687,24.41472],[89.68158,24.41445],[89.6801,24.41561],[89.67986,24.42064],[89.67539,24.42098],[89.67068,24.41933],[89.66947,24.42163],[89.67011,24.42704],[89.66885,24.42935],[89.66601,24.43126],[89.66341,24.43728],[89.66186,24.43736],[89.66096,24.43538],[89.66193,24.42926],[89.66042,24.42842],[89.65613,24.42933],[89.65424,24.42816],[89.65289,24.42544],[89.65286,24.42367],[89.65621,24.41832],[89.65414,24.4172],[89.65177,24.41746],[89.64733,24.42037],[89.64496,24.42023],[89.6356,24.4155],[89.63142,24.41515],[89.6259,24.41722],[89.62572,24.4227],[89.62811,24.42758],[89.62425,24.4278],[89.62383,24.42951],[89.62614,24.43325],[89.6253,24.43497],[89.62177,24.43616],[89.62204,24.4381],[89.62324,24.43871],[89.62598,24.43856],[89.62813,24.43682],[89.63104,24.43581],[89.63175,24.43701],[89.63159,24.43883],[89.62907,24.44171],[89.62855,24.44389],[89.63094,24.44991],[89.63067,24.45221],[89.62837,24.4528],[89.62337,24.45246],[89.62004,24.45884],[89.62439,24.47008],[89.62344,24.47352],[89.61313,24.48375],[89.61296,24.48558],[89.6174,24.48638],[89.62157,24.48923],[89.61768,24.49231],[89.61578,24.4949],[89.61254,24.50727],[89.61019,24.51266],[89.60603,24.51825],[89.60099,24.52316],[89.59837,24.53142],[89.59944,24.53637],[89.60592,24.54382],[89.60633,24.54649],[89.59942,24.55171],[89.59964,24.554],[89.60153,24.55551],[89.60598,24.55648],[89.61428,24.55649],[89.61461,24.55774],[89.61243,24.56234],[89.61192,24.56605],[89.60249,24.56908],[89.60201,24.57953],[89.60468,24.5868],[89.60294,24.59521],[89.60064,24.60038],[89.60111,24.60665],[89.59866,24.60948],[89.60006,24.61574],[89.60121,24.61733],[89.60946,24.62247],[89.6148,24.62017],[89.61929,24.61978],[89.62772,24.61191],[89.63083,24.6105],[89.63736,24.60956],[89.63885,24.60868],[89.64091,24.60916],[89.6449,24.61289],[89.64707,24.61189],[89.65311,24.60639],[89.65368,24.6037],[89.64835,24.59778],[89.65183,24.5886],[89.65601,24.58883],[89.66125,24.5927],[89.66282,24.59256],[89.66786,24.58777],[89.66906,24.58479],[89.66824,24.57994],[89.66862,24.57663],[89.67225,24.57259],[89.67302,24.57018],[89.67425,24.56885],[89.67654,24.56855],[89.67925,24.56981],[89.68131,24.56962],[89.68311,24.56098],[89.68529,24.55992],[89.68964,24.56015],[89.69189,24.56366],[89.6915,24.56646],[89.68796,24.57552],[89.68737,24.58226],[89.68797,24.58454],[89.69318,24.59069],[89.69645,24.59202],[89.70084,24.5975],[89.70544,24.59618],[89.70832,24.59677],[89.70639,24.60079],[89.70655,24.60284],[89.71616,24.6022],[89.7199,24.60266],[89.7196,24.60729],[89.72094,24.60887],[89.72313,24.60936],[89.72578,24.60738],[89.7285,24.60147],[89.72901,24.59838],[89.72738,24.59435],[89.72829,24.59268],[89.72878,24.58748],[89.73073,24.58494],[89.73371,24.58428],[89.7401,24.58556],[89.74112,24.58663],[89.74109,24.58897],[89.73737,24.59393],[89.73672,24.59674],[89.73728,24.60437],[89.73896,24.60777],[89.7411,24.60929],[89.75346,24.61267],[89.75851,24.61242],[89.76532,24.60872],[89.7726,24.60726],[89.77919,24.5984],[89.78217,24.58888],[89.78203,24.58696],[89.78329,24.58503],[89.78373,24.57706],[89.78384,24.57277]]]}},{"type":"Feature","properties":{"name":"Tarash","district_id":"sirajganj","pcode":"508889","sql_upazila_id":"sirajganj-tarash","sql_name_bn":"তাড়াশ"},"geometry":{"type":"Polygon","coordinates":[[[89.39524,24.55788],[89.39189,24.5505],[89.39178,24.54724],[89.39271,24.54689],[89.39809,24.54854],[89.40051,24.54755],[89.40131,24.54582],[89.40152,24.53881],[89.40236,24.53617],[89.40569,24.53254],[89.40689,24.5295],[89.4126,24.52744],[89.41492,24.5192],[89.42267,24.51055],[89.42374,24.50723],[89.42301,24.50376],[89.41837,24.49667],[89.41718,24.49207],[89.41364,24.4884],[89.41172,24.48476],[89.41325,24.48218],[89.41941,24.48194],[89.42467,24.48376],[89.4276,24.48362],[89.43414,24.47801],[89.44036,24.4772],[89.44225,24.4782],[89.44443,24.48251],[89.44607,24.48408],[89.45013,24.4849],[89.45434,24.48799],[89.45652,24.48654],[89.45353,24.47745],[89.45246,24.47609],[89.44888,24.47504],[89.44774,24.4738],[89.4465,24.46988],[89.44454,24.46779],[89.44014,24.46533],[89.43855,24.46232],[89.43925,24.45883],[89.44198,24.45401],[89.44024,24.44952],[89.43798,24.44852],[89.43491,24.44279],[89.43834,24.43773],[89.43843,24.43539],[89.43739,24.43215],[89.43433,24.42756],[89.42719,24.4249],[89.42661,24.42307],[89.43392,24.41564],[89.43524,24.4118],[89.43407,24.40799],[89.42991,24.40439],[89.42715,24.40305],[89.4239,24.40234],[89.41506,24.40358],[89.41242,24.40162],[89.41194,24.39854],[89.41936,24.39446],[89.42773,24.39511],[89.43046,24.39462],[89.43237,24.39277],[89.43247,24.39123],[89.42957,24.38847],[89.42059,24.38298],[89.42001,24.38167],[89.42254,24.38016],[89.42615,24.37972],[89.42875,24.37832],[89.42915,24.37558],[89.42754,24.372],[89.42441,24.37055],[89.41856,24.37079],[89.41585,24.36888],[89.41402,24.36633],[89.41367,24.36439],[89.41782,24.36206],[89.41618,24.35649],[89.41429,24.35469],[89.40378,24.356],[89.39963,24.35274],[89.397,24.34712],[89.38891,24.34772],[89.37729,24.3547],[89.37095,24.36042],[89.36511,24.36237],[89.36161,24.36137],[89.35508,24.35671],[89.35036,24.35841],[89.34202,24.35833],[89.33649,24.35947],[89.33035,24.35669],[89.32121,24.35667],[89.31734,24.35944],[89.30991,24.36301],[89.30389,24.36992],[89.29556,24.3709],[89.29256,24.37475],[89.28796,24.3864],[89.28745,24.3906],[89.28808,24.39713],[89.29035,24.40538],[89.28539,24.40654],[89.28499,24.40967],[89.28771,24.41984],[89.28687,24.42241],[89.2849,24.42397],[89.27634,24.42711],[89.27477,24.43088],[89.27229,24.43257],[89.26925,24.43284],[89.26212,24.42943],[89.25937,24.42987],[89.25388,24.43312],[89.25364,24.43788],[89.25613,24.44293],[89.26094,24.44859],[89.27026,24.45123],[89.27396,24.45314],[89.27555,24.45535],[89.27773,24.46109],[89.28196,24.46481],[89.28188,24.46915],[89.28328,24.47079],[89.28128,24.4756],[89.28249,24.47707],[89.28187,24.48284],[89.28343,24.48825],[89.29053,24.49251],[89.29641,24.49884],[89.29972,24.5048],[89.30438,24.50703],[89.30837,24.5131],[89.31032,24.5141],[89.31042,24.5177],[89.31424,24.51857],[89.31907,24.53171],[89.31936,24.53501],[89.32514,24.53723],[89.32562,24.54054],[89.32478,24.54363],[89.32581,24.54561],[89.3291,24.5445],[89.32982,24.54683],[89.32924,24.55019],[89.33152,24.55297],[89.33555,24.55082],[89.33682,24.55332],[89.33734,24.55936],[89.34052,24.56378],[89.34687,24.56793],[89.34905,24.56762],[89.35175,24.56377],[89.35714,24.56109],[89.36726,24.56138],[89.37183,24.55887],[89.37532,24.55815],[89.38,24.55833],[89.38327,24.55978],[89.38833,24.56058],[89.39169,24.56003],[89.39524,24.55788]]]}},{"type":"Feature","properties":{"name":"Ullahpara","district_id":"sirajganj","pcode":"508894","sql_upazila_id":null,"sql_name_bn":null},"geometry":{"type":"Polygon","coordinates":[[[89.43739,24.43215],[89.43934,24.42882],[89.44118,24.42743],[89.44452,24.42933],[89.44632,24.42902],[89.45002,24.42607],[89.45159,24.42571],[89.45685,24.42839],[89.46532,24.42841],[89.46796,24.42986],[89.47026,24.42972],[89.47565,24.42669],[89.47987,24.4259],[89.48268,24.42621],[89.48351,24.42734],[89.48351,24.43207],[89.48447,24.43399],[89.4871,24.43534],[89.4916,24.43563],[89.4958,24.43775],[89.49842,24.43755],[89.50329,24.44223],[89.5063,24.44356],[89.51044,24.44089],[89.51264,24.43824],[89.51354,24.43566],[89.51331,24.43252],[89.51212,24.43168],[89.50853,24.43349],[89.50758,24.43293],[89.50674,24.43038],[89.50855,24.42242],[89.50762,24.41787],[89.50934,24.41585],[89.51465,24.41681],[89.51622,24.418],[89.51688,24.42027],[89.51608,24.42935],[89.52046,24.43044],[89.52292,24.43001],[89.52809,24.42407],[89.53051,24.42741],[89.53224,24.4275],[89.5344,24.42976],[89.53178,24.43361],[89.53213,24.43641],[89.53396,24.43798],[89.53533,24.43802],[89.53699,24.43601],[89.53829,24.43582],[89.5415,24.44177],[89.54325,24.44244],[89.54639,24.43977],[89.5518,24.44336],[89.5576,24.44375],[89.56474,24.43738],[89.57068,24.43937],[89.57502,24.43669],[89.58675,24.43797],[89.59116,24.43649],[89.59246,24.43162],[89.58932,24.42253],[89.58979,24.41974],[89.59458,24.41504],[89.59628,24.4116],[89.59636,24.40846],[89.59079,24.40311],[89.59045,24.401],[89.5983,24.3968],[89.60307,24.39086],[89.6094,24.38884],[89.61391,24.38638],[89.61446,24.38113],[89.61279,24.37835],[89.61256,24.37505],[89.61427,24.37309],[89.61571,24.37329],[89.6181,24.37538],[89.62116,24.38401],[89.62299,24.38547],[89.62605,24.38565],[89.6265,24.38206],[89.6207,24.36941],[89.6204,24.36645],[89.62379,24.35961],[89.62449,24.34825],[89.62747,24.33964],[89.62769,24.33343],[89.62983,24.32227],[89.63464,24.3116],[89.63579,24.30086],[89.64281,24.29974],[89.64433,24.29749],[89.64391,24.29437],[89.64235,24.2941],[89.63795,24.29558],[89.63593,24.29348],[89.63541,24.28814],[89.63833,24.27948],[89.63753,24.2755],[89.63651,24.2746],[89.63346,24.27458],[89.62888,24.27573],[89.62525,24.27491],[89.62197,24.2721],[89.62044,24.25706],[89.62084,24.255],[89.62408,24.25125],[89.62226,24.24174],[89.61606,24.23868],[89.6132,24.23917],[89.6087,24.24157],[89.60894,24.24585],[89.60656,24.24907],[89.59749,24.25415],[89.59745,24.25991],[89.60198,24.26762],[89.60297,24.27091],[89.60263,24.27332],[89.5999,24.27386],[89.59679,24.26608],[89.59507,24.26302],[89.5935,24.26185],[89.58604,24.26268],[89.5781,24.26477],[89.574,24.26465],[89.57168,24.26388],[89.56961,24.25855],[89.56636,24.25773],[89.56271,24.25954],[89.55853,24.25879],[89.5509,24.26054],[89.54852,24.25926],[89.54992,24.25724],[89.55251,24.25584],[89.55323,24.25378],[89.54689,24.24975],[89.54153,24.24502],[89.53543,24.24492],[89.52985,24.24619],[89.52695,24.23943],[89.52022,24.23432],[89.51897,24.22989],[89.51948,24.22589],[89.52239,24.22117],[89.52681,24.21672],[89.52728,24.21501],[89.52211,24.20526],[89.5156,24.21172],[89.51112,24.21994],[89.50914,24.22104],[89.506,24.21863],[89.50425,24.21848],[89.50154,24.22011],[89.49959,24.22298],[89.49694,24.22495],[89.49415,24.22584],[89.49065,24.22503],[89.4898,24.2219],[89.48972,24.21203],[89.48065,24.21271],[89.47868,24.21393],[89.47173,24.21583],[89.47043,24.22464],[89.46768,24.22832],[89.46751,24.23014],[89.46963,24.23121],[89.47871,24.2291],[89.48021,24.2303],[89.47916,24.23965],[89.47694,24.2415],[89.47376,24.24075],[89.471,24.23895],[89.45884,24.23715],[89.45174,24.23746],[89.44933,24.23806],[89.44817,24.2395],[89.44888,24.24195],[89.45693,24.24316],[89.45795,24.24509],[89.45792,24.24766],[89.45931,24.2493],[89.46162,24.24956],[89.46195,24.25526],[89.46445,24.2602],[89.46408,24.27001],[89.4628,24.27151],[89.46012,24.27166],[89.45759,24.27334],[89.45737,24.27603],[89.45534,24.27696],[89.45296,24.27648],[89.45046,24.27091],[89.44724,24.27186],[89.4453,24.2716],[89.44377,24.26876],[89.44319,24.26255],[89.44218,24.26142],[89.43726,24.26142],[89.43322,24.25719],[89.42859,24.25952],[89.42711,24.26211],[89.42742,24.26513],[89.43352,24.27487],[89.43355,24.27675],[89.42963,24.28188],[89.43004,24.2845],[89.42919,24.28622],[89.42405,24.29262],[89.42599,24.29869],[89.42236,24.30113],[89.4217,24.30342],[89.42356,24.30722],[89.42239,24.31249],[89.42428,24.31458],[89.42759,24.31517],[89.42892,24.31686],[89.42882,24.3188],[89.42507,24.32256],[89.42254,24.32892],[89.41929,24.33278],[89.41749,24.33297],[89.41035,24.33008],[89.40674,24.32949],[89.40296,24.3317],[89.4014,24.33606],[89.40232,24.34455],[89.40141,24.34633],[89.397,24.34712],[89.39963,24.35274],[89.40378,24.356],[89.41429,24.35469],[89.41618,24.35649],[89.41779,24.3603],[89.41782,24.36206],[89.41367,24.36439],[89.41402,24.36633],[89.41585,24.36888],[89.41856,24.37079],[89.42441,24.37055],[89.42754,24.372],[89.42915,24.37558],[89.42875,24.37832],[89.42615,24.37972],[89.42254,24.38016],[89.42001,24.38167],[89.42059,24.38298],[89.42957,24.38847],[89.43247,24.39123],[89.43237,24.39277],[89.43046,24.39462],[89.42773,24.39511],[89.41936,24.39446],[89.41194,24.39854],[89.41242,24.40162],[89.41506,24.40358],[89.4239,24.40234],[89.42715,24.40305],[89.42991,24.40439],[89.43407,24.40799],[89.43524,24.4118],[89.43392,24.41564],[89.42661,24.42307],[89.42719,24.4249],[89.43433,24.42756],[89.43739,24.43215]]]}}]}