{"type":"FeatureCollection","features":[{"type":"Feature","properties":{"name":"Bishwamvarpur","district_id":"sunamganj","pcode":"609018","sql_upazila_id":null,"sql_name_bn":null},"geometry":{"type":"Polygon","coordinates":[[[91.38883,25.1664],[91.39253,25.16729],[91.39423,25.15912],[91.39505,25.1323],[91.39994,25.12105],[91.40469,25.11726],[91.39808,25.11641],[91.39508,25.11433],[91.39445,25.11028],[91.40269,25.09529],[91.40258,25.09168],[91.40074,25.08876],[91.39722,25.08636],[91.38559,25.08321],[91.37693,25.07886],[91.37381,25.07547],[91.36958,25.06729],[91.36478,25.06052],[91.36088,25.05813],[91.35674,25.05707],[91.34515,25.05914],[91.33272,25.06296],[91.32703,25.06391],[91.3149,25.06501],[91.30244,25.06412],[91.30059,25.06258],[91.29886,25.05908],[91.298,25.05417],[91.29361,25.04658],[91.28633,25.04205],[91.27915,25.03955],[91.27111,25.03346],[91.2651,25.03165],[91.26061,25.02463],[91.25448,25.02014],[91.25134,25.01892],[91.24781,25.02168],[91.24537,25.03583],[91.24274,25.04304],[91.24133,25.04544],[91.23745,25.04735],[91.23014,25.04898],[91.22513,25.04823],[91.21527,25.04524],[91.20695,25.0411],[91.1937,25.03942],[91.19981,25.05328],[91.2038,25.05636],[91.21555,25.0582],[91.22183,25.06028],[91.22656,25.06305],[91.23392,25.07095],[91.24087,25.07376],[91.25553,25.07406],[91.26254,25.07583],[91.26438,25.07754],[91.26655,25.08074],[91.26711,25.08463],[91.266,25.08943],[91.25869,25.10454],[91.25648,25.1072],[91.24345,25.10662],[91.24084,25.11147],[91.24068,25.11497],[91.24201,25.11924],[91.24521,25.12286],[91.25611,25.13184],[91.25626,25.13522],[91.25438,25.13965],[91.25352,25.14444],[91.25366,25.15012],[91.25495,25.1561],[91.25954,25.15715],[91.27614,25.15291],[91.28194,25.14731],[91.28383,25.14718],[91.28603,25.14987],[91.28331,25.15909],[91.28272,25.16824],[91.2949,25.18579],[91.30772,25.18299],[91.32256,25.18316],[91.32632,25.18235],[91.33448,25.17609],[91.33959,25.17465],[91.34064,25.17278],[91.34232,25.17226],[91.3464,25.17172],[91.35696,25.17215],[91.35852,25.17043],[91.3599,25.17015],[91.36805,25.17561],[91.37049,25.17524],[91.37529,25.16715],[91.38672,25.16589],[91.38852,25.16632],[91.38883,25.1664]]]}},{"type":"Feature","properties":{"name":"Chhatak","district_id":"sunamganj","pcode":"609023","sql_upazila_id":"sunamganj-chhatak","sql_name_bn":"ছাতক"},"geometry":{"type":"Polygon","coordinates":[[[91.70296,24.98186],[91.69905,24.98039],[91.69855,24.97812],[91.70024,24.97541],[91.7097,24.9692],[91.71515,24.96344],[91.7094,24.95417],[91.70406,24.95357],[91.70484,24.95141],[91.70689,24.94962],[91.71297,24.9487],[91.71631,24.94507],[91.70577,24.93973],[91.70133,24.94304],[91.69014,24.94221],[91.69001,24.9371],[91.69281,24.92494],[91.69199,24.92239],[91.69248,24.91956],[91.70078,24.91557],[91.70271,24.91372],[91.70081,24.91109],[91.68937,24.9102],[91.68839,24.90829],[91.68912,24.90648],[91.69777,24.90684],[91.69927,24.90415],[91.69804,24.90075],[91.69458,24.89847],[91.68768,24.89769],[91.68606,24.89551],[91.6882,24.89314],[91.68789,24.89068],[91.68957,24.88522],[91.69428,24.88235],[91.69802,24.88157],[91.70146,24.88236],[91.70384,24.87458],[91.70118,24.87032],[91.69855,24.86933],[91.69796,24.86637],[91.69623,24.86441],[91.69324,24.8639],[91.68997,24.8654],[91.68829,24.86822],[91.68713,24.87544],[91.68353,24.87626],[91.68048,24.87593],[91.67936,24.8736],[91.68125,24.86732],[91.68005,24.86462],[91.67797,24.86217],[91.66983,24.85926],[91.66192,24.85198],[91.66175,24.84871],[91.66327,24.84114],[91.66629,24.83482],[91.66736,24.82841],[91.66479,24.82225],[91.66229,24.8189],[91.66109,24.81487],[91.65215,24.81864],[91.64334,24.81891],[91.64094,24.81757],[91.63895,24.81408],[91.62625,24.81036],[91.62367,24.81585],[91.61738,24.82475],[91.61266,24.82866],[91.61017,24.82927],[91.60861,24.82576],[91.61099,24.81919],[91.60998,24.81767],[91.59615,24.81422],[91.5958,24.81767],[91.59653,24.82104],[91.59607,24.82427],[91.59452,24.82473],[91.59511,24.82775],[91.58479,24.83054],[91.58302,24.82768],[91.57235,24.82973],[91.57219,24.83284],[91.56432,24.83158],[91.56273,24.83387],[91.55997,24.83414],[91.55982,24.83628],[91.55348,24.83662],[91.5515,24.83727],[91.54969,24.839],[91.5448,24.83292],[91.54207,24.83118],[91.54122,24.82794],[91.53725,24.82929],[91.53446,24.83134],[91.53358,24.83385],[91.53575,24.83583],[91.53437,24.83858],[91.53162,24.84017],[91.52773,24.83922],[91.52958,24.83714],[91.52892,24.83539],[91.52624,24.83319],[91.52313,24.83411],[91.52174,24.83536],[91.52276,24.83808],[91.52057,24.83839],[91.51778,24.83286],[91.51548,24.83341],[91.51431,24.83121],[91.51196,24.83101],[91.51035,24.82998],[91.5097,24.83762],[91.50569,24.84978],[91.50677,24.86024],[91.50414,24.86705],[91.50697,24.87642],[91.50694,24.88078],[91.50179,24.89153],[91.50147,24.89436],[91.5038,24.89806],[91.50925,24.90142],[91.5107,24.90149],[91.51196,24.90001],[91.51411,24.90033],[91.51585,24.90354],[91.5184,24.90432],[91.5237,24.90458],[91.52591,24.90323],[91.52923,24.89892],[91.53156,24.89908],[91.53548,24.90834],[91.53571,24.91166],[91.53259,24.91384],[91.52381,24.91594],[91.51518,24.92773],[91.5009,24.94254],[91.49876,24.94537],[91.49887,24.94749],[91.50129,24.95332],[91.50093,24.95632],[91.49587,24.95993],[91.493,24.9632],[91.49182,24.96744],[91.49821,24.96669],[91.51556,24.97072],[91.52077,24.96915],[91.525,24.96917],[91.53764,24.97112],[91.5428,24.97099],[91.54877,24.97192],[91.55273,24.97425],[91.55415,24.97632],[91.55307,24.97865],[91.54372,24.98853],[91.54002,24.99555],[91.53812,25.00188],[91.53733,25.01419],[91.5387,25.02034],[91.54163,25.02597],[91.55407,25.03947],[91.56236,25.04141],[91.56944,25.04172],[91.57262,25.04092],[91.57463,25.03815],[91.5789,25.02622],[91.58147,25.02584],[91.58968,25.02738],[91.59466,25.0272],[91.61774,25.02072],[91.62183,25.02189],[91.62547,25.02773],[91.63024,25.05184],[91.62766,25.05967],[91.62785,25.06197],[91.62974,25.06311],[91.64024,25.06404],[91.64429,25.06538],[91.64909,25.06819],[91.6513,25.07069],[91.65098,25.07439],[91.65279,25.07661],[91.65791,25.07423],[91.66467,25.07324],[91.66898,25.0736],[91.67341,25.07246],[91.67594,25.07139],[91.6768,25.06975],[91.67578,25.06691],[91.67685,25.06429],[91.67661,25.06068],[91.67255,25.05251],[91.67222,25.04982],[91.67667,25.04403],[91.67541,25.04282],[91.67636,25.03928],[91.67783,25.03836],[91.68131,25.03358],[91.68612,25.03381],[91.68675,25.02747],[91.68403,25.02476],[91.68202,25.025],[91.6789,25.02942],[91.67284,25.02822],[91.66862,25.02412],[91.66924,25.02152],[91.67115,25.01932],[91.67938,25.01637],[91.68374,25.01885],[91.68679,25.01673],[91.68888,25.01453],[91.69059,25.01089],[91.68788,25.0071],[91.68892,25.00511],[91.69576,25.00204],[91.69416,25.00015],[91.69394,24.9958],[91.68656,24.99584],[91.68203,24.9971],[91.68124,25.00276],[91.67079,25.00579],[91.66855,25.00375],[91.67731,24.99607],[91.67471,24.99186],[91.68732,24.98819],[91.69059,24.99202],[91.70191,24.98867],[91.70211,24.98378],[91.70296,24.98186]]]}},{"type":"Feature","properties":{"name":"Derai","district_id":"sunamganj","pcode":"609029","sql_upazila_id":"sunamganj-derai","sql_name_bn":"দিরাই"},"geometry":{"type":"Polygon","coordinates":[[[91.4529,24.83875],[91.45419,24.83555],[91.45753,24.83422],[91.45808,24.83265],[91.45717,24.8293],[91.45414,24.82378],[91.45395,24.81983],[91.45585,24.81861],[91.4604,24.81783],[91.46321,24.81594],[91.46249,24.81],[91.46295,24.80269],[91.46473,24.79907],[91.46712,24.79646],[91.46768,24.79345],[91.46614,24.79035],[91.46619,24.78753],[91.47208,24.78417],[91.47182,24.78143],[91.46655,24.77794],[91.4582,24.77726],[91.45718,24.77552],[91.45734,24.7735],[91.46084,24.76901],[91.4613,24.76274],[91.46228,24.76098],[91.46757,24.7597],[91.47018,24.75657],[91.47124,24.7536],[91.47167,24.74813],[91.47109,24.74386],[91.46956,24.74241],[91.46012,24.74338],[91.45757,24.74146],[91.45562,24.73866],[91.45243,24.73786],[91.44792,24.74083],[91.44542,24.73977],[91.445,24.73755],[91.45119,24.73307],[91.45222,24.73058],[91.45235,24.72305],[91.45598,24.71581],[91.45834,24.71279],[91.46278,24.70012],[91.46064,24.68831],[91.45606,24.68331],[91.45596,24.66529],[91.45168,24.66803],[91.44677,24.6573],[91.44073,24.6559],[91.43559,24.66545],[91.44064,24.66848],[91.43936,24.67335],[91.43552,24.67584],[91.4301,24.66753],[91.42773,24.6694],[91.42741,24.67308],[91.42844,24.67758],[91.42796,24.68334],[91.42294,24.6838],[91.41637,24.6779],[91.42036,24.67442],[91.41006,24.66802],[91.4076,24.67315],[91.40127,24.67613],[91.39609,24.67701],[91.38946,24.67643],[91.38765,24.68075],[91.38699,24.68691],[91.38811,24.69313],[91.37999,24.69434],[91.37923,24.70085],[91.38216,24.7004],[91.38323,24.70318],[91.38184,24.7042],[91.37964,24.7044],[91.37531,24.70719],[91.36935,24.70636],[91.36536,24.70828],[91.36079,24.71533],[91.34808,24.71394],[91.34592,24.71499],[91.34544,24.71679],[91.34747,24.71976],[91.34859,24.72477],[91.34365,24.73091],[91.33682,24.73144],[91.3327,24.72263],[91.33057,24.72167],[91.32563,24.72488],[91.32349,24.72473],[91.32074,24.72253],[91.31911,24.72],[91.31712,24.71232],[91.31509,24.71205],[91.31309,24.72021],[91.31358,24.72553],[91.30756,24.73131],[91.30841,24.7415],[91.31034,24.74918],[91.3107,24.7541],[91.30811,24.76194],[91.30416,24.76741],[91.30154,24.7694],[91.29973,24.7686],[91.29752,24.76443],[91.29494,24.76177],[91.29316,24.76125],[91.28567,24.76524],[91.28027,24.76687],[91.27338,24.7636],[91.26993,24.76401],[91.26479,24.76131],[91.26543,24.75767],[91.26839,24.75625],[91.26758,24.75232],[91.26849,24.75148],[91.27332,24.75142],[91.27821,24.75511],[91.28088,24.75295],[91.28122,24.748],[91.27962,24.74456],[91.27187,24.73891],[91.27034,24.73173],[91.26674,24.72841],[91.26317,24.7275],[91.25948,24.7282],[91.25422,24.72574],[91.25284,24.72585],[91.253,24.73072],[91.25038,24.73397],[91.24827,24.7333],[91.24706,24.73431],[91.24773,24.73647],[91.24574,24.73826],[91.24243,24.73757],[91.23435,24.73836],[91.2335,24.73891],[91.23238,24.74319],[91.22822,24.74184],[91.22559,24.74199],[91.22397,24.74389],[91.22146,24.74391],[91.21901,24.74273],[91.21597,24.7437],[91.21494,24.7458],[91.21199,24.74733],[91.20775,24.74409],[91.20557,24.74353],[91.19957,24.7454],[91.19572,24.74794],[91.19698,24.75479],[91.1996,24.75441],[91.2058,24.74835],[91.2085,24.74946],[91.20908,24.75237],[91.20722,24.7588],[91.20975,24.76302],[91.21105,24.76826],[91.21744,24.77022],[91.2199,24.7718],[91.22035,24.77345],[91.21758,24.77745],[91.21416,24.77975],[91.20961,24.78484],[91.20906,24.78796],[91.21159,24.79252],[91.21484,24.79459],[91.21939,24.79501],[91.22141,24.79368],[91.22488,24.79379],[91.22688,24.79223],[91.22867,24.79418],[91.22804,24.79707],[91.22559,24.79859],[91.21558,24.79852],[91.21149,24.80395],[91.20361,24.80639],[91.19519,24.80266],[91.19274,24.8001],[91.19205,24.79324],[91.19048,24.79025],[91.18762,24.7884],[91.17833,24.78894],[91.17356,24.78646],[91.17071,24.7873],[91.16535,24.78731],[91.1649,24.78836],[91.1701,24.7988],[91.17409,24.80223],[91.17605,24.80532],[91.1767,24.80995],[91.17616,24.81737],[91.18076,24.82176],[91.18457,24.82099],[91.19614,24.8319],[91.197,24.83549],[91.19636,24.84073],[91.19782,24.84257],[91.20815,24.83299],[91.20955,24.83312],[91.20769,24.84064],[91.20902,24.84226],[91.21507,24.83826],[91.21768,24.84173],[91.22057,24.84307],[91.22539,24.84204],[91.22706,24.84296],[91.22663,24.85141],[91.23111,24.85161],[91.23875,24.85485],[91.23955,24.85585],[91.23714,24.86655],[91.23697,24.87092],[91.2396,24.8857],[91.24124,24.88581],[91.25227,24.87774],[91.2603,24.87557],[91.26327,24.87588],[91.26611,24.87744],[91.27267,24.87343],[91.27443,24.87348],[91.282,24.86965],[91.28466,24.87135],[91.28713,24.8758],[91.28798,24.88042],[91.29272,24.88485],[91.30067,24.87952],[91.30422,24.87894],[91.30753,24.87946],[91.31353,24.88413],[91.32207,24.88636],[91.32114,24.88122],[91.32222,24.87849],[91.32788,24.87433],[91.3327,24.87233],[91.3348,24.87013],[91.33822,24.86249],[91.34084,24.85913],[91.34415,24.85723],[91.35578,24.85694],[91.36239,24.85567],[91.36819,24.85851],[91.37241,24.85837],[91.37054,24.85344],[91.3638,24.84931],[91.36847,24.84542],[91.37473,24.84204],[91.37355,24.83978],[91.38238,24.83603],[91.38384,24.83764],[91.38579,24.83757],[91.38729,24.83878],[91.38791,24.84113],[91.38895,24.842],[91.39213,24.84246],[91.39129,24.83945],[91.39355,24.83667],[91.39666,24.83576],[91.39917,24.83699],[91.39867,24.83976],[91.40368,24.84303],[91.40782,24.84162],[91.40572,24.83963],[91.40741,24.83676],[91.40952,24.83478],[91.41283,24.83432],[91.4123,24.83761],[91.41578,24.84197],[91.42017,24.84152],[91.4224,24.83955],[91.42377,24.84192],[91.43073,24.84],[91.43265,24.84189],[91.43836,24.84019],[91.44165,24.84042],[91.44434,24.83871],[91.44865,24.8381],[91.4529,24.83875]]]}},{"type":"Feature","properties":{"name":"Dharampasha","district_id":"sunamganj","pcode":"609032","sql_upazila_id":null,"sql_name_bn":null},"geometry":{"type":"Polygon","coordinates":[[[90.97045,25.17137],[90.99263,25.17414],[90.99781,25.17552],[91.00524,25.17953],[91.02308,25.18164],[91.02773,25.18533],[91.03362,25.1844],[91.04287,25.1852],[91.04633,25.18754],[91.04986,25.18754],[91.05224,25.1885],[91.05593,25.1878],[91.05921,25.18901],[91.05984,25.19049],[91.07093,25.19139],[91.07672,25.19355],[91.07809,25.18908],[91.07997,25.18747],[91.09029,25.18386],[91.09169,25.18255],[91.09238,25.17552],[91.09663,25.17159],[91.09479,25.1573],[91.09164,25.14484],[91.09374,25.13966],[91.09263,25.13878],[91.08548,25.13833],[91.07728,25.12844],[91.07413,25.12738],[91.06869,25.12843],[91.06462,25.13058],[91.05656,25.13675],[91.05303,25.13825],[91.04733,25.13774],[91.04407,25.13963],[91.04091,25.13951],[91.03521,25.13791],[91.03101,25.13386],[91.02937,25.12829],[91.02796,25.12215],[91.03278,25.11693],[91.03794,25.11389],[91.04404,25.11197],[91.05325,25.10621],[91.05481,25.10295],[91.05495,25.09892],[91.05219,25.09362],[91.05521,25.0864],[91.05701,25.08428],[91.05938,25.08259],[91.06284,25.08213],[91.06815,25.08219],[91.07777,25.08434],[91.08047,25.08287],[91.08116,25.07981],[91.08479,25.07365],[91.08826,25.07067],[91.09327,25.0685],[91.09794,25.06852],[91.09627,25.06358],[91.09638,25.05909],[91.1015,25.04521],[91.09339,25.04307],[91.09143,25.04004],[91.09145,25.03362],[91.08587,25.03276],[91.08231,25.03351],[91.08112,25.03498],[91.08054,25.04338],[91.07716,25.04802],[91.0723,25.04945],[91.06908,25.04668],[91.06866,25.04285],[91.06978,25.03949],[91.07419,25.0324],[91.06531,25.01564],[91.06959,25.01126],[91.06857,25.0083],[91.06648,25.00521],[91.0554,25.00409],[91.04527,25.00459],[91.04042,24.99901],[91.03992,24.99335],[91.03786,24.99232],[91.03812,24.98703],[91.04,24.98238],[91.04203,24.98116],[91.04425,24.973],[91.04249,24.97162],[91.04536,24.96533],[91.05038,24.95616],[91.05329,24.95383],[91.05488,24.95412],[91.05673,24.95744],[91.05572,24.96723],[91.05781,24.98449],[91.05994,24.98982],[91.06496,24.99499],[91.06869,24.9967],[91.0744,24.99623],[91.07956,24.99457],[91.08161,24.9953],[91.08583,24.99935],[91.08889,24.99305],[91.09172,24.99129],[91.09152,24.98424],[91.09297,24.98293],[91.09385,24.9786],[91.09827,24.9757],[91.10645,24.97565],[91.10808,24.97405],[91.10864,24.96548],[91.10714,24.95457],[91.10911,24.94503],[91.10684,24.94361],[91.10645,24.93765],[91.1039,24.93275],[91.10481,24.93071],[91.10451,24.92945],[91.09432,24.92285],[91.09201,24.9076],[91.09592,24.90661],[91.09909,24.90709],[91.11225,24.91674],[91.11471,24.9154],[91.11572,24.91255],[91.11703,24.91228],[91.11845,24.91441],[91.11889,24.9214],[91.11997,24.92411],[91.12245,24.92633],[91.12434,24.9265],[91.12555,24.92513],[91.12701,24.91838],[91.12869,24.91539],[91.13106,24.91456],[91.14257,24.91429],[91.15382,24.91523],[91.15584,24.91362],[91.15623,24.9112],[91.15329,24.90476],[91.14478,24.89051],[91.14349,24.88161],[91.14745,24.8716],[91.14827,24.86612],[91.15558,24.8494],[91.15465,24.84564],[91.14932,24.84479],[91.14281,24.8372],[91.14495,24.83443],[91.14322,24.82944],[91.1444,24.82779],[91.15181,24.82616],[91.15177,24.82291],[91.14703,24.81885],[91.15023,24.81465],[91.15016,24.81097],[91.14787,24.80785],[91.13822,24.80389],[91.13599,24.80082],[91.13851,24.79814],[91.14689,24.79422],[91.14746,24.78927],[91.14909,24.78766],[91.14935,24.78616],[91.14337,24.7862],[91.13347,24.78398],[91.13102,24.79026],[91.12469,24.79405],[91.11805,24.8033],[91.1173,24.80694],[91.12057,24.81474],[91.11906,24.81796],[91.12141,24.8208],[91.12543,24.82932],[91.12949,24.82946],[91.13204,24.83132],[91.13246,24.83267],[91.12868,24.8382],[91.12814,24.84047],[91.12084,24.83993],[91.1177,24.8409],[91.11612,24.84733],[91.1122,24.8543],[91.10921,24.85625],[91.10848,24.8584],[91.10925,24.86067],[91.11227,24.86349],[91.11187,24.86608],[91.10538,24.87814],[91.09916,24.88163],[91.09585,24.88112],[91.09336,24.88305],[91.09231,24.88492],[91.0885,24.88661],[91.08479,24.89231],[91.08273,24.8941],[91.07936,24.89548],[91.07774,24.8952],[91.07648,24.89335],[91.07389,24.89207],[91.07154,24.89622],[91.06526,24.89639],[91.06027,24.89426],[91.05692,24.896],[91.05379,24.89582],[91.0537,24.89863],[91.0527,24.90011],[91.04576,24.89932],[91.04246,24.89743],[91.04047,24.89021],[91.03516,24.88436],[91.03242,24.87735],[91.03033,24.87783],[91.02821,24.8798],[91.0255,24.8803],[91.02279,24.87941],[91.02004,24.88273],[91.02209,24.8826],[91.0239,24.88436],[91.02208,24.88587],[91.02093,24.88855],[91.01805,24.88991],[91.01041,24.88685],[91.0088,24.88513],[91.00712,24.8849],[91.00417,24.88604],[91.00126,24.89206],[90.99706,24.8953],[90.99504,24.90489],[90.99264,24.90739],[90.9906,24.90804],[90.98728,24.90747],[90.98349,24.90938],[90.97965,24.91009],[90.97698,24.90995],[90.97256,24.90816],[90.97194,24.91019],[90.96915,24.91046],[90.9658,24.90529],[90.963,24.90505],[90.95849,24.90807],[90.95674,24.90813],[90.95568,24.91167],[90.95602,24.91614],[90.95771,24.92005],[90.9556,24.92229],[90.95504,24.92564],[90.9556,24.93297],[90.94986,24.93087],[90.94886,24.93251],[90.95054,24.93607],[90.95252,24.93738],[90.95556,24.93727],[90.96239,24.93508],[90.96393,24.93641],[90.96606,24.94035],[90.9697,24.94097],[90.97366,24.95317],[90.97284,24.95475],[90.96684,24.95972],[90.96441,24.96497],[90.96249,24.96711],[90.95915,24.96791],[90.95221,24.9654],[90.95009,24.96685],[90.9481,24.97053],[90.94568,24.9709],[90.94526,24.97322],[90.94699,24.97648],[90.94725,24.97865],[90.94343,24.98171],[90.94301,24.98408],[90.94422,24.98668],[90.94627,24.98827],[90.94872,24.98882],[90.94958,24.99211],[90.94929,25.00011],[90.94053,25.0046],[90.93595,25.01641],[90.93626,25.01812],[90.94153,25.02482],[90.94406,25.02428],[90.94716,25.02738],[90.94936,25.02817],[90.95954,25.02862],[90.96461,25.03119],[90.96664,25.03441],[90.96107,25.03557],[90.96005,25.03681],[90.95677,25.03812],[90.95585,25.0401],[90.95441,25.04049],[90.95073,25.04135],[90.9373,25.04138],[90.93541,25.04276],[90.9363,25.04744],[90.93452,25.04836],[90.93372,25.05074],[90.93455,25.05341],[90.93445,25.06179],[90.93803,25.06541],[90.93644,25.06804],[90.9363,25.07367],[90.93324,25.07561],[90.93634,25.07889],[90.93952,25.07949],[90.94195,25.07871],[90.94801,25.07881],[90.95053,25.07723],[90.95856,25.06923],[90.96062,25.06847],[90.96286,25.07064],[90.96864,25.07028],[90.97136,25.06887],[90.97665,25.07312],[90.97385,25.07672],[90.97272,25.07968],[90.97243,25.08779],[90.97391,25.09117],[90.97195,25.09399],[90.95776,25.10408],[90.95476,25.10775],[90.95297,25.10878],[90.95621,25.11505],[90.9592,25.11851],[90.95932,25.11977],[90.95815,25.12193],[90.95683,25.13052],[90.95868,25.14407],[90.95663,25.14775],[90.96297,25.14823],[90.96325,25.15035],[90.96677,25.15305],[90.97101,25.15171],[90.97411,25.15471],[90.97466,25.15865],[90.9705,25.16039],[90.96717,25.16652],[90.9702,25.17133],[90.97045,25.17137]]]}},{"type":"Feature","properties":{"name":"Dowarabazar","district_id":"sunamganj","pcode":"609033","sql_upazila_id":"sunamganj-dowarabazar","sql_name_bn":"দোয়ারাবাজার"},"geometry":{"type":"Polygon","coordinates":[[[91.39253,25.16729],[91.39505,25.16709],[91.39984,25.16428],[91.40324,25.16416],[91.40835,25.16535],[91.41649,25.16512],[91.41901,25.16768],[91.41981,25.17011],[91.42523,25.16579],[91.42735,25.15998],[91.43007,25.15603],[91.43173,25.15517],[91.43697,25.15504],[91.43951,25.15421],[91.44233,25.15101],[91.44596,25.1491],[91.45652,25.14803],[91.4712,25.15015],[91.47254,25.14781],[91.4715,25.14319],[91.47237,25.13765],[91.47017,25.13484],[91.47407,25.13386],[91.47844,25.13387],[91.48255,25.13407],[91.48237,25.13557],[91.48512,25.13633],[91.48972,25.13605],[91.49258,25.1367],[91.50263,25.13548],[91.50426,25.13668],[91.50831,25.14325],[91.51027,25.14473],[91.51365,25.14535],[91.52955,25.14398],[91.53777,25.14437],[91.55885,25.14929],[91.56116,25.15121],[91.56695,25.15875],[91.57507,25.16075],[91.57916,25.1606],[91.57638,25.16432],[91.58033,25.17285],[91.58464,25.17188],[91.59808,25.17426],[91.60825,25.17435],[91.61742,25.17591],[91.61972,25.17266],[91.6189,25.17006],[91.6132,25.16969],[91.60971,25.1681],[91.60762,25.16674],[91.60331,25.15995],[91.60678,25.15723],[91.60414,25.15366],[91.60558,25.1458],[91.60715,25.14305],[91.61437,25.14605],[91.6174,25.14336],[91.61862,25.14383],[91.62018,25.14601],[91.62587,25.14501],[91.62922,25.13724],[91.62827,25.12832],[91.63055,25.12715],[91.63697,25.12626],[91.64453,25.12272],[91.64824,25.12368],[91.65126,25.1273],[91.66051,25.13178],[91.66354,25.13172],[91.66531,25.13045],[91.66845,25.13028],[91.67262,25.13529],[91.67901,25.13822],[91.68576,25.13693],[91.69585,25.13908],[91.69881,25.14149],[91.7002,25.14684],[91.70262,25.14715],[91.70419,25.1495],[91.70781,25.15114],[91.71304,25.14705],[91.72131,25.14214],[91.72897,25.12738],[91.72782,25.11847],[91.72385,25.11082],[91.72414,25.09782],[91.72535,25.09417],[91.73038,25.08502],[91.73831,25.07847],[91.7373,25.07569],[91.74005,25.07283],[91.73649,25.06849],[91.73434,25.07207],[91.72283,25.07164],[91.72063,25.06805],[91.71709,25.06939],[91.71481,25.06896],[91.7118,25.06683],[91.70826,25.0692],[91.70666,25.06749],[91.70408,25.06632],[91.69939,25.06592],[91.69902,25.06232],[91.69321,25.06225],[91.68625,25.05544],[91.68855,25.05082],[91.68801,25.04769],[91.68941,25.04413],[91.68527,25.04205],[91.6805,25.0424],[91.67667,25.04403],[91.67222,25.04982],[91.67255,25.05251],[91.67661,25.06068],[91.67685,25.06429],[91.67578,25.06691],[91.6768,25.06975],[91.67594,25.07139],[91.66898,25.0736],[91.66467,25.07324],[91.65791,25.07423],[91.65279,25.07661],[91.65098,25.07439],[91.6513,25.07069],[91.64909,25.06819],[91.64429,25.06538],[91.64024,25.06404],[91.62974,25.06311],[91.62785,25.06197],[91.62766,25.05967],[91.63024,25.05184],[91.62547,25.02773],[91.62183,25.02189],[91.61774,25.02072],[91.59466,25.0272],[91.58968,25.02738],[91.58147,25.02584],[91.5789,25.02622],[91.57463,25.03815],[91.57262,25.04092],[91.56944,25.04172],[91.56236,25.04141],[91.55407,25.03947],[91.54163,25.02597],[91.5387,25.02034],[91.53733,25.01419],[91.53812,25.00188],[91.54002,24.99555],[91.54372,24.98853],[91.55307,24.97865],[91.55415,24.97632],[91.55273,24.97425],[91.54877,24.97192],[91.5428,24.97099],[91.53764,24.97112],[91.525,24.96917],[91.52077,24.96915],[91.51556,24.97072],[91.49821,24.96669],[91.49182,24.96744],[91.49084,24.98108],[91.48861,24.99103],[91.48553,24.99665],[91.48012,25.00989],[91.47974,25.01373],[91.48135,25.03021],[91.47545,25.03473],[91.46939,25.0373],[91.46315,25.03884],[91.45172,25.04373],[91.45068,25.04709],[91.45167,25.05722],[91.45293,25.05976],[91.45604,25.06016],[91.46577,25.0566],[91.46691,25.05409],[91.46877,25.05339],[91.47111,25.05601],[91.47135,25.06513],[91.47261,25.06772],[91.48,25.07033],[91.49535,25.07362],[91.49847,25.07529],[91.50068,25.07797],[91.50227,25.08348],[91.50051,25.08641],[91.49426,25.09002],[91.48836,25.0973],[91.47349,25.10184],[91.46165,25.10899],[91.45914,25.11177],[91.45899,25.1166],[91.46074,25.1267],[91.46062,25.13233],[91.45999,25.13488],[91.45813,25.13678],[91.45576,25.13629],[91.44907,25.13217],[91.44638,25.1314],[91.43687,25.1357],[91.41909,25.14689],[91.41664,25.14709],[91.41418,25.14569],[91.41282,25.14373],[91.41605,25.13466],[91.41562,25.12962],[91.41996,25.12],[91.41912,25.11825],[91.41491,25.11604],[91.41104,25.11526],[91.40805,25.11508],[91.40469,25.11726],[91.39994,25.12105],[91.39505,25.1323],[91.395,25.14872],[91.39423,25.15912],[91.39335,25.16181],[91.39253,25.16729]]]}},{"type":"Feature","properties":{"name":"Jagannathpur","district_id":"sunamganj","pcode":"609047","sql_upazila_id":"sunamganj-jagannathpur","sql_name_bn":"জগন্নাথপুর"},"geometry":{"type":"Polygon","coordinates":[[[91.51035,24.82998],[91.51196,24.83101],[91.51431,24.83121],[91.51548,24.83341],[91.51778,24.83286],[91.52057,24.83839],[91.52276,24.83808],[91.52174,24.83536],[91.52313,24.83411],[91.52624,24.83319],[91.52892,24.83539],[91.52958,24.83714],[91.52773,24.83922],[91.53162,24.84017],[91.53437,24.83858],[91.53575,24.83583],[91.53358,24.83385],[91.53446,24.83134],[91.53725,24.82929],[91.54122,24.82794],[91.54207,24.83118],[91.5448,24.83292],[91.54969,24.839],[91.5515,24.83727],[91.55348,24.83662],[91.55982,24.83628],[91.55997,24.83414],[91.56273,24.83387],[91.56432,24.83158],[91.57219,24.83284],[91.57235,24.82973],[91.58302,24.82768],[91.58479,24.83054],[91.59511,24.82775],[91.59452,24.82473],[91.59607,24.82427],[91.59653,24.82104],[91.5958,24.81767],[91.59615,24.81422],[91.60998,24.81767],[91.61099,24.81919],[91.60861,24.82576],[91.61017,24.82927],[91.61266,24.82866],[91.61738,24.82475],[91.62367,24.81585],[91.62625,24.81036],[91.63895,24.81408],[91.64094,24.81757],[91.64334,24.81891],[91.64707,24.81895],[91.65215,24.81864],[91.66109,24.81487],[91.66448,24.81101],[91.67542,24.80924],[91.67627,24.80615],[91.67602,24.796],[91.67686,24.78902],[91.67606,24.7868],[91.66481,24.78959],[91.65959,24.7935],[91.65722,24.79389],[91.65603,24.79272],[91.65455,24.78709],[91.65193,24.78513],[91.64613,24.78609],[91.6433,24.7847],[91.64161,24.78247],[91.64215,24.78073],[91.64364,24.78015],[91.65036,24.78117],[91.65298,24.77952],[91.65387,24.77708],[91.65346,24.77164],[91.66361,24.77183],[91.6681,24.77092],[91.67184,24.76906],[91.67499,24.76636],[91.67903,24.75777],[91.67921,24.75512],[91.6766,24.7531],[91.67535,24.75068],[91.67251,24.7366],[91.67282,24.73406],[91.67632,24.72739],[91.67595,24.72482],[91.6743,24.72305],[91.67168,24.72217],[91.66391,24.72435],[91.65831,24.72048],[91.65612,24.71689],[91.65947,24.70832],[91.65939,24.70156],[91.65156,24.68049],[91.64634,24.67902],[91.64589,24.67278],[91.63984,24.67375],[91.63657,24.67244],[91.63586,24.66948],[91.63168,24.66498],[91.63282,24.66138],[91.63091,24.66072],[91.62849,24.66298],[91.62323,24.66197],[91.61661,24.67048],[91.61758,24.67612],[91.61448,24.67722],[91.61223,24.67477],[91.60918,24.67414],[91.59812,24.67443],[91.596,24.66963],[91.59842,24.6665],[91.618,24.66446],[91.61489,24.65832],[91.60297,24.65784],[91.59328,24.65888],[91.5938,24.66437],[91.59269,24.66757],[91.5927,24.67038],[91.5891,24.67368],[91.58439,24.67252],[91.58255,24.67368],[91.57829,24.66999],[91.57424,24.66187],[91.58086,24.65308],[91.58537,24.6489],[91.58223,24.64769],[91.57844,24.64846],[91.57329,24.65376],[91.56776,24.66056],[91.56915,24.66556],[91.56512,24.66812],[91.56325,24.66848],[91.56181,24.66727],[91.56053,24.6579],[91.5577,24.66047],[91.55542,24.66652],[91.55558,24.67237],[91.5526,24.67202],[91.54852,24.66298],[91.55294,24.65944],[91.55017,24.65426],[91.54661,24.65077],[91.54325,24.64894],[91.53971,24.64987],[91.53887,24.65323],[91.53884,24.65651],[91.54372,24.6573],[91.54243,24.66177],[91.53619,24.66556],[91.53485,24.66107],[91.53233,24.65714],[91.52988,24.65833],[91.52779,24.6607],[91.53056,24.66467],[91.52943,24.6674],[91.52811,24.66838],[91.52103,24.66909],[91.51826,24.66385],[91.51332,24.66438],[91.50566,24.66735],[91.50612,24.67273],[91.50028,24.67317],[91.49728,24.67213],[91.49442,24.67275],[91.49197,24.66784],[91.48676,24.66528],[91.48048,24.66792],[91.47945,24.67277],[91.47401,24.67062],[91.46715,24.66139],[91.46273,24.66488],[91.45976,24.66607],[91.45596,24.66529],[91.45606,24.68331],[91.46064,24.68831],[91.46278,24.70012],[91.45834,24.71279],[91.45598,24.71581],[91.45235,24.72305],[91.45222,24.73058],[91.45119,24.73307],[91.445,24.73755],[91.44542,24.73977],[91.44792,24.74083],[91.45243,24.73786],[91.45562,24.73866],[91.45757,24.74146],[91.46012,24.74338],[91.46956,24.74241],[91.47109,24.74386],[91.47167,24.74813],[91.47124,24.7536],[91.47018,24.75657],[91.46757,24.7597],[91.46228,24.76098],[91.4613,24.76274],[91.46084,24.76901],[91.45734,24.7735],[91.45718,24.77552],[91.4582,24.77726],[91.46655,24.77794],[91.46985,24.77977],[91.47182,24.78143],[91.47208,24.78417],[91.46619,24.78753],[91.46614,24.79035],[91.46768,24.79345],[91.46712,24.79646],[91.46473,24.79907],[91.46295,24.80269],[91.46249,24.81],[91.46321,24.81594],[91.4604,24.81783],[91.45585,24.81861],[91.45395,24.81983],[91.45414,24.82378],[91.45717,24.8293],[91.45808,24.83265],[91.45753,24.83422],[91.45419,24.83555],[91.4529,24.83875],[91.45554,24.83877],[91.45666,24.84223],[91.46471,24.84212],[91.468,24.84506],[91.47659,24.84152],[91.47899,24.84315],[91.48285,24.84222],[91.48767,24.839],[91.48583,24.83614],[91.4876,24.83499],[91.49009,24.83558],[91.49532,24.83189],[91.49703,24.8347],[91.5043,24.83513],[91.50663,24.83401],[91.50572,24.83077],[91.50732,24.82985],[91.51035,24.82998]]]}},{"type":"Feature","properties":{"name":"Jamalganj","district_id":"sunamganj","pcode":"609050","sql_upazila_id":"sunamganj-jamalganj","sql_name_bn":"জামালগঞ্জ"},"geometry":{"type":"Polygon","coordinates":[[[91.1937,25.03942],[91.20695,25.0411],[91.21527,25.04524],[91.22513,25.04823],[91.23014,25.04898],[91.23745,25.04735],[91.24133,25.04544],[91.24433,25.03942],[91.24781,25.02168],[91.24924,25.02014],[91.25134,25.01892],[91.25448,25.02014],[91.26061,25.02463],[91.26572,25.01923],[91.26805,25.01875],[91.27254,25.01923],[91.27779,25.02117],[91.29285,25.02088],[91.29597,25.01877],[91.29903,25.0139],[91.30232,25.01166],[91.30207,24.99669],[91.30339,24.99377],[91.30466,24.99264],[91.30841,24.99205],[91.31068,24.99076],[91.312,24.98796],[91.31758,24.98455],[91.31924,24.98495],[91.32,24.98905],[91.31847,24.99279],[91.32006,24.9944],[91.31996,24.9978],[91.32963,24.99986],[91.33311,24.99567],[91.34309,25.0002],[91.34204,25.00483],[91.34623,25.00669],[91.34938,25.00532],[91.35132,25.00353],[91.35165,24.9852],[91.3535,24.98284],[91.35805,24.98033],[91.35732,24.97846],[91.35251,24.97387],[91.35187,24.97228],[91.35631,24.96891],[91.35661,24.96592],[91.35771,24.96381],[91.36082,24.96152],[91.3614,24.95903],[91.36087,24.95061],[91.35995,24.94846],[91.35522,24.94828],[91.35325,24.94927],[91.35129,24.95186],[91.35108,24.95423],[91.34338,24.96046],[91.3421,24.96022],[91.34138,24.9502],[91.33781,24.94528],[91.33801,24.94406],[91.34062,24.94219],[91.341,24.94087],[91.34084,24.93874],[91.33929,24.93667],[91.33784,24.93247],[91.33949,24.92461],[91.3388,24.92326],[91.33725,24.92262],[91.33324,24.92833],[91.32982,24.92931],[91.32793,24.92673],[91.32548,24.9201],[91.31769,24.90993],[91.31237,24.91333],[91.30938,24.91269],[91.30803,24.90923],[91.30651,24.90917],[91.30032,24.91432],[91.29786,24.91423],[91.29729,24.91018],[91.29349,24.90818],[91.29259,24.90638],[91.28598,24.90396],[91.28099,24.89806],[91.28032,24.89602],[91.29015,24.89177],[91.28841,24.88821],[91.29119,24.88725],[91.29272,24.88485],[91.28798,24.88042],[91.28713,24.8758],[91.28466,24.87135],[91.282,24.86965],[91.27443,24.87348],[91.27267,24.87343],[91.26611,24.87744],[91.26327,24.87588],[91.2603,24.87557],[91.25227,24.87774],[91.24124,24.88581],[91.2396,24.8857],[91.23697,24.87092],[91.23714,24.86655],[91.23955,24.85585],[91.23875,24.85485],[91.23111,24.85161],[91.22663,24.85141],[91.22706,24.84296],[91.22539,24.84204],[91.22057,24.84307],[91.21768,24.84173],[91.21507,24.83826],[91.20902,24.84226],[91.20769,24.84064],[91.20955,24.83312],[91.20815,24.83299],[91.19782,24.84257],[91.19636,24.84073],[91.197,24.83549],[91.19614,24.8319],[91.18457,24.82099],[91.18076,24.82176],[91.17616,24.81737],[91.17424,24.82363],[91.16696,24.82686],[91.16441,24.82907],[91.16261,24.83223],[91.16022,24.8338],[91.15783,24.83251],[91.15181,24.82616],[91.1444,24.82779],[91.14322,24.82944],[91.14495,24.83443],[91.14281,24.8372],[91.14932,24.84479],[91.15465,24.84564],[91.15558,24.8494],[91.14827,24.86612],[91.14745,24.8716],[91.14349,24.88161],[91.14478,24.89051],[91.15329,24.90476],[91.15623,24.9112],[91.15584,24.91362],[91.15382,24.91523],[91.14257,24.91429],[91.13106,24.91456],[91.12869,24.91539],[91.12701,24.91838],[91.12555,24.92513],[91.12434,24.9265],[91.12245,24.92633],[91.11997,24.92411],[91.11889,24.9214],[91.11845,24.91441],[91.11703,24.91228],[91.11572,24.91255],[91.11471,24.9154],[91.11225,24.91674],[91.09909,24.90709],[91.09592,24.90661],[91.09201,24.9076],[91.09432,24.92285],[91.10451,24.92945],[91.10481,24.93071],[91.1039,24.93275],[91.10645,24.93765],[91.10684,24.94361],[91.10911,24.94503],[91.10714,24.95457],[91.10864,24.96548],[91.10808,24.97405],[91.10645,24.97565],[91.09827,24.9757],[91.09385,24.9786],[91.09297,24.98293],[91.09152,24.98424],[91.09172,24.99129],[91.08889,24.99305],[91.08583,24.99935],[91.08161,24.9953],[91.07956,24.99457],[91.0744,24.99623],[91.06869,24.9967],[91.06496,24.99499],[91.05994,24.98982],[91.05781,24.98449],[91.05572,24.96723],[91.05673,24.95744],[91.05488,24.95412],[91.05329,24.95383],[91.05038,24.95616],[91.04802,24.95996],[91.04249,24.97162],[91.04425,24.973],[91.04203,24.98116],[91.04,24.98238],[91.03812,24.98703],[91.03786,24.99232],[91.03992,24.99335],[91.04042,24.99901],[91.04527,25.00459],[91.0554,25.00409],[91.06648,25.00521],[91.06857,25.0083],[91.06959,25.01126],[91.06531,25.01564],[91.07419,25.0324],[91.06978,25.03949],[91.06866,25.04285],[91.06908,25.04668],[91.0723,25.04945],[91.07716,25.04802],[91.08054,25.04338],[91.08112,25.03498],[91.08231,25.03351],[91.08587,25.03276],[91.09145,25.03362],[91.09143,25.04004],[91.09339,25.04307],[91.1015,25.04521],[91.09638,25.05909],[91.09627,25.06358],[91.09794,25.06852],[91.10373,25.07114],[91.11167,25.07237],[91.11618,25.07164],[91.12089,25.06965],[91.12419,25.06707],[91.13561,25.04936],[91.1366,25.04175],[91.1285,25.03421],[91.12765,25.03218],[91.1291,25.02931],[91.13562,25.02433],[91.13852,25.02435],[91.14378,25.03169],[91.15152,25.03556],[91.15485,25.03528],[91.15863,25.03113],[91.16159,25.0296],[91.16753,25.02986],[91.17046,25.03039],[91.17661,25.03668],[91.18136,25.03858],[91.1937,25.03942]]]}},{"type":"Feature","properties":{"name":"Sullah","district_id":"sunamganj","pcode":"609086","sql_upazila_id":null,"sql_name_bn":null},"geometry":{"type":"Polygon","coordinates":[[[91.37999,24.69434],[91.37903,24.68863],[91.37228,24.68691],[91.36716,24.68618],[91.36449,24.69235],[91.35776,24.6923],[91.35358,24.69028],[91.35661,24.68649],[91.36283,24.6838],[91.36439,24.6822],[91.36457,24.67944],[91.358,24.67875],[91.35109,24.66809],[91.35195,24.66364],[91.34764,24.66287],[91.34581,24.66534],[91.34468,24.67089],[91.34226,24.67557],[91.33496,24.66607],[91.33802,24.66148],[91.32851,24.65315],[91.32378,24.65664],[91.31793,24.65001],[91.31434,24.65272],[91.31099,24.65353],[91.30877,24.65022],[91.31192,24.63553],[91.31013,24.63215],[91.30392,24.63265],[91.3002,24.62274],[91.30568,24.62037],[91.30099,24.60991],[91.29619,24.60945],[91.29359,24.59932],[91.29824,24.59525],[91.2925,24.59218],[91.28567,24.59391],[91.28445,24.60009],[91.2796,24.60135],[91.28158,24.60341],[91.28244,24.60705],[91.27988,24.61012],[91.2743,24.60894],[91.27045,24.60448],[91.27504,24.60042],[91.27015,24.59525],[91.26968,24.5905],[91.26468,24.58976],[91.26392,24.58542],[91.25815,24.58143],[91.25928,24.57612],[91.24783,24.57289],[91.24393,24.57721],[91.23683,24.57435],[91.23438,24.5662],[91.23158,24.56913],[91.22968,24.56978],[91.22741,24.56946],[91.22307,24.56726],[91.22096,24.5674],[91.2175,24.56936],[91.21365,24.57295],[91.20786,24.57402],[91.20638,24.57625],[91.20565,24.57996],[91.20319,24.58253],[91.19894,24.58147],[91.20032,24.58538],[91.20516,24.58892],[91.20577,24.59034],[91.20295,24.59492],[91.20054,24.59673],[91.20144,24.60095],[91.20255,24.60246],[91.20049,24.60397],[91.19441,24.60585],[91.18608,24.60736],[91.17957,24.61087],[91.17783,24.61294],[91.17874,24.61578],[91.18091,24.61719],[91.1808,24.61938],[91.18002,24.6217],[91.17703,24.62531],[91.18076,24.62672],[91.18371,24.62599],[91.1879,24.62365],[91.18797,24.62026],[91.19604,24.61652],[91.19782,24.61789],[91.19603,24.6249],[91.20552,24.62473],[91.20567,24.63763],[91.20754,24.64118],[91.21748,24.64478],[91.21962,24.64361],[91.22044,24.64214],[91.22264,24.64143],[91.23134,24.65006],[91.2302,24.65636],[91.22231,24.65981],[91.22051,24.6616],[91.2205,24.6647],[91.22177,24.66718],[91.22398,24.6679],[91.22752,24.66472],[91.23015,24.66347],[91.23282,24.6635],[91.23956,24.66772],[91.24083,24.67026],[91.23984,24.67541],[91.24017,24.68303],[91.2383,24.68436],[91.23044,24.68522],[91.22762,24.68802],[91.22339,24.68789],[91.2204,24.69093],[91.21998,24.69324],[91.22256,24.69601],[91.22868,24.69654],[91.22938,24.70058],[91.22869,24.70549],[91.22927,24.7095],[91.2267,24.71228],[91.22618,24.71528],[91.22448,24.71626],[91.2206,24.71044],[91.21822,24.70834],[91.2112,24.70481],[91.20981,24.70234],[91.20809,24.7012],[91.20409,24.70593],[91.20261,24.70628],[91.20081,24.70278],[91.19929,24.70186],[91.18651,24.71461],[91.18185,24.7165],[91.17541,24.71685],[91.17208,24.71594],[91.16366,24.7081],[91.16068,24.70849],[91.15997,24.70938],[91.16087,24.71359],[91.15993,24.71529],[91.14267,24.71552],[91.14429,24.71736],[91.14845,24.71921],[91.15356,24.72299],[91.15283,24.72531],[91.1484,24.73155],[91.14925,24.73623],[91.15118,24.73656],[91.15302,24.73575],[91.15461,24.73351],[91.15664,24.73275],[91.15931,24.73425],[91.16079,24.73753],[91.16069,24.73994],[91.15958,24.74188],[91.15827,24.74187],[91.15475,24.73913],[91.15334,24.73947],[91.15423,24.74517],[91.15366,24.74657],[91.15226,24.7476],[91.14084,24.74801],[91.13896,24.74957],[91.13886,24.75377],[91.14461,24.7562],[91.14866,24.75978],[91.15337,24.75588],[91.1571,24.75735],[91.15954,24.7564],[91.16336,24.75695],[91.15943,24.7618],[91.16206,24.76601],[91.16514,24.76699],[91.16633,24.76895],[91.1679,24.76941],[91.17084,24.76816],[91.1712,24.76981],[91.17453,24.77244],[91.17592,24.77648],[91.17091,24.78054],[91.1681,24.78185],[91.16425,24.78201],[91.16106,24.78326],[91.165,24.78582],[91.16535,24.78731],[91.17071,24.7873],[91.17356,24.78646],[91.17833,24.78894],[91.18762,24.7884],[91.19048,24.79025],[91.19205,24.79324],[91.19274,24.8001],[91.19519,24.80266],[91.20361,24.80639],[91.20716,24.8057],[91.21149,24.80395],[91.21558,24.79852],[91.22559,24.79859],[91.22804,24.79707],[91.22867,24.79418],[91.22688,24.79223],[91.22488,24.79379],[91.22141,24.79368],[91.21939,24.79501],[91.21484,24.79459],[91.21159,24.79252],[91.20906,24.78796],[91.20961,24.78484],[91.21416,24.77975],[91.21758,24.77745],[91.22035,24.77345],[91.2199,24.7718],[91.21744,24.77022],[91.21105,24.76826],[91.20975,24.76302],[91.20722,24.7588],[91.20908,24.75237],[91.2085,24.74946],[91.2058,24.74835],[91.1996,24.75441],[91.19698,24.75479],[91.19572,24.74794],[91.19724,24.74663],[91.20557,24.74353],[91.20775,24.74409],[91.21199,24.74733],[91.21494,24.7458],[91.21597,24.7437],[91.21901,24.74273],[91.22146,24.74391],[91.22397,24.74389],[91.22559,24.74199],[91.22822,24.74184],[91.23238,24.74319],[91.2335,24.73891],[91.23435,24.73836],[91.24243,24.73757],[91.24574,24.73826],[91.24773,24.73647],[91.24706,24.73431],[91.24827,24.7333],[91.25038,24.73397],[91.253,24.73072],[91.25284,24.72585],[91.25422,24.72574],[91.25948,24.7282],[91.26317,24.7275],[91.26674,24.72841],[91.27034,24.73173],[91.27187,24.73891],[91.27962,24.74456],[91.28122,24.748],[91.28088,24.75295],[91.27821,24.75511],[91.27332,24.75142],[91.26849,24.75148],[91.26758,24.75232],[91.26839,24.75625],[91.26543,24.75767],[91.26479,24.76131],[91.26993,24.76401],[91.27338,24.7636],[91.28027,24.76687],[91.28567,24.76524],[91.29316,24.76125],[91.29494,24.76177],[91.29752,24.76443],[91.29973,24.7686],[91.30154,24.7694],[91.30416,24.76741],[91.30811,24.76194],[91.3107,24.7541],[91.31034,24.74918],[91.30841,24.7415],[91.30756,24.73131],[91.31358,24.72553],[91.31309,24.72021],[91.31509,24.71205],[91.31712,24.71232],[91.31911,24.72],[91.32074,24.72253],[91.32349,24.72473],[91.32563,24.72488],[91.33057,24.72167],[91.3327,24.72263],[91.33682,24.73144],[91.34365,24.73091],[91.34859,24.72477],[91.34747,24.71976],[91.34544,24.71679],[91.34592,24.71499],[91.34808,24.71394],[91.36079,24.71533],[91.36536,24.70828],[91.36935,24.70636],[91.37531,24.70719],[91.37964,24.7044],[91.38184,24.7042],[91.38323,24.70318],[91.38216,24.7004],[91.37923,24.70085],[91.37999,24.69434]]]}},{"type":"Feature","properties":{"name":"Sunamganj S.","district_id":"sunamganj","pcode":"609089","sql_upazila_id":null,"sql_name_bn":null},"geometry":{"type":"Polygon","coordinates":[[[91.40469,25.11726],[91.40805,25.11508],[91.41104,25.11526],[91.41491,25.11604],[91.41912,25.11825],[91.41996,25.12],[91.41562,25.12962],[91.41605,25.13466],[91.41282,25.14373],[91.41418,25.14569],[91.41664,25.14709],[91.41909,25.14689],[91.43687,25.1357],[91.44638,25.1314],[91.44907,25.13217],[91.45576,25.13629],[91.45813,25.13678],[91.45999,25.13488],[91.46062,25.13233],[91.46074,25.1267],[91.45899,25.1166],[91.45914,25.11177],[91.46165,25.10899],[91.47349,25.10184],[91.48836,25.0973],[91.49426,25.09002],[91.50051,25.08641],[91.50227,25.08348],[91.50068,25.07797],[91.49847,25.07529],[91.49535,25.07362],[91.48,25.07033],[91.47261,25.06772],[91.47135,25.06513],[91.47111,25.05601],[91.46877,25.05339],[91.46691,25.05409],[91.46577,25.0566],[91.45604,25.06016],[91.45293,25.05976],[91.45167,25.05722],[91.45068,25.04709],[91.45172,25.04373],[91.46315,25.03884],[91.46939,25.0373],[91.47545,25.03473],[91.48135,25.03021],[91.47974,25.01373],[91.48012,25.00989],[91.48553,24.99665],[91.48861,24.99103],[91.49084,24.98108],[91.49086,24.97505],[91.493,24.9632],[91.49587,24.95993],[91.50093,24.95632],[91.50129,24.95332],[91.49887,24.94749],[91.49876,24.94537],[91.51518,24.92773],[91.52381,24.91594],[91.53259,24.91384],[91.53571,24.91166],[91.53548,24.90834],[91.53156,24.89908],[91.52923,24.89892],[91.52591,24.90323],[91.5237,24.90458],[91.5184,24.90432],[91.51585,24.90354],[91.51411,24.90033],[91.51196,24.90001],[91.5107,24.90149],[91.50925,24.90142],[91.5038,24.89806],[91.50147,24.89436],[91.50179,24.89153],[91.50694,24.88078],[91.50697,24.87642],[91.50414,24.86705],[91.50677,24.86024],[91.50569,24.84978],[91.5097,24.83762],[91.51035,24.82998],[91.50732,24.82985],[91.50572,24.83077],[91.50663,24.83401],[91.5043,24.83513],[91.49703,24.8347],[91.49532,24.83189],[91.49009,24.83558],[91.4876,24.83499],[91.48583,24.83614],[91.48767,24.839],[91.48285,24.84222],[91.47899,24.84315],[91.47659,24.84152],[91.468,24.84506],[91.46471,24.84212],[91.45666,24.84223],[91.45554,24.83877],[91.44865,24.8381],[91.44434,24.83871],[91.44165,24.84042],[91.43836,24.84019],[91.43265,24.84189],[91.43073,24.84],[91.42377,24.84192],[91.4224,24.83955],[91.42017,24.84152],[91.41578,24.84197],[91.4123,24.83761],[91.41283,24.83432],[91.40952,24.83478],[91.40741,24.83676],[91.40572,24.83963],[91.40782,24.84162],[91.40556,24.84273],[91.40368,24.84303],[91.39867,24.83976],[91.39917,24.83699],[91.39666,24.83576],[91.39355,24.83667],[91.39129,24.83945],[91.39213,24.84246],[91.38895,24.842],[91.38791,24.84113],[91.38729,24.83878],[91.38579,24.83757],[91.38384,24.83764],[91.38238,24.83603],[91.37355,24.83978],[91.37473,24.84204],[91.36847,24.84542],[91.3638,24.84931],[91.37054,24.85344],[91.37241,24.85837],[91.36819,24.85851],[91.36239,24.85567],[91.35578,24.85694],[91.34415,24.85723],[91.34084,24.85913],[91.33822,24.86249],[91.3348,24.87013],[91.3327,24.87233],[91.32788,24.87433],[91.32222,24.87849],[91.32114,24.88122],[91.32207,24.88636],[91.31353,24.88413],[91.30753,24.87946],[91.30422,24.87894],[91.30067,24.87952],[91.29272,24.88485],[91.29119,24.88725],[91.28841,24.88821],[91.29015,24.89177],[91.28032,24.89602],[91.28099,24.89806],[91.28598,24.90396],[91.29259,24.90638],[91.29349,24.90818],[91.29729,24.91018],[91.29786,24.91423],[91.30032,24.91432],[91.30651,24.90917],[91.30803,24.90923],[91.30938,24.91269],[91.31237,24.91333],[91.31769,24.90993],[91.32548,24.9201],[91.32793,24.92673],[91.32982,24.92931],[91.33324,24.92833],[91.33725,24.92262],[91.3388,24.92326],[91.33949,24.92461],[91.33784,24.93247],[91.33929,24.93667],[91.34084,24.93874],[91.341,24.94087],[91.34062,24.94219],[91.33801,24.94406],[91.33781,24.94528],[91.34138,24.9502],[91.3421,24.96022],[91.34338,24.96046],[91.34709,24.95787],[91.34821,24.95593],[91.35108,24.95423],[91.35129,24.95186],[91.35325,24.94927],[91.35522,24.94828],[91.35995,24.94846],[91.36087,24.95061],[91.3614,24.95903],[91.36082,24.96152],[91.35771,24.96381],[91.35661,24.96592],[91.35631,24.96891],[91.35187,24.97228],[91.35251,24.97387],[91.35732,24.97846],[91.35805,24.98033],[91.3535,24.98284],[91.35165,24.9852],[91.35132,25.00353],[91.34938,25.00532],[91.34623,25.00669],[91.34204,25.00483],[91.34309,25.0002],[91.33311,24.99567],[91.32963,24.99986],[91.31996,24.9978],[91.32006,24.9944],[91.31847,24.99279],[91.32,24.98905],[91.31924,24.98495],[91.31758,24.98455],[91.312,24.98796],[91.31068,24.99076],[91.30841,24.99205],[91.30466,24.99264],[91.30339,24.99377],[91.30207,24.99669],[91.30232,25.01166],[91.29903,25.0139],[91.29597,25.01877],[91.29285,25.02088],[91.28089,25.0213],[91.26805,25.01875],[91.26572,25.01923],[91.26061,25.02463],[91.2651,25.03165],[91.27111,25.03346],[91.27915,25.03955],[91.28633,25.04205],[91.29361,25.04658],[91.298,25.05417],[91.29886,25.05908],[91.30059,25.06258],[91.30244,25.06412],[91.3149,25.06501],[91.32703,25.06391],[91.33272,25.06296],[91.34515,25.05914],[91.35674,25.05707],[91.36088,25.05813],[91.36478,25.06052],[91.36958,25.06729],[91.37381,25.07547],[91.37693,25.07886],[91.38559,25.08321],[91.39722,25.08636],[91.40074,25.08876],[91.40258,25.09168],[91.40269,25.09529],[91.39445,25.11028],[91.39508,25.11433],[91.39808,25.11641],[91.40469,25.11726]]]}},{"type":"Feature","properties":{"name":"Tahirpur","district_id":"sunamganj","pcode":"609092","sql_upazila_id":"sunamganj-tahirpur","sql_name_bn":"তাহিরপুর"},"geometry":{"type":"Polygon","coordinates":[[[91.07672,25.19355],[91.0786,25.19641],[91.0825,25.19749],[91.08646,25.19678],[91.10426,25.19677],[91.12754,25.19336],[91.13828,25.19357],[91.15608,25.19608],[91.16055,25.19443],[91.17216,25.19433],[91.18997,25.19712],[91.19904,25.19957],[91.20353,25.19976],[91.22512,25.19811],[91.23139,25.19703],[91.23354,25.19552],[91.23541,25.19534],[91.2403,25.19714],[91.24485,25.19445],[91.25155,25.19462],[91.25574,25.19511],[91.25799,25.19618],[91.25881,25.19874],[91.26376,25.20058],[91.26581,25.20246],[91.27379,25.20431],[91.27557,25.20344],[91.27753,25.20056],[91.27997,25.19864],[91.29362,25.19346],[91.29758,25.19063],[91.29339,25.18716],[91.2949,25.18579],[91.28272,25.16824],[91.28331,25.15909],[91.28603,25.14987],[91.28383,25.14718],[91.28194,25.14731],[91.27614,25.15291],[91.25954,25.15715],[91.25495,25.1561],[91.25366,25.15012],[91.25352,25.14444],[91.25438,25.13965],[91.25626,25.13522],[91.25611,25.13184],[91.24521,25.12286],[91.24201,25.11924],[91.24068,25.11497],[91.24084,25.11147],[91.24345,25.10662],[91.25648,25.1072],[91.25869,25.10454],[91.266,25.08943],[91.26711,25.08463],[91.26655,25.08074],[91.26438,25.07754],[91.26254,25.07583],[91.25553,25.07406],[91.24087,25.07376],[91.23392,25.07095],[91.22656,25.06305],[91.22183,25.06028],[91.21555,25.0582],[91.2038,25.05636],[91.19981,25.05328],[91.1937,25.03942],[91.18136,25.03858],[91.17661,25.03668],[91.17046,25.03039],[91.16753,25.02986],[91.16159,25.0296],[91.15863,25.03113],[91.15485,25.03528],[91.15152,25.03556],[91.14378,25.03169],[91.13852,25.02435],[91.13562,25.02433],[91.13275,25.02638],[91.1291,25.02931],[91.12765,25.03218],[91.1285,25.03421],[91.1366,25.04175],[91.13623,25.04612],[91.13561,25.04936],[91.12419,25.06707],[91.12089,25.06965],[91.11618,25.07164],[91.11167,25.07237],[91.10373,25.07114],[91.09794,25.06852],[91.09327,25.0685],[91.08826,25.07067],[91.08479,25.07365],[91.08116,25.07981],[91.08047,25.08287],[91.07777,25.08434],[91.06815,25.08219],[91.05938,25.08259],[91.05521,25.0864],[91.05219,25.09362],[91.05495,25.09892],[91.05481,25.10295],[91.05325,25.10621],[91.04404,25.11197],[91.03794,25.11389],[91.03278,25.11693],[91.02796,25.12215],[91.03101,25.13386],[91.03521,25.13791],[91.04091,25.13951],[91.04407,25.13963],[91.04733,25.13774],[91.05303,25.13825],[91.05656,25.13675],[91.06462,25.13058],[91.06869,25.12843],[91.07413,25.12738],[91.07728,25.12844],[91.08548,25.13833],[91.09263,25.13878],[91.09374,25.13966],[91.09164,25.14484],[91.09479,25.1573],[91.09663,25.17159],[91.09238,25.17552],[91.09169,25.18255],[91.09029,25.18386],[91.08244,25.18618],[91.07809,25.18908],[91.07672,25.19355]]]}}]}