{"type":"FeatureCollection","features":[{"type":"Feature","properties":{"name":"Balaganj","district_id":"sylhet","pcode":"609108","sql_upazila_id":"sylhet-balaganj","sql_name_bn":"বালাগঞ্জ"},"geometry":{"type":"Polygon","coordinates":[[[91.89624,24.75743],[91.89622,24.74973],[91.89779,24.74721],[91.90354,24.74268],[91.90399,24.7356],[91.9073,24.72772],[91.90922,24.7246],[91.91499,24.72071],[91.91755,24.71785],[91.91965,24.7134],[91.91967,24.70892],[91.92182,24.69839],[91.92088,24.69326],[91.91737,24.68743],[91.91774,24.68368],[91.91953,24.68177],[91.93422,24.67517],[91.94356,24.66842],[91.94559,24.6652],[91.94617,24.65582],[91.93909,24.65741],[91.93625,24.66321],[91.93455,24.66459],[91.93357,24.65895],[91.92812,24.65469],[91.92545,24.65513],[91.91691,24.65782],[91.91595,24.66366],[91.91356,24.66605],[91.90842,24.66642],[91.90461,24.66444],[91.90422,24.65941],[91.90949,24.65782],[91.91008,24.65338],[91.90626,24.6475],[91.9018,24.65014],[91.8957,24.64762],[91.89395,24.6528],[91.88825,24.65205],[91.8838,24.65469],[91.88084,24.65348],[91.87153,24.65333],[91.87058,24.65038],[91.86328,24.65175],[91.85143,24.64618],[91.84736,24.64284],[91.84313,24.64747],[91.83791,24.64986],[91.83862,24.65505],[91.83052,24.65559],[91.82632,24.65335],[91.82851,24.64809],[91.81876,24.64163],[91.81409,24.64503],[91.80763,24.64051],[91.80348,24.63918],[91.8014,24.63438],[91.79768,24.63774],[91.79508,24.64226],[91.79475,24.6468],[91.78899,24.64616],[91.78569,24.64412],[91.78326,24.64087],[91.78179,24.63547],[91.78208,24.63259],[91.78356,24.62943],[91.78365,24.62375],[91.77819,24.6239],[91.77735,24.62094],[91.77172,24.62144],[91.76109,24.61502],[91.7633,24.61023],[91.75878,24.60661],[91.75789,24.60148],[91.75233,24.60233],[91.75072,24.60123],[91.74615,24.6018],[91.73896,24.6011],[91.7411,24.59614],[91.73801,24.59362],[91.73463,24.5926],[91.72807,24.59313],[91.72678,24.59754],[91.71549,24.60073],[91.71164,24.59651],[91.69999,24.60348],[91.70193,24.60715],[91.69122,24.61053],[91.68742,24.60608],[91.68279,24.60907],[91.68542,24.61523],[91.68981,24.61632],[91.68961,24.6211],[91.68732,24.62566],[91.68188,24.62506],[91.67878,24.62965],[91.67408,24.63116],[91.67638,24.63566],[91.66629,24.63999],[91.66184,24.63545],[91.65662,24.63909],[91.65261,24.64061],[91.65276,24.64624],[91.64857,24.64656],[91.64748,24.64747],[91.64974,24.65128],[91.64948,24.65353],[91.64337,24.65221],[91.63976,24.65298],[91.63821,24.65602],[91.63965,24.65958],[91.64223,24.66104],[91.64835,24.65737],[91.65298,24.6596],[91.65453,24.66563],[91.64961,24.66794],[91.6517,24.67193],[91.65588,24.67499],[91.65892,24.68068],[91.65156,24.68049],[91.65939,24.70156],[91.65947,24.70832],[91.65612,24.71689],[91.65831,24.72048],[91.66391,24.72435],[91.67168,24.72217],[91.6743,24.72305],[91.67595,24.72482],[91.67632,24.72739],[91.67282,24.73406],[91.67251,24.7366],[91.67499,24.74852],[91.6821,24.74738],[91.68561,24.7484],[91.6881,24.75031],[91.69072,24.75493],[91.69363,24.75539],[91.69572,24.75416],[91.69806,24.74942],[91.70037,24.74778],[91.71274,24.74463],[91.72113,24.74402],[91.7239,24.74524],[91.72553,24.74903],[91.73038,24.75166],[91.73183,24.75918],[91.734,24.76202],[91.73631,24.76194],[91.73947,24.76336],[91.7449,24.77486],[91.74728,24.77737],[91.75584,24.77498],[91.76624,24.77768],[91.77153,24.78265],[91.77547,24.78353],[91.78152,24.78233],[91.78484,24.78461],[91.78789,24.7888],[91.78934,24.79518],[91.80495,24.79251],[91.81261,24.79239],[91.81616,24.79151],[91.81716,24.79015],[91.81783,24.78463],[91.8196,24.78254],[91.82293,24.78099],[91.82735,24.78258],[91.83054,24.78706],[91.83363,24.78843],[91.83681,24.78798],[91.83875,24.78634],[91.83929,24.78447],[91.83981,24.78119],[91.8377,24.77197],[91.83971,24.77046],[91.84817,24.77232],[91.84855,24.76995],[91.85886,24.77208],[91.86735,24.77077],[91.87358,24.76716],[91.87225,24.76209],[91.87253,24.75886],[91.87358,24.75853],[91.8755,24.75926],[91.87659,24.76065],[91.87866,24.76069],[91.88893,24.75352],[91.89038,24.75467],[91.89624,24.75743]]]}},{"type":"Feature","properties":{"name":"Beanibazar","district_id":"sylhet","pcode":"609117","sql_upazila_id":"sylhet-beanibazar","sql_name_bn":"বিয়ানীবাজার"},"geometry":{"type":"Polygon","coordinates":[[[92.24139,24.90128],[92.24052,24.89919],[92.24164,24.89662],[92.24725,24.89214],[92.24902,24.88879],[92.25056,24.87988],[92.25002,24.87457],[92.24791,24.87293],[92.2421,24.87254],[92.2406,24.87065],[92.24028,24.86808],[92.24426,24.86372],[92.24411,24.84937],[92.2485,24.84213],[92.2506,24.84147],[92.25487,24.84221],[92.25728,24.84131],[92.25462,24.83424],[92.25064,24.83056],[92.24477,24.83126],[92.24249,24.82992],[92.24577,24.82773],[92.2463,24.82477],[92.24491,24.82351],[92.24322,24.82369],[92.24201,24.82006],[92.23914,24.82041],[92.23494,24.81967],[92.23038,24.81796],[92.22666,24.82035],[92.22166,24.81872],[92.21608,24.81556],[92.21842,24.81231],[92.21755,24.80683],[92.21208,24.80338],[92.21091,24.80739],[92.20906,24.81034],[92.20657,24.81078],[92.20469,24.81],[92.20209,24.80723],[92.20355,24.80396],[92.20049,24.79845],[92.19903,24.79369],[92.1962,24.79025],[92.19976,24.78041],[92.20397,24.77805],[92.20085,24.76922],[92.19822,24.76818],[92.19559,24.77093],[92.18397,24.77358],[92.1807,24.77136],[92.17535,24.77261],[92.16796,24.76964],[92.16502,24.77246],[92.16307,24.77237],[92.15479,24.76949],[92.15246,24.76579],[92.14899,24.76674],[92.14639,24.76644],[92.1446,24.76491],[92.14212,24.76439],[92.13216,24.77115],[92.12493,24.77133],[92.12275,24.76941],[92.12157,24.76595],[92.11974,24.7635],[92.11108,24.75817],[92.10831,24.76058],[92.10637,24.75962],[92.103,24.7601],[92.09808,24.76466],[92.08618,24.76703],[92.08585,24.77612],[92.08475,24.77817],[92.07648,24.77994],[92.07497,24.78241],[92.078,24.78723],[92.07851,24.79565],[92.07954,24.79607],[92.08575,24.78852],[92.08819,24.78827],[92.0903,24.78989],[92.09039,24.79167],[92.08677,24.79469],[92.08461,24.8004],[92.08501,24.8032],[92.08617,24.80476],[92.09216,24.80256],[92.09333,24.80327],[92.09359,24.81405],[92.09499,24.81921],[92.10321,24.83272],[92.106,24.83324],[92.10767,24.83725],[92.10842,24.84072],[92.10812,24.84711],[92.10191,24.85924],[92.10213,24.86452],[92.10494,24.87135],[92.10482,24.87262],[92.10099,24.87398],[92.09518,24.87358],[92.08101,24.86776],[92.0729,24.86816],[92.06362,24.87134],[92.06107,24.87328],[92.05974,24.87655],[92.06101,24.87925],[92.06626,24.88554],[92.0658,24.88991],[92.06261,24.89527],[92.06458,24.89915],[92.06827,24.89739],[92.07196,24.90161],[92.07598,24.90369],[92.07689,24.90665],[92.07995,24.90755],[92.08276,24.9068],[92.08591,24.90197],[92.08342,24.89794],[92.08667,24.89734],[92.09352,24.90057],[92.09331,24.90489],[92.0955,24.90572],[92.09771,24.90506],[92.10158,24.90048],[92.09946,24.8963],[92.10276,24.89302],[92.1079,24.89259],[92.10705,24.8967],[92.11124,24.90572],[92.11529,24.90234],[92.11598,24.90352],[92.11986,24.90525],[92.12567,24.90578],[92.12523,24.91032],[92.13062,24.91228],[92.13276,24.91438],[92.13553,24.91552],[92.13562,24.91139],[92.14595,24.90776],[92.14764,24.92038],[92.15294,24.9181],[92.15365,24.92088],[92.15898,24.92509],[92.15637,24.92927],[92.15875,24.93377],[92.15878,24.93899],[92.16298,24.93968],[92.16273,24.94451],[92.16405,24.94796],[92.16283,24.95341],[92.17014,24.95674],[92.17221,24.95538],[92.17007,24.95093],[92.17339,24.94207],[92.18161,24.93686],[92.18461,24.93874],[92.18742,24.93472],[92.1942,24.93772],[92.19739,24.93719],[92.1991,24.94194],[92.20393,24.94266],[92.2084,24.94616],[92.21124,24.94277],[92.21325,24.94383],[92.218,24.94391],[92.21963,24.93587],[92.22173,24.9328],[92.23269,24.92477],[92.23507,24.91256],[92.23674,24.90847],[92.24139,24.90128]]]}},{"type":"Feature","properties":{"name":"Bishwanath","district_id":"sylhet","pcode":"609120","sql_upazila_id":"sylhet-bishwanath","sql_name_bn":"বিশ্বনাথ"},"geometry":{"type":"Polygon","coordinates":[[[91.69001,24.9371],[91.70125,24.9337],[91.70661,24.9351],[91.71183,24.92727],[91.70818,24.92218],[91.71258,24.91984],[91.71802,24.91871],[91.72072,24.92223],[91.73148,24.92194],[91.73212,24.91847],[91.7356,24.91737],[91.73581,24.91661],[91.73578,24.91346],[91.73445,24.91086],[91.74045,24.90851],[91.73955,24.907],[91.74982,24.90701],[91.75126,24.90301],[91.75484,24.90285],[91.762,24.90489],[91.76243,24.90849],[91.77036,24.90813],[91.77216,24.90651],[91.76852,24.90539],[91.76414,24.89602],[91.76826,24.89403],[91.7647,24.88722],[91.76569,24.88552],[91.7637,24.88238],[91.76856,24.88007],[91.77149,24.88065],[91.77413,24.88301],[91.77047,24.88666],[91.77417,24.89524],[91.77835,24.89422],[91.78273,24.90358],[91.78019,24.90575],[91.78396,24.91054],[91.78933,24.91195],[91.78911,24.90765],[91.79227,24.90288],[91.79056,24.89898],[91.79257,24.89523],[91.78707,24.89355],[91.7935,24.89221],[91.79393,24.8884],[91.79523,24.888],[91.79955,24.88871],[91.80197,24.89051],[91.80369,24.89326],[91.8005,24.89625],[91.80135,24.89696],[91.80436,24.89783],[91.80936,24.89585],[91.81165,24.89623],[91.81812,24.89942],[91.82222,24.89967],[91.8246,24.89819],[91.82475,24.89613],[91.82346,24.89434],[91.81773,24.88939],[91.81576,24.88648],[91.81805,24.87721],[91.81966,24.87646],[91.81953,24.87411],[91.81603,24.87091],[91.81351,24.8721],[91.81216,24.87393],[91.80754,24.87239],[91.8071,24.87108],[91.81076,24.85883],[91.81086,24.85578],[91.80691,24.85243],[91.80649,24.85038],[91.80991,24.84692],[91.81062,24.845],[91.80924,24.84126],[91.80836,24.83521],[91.80557,24.83222],[91.79723,24.8191],[91.78789,24.7888],[91.78484,24.78461],[91.78152,24.78233],[91.77547,24.78353],[91.77153,24.78265],[91.76624,24.77768],[91.76181,24.77699],[91.75813,24.77535],[91.75322,24.77525],[91.74728,24.77737],[91.7449,24.77486],[91.73947,24.76336],[91.73631,24.76194],[91.734,24.76202],[91.73183,24.75918],[91.73038,24.75166],[91.72553,24.74903],[91.7239,24.74524],[91.72113,24.74402],[91.71274,24.74463],[91.70037,24.74778],[91.69806,24.74942],[91.69572,24.75416],[91.69363,24.75539],[91.69072,24.75493],[91.6881,24.75031],[91.68561,24.7484],[91.6821,24.74738],[91.67499,24.74852],[91.6766,24.7531],[91.67921,24.75512],[91.67903,24.75777],[91.67499,24.76636],[91.67184,24.76906],[91.6681,24.77092],[91.66361,24.77183],[91.65346,24.77164],[91.65387,24.77708],[91.65298,24.77952],[91.65036,24.78117],[91.64364,24.78015],[91.64215,24.78073],[91.64161,24.78247],[91.6433,24.7847],[91.64613,24.78609],[91.65193,24.78513],[91.65455,24.78709],[91.65603,24.79272],[91.65722,24.79389],[91.65959,24.7935],[91.66481,24.78959],[91.66846,24.78824],[91.67606,24.7868],[91.67686,24.78902],[91.67602,24.796],[91.67627,24.80615],[91.67542,24.80924],[91.66448,24.81101],[91.66109,24.81487],[91.66229,24.8189],[91.66479,24.82225],[91.66736,24.82841],[91.66629,24.83482],[91.66327,24.84114],[91.66175,24.84871],[91.66192,24.85198],[91.66983,24.85926],[91.67797,24.86217],[91.68005,24.86462],[91.68125,24.86732],[91.67936,24.8736],[91.68048,24.87593],[91.68353,24.87626],[91.68713,24.87544],[91.68829,24.86822],[91.68997,24.8654],[91.69324,24.8639],[91.69623,24.86441],[91.69796,24.86637],[91.69855,24.86933],[91.70118,24.87032],[91.70384,24.87458],[91.70146,24.88236],[91.69802,24.88157],[91.69428,24.88235],[91.68957,24.88522],[91.68789,24.89068],[91.6882,24.89314],[91.68606,24.89551],[91.68768,24.89769],[91.69458,24.89847],[91.69804,24.90075],[91.69927,24.90415],[91.69777,24.90684],[91.68912,24.90648],[91.68839,24.90829],[91.68937,24.9102],[91.70081,24.91109],[91.70271,24.91372],[91.70078,24.91557],[91.69248,24.91956],[91.69234,24.92833],[91.69001,24.9371]]]}},{"type":"Feature","properties":{"name":"Companiganj","district_id":"sylhet","pcode":"609127","sql_upazila_id":"sylhet-companiganj","sql_name_bn":"কোম্পানীগঞ্জ"},"geometry":{"type":"Polygon","coordinates":[[[91.70781,25.15114],[91.70795,25.15269],[91.70668,25.15503],[91.70731,25.1588],[91.71326,25.15909],[91.72018,25.15751],[91.72403,25.15358],[91.7381,25.1507],[91.744,25.15122],[91.74534,25.15289],[91.74475,25.16377],[91.75095,25.17283],[91.75176,25.17499],[91.75127,25.17793],[91.75288,25.17982],[91.75742,25.17971],[91.76167,25.17496],[91.76667,25.17155],[91.78191,25.16828],[91.79275,25.17137],[91.80527,25.17302],[91.80917,25.17281],[91.81263,25.17377],[91.81442,25.17548],[91.82318,25.17641],[91.83037,25.18107],[91.83473,25.1824],[91.8487,25.18026],[91.84457,25.17347],[91.84321,25.16043],[91.84563,25.13605],[91.85169,25.1264],[91.85277,25.12275],[91.85094,25.11426],[91.85615,25.10976],[91.8541,25.10685],[91.85052,25.10583],[91.84808,25.10375],[91.84834,25.10156],[91.85269,25.09651],[91.85467,25.0919],[91.854,25.0813],[91.84925,25.06868],[91.84898,25.06335],[91.84887,25.05894],[91.85303,25.04891],[91.853,25.0458],[91.83806,25.04598],[91.83582,25.04411],[91.83334,25.03525],[91.83128,25.03304],[91.82314,25.02915],[91.81561,25.01635],[91.81144,25.01369],[91.80778,25.01246],[91.79881,25.01228],[91.79499,25.01392],[91.79182,25.01863],[91.78482,25.02361],[91.7814,25.02345],[91.77487,25.0214],[91.75674,25.00951],[91.7508,25.00428],[91.74163,24.98752],[91.73796,24.98462],[91.72624,24.97851],[91.71915,24.97792],[91.71729,24.98218],[91.71287,24.98252],[91.71014,24.98439],[91.70296,24.98186],[91.70211,24.98378],[91.70191,24.98867],[91.69059,24.99202],[91.68732,24.98819],[91.67471,24.99186],[91.67731,24.99607],[91.66855,25.00375],[91.67079,25.00579],[91.68124,25.00276],[91.68203,24.9971],[91.68656,24.99584],[91.69394,24.9958],[91.69416,25.00015],[91.69576,25.00204],[91.68892,25.00511],[91.68788,25.0071],[91.69059,25.01089],[91.68888,25.01453],[91.68679,25.01673],[91.68374,25.01885],[91.67938,25.01637],[91.67115,25.01932],[91.66924,25.02152],[91.66862,25.02412],[91.67284,25.02822],[91.6789,25.02942],[91.68202,25.025],[91.68403,25.02476],[91.68675,25.02747],[91.68612,25.03381],[91.68131,25.03358],[91.67783,25.03836],[91.67636,25.03928],[91.67541,25.04282],[91.67667,25.04403],[91.6805,25.0424],[91.68527,25.04205],[91.68941,25.04413],[91.68801,25.04769],[91.68855,25.05082],[91.68625,25.05544],[91.69321,25.06225],[91.69902,25.06232],[91.69939,25.06592],[91.70408,25.06632],[91.70666,25.06749],[91.70826,25.0692],[91.7118,25.06683],[91.71481,25.06896],[91.71709,25.06939],[91.72063,25.06805],[91.72283,25.07164],[91.73434,25.07207],[91.73649,25.06849],[91.74005,25.07283],[91.7373,25.07569],[91.73831,25.07847],[91.73038,25.08502],[91.72535,25.09417],[91.72414,25.09782],[91.72385,25.11082],[91.72782,25.11847],[91.72897,25.12738],[91.72131,25.14214],[91.71304,25.14705],[91.70781,25.15114]]]}},{"type":"Feature","properties":{"name":"Fenchuganj","district_id":"sylhet","pcode":"609135","sql_upazila_id":"sylhet-fenchuganj","sql_name_bn":"ফেঞ্চুগঞ্জ"},"geometry":{"type":"Polygon","coordinates":[[[91.95777,24.74119],[91.96838,24.73721],[91.97476,24.73289],[91.97862,24.73199],[91.98272,24.73464],[91.98815,24.73615],[91.99039,24.73456],[91.99197,24.73215],[91.99192,24.72894],[91.98955,24.72191],[91.99069,24.71871],[91.99566,24.71484],[92.00099,24.71343],[92.00496,24.71137],[92.02554,24.70636],[92.03101,24.70167],[92.02959,24.69983],[92.03004,24.6974],[92.03886,24.69297],[92.03882,24.69096],[92.03754,24.68832],[92.03832,24.67416],[92.03761,24.66569],[92.03646,24.66166],[92.03426,24.65802],[92.02865,24.65778],[92.02172,24.65869],[92.01881,24.65726],[92.01808,24.6551],[92.02144,24.65221],[92.01998,24.64969],[92.01765,24.64972],[92.00909,24.65305],[92.00334,24.64891],[91.99994,24.6487],[91.99838,24.65146],[92.00009,24.65404],[91.99682,24.65497],[91.99394,24.65302],[91.99273,24.65065],[91.99428,24.64617],[91.98682,24.64428],[91.97752,24.64442],[91.97126,24.64249],[91.96468,24.64527],[91.96044,24.64969],[91.95617,24.65089],[91.94617,24.65582],[91.94559,24.6652],[91.94356,24.66842],[91.93422,24.67517],[91.91953,24.68177],[91.91774,24.68368],[91.91737,24.68743],[91.92088,24.69326],[91.92182,24.69839],[91.91967,24.70892],[91.91965,24.7134],[91.91755,24.71785],[91.91499,24.72071],[91.90922,24.7246],[91.9073,24.72772],[91.90399,24.7356],[91.90354,24.74268],[91.89779,24.74721],[91.89622,24.74973],[91.89624,24.75743],[91.90442,24.75613],[91.91415,24.75311],[91.91723,24.75311],[91.92693,24.75554],[91.93033,24.7557],[91.93649,24.75454],[91.94584,24.75027],[91.95492,24.74205],[91.95777,24.74119]]]}},{"type":"Feature","properties":{"name":"Golabganj","district_id":"sylhet","pcode":"609138","sql_upazila_id":null,"sql_name_bn":null},"geometry":{"type":"Polygon","coordinates":[[[92.02842,24.93033],[92.03191,24.92812],[92.03714,24.91758],[92.03603,24.90861],[92.03466,24.90522],[92.02641,24.89688],[92.02575,24.89403],[92.02689,24.89181],[92.03168,24.88931],[92.03402,24.8894],[92.03662,24.89102],[92.04125,24.89158],[92.0462,24.88748],[92.05151,24.88664],[92.05607,24.88709],[92.05778,24.8919],[92.06261,24.89527],[92.0658,24.88991],[92.06626,24.88554],[92.06101,24.87925],[92.05974,24.87655],[92.06107,24.87328],[92.06362,24.87134],[92.0729,24.86816],[92.08101,24.86776],[92.09518,24.87358],[92.09804,24.8741],[92.10099,24.87398],[92.10482,24.87262],[92.10494,24.87135],[92.10213,24.86452],[92.10191,24.85924],[92.10812,24.84711],[92.10842,24.84072],[92.10692,24.8351],[92.106,24.83324],[92.10321,24.83272],[92.09499,24.81921],[92.09359,24.81405],[92.09333,24.80327],[92.09216,24.80256],[92.08617,24.80476],[92.08501,24.8032],[92.08461,24.8004],[92.08677,24.79469],[92.09039,24.79167],[92.0903,24.78989],[92.08819,24.78827],[92.08575,24.78852],[92.07954,24.79607],[92.07851,24.79565],[92.078,24.78723],[92.07497,24.78241],[92.07648,24.77994],[92.08298,24.77905],[92.08475,24.77817],[92.08585,24.77612],[92.08618,24.76703],[92.08228,24.76828],[92.08074,24.76651],[92.08091,24.75542],[92.08167,24.75304],[92.08918,24.75239],[92.08901,24.7385],[92.08825,24.73612],[92.08511,24.73361],[92.08772,24.72943],[92.08669,24.72665],[92.07876,24.72066],[92.06995,24.70644],[92.05762,24.70043],[92.04467,24.70055],[92.04286,24.70205],[92.0435,24.70582],[92.04049,24.7072],[92.03101,24.70167],[92.02554,24.70636],[92.00967,24.7098],[91.99566,24.71484],[91.99069,24.71871],[91.98955,24.72191],[91.99192,24.72894],[91.99197,24.73215],[91.99039,24.73456],[91.98815,24.73615],[91.98272,24.73464],[91.97862,24.73199],[91.97476,24.73289],[91.96838,24.73721],[91.95777,24.74119],[91.96127,24.74323],[91.9636,24.74693],[91.96542,24.75421],[91.96516,24.75743],[91.96084,24.76547],[91.96233,24.77333],[91.96149,24.78272],[91.96241,24.78458],[91.96757,24.78805],[91.97024,24.79225],[91.9697,24.7952],[91.96631,24.80267],[91.96509,24.81427],[91.9637,24.81668],[91.96146,24.81825],[91.95862,24.81941],[91.95458,24.81945],[91.95263,24.81815],[91.95333,24.81347],[91.95223,24.81162],[91.94691,24.81338],[91.93922,24.81798],[91.93582,24.82053],[91.93439,24.82317],[91.9329,24.83207],[91.93159,24.83505],[91.92665,24.83926],[91.92333,24.84088],[91.92293,24.84285],[91.92361,24.84621],[91.92526,24.84775],[91.93517,24.8542],[91.93707,24.86526],[91.9419,24.8723],[91.94599,24.88552],[91.94972,24.89198],[91.95661,24.89716],[91.96194,24.89672],[91.96641,24.8954],[91.97272,24.89188],[91.97838,24.89051],[91.98108,24.89167],[91.9839,24.89971],[91.98698,24.90447],[91.99719,24.90814],[92.00205,24.91082],[92.00702,24.91522],[92.01133,24.92291],[92.01509,24.92374],[92.02135,24.92889],[92.02478,24.93064],[92.02842,24.93033]]]}},{"type":"Feature","properties":{"name":"Gowainghat","district_id":"sylhet","pcode":"609141","sql_upazila_id":"sylhet-gowainghat","sql_name_bn":"গোয়াইনঘাট"},"geometry":{"type":"Polygon","coordinates":[[[92.01802,25.18944],[92.03056,25.18207],[92.03626,25.18477],[92.04055,25.1858],[92.05645,25.18782],[92.06555,25.19003],[92.06596,25.18026],[92.06751,25.17612],[92.0672,25.17257],[92.06458,25.16958],[92.06126,25.1677],[92.05907,25.16468],[92.05621,25.15831],[92.05694,25.15443],[92.06098,25.14819],[92.06404,25.14514],[92.07443,25.13749],[92.07124,25.13549],[92.07275,25.13072],[92.07425,25.12814],[92.07673,25.12844],[92.07794,25.12747],[92.08076,25.12237],[92.08342,25.12002],[92.08321,25.11739],[92.08537,25.11638],[92.08689,25.11299],[92.09038,25.1109],[92.09391,25.11087],[92.09622,25.1009],[92.09299,25.09948],[92.09399,25.09434],[92.09546,25.09238],[92.09796,25.09211],[92.09921,25.09533],[92.11072,25.09929],[92.11687,25.10329],[92.11973,25.10363],[92.12101,25.10295],[92.1219,25.10056],[92.12164,25.09816],[92.11884,25.09408],[92.1119,25.08839],[92.10368,25.08332],[92.10373,25.07597],[92.09958,25.07384],[92.09302,25.0679],[92.08722,25.06452],[92.0793,25.0568],[92.07847,25.05419],[92.08657,25.04519],[92.08778,25.03952],[92.08772,25.03476],[92.08018,25.02105],[92.08183,25.01518],[92.07936,25.00914],[92.07836,25.00436],[92.07832,25.00126],[92.07983,25.00142],[92.08099,24.9996],[92.08482,24.99072],[92.07545,24.98995],[92.0762,24.98171],[92.07503,24.98095],[92.07194,24.98119],[92.07114,24.98024],[92.07234,24.97308],[92.0675,24.96965],[92.06009,24.96914],[92.05721,24.96719],[92.05783,24.9655],[92.05688,24.96197],[92.04369,24.95705],[92.03772,24.95281],[92.03333,24.94701],[92.02842,24.93033],[92.02478,24.93064],[92.02135,24.92889],[92.01509,24.92374],[92.01233,24.9228],[92.00546,24.92636],[92.00442,24.92938],[91.99985,24.93002],[91.99784,24.93114],[91.99534,24.94611],[91.99031,24.961],[91.98623,24.96719],[91.98398,24.96889],[91.98159,24.96898],[91.98066,24.96679],[91.98602,24.96077],[91.98595,24.95721],[91.98503,24.95645],[91.98095,24.95655],[91.97686,24.95803],[91.97253,24.96325],[91.96816,24.96543],[91.96487,24.96516],[91.95961,24.9633],[91.95515,24.96376],[91.94884,24.96711],[91.94707,24.97194],[91.94695,24.97941],[91.94152,24.98525],[91.9374,24.9923],[91.9338,25.00065],[91.92942,25.00737],[91.91962,25.0178],[91.91624,25.01838],[91.91267,25.01755],[91.91042,25.01546],[91.9092,25.01154],[91.90189,25.00436],[91.90311,25.00098],[91.89987,24.99571],[91.89766,24.99413],[91.89516,24.99601],[91.89156,24.99477],[91.88744,24.99189],[91.88805,24.98876],[91.88322,24.98688],[91.87876,24.98729],[91.87815,24.99138],[91.8629,24.98669],[91.85879,24.98886],[91.85717,24.99416],[91.85172,24.98867],[91.85423,24.98599],[91.85156,24.98322],[91.84502,24.9821],[91.84365,24.98628],[91.83934,24.98708],[91.83578,24.98888],[91.82384,25.01058],[91.81561,25.01635],[91.82314,25.02915],[91.83128,25.03304],[91.83334,25.03525],[91.83582,25.04411],[91.83806,25.04598],[91.853,25.0458],[91.85303,25.04891],[91.84887,25.05894],[91.84898,25.06335],[91.84925,25.06868],[91.854,25.0813],[91.85467,25.0919],[91.85269,25.09651],[91.84834,25.10156],[91.84808,25.10375],[91.85052,25.10583],[91.8541,25.10685],[91.85615,25.10976],[91.85094,25.11426],[91.85277,25.12275],[91.85169,25.1264],[91.84563,25.13605],[91.84321,25.16043],[91.84457,25.17347],[91.8487,25.18026],[91.85347,25.17834],[91.85779,25.17761],[91.86747,25.17787],[91.88137,25.18049],[91.88622,25.17916],[91.8889,25.18089],[91.89336,25.18169],[91.89733,25.18143],[91.90307,25.18361],[91.91162,25.18415],[91.91819,25.18659],[91.92225,25.18706],[91.93386,25.18552],[91.93806,25.18628],[91.94261,25.184],[91.9616,25.18346],[91.97323,25.1822],[91.97539,25.18011],[91.97693,25.17694],[91.97964,25.17559],[91.98886,25.17562],[91.99583,25.17959],[92.00327,25.18664],[92.01394,25.19019],[92.01788,25.18951],[92.01802,25.18944]]]}},{"type":"Feature","properties":{"name":"Jaintiapur","district_id":"sylhet","pcode":"609153","sql_upazila_id":"sylhet-jaintiapur","sql_name_bn":"জৈন্তাপুর"},"geometry":{"type":"Polygon","coordinates":[[[92.06555,25.19003],[92.07472,25.18915],[92.08223,25.18569],[92.08506,25.18644],[92.0873,25.18595],[92.09837,25.18149],[92.10861,25.1793],[92.11355,25.17486],[92.13201,25.16687],[92.14529,25.15899],[92.14476,25.15717],[92.14083,25.15716],[92.13879,25.14834],[92.1395,25.1455],[92.14563,25.14404],[92.14998,25.14042],[92.15404,25.13848],[92.1677,25.13666],[92.16822,25.13567],[92.16609,25.13363],[92.16806,25.13154],[92.18405,25.12836],[92.18537,25.12377],[92.18755,25.12196],[92.19199,25.12092],[92.19516,25.12475],[92.19894,25.1258],[92.20331,25.12832],[92.21678,25.12536],[92.22153,25.12333],[92.22703,25.12218],[92.23232,25.11961],[92.2289,25.11832],[92.2157,25.12047],[92.21232,25.11646],[92.21349,25.11349],[92.21541,25.11169],[92.22832,25.10657],[92.2294,25.10073],[92.22264,25.08906],[92.21898,25.08439],[92.21183,25.07819],[92.21391,25.07363],[92.2176,25.0717],[92.23562,25.06659],[92.2373,25.06377],[92.2305,25.05716],[92.22585,25.05413],[92.21504,25.05142],[92.21308,25.05247],[92.21023,25.0569],[92.2099,25.06007],[92.21065,25.06462],[92.20961,25.06875],[92.20402,25.06806],[92.20045,25.06516],[92.19604,25.06293],[92.18721,25.06174],[92.18396,25.05992],[92.17912,25.05323],[92.17567,25.04682],[92.17062,25.04083],[92.16669,25.03329],[92.16676,25.03002],[92.16541,25.02605],[92.16304,25.02529],[92.16269,25.02117],[92.15988,25.01462],[92.16058,25.00764],[92.15908,25.0057],[92.13419,24.99413],[92.12825,24.99288],[92.10402,24.99133],[92.09232,24.98961],[92.08878,24.99068],[92.08482,24.99072],[92.08099,24.9996],[92.07983,25.00142],[92.07832,25.00126],[92.07836,25.00436],[92.07936,25.00914],[92.08183,25.01518],[92.08018,25.02105],[92.08772,25.03476],[92.08778,25.03952],[92.08657,25.04519],[92.07847,25.05419],[92.0793,25.0568],[92.08722,25.06452],[92.09302,25.0679],[92.09958,25.07384],[92.10373,25.07597],[92.10368,25.08332],[92.1119,25.08839],[92.11884,25.09408],[92.12164,25.09816],[92.1219,25.10056],[92.12101,25.10295],[92.11973,25.10363],[92.11687,25.10329],[92.11072,25.09929],[92.09921,25.09533],[92.09796,25.09211],[92.09546,25.09238],[92.09399,25.09434],[92.09299,25.09948],[92.09622,25.1009],[92.09391,25.11087],[92.09038,25.1109],[92.08689,25.11299],[92.08537,25.11638],[92.08321,25.11739],[92.08342,25.12002],[92.08076,25.12237],[92.07794,25.12747],[92.07673,25.12844],[92.07425,25.12814],[92.07275,25.13072],[92.07124,25.13549],[92.07443,25.13749],[92.06404,25.14514],[92.06098,25.14819],[92.05694,25.15443],[92.05621,25.15831],[92.05907,25.16468],[92.06126,25.1677],[92.06458,25.16958],[92.0672,25.17257],[92.06751,25.17612],[92.06596,25.18026],[92.06561,25.18864],[92.06555,25.19003]]]}},{"type":"Feature","properties":{"name":"Kanaighat","district_id":"sylhet","pcode":"609159","sql_upazila_id":"sylhet-kanaighat","sql_name_bn":"কানাইঘাট"},"geometry":{"type":"Polygon","coordinates":[[[92.2294,25.10073],[92.23354,25.097],[92.23563,25.09938],[92.23743,25.09884],[92.2534,25.09303],[92.25713,25.08965],[92.26145,25.08767],[92.27572,25.08446],[92.28164,25.08077],[92.29144,25.07893],[92.31007,25.07316],[92.31494,25.07233],[92.31605,25.07418],[92.3225,25.07442],[92.32687,25.08044],[92.33004,25.08175],[92.33853,25.08128],[92.34783,25.07825],[92.35596,25.07336],[92.35659,25.06777],[92.356,25.0651],[92.35427,25.06339],[92.35149,25.06229],[92.34583,25.05571],[92.34717,25.05219],[92.35391,25.05129],[92.36288,25.05149],[92.3653,25.05075],[92.36962,25.05121],[92.37208,25.05006],[92.37325,25.04612],[92.37536,25.04436],[92.38173,25.04427],[92.38737,25.04248],[92.39727,25.0424],[92.40113,25.04149],[92.40462,25.03618],[92.40713,25.03498],[92.41101,25.03533],[92.4188,25.03248],[92.42393,25.03284],[92.42783,25.03157],[92.43065,25.03226],[92.43285,25.03102],[92.43325,25.02809],[92.431,25.02162],[92.43037,25.01281],[92.42587,25.00319],[92.42364,24.9961],[92.4127,24.99444],[92.41173,24.98942],[92.40038,24.9883],[92.40027,24.99203],[92.39809,24.99258],[92.39752,24.99709],[92.39471,24.99979],[92.39242,24.99949],[92.39038,24.99681],[92.38964,24.9915],[92.38841,24.98989],[92.37491,24.98512],[92.37419,24.98125],[92.37154,24.97659],[92.3648,24.97234],[92.36131,24.97174],[92.35782,24.97378],[92.35168,24.97903],[92.34959,24.98234],[92.34736,24.98306],[92.34398,24.98234],[92.34248,24.98028],[92.34219,24.96944],[92.34055,24.96589],[92.33736,24.96309],[92.33221,24.96228],[92.32846,24.96398],[92.32605,24.96368],[92.32309,24.96019],[92.32096,24.95947],[92.31647,24.96041],[92.30624,24.96554],[92.29877,24.96637],[92.29713,24.96873],[92.29748,24.9841],[92.29659,24.9865],[92.29386,24.98937],[92.28844,24.9931],[92.28054,24.99498],[92.27571,24.99431],[92.26907,24.98351],[92.26464,24.98558],[92.26238,24.9824],[92.25995,24.98055],[92.25604,24.97951],[92.25555,24.97494],[92.24903,24.97337],[92.2478,24.97055],[92.2423,24.97037],[92.24266,24.96404],[92.24118,24.96129],[92.24115,24.95698],[92.2362,24.95868],[92.23196,24.96201],[92.23128,24.96348],[92.23248,24.9671],[92.22807,24.96929],[92.22255,24.96999],[92.22246,24.96602],[92.21988,24.96612],[92.2201,24.96428],[92.22523,24.95999],[92.22232,24.95764],[92.22295,24.95061],[92.22128,24.94775],[92.22186,24.9444],[92.21325,24.94383],[92.21124,24.94277],[92.2084,24.94616],[92.20393,24.94266],[92.1991,24.94194],[92.19739,24.93719],[92.1942,24.93772],[92.18742,24.93472],[92.18461,24.93874],[92.18161,24.93686],[92.17339,24.94207],[92.17007,24.95093],[92.17221,24.95538],[92.17014,24.95674],[92.16283,24.95341],[92.16405,24.94796],[92.16273,24.94451],[92.16298,24.93968],[92.15878,24.93899],[92.15875,24.93377],[92.15637,24.92927],[92.15898,24.92509],[92.15365,24.92088],[92.15294,24.9181],[92.14764,24.92038],[92.14595,24.90776],[92.13562,24.91139],[92.13553,24.91552],[92.13276,24.91438],[92.13062,24.91228],[92.12523,24.91032],[92.12567,24.90578],[92.11986,24.90525],[92.11598,24.90352],[92.11529,24.90234],[92.11124,24.90572],[92.10705,24.8967],[92.1079,24.89259],[92.10276,24.89302],[92.09946,24.8963],[92.10158,24.90048],[92.09771,24.90506],[92.0955,24.90572],[92.09331,24.90489],[92.09352,24.90057],[92.08667,24.89734],[92.08342,24.89794],[92.08591,24.90197],[92.08276,24.9068],[92.07995,24.90755],[92.07689,24.90665],[92.07598,24.90369],[92.07196,24.90161],[92.06827,24.89739],[92.06458,24.89915],[92.06261,24.89527],[92.05778,24.8919],[92.05607,24.88709],[92.05151,24.88664],[92.0462,24.88748],[92.04125,24.89158],[92.03662,24.89102],[92.03402,24.8894],[92.03168,24.88931],[92.02689,24.89181],[92.02575,24.89403],[92.02641,24.89688],[92.03466,24.90522],[92.03603,24.90861],[92.03714,24.91758],[92.03191,24.92812],[92.02842,24.93033],[92.03333,24.94701],[92.03772,24.95281],[92.04369,24.95705],[92.05688,24.96197],[92.05783,24.9655],[92.05721,24.96719],[92.06009,24.96914],[92.0675,24.96965],[92.07234,24.97308],[92.07114,24.98024],[92.07194,24.98119],[92.07503,24.98095],[92.0762,24.98171],[92.07545,24.98995],[92.07851,24.99068],[92.08878,24.99068],[92.09232,24.98961],[92.10402,24.99133],[92.12825,24.99288],[92.13419,24.99413],[92.15908,25.0057],[92.16058,25.00764],[92.15988,25.01462],[92.16269,25.02117],[92.16304,25.02529],[92.16541,25.02605],[92.16676,25.03002],[92.16669,25.03329],[92.17062,25.04083],[92.17567,25.04682],[92.17912,25.05323],[92.18396,25.05992],[92.18721,25.06174],[92.19604,25.06293],[92.20045,25.06516],[92.20402,25.06806],[92.2076,25.06899],[92.20961,25.06875],[92.21065,25.06462],[92.2099,25.06007],[92.21023,25.0569],[92.21308,25.05247],[92.21504,25.05142],[92.22585,25.05413],[92.2305,25.05716],[92.2373,25.06377],[92.23699,25.06522],[92.23562,25.06659],[92.23117,25.06833],[92.2176,25.0717],[92.21391,25.07363],[92.21183,25.07819],[92.21898,25.08439],[92.22264,25.08906],[92.22905,25.10015],[92.2294,25.10073]]]}},{"type":"Feature","properties":{"name":"Sylhet S.","district_id":"sylhet","pcode":"609162","sql_upazila_id":null,"sql_name_bn":null},"geometry":{"type":"Polygon","coordinates":[[[91.81561,25.01635],[91.82384,25.01058],[91.83578,24.98888],[91.83934,24.98708],[91.84365,24.98628],[91.84502,24.9821],[91.85156,24.98322],[91.85423,24.98599],[91.85172,24.98867],[91.85717,24.99416],[91.85879,24.98886],[91.8629,24.98669],[91.87815,24.99138],[91.87876,24.98729],[91.88322,24.98688],[91.88805,24.98876],[91.88744,24.99189],[91.89156,24.99477],[91.89516,24.99601],[91.89766,24.99413],[91.89987,24.99571],[91.90311,25.00098],[91.90189,25.00436],[91.9092,25.01154],[91.91042,25.01546],[91.91267,25.01755],[91.91624,25.01838],[91.91962,25.0178],[91.92942,25.00737],[91.9338,25.00065],[91.9374,24.9923],[91.94152,24.98525],[91.94695,24.97941],[91.94707,24.97194],[91.94884,24.96711],[91.95515,24.96376],[91.95961,24.9633],[91.96487,24.96516],[91.96816,24.96543],[91.97253,24.96325],[91.97686,24.95803],[91.98095,24.95655],[91.98503,24.95645],[91.98595,24.95721],[91.98602,24.96077],[91.98066,24.96679],[91.98159,24.96898],[91.98398,24.96889],[91.98623,24.96719],[91.99031,24.961],[91.99534,24.94611],[91.99784,24.93114],[91.99985,24.93002],[92.00442,24.92938],[92.00546,24.92636],[92.01133,24.92291],[92.00702,24.91522],[92.00205,24.91082],[91.99719,24.90814],[91.98698,24.90447],[91.9839,24.89971],[91.98108,24.89167],[91.97838,24.89051],[91.97272,24.89188],[91.96641,24.8954],[91.96194,24.89672],[91.95661,24.89716],[91.94972,24.89198],[91.94599,24.88552],[91.9419,24.8723],[91.93707,24.86526],[91.93517,24.8542],[91.92361,24.84621],[91.92293,24.84285],[91.92333,24.84088],[91.92665,24.83926],[91.93159,24.83505],[91.9329,24.83207],[91.93439,24.82317],[91.93582,24.82053],[91.94287,24.81566],[91.94992,24.81205],[91.95223,24.81162],[91.95333,24.81347],[91.95263,24.81815],[91.95458,24.81945],[91.95862,24.81941],[91.96146,24.81825],[91.9637,24.81668],[91.96509,24.81427],[91.96631,24.80267],[91.9697,24.7952],[91.97024,24.79225],[91.96757,24.78805],[91.96241,24.78458],[91.96149,24.78272],[91.96233,24.77333],[91.96084,24.76547],[91.96516,24.75743],[91.96542,24.75421],[91.9636,24.74693],[91.96127,24.74323],[91.95777,24.74119],[91.95279,24.74357],[91.94584,24.75027],[91.93649,24.75454],[91.93033,24.7557],[91.91415,24.75311],[91.90442,24.75613],[91.89624,24.75743],[91.88893,24.75352],[91.87866,24.76069],[91.87659,24.76065],[91.8755,24.75926],[91.87358,24.75853],[91.87253,24.75886],[91.87225,24.76209],[91.87358,24.76716],[91.86735,24.77077],[91.85886,24.77208],[91.84855,24.76995],[91.84817,24.77232],[91.83971,24.77046],[91.8377,24.77197],[91.83981,24.78119],[91.83929,24.78447],[91.83875,24.78634],[91.83681,24.78798],[91.83363,24.78843],[91.83054,24.78706],[91.82735,24.78258],[91.82293,24.78099],[91.8196,24.78254],[91.81783,24.78463],[91.81716,24.79015],[91.81616,24.79151],[91.81261,24.79239],[91.80495,24.79251],[91.78934,24.79518],[91.79723,24.8191],[91.80557,24.83222],[91.80836,24.83521],[91.80924,24.84126],[91.81062,24.845],[91.80991,24.84692],[91.80649,24.85038],[91.80691,24.85243],[91.81086,24.85578],[91.81076,24.85883],[91.8071,24.87108],[91.80754,24.87239],[91.81216,24.87393],[91.81351,24.8721],[91.81603,24.87091],[91.81953,24.87411],[91.81966,24.87646],[91.81805,24.87721],[91.81576,24.88648],[91.81773,24.88939],[91.82346,24.89434],[91.82475,24.89613],[91.8246,24.89819],[91.82222,24.89967],[91.81812,24.89942],[91.81165,24.89623],[91.80936,24.89585],[91.80436,24.89783],[91.80135,24.89696],[91.8005,24.89625],[91.80369,24.89326],[91.80197,24.89051],[91.79955,24.88871],[91.79523,24.888],[91.79393,24.8884],[91.7935,24.89221],[91.78707,24.89355],[91.79257,24.89523],[91.79056,24.89898],[91.79227,24.90288],[91.78911,24.90765],[91.78933,24.91195],[91.78396,24.91054],[91.78019,24.90575],[91.78273,24.90358],[91.77835,24.89422],[91.77417,24.89524],[91.77047,24.88666],[91.77413,24.88301],[91.77149,24.88065],[91.76856,24.88007],[91.7637,24.88238],[91.76569,24.88552],[91.7647,24.88722],[91.76826,24.89403],[91.76414,24.89602],[91.76852,24.90539],[91.77216,24.90651],[91.77036,24.90813],[91.76243,24.90849],[91.762,24.90489],[91.75484,24.90285],[91.75126,24.90301],[91.74982,24.90701],[91.73955,24.907],[91.74045,24.90851],[91.73445,24.91086],[91.73578,24.91346],[91.73581,24.91661],[91.7356,24.91737],[91.73212,24.91847],[91.73148,24.92194],[91.72072,24.92223],[91.71802,24.91871],[91.71258,24.91984],[91.70818,24.92218],[91.71183,24.92727],[91.70661,24.9351],[91.70125,24.9337],[91.69001,24.9371],[91.69014,24.94221],[91.70133,24.94304],[91.70577,24.93973],[91.71631,24.94507],[91.71297,24.9487],[91.70689,24.94962],[91.70484,24.95141],[91.70406,24.95357],[91.7094,24.95417],[91.71515,24.96344],[91.7097,24.9692],[91.70024,24.97541],[91.69855,24.97812],[91.69905,24.98039],[91.71014,24.98439],[91.71287,24.98252],[91.71729,24.98218],[91.71915,24.97792],[91.72281,24.9779],[91.72624,24.97851],[91.73796,24.98462],[91.74163,24.98752],[91.74361,24.99026],[91.7478,24.99968],[91.7508,25.00428],[91.75674,25.00951],[91.77007,25.01877],[91.77487,25.0214],[91.7814,25.02345],[91.78482,25.02361],[91.78764,25.02189],[91.79182,25.01863],[91.79499,25.01392],[91.79881,25.01228],[91.80778,25.01246],[91.81144,25.01369],[91.81561,25.01635]]]}},{"type":"Feature","properties":{"name":"Zakiganj","district_id":"sylhet","pcode":"609194","sql_upazila_id":"sylhet-zakiganj","sql_name_bn":"জকিগঞ্জ"},"geometry":{"type":"Polygon","coordinates":[[[92.42364,24.9961],[92.42447,24.98257],[92.42948,24.97988],[92.4285,24.97258],[92.43161,24.97066],[92.43516,24.96638],[92.44591,24.96696],[92.44941,24.97209],[92.45445,24.97318],[92.46055,24.97615],[92.46403,24.97078],[92.46712,24.96858],[92.47103,24.9641],[92.47372,24.9571],[92.47158,24.95598],[92.46471,24.95478],[92.45879,24.95951],[92.45538,24.95833],[92.45209,24.95343],[92.45641,24.94848],[92.45641,24.94624],[92.45884,24.94566],[92.46437,24.94636],[92.46868,24.94244],[92.47922,24.94256],[92.48114,24.94874],[92.48927,24.95436],[92.49027,24.94754],[92.48789,24.93892],[92.49346,24.93592],[92.49384,24.92689],[92.49131,24.92235],[92.49641,24.91886],[92.49722,24.9152],[92.50187,24.91173],[92.50473,24.90437],[92.49802,24.90391],[92.49522,24.89996],[92.49427,24.89443],[92.50054,24.89163],[92.50008,24.88248],[92.4918,24.87402],[92.48602,24.87434],[92.47962,24.8726],[92.47566,24.87501],[92.47031,24.87076],[92.46661,24.87218],[92.46104,24.87265],[92.45853,24.87747],[92.44918,24.87725],[92.4502,24.87151],[92.44701,24.86292],[92.44069,24.8637],[92.43752,24.86102],[92.43321,24.85954],[92.43433,24.85369],[92.43235,24.85211],[92.42895,24.85197],[92.42492,24.85432],[92.42593,24.86014],[92.41645,24.86284],[92.4136,24.85825],[92.41098,24.85744],[92.40933,24.85132],[92.40453,24.85479],[92.39506,24.85536],[92.39147,24.84994],[92.38751,24.85114],[92.38539,24.8572],[92.38925,24.861],[92.38455,24.86712],[92.37823,24.86796],[92.3763,24.87171],[92.3707,24.87166],[92.36546,24.8817],[92.36211,24.88265],[92.35549,24.88046],[92.34798,24.89397],[92.34597,24.88941],[92.34618,24.88406],[92.34842,24.87897],[92.34734,24.87764],[92.34342,24.87746],[92.33904,24.88034],[92.34063,24.88625],[92.33553,24.89306],[92.32896,24.89282],[92.32706,24.89484],[92.31966,24.89464],[92.32005,24.90043],[92.31519,24.90384],[92.31445,24.90755],[92.30857,24.90831],[92.3053,24.91304],[92.30137,24.91372],[92.29838,24.92005],[92.28975,24.91581],[92.29105,24.90955],[92.28815,24.90595],[92.2831,24.90478],[92.27986,24.90991],[92.27086,24.91126],[92.26766,24.90576],[92.25776,24.90686],[92.25506,24.91393],[92.25021,24.91286],[92.24523,24.91025],[92.24446,24.90333],[92.24139,24.90128],[92.23674,24.90847],[92.23507,24.91256],[92.23269,24.92477],[92.22173,24.9328],[92.21963,24.93587],[92.21856,24.93931],[92.218,24.94391],[92.22186,24.9444],[92.22128,24.94775],[92.22295,24.95061],[92.22232,24.95764],[92.22523,24.95999],[92.2201,24.96428],[92.21988,24.96612],[92.22246,24.96602],[92.22255,24.96999],[92.22807,24.96929],[92.23248,24.9671],[92.23128,24.96348],[92.23196,24.96201],[92.2362,24.95868],[92.24115,24.95698],[92.24118,24.96129],[92.24266,24.96404],[92.2423,24.97037],[92.2478,24.97055],[92.24903,24.97337],[92.25555,24.97494],[92.25604,24.97951],[92.25995,24.98055],[92.26238,24.9824],[92.26464,24.98558],[92.26907,24.98351],[92.27571,24.99431],[92.28054,24.99498],[92.28844,24.9931],[92.29386,24.98937],[92.29659,24.9865],[92.29748,24.9841],[92.29713,24.96873],[92.29877,24.96637],[92.30624,24.96554],[92.31647,24.96041],[92.32096,24.95947],[92.32309,24.96019],[92.32605,24.96368],[92.32846,24.96398],[92.33221,24.96228],[92.33736,24.96309],[92.34055,24.96589],[92.34219,24.96944],[92.34248,24.98028],[92.34398,24.98234],[92.34736,24.98306],[92.34959,24.98234],[92.35168,24.97903],[92.35782,24.97378],[92.36131,24.97174],[92.3648,24.97234],[92.37154,24.97659],[92.37419,24.98125],[92.37491,24.98512],[92.38841,24.98989],[92.38964,24.9915],[92.39038,24.99681],[92.39242,24.99949],[92.39471,24.99979],[92.39752,24.99709],[92.39809,24.99258],[92.40027,24.99203],[92.40038,24.9883],[92.41173,24.98942],[92.4127,24.99444],[92.42034,24.9956],[92.42364,24.9961]]]}}]}