{"type":"FeatureCollection","features":[{"type":"Feature","properties":{"name":"Basail","district_id":"tangail","pcode":"309309","sql_upazila_id":"tangail-basail","sql_name_bn":"বাসাইল"},"geometry":{"type":"Polygon","coordinates":[[[90.05791,24.2944],[90.06408,24.29094],[90.06096,24.28432],[90.06125,24.28345],[90.0629,24.28263],[90.06546,24.28444],[90.06689,24.28844],[90.06857,24.28824],[90.07082,24.2861],[90.07074,24.27876],[90.07255,24.27839],[90.0786,24.28229],[90.08292,24.28247],[90.08624,24.27584],[90.08824,24.27582],[90.08963,24.27442],[90.08468,24.26546],[90.08486,24.26477],[90.089,24.2649],[90.08976,24.263],[90.08863,24.26071],[90.0827,24.25894],[90.08002,24.26149],[90.07776,24.26134],[90.07647,24.2597],[90.07658,24.25711],[90.07845,24.25468],[90.08336,24.25354],[90.0882,24.25434],[90.09081,24.25179],[90.09445,24.25181],[90.10052,24.25427],[90.10388,24.24499],[90.10342,24.24385],[90.10133,24.24289],[90.10013,24.24032],[90.10168,24.2379],[90.10317,24.23742],[90.10066,24.23486],[90.10415,24.23218],[90.10521,24.23028],[90.10377,24.22731],[90.09781,24.23128],[90.09624,24.23095],[90.09717,24.22853],[90.095,24.22477],[90.0978,24.22404],[90.09919,24.22041],[90.09892,24.21967],[90.09253,24.21922],[90.09283,24.21641],[90.0906,24.21052],[90.09123,24.20907],[90.0941,24.21065],[90.09592,24.21321],[90.09857,24.21387],[90.10078,24.21236],[90.10078,24.21052],[90.10193,24.20896],[90.10367,24.2083],[90.10393,24.2044],[90.10644,24.20237],[90.10753,24.19908],[90.1122,24.19869],[90.11331,24.19781],[90.11214,24.19645],[90.10677,24.19438],[90.10597,24.19255],[90.10705,24.19088],[90.10976,24.19165],[90.11266,24.19059],[90.11517,24.18826],[90.11741,24.18376],[90.11834,24.1791],[90.11753,24.16814],[90.11591,24.16598],[90.11282,24.16527],[90.10983,24.16565],[90.10487,24.16913],[90.10237,24.16917],[90.10065,24.16804],[90.09975,24.16053],[90.09242,24.15969],[90.08881,24.16214],[90.08311,24.1684],[90.08436,24.17293],[90.08128,24.17474],[90.07116,24.17479],[90.06701,24.17408],[90.06466,24.17279],[90.06188,24.16507],[90.0579,24.16557],[90.05774,24.17792],[90.05377,24.18582],[90.05036,24.18666],[90.04733,24.18549],[90.04565,24.18167],[90.04475,24.1757],[90.04337,24.17324],[90.03792,24.1706],[90.0365,24.16918],[90.03469,24.16926],[90.032,24.17359],[90.02968,24.17356],[90.02753,24.17025],[90.02695,24.1674],[90.02797,24.16577],[90.02008,24.16746],[90.02032,24.16946],[90.01736,24.17305],[90.01105,24.17553],[90.00958,24.1744],[90.00935,24.17274],[90.00381,24.17388],[90.00286,24.1728],[90.00274,24.17091],[89.99301,24.17634],[89.99107,24.17636],[89.9872,24.17164],[89.98528,24.17039],[89.98167,24.1706],[89.98008,24.17194],[89.97791,24.17236],[89.97607,24.17364],[89.97607,24.17583],[89.97802,24.18826],[89.97357,24.20622],[89.97501,24.20867],[89.98048,24.21194],[89.98342,24.21674],[89.98445,24.22695],[89.98333,24.23402],[89.98646,24.24788],[89.98177,24.25057],[89.98052,24.25265],[89.98036,24.26293],[89.97403,24.27172],[89.97601,24.27548],[89.9757,24.27784],[89.97128,24.27857],[89.9695,24.28014],[89.97016,24.28347],[89.97329,24.28355],[89.97833,24.28712],[89.98051,24.28715],[89.98777,24.28243],[89.98945,24.27765],[89.99165,24.27745],[89.99448,24.27835],[89.99759,24.28221],[90.00457,24.28834],[90.00501,24.29529],[90.00667,24.29626],[90.02629,24.29128],[90.03426,24.28523],[90.0374,24.28531],[90.03943,24.28638],[90.04517,24.29929],[90.04942,24.29936],[90.05217,24.3037],[90.05424,24.30373],[90.05734,24.30083],[90.05636,24.29694],[90.05791,24.2944]]]}},{"type":"Feature","properties":{"name":"Bhuapur","district_id":"tangail","pcode":"309319","sql_upazila_id":"tangail-bhuapur","sql_name_bn":"ভুয়াপুর"},"geometry":{"type":"Polygon","coordinates":[[[89.81174,24.57372],[89.81806,24.57086],[89.82618,24.56964],[89.82883,24.56795],[89.8332,24.56716],[89.83978,24.56435],[89.83917,24.56067],[89.83662,24.55863],[89.83897,24.55494],[89.83811,24.55363],[89.83427,24.55303],[89.83401,24.55016],[89.83177,24.54817],[89.82729,24.54936],[89.82583,24.54638],[89.82617,24.54282],[89.82993,24.53998],[89.82925,24.52586],[89.83054,24.52275],[89.8463,24.51888],[89.85088,24.51935],[89.85281,24.521],[89.85237,24.52353],[89.85025,24.52642],[89.85165,24.52939],[89.85321,24.52897],[89.85518,24.52528],[89.85715,24.524],[89.85849,24.52479],[89.85871,24.52818],[89.8598,24.5296],[89.86334,24.52836],[89.87616,24.52945],[89.87854,24.53178],[89.87806,24.535],[89.87868,24.5373],[89.88277,24.53777],[89.88493,24.53661],[89.88551,24.53206],[89.88325,24.52019],[89.88158,24.51878],[89.8756,24.51728],[89.87464,24.51465],[89.87578,24.5124],[89.87945,24.51134],[89.88108,24.50925],[89.88119,24.50598],[89.88221,24.50442],[89.88839,24.50586],[89.8917,24.50548],[89.89217,24.50403],[89.88831,24.50039],[89.88807,24.49857],[89.88992,24.49717],[89.88985,24.49453],[89.88459,24.49022],[89.88249,24.48651],[89.87961,24.4867],[89.8764,24.48404],[89.87575,24.47813],[89.87618,24.46791],[89.87913,24.46363],[89.88071,24.4546],[89.88649,24.44335],[89.88626,24.43721],[89.88702,24.43532],[89.89186,24.43331],[89.89331,24.42904],[89.89058,24.42804],[89.88816,24.42846],[89.88612,24.42717],[89.88435,24.42431],[89.88432,24.42294],[89.88088,24.42314],[89.87976,24.42114],[89.88213,24.41354],[89.88148,24.41039],[89.87691,24.40544],[89.88328,24.39539],[89.88312,24.39172],[89.88007,24.39037],[89.87765,24.39091],[89.87668,24.39447],[89.87517,24.39661],[89.86946,24.39603],[89.8662,24.39859],[89.86426,24.39832],[89.86431,24.39327],[89.85773,24.39086],[89.85569,24.39139],[89.85565,24.3949],[89.85172,24.39505],[89.84708,24.39273],[89.84593,24.39429],[89.84011,24.39446],[89.83649,24.39995],[89.83394,24.40083],[89.82753,24.39934],[89.82431,24.40069],[89.82111,24.40043],[89.82056,24.39825],[89.8236,24.39524],[89.8254,24.39459],[89.82142,24.39113],[89.82024,24.38626],[89.81752,24.38519],[89.81162,24.38702],[89.80625,24.38518],[89.80273,24.38239],[89.79865,24.38174],[89.79472,24.38235],[89.79188,24.38375],[89.79195,24.39133],[89.78991,24.39244],[89.78101,24.38976],[89.76073,24.38752],[89.75578,24.40697],[89.75393,24.40801],[89.74628,24.40515],[89.7403,24.40411],[89.73685,24.40649],[89.73411,24.41191],[89.73041,24.42411],[89.72866,24.43693],[89.72648,24.44016],[89.7238,24.44018],[89.72112,24.44342],[89.72182,24.44674],[89.73138,24.45545],[89.73905,24.45625],[89.73972,24.46779],[89.74641,24.46996],[89.75534,24.47879],[89.75433,24.48063],[89.74718,24.478],[89.7458,24.4783],[89.74562,24.48071],[89.74638,24.4834],[89.75388,24.49522],[89.75535,24.499],[89.75536,24.50193],[89.75398,24.50687],[89.75053,24.51127],[89.74711,24.51016],[89.74672,24.51262],[89.73813,24.51505],[89.7337,24.51778],[89.73384,24.52082],[89.73667,24.52378],[89.73975,24.52398],[89.74416,24.52206],[89.74639,24.5237],[89.74716,24.52961],[89.74583,24.53858],[89.75336,24.54407],[89.76534,24.54679],[89.77038,24.55014],[89.77178,24.55294],[89.77116,24.55846],[89.7718,24.56185],[89.77432,24.56475],[89.78132,24.56853],[89.78384,24.57277],[89.78953,24.56651],[89.79208,24.56517],[89.7992,24.56407],[89.80323,24.56462],[89.80691,24.5663],[89.80872,24.56835],[89.80993,24.57139],[89.81174,24.57372]]]}},{"type":"Feature","properties":{"name":"Delduar","district_id":"tangail","pcode":"309323","sql_upazila_id":"tangail-delduar","sql_name_bn":"দেলদুয়ার"},"geometry":{"type":"Polygon","coordinates":[[[90.02797,24.16577],[90.03099,24.16195],[90.02905,24.15732],[90.02487,24.15082],[90.02259,24.14981],[90.01729,24.14991],[90.01457,24.14909],[90.00804,24.15007],[90.00688,24.14871],[90.00781,24.14393],[90.00389,24.1399],[90.00724,24.13223],[90.00355,24.12279],[89.99775,24.1213],[89.99529,24.11725],[89.9937,24.11652],[89.98787,24.11606],[89.98591,24.11499],[89.97354,24.11282],[89.97301,24.1115],[89.97668,24.10865],[89.97479,24.10379],[89.96657,24.09515],[89.96669,24.09268],[89.96846,24.09129],[89.97513,24.09082],[89.97715,24.08936],[89.97441,24.07578],[89.97662,24.07438],[89.98003,24.07573],[89.98233,24.07507],[89.98322,24.07351],[89.98325,24.06996],[89.97776,24.06812],[89.97717,24.06244],[89.96739,24.06581],[89.96141,24.06621],[89.95596,24.06558],[89.93768,24.0587],[89.92971,24.05068],[89.91883,24.04786],[89.91566,24.04794],[89.91358,24.04969],[89.91102,24.05424],[89.90703,24.05675],[89.90528,24.06653],[89.90257,24.06764],[89.89937,24.06716],[89.89719,24.06953],[89.89616,24.07344],[89.89609,24.07775],[89.89757,24.08216],[89.90883,24.08717],[89.90936,24.08842],[89.9087,24.09152],[89.90737,24.09343],[89.90431,24.09587],[89.89806,24.09547],[89.89446,24.09647],[89.89288,24.09781],[89.88987,24.10674],[89.88759,24.11066],[89.88448,24.11299],[89.88056,24.11417],[89.87077,24.11484],[89.86251,24.11904],[89.86189,24.12376],[89.85789,24.12397],[89.85598,24.12508],[89.85347,24.12918],[89.85233,24.13315],[89.85367,24.13687],[89.85809,24.14365],[89.85905,24.14675],[89.85957,24.15731],[89.85779,24.16054],[89.85809,24.16266],[89.86013,24.16418],[89.8631,24.16537],[89.87691,24.1657],[89.87878,24.16499],[89.88365,24.16036],[89.88583,24.15993],[89.88917,24.16094],[89.8938,24.16095],[89.89488,24.16197],[89.894,24.16657],[89.88974,24.17788],[89.88814,24.1858],[89.88981,24.18998],[89.89375,24.19281],[89.89469,24.19487],[89.89433,24.19796],[89.89618,24.20387],[89.90123,24.20824],[89.90446,24.20959],[89.91384,24.20749],[89.91894,24.20893],[89.93504,24.21968],[89.94225,24.22019],[89.94431,24.21793],[89.9481,24.20986],[89.94743,24.20355],[89.94434,24.19548],[89.94541,24.19364],[89.94954,24.19377],[89.97018,24.1989],[89.97601,24.19465],[89.97802,24.18826],[89.97607,24.17364],[89.97791,24.17236],[89.98008,24.17194],[89.98167,24.1706],[89.98528,24.17039],[89.9872,24.17164],[89.99107,24.17636],[89.99301,24.17634],[90.00274,24.17091],[90.00286,24.1728],[90.00381,24.17388],[90.00935,24.17274],[90.00958,24.1744],[90.01105,24.17553],[90.01736,24.17305],[90.02032,24.16946],[90.02008,24.16746],[90.02797,24.16577]]]}},{"type":"Feature","properties":{"name":"Ghatail","district_id":"tangail","pcode":"309328","sql_upazila_id":"tangail-ghatail","sql_name_bn":"ঘাটাইল"},"geometry":{"type":"Polygon","coordinates":[[[90.15804,24.54649],[90.16182,24.53617],[90.16964,24.53327],[90.17323,24.52537],[90.17603,24.51575],[90.18139,24.52102],[90.18415,24.52139],[90.1877,24.52032],[90.18993,24.51524],[90.19396,24.51359],[90.19777,24.51314],[90.20628,24.50822],[90.2105,24.50668],[90.21032,24.50508],[90.20829,24.50435],[90.20665,24.5019],[90.20608,24.49921],[90.20744,24.49678],[90.21423,24.49745],[90.21741,24.49662],[90.22601,24.4887],[90.22908,24.48229],[90.23271,24.48214],[90.24047,24.48395],[90.24345,24.4831],[90.2443,24.47999],[90.2435,24.47833],[90.23272,24.46968],[90.22816,24.46795],[90.22395,24.46111],[90.22197,24.45975],[90.21301,24.45962],[90.21246,24.45802],[90.21275,24.45073],[90.22073,24.44553],[90.22681,24.43935],[90.2277,24.43711],[90.22781,24.43311],[90.23591,24.42415],[90.23718,24.41862],[90.23624,24.41469],[90.22511,24.41488],[90.21896,24.4188],[90.20953,24.42195],[90.20493,24.42757],[90.19609,24.42503],[90.18274,24.42461],[90.17781,24.42329],[90.17381,24.42138],[90.1692,24.41598],[90.1666,24.4144],[90.16447,24.41437],[90.16083,24.41625],[90.1504,24.41946],[90.13641,24.41899],[90.12847,24.41707],[90.12598,24.41526],[90.12585,24.41095],[90.12414,24.41045],[90.1212,24.41238],[90.11925,24.41648],[90.11802,24.41741],[90.11124,24.41914],[90.10867,24.41878],[90.10222,24.4146],[90.0978,24.41287],[90.09395,24.41215],[90.08673,24.41339],[90.07735,24.41228],[90.07725,24.40895],[90.07918,24.39894],[90.07527,24.39611],[90.07211,24.39052],[90.06895,24.38946],[90.06566,24.39254],[90.06367,24.39302],[90.06102,24.39235],[90.05695,24.397],[90.05202,24.39963],[90.04345,24.40001],[90.03892,24.40373],[90.03642,24.4041],[90.03434,24.40355],[90.03222,24.39909],[90.03561,24.39487],[90.03419,24.39327],[90.02788,24.39391],[90.01656,24.38771],[90.01521,24.38843],[90.01402,24.39067],[90.0132,24.39717],[90.00985,24.39852],[90.00761,24.39717],[90.00602,24.39144],[90.00252,24.3917],[89.99912,24.39322],[89.99717,24.39302],[89.9908,24.38906],[89.98539,24.39044],[89.9836,24.38908],[89.98225,24.3833],[89.98023,24.38274],[89.97713,24.38369],[89.9716,24.383],[89.96818,24.38355],[89.96401,24.38704],[89.9604,24.38769],[89.9575,24.38687],[89.95418,24.3845],[89.95101,24.38561],[89.95018,24.38723],[89.95062,24.3944],[89.9481,24.39827],[89.94218,24.4016],[89.93875,24.39997],[89.93406,24.39996],[89.92925,24.3961],[89.92474,24.39615],[89.92147,24.39773],[89.92218,24.40536],[89.92068,24.40801],[89.92049,24.41237],[89.91449,24.41301],[89.91307,24.4113],[89.91244,24.40867],[89.90969,24.40897],[89.90021,24.41251],[89.89658,24.41513],[89.88983,24.4137],[89.88432,24.42294],[89.88435,24.42431],[89.88612,24.42717],[89.88816,24.42846],[89.89058,24.42804],[89.89331,24.42904],[89.89323,24.43077],[89.89186,24.43331],[89.88702,24.43532],[89.88626,24.43721],[89.88649,24.44335],[89.88071,24.4546],[89.87913,24.46363],[89.87618,24.46791],[89.87575,24.47813],[89.88039,24.47567],[89.88074,24.4724],[89.88215,24.47089],[89.89693,24.48063],[89.90139,24.47875],[89.90718,24.4795],[89.91016,24.47855],[89.91267,24.47882],[89.91935,24.48231],[89.92375,24.48313],[89.93687,24.48174],[89.94069,24.48383],[89.94427,24.49103],[89.94395,24.49316],[89.94249,24.49489],[89.94259,24.49627],[89.94525,24.49963],[89.94568,24.50164],[89.94994,24.50159],[89.95213,24.5037],[89.95105,24.50555],[89.94907,24.50614],[89.94749,24.50839],[89.94961,24.5101],[89.9558,24.50946],[89.95608,24.51066],[89.95182,24.51329],[89.95274,24.51701],[89.95893,24.51643],[89.95966,24.51786],[89.95771,24.52001],[89.96335,24.52689],[89.96224,24.53236],[89.96348,24.53407],[89.96596,24.53514],[89.96694,24.53691],[89.96987,24.5386],[89.97243,24.53795],[89.9756,24.53935],[89.97648,24.54187],[89.97797,24.5434],[89.98133,24.54492],[89.98238,24.54692],[89.97898,24.54793],[89.978,24.54949],[89.97926,24.55235],[89.98265,24.55208],[89.98425,24.55574],[89.98841,24.55857],[89.99268,24.55882],[89.99545,24.55672],[89.99706,24.55395],[89.99973,24.553],[90.00969,24.55531],[90.01306,24.55436],[90.01443,24.55166],[90.00864,24.54177],[90.02166,24.53435],[90.03386,24.54037],[90.03973,24.53944],[90.04288,24.54194],[90.04539,24.54237],[90.05102,24.53944],[90.05337,24.54114],[90.05745,24.54144],[90.06849,24.53662],[90.07178,24.53773],[90.07253,24.54214],[90.07526,24.54338],[90.08034,24.5432],[90.08154,24.54578],[90.08385,24.54759],[90.08739,24.54876],[90.09512,24.54931],[90.09778,24.54819],[90.10302,24.54279],[90.10622,24.54058],[90.1086,24.53601],[90.10955,24.5321],[90.10856,24.52804],[90.10914,24.5224],[90.10703,24.51823],[90.10709,24.51617],[90.11003,24.51527],[90.12058,24.52538],[90.14143,24.53525],[90.1441,24.53918],[90.14729,24.54087],[90.15804,24.54649]]]}},{"type":"Feature","properties":{"name":"Gopalpur","district_id":"tangail","pcode":"309338","sql_upazila_id":"tangail-gopalpur","sql_name_bn":"গোপালপুর"},"geometry":{"type":"Polygon","coordinates":[[[89.89999,24.68551],[89.90388,24.68341],[89.90429,24.67962],[89.90818,24.67728],[89.90891,24.67389],[89.90893,24.66556],[89.91174,24.65755],[89.91542,24.65005],[89.92468,24.63963],[89.92638,24.63273],[89.92846,24.63093],[89.94065,24.63156],[89.94395,24.63055],[89.94622,24.62857],[89.94111,24.62093],[89.94686,24.61749],[89.94817,24.61512],[89.94788,24.61122],[89.94559,24.60774],[89.94481,24.60441],[89.94941,24.58904],[89.9524,24.58798],[89.95588,24.58909],[89.96144,24.59306],[89.96407,24.59274],[89.96654,24.58921],[89.9837,24.58578],[89.98328,24.57756],[89.9855,24.57612],[89.9912,24.57806],[89.99147,24.57433],[89.98716,24.56576],[89.98704,24.56128],[89.98841,24.55857],[89.98425,24.55574],[89.98265,24.55208],[89.97926,24.55235],[89.978,24.54949],[89.97898,24.54793],[89.98238,24.54692],[89.98133,24.54492],[89.97797,24.5434],[89.97648,24.54187],[89.9756,24.53935],[89.97243,24.53795],[89.96987,24.5386],[89.96694,24.53691],[89.96596,24.53514],[89.96348,24.53407],[89.96224,24.53236],[89.96335,24.52689],[89.95771,24.52001],[89.95966,24.51786],[89.95893,24.51643],[89.95274,24.51701],[89.95182,24.51329],[89.95608,24.51066],[89.9558,24.50946],[89.94961,24.5101],[89.94749,24.50839],[89.94907,24.50614],[89.95105,24.50555],[89.95213,24.5037],[89.94994,24.50159],[89.94568,24.50164],[89.94525,24.49963],[89.94259,24.49627],[89.94249,24.49489],[89.94395,24.49316],[89.94427,24.49103],[89.94069,24.48383],[89.93687,24.48174],[89.92375,24.48313],[89.91935,24.48231],[89.91267,24.47882],[89.91016,24.47855],[89.90718,24.4795],[89.90139,24.47875],[89.89693,24.48063],[89.88215,24.47089],[89.88074,24.4724],[89.88039,24.47567],[89.87575,24.47813],[89.8764,24.48404],[89.87961,24.4867],[89.88249,24.48651],[89.88459,24.49022],[89.88985,24.49453],[89.88992,24.49717],[89.88807,24.49857],[89.88831,24.50039],[89.89217,24.50403],[89.8917,24.50548],[89.88839,24.50586],[89.88221,24.50442],[89.88119,24.50598],[89.88108,24.50925],[89.87945,24.51134],[89.87578,24.5124],[89.87464,24.51465],[89.8756,24.51728],[89.88158,24.51878],[89.88325,24.52019],[89.88551,24.53206],[89.88493,24.53661],[89.88277,24.53777],[89.87868,24.5373],[89.87806,24.535],[89.87854,24.53178],[89.87616,24.52945],[89.86334,24.52836],[89.8598,24.5296],[89.85871,24.52818],[89.85849,24.52479],[89.85715,24.524],[89.85518,24.52528],[89.85321,24.52897],[89.85165,24.52939],[89.85025,24.52642],[89.85237,24.52353],[89.85281,24.521],[89.85088,24.51935],[89.8463,24.51888],[89.83054,24.52275],[89.82925,24.52586],[89.82993,24.53998],[89.82617,24.54282],[89.82583,24.54638],[89.82729,24.54936],[89.83177,24.54817],[89.83401,24.55016],[89.83427,24.55303],[89.83811,24.55363],[89.83897,24.55494],[89.83662,24.55863],[89.83917,24.56067],[89.83978,24.56435],[89.8332,24.56716],[89.82883,24.56795],[89.82618,24.56964],[89.81806,24.57086],[89.81174,24.57372],[89.8095,24.58201],[89.81161,24.58366],[89.81614,24.58144],[89.8192,24.58583],[89.82098,24.58696],[89.82519,24.58715],[89.827,24.58921],[89.82326,24.59234],[89.82283,24.59527],[89.82378,24.59796],[89.83001,24.60147],[89.83444,24.60275],[89.83411,24.60453],[89.82862,24.60573],[89.82655,24.60798],[89.82777,24.60941],[89.83348,24.6093],[89.83438,24.60998],[89.83583,24.61284],[89.83786,24.61369],[89.83949,24.61568],[89.83969,24.61889],[89.84155,24.62261],[89.84348,24.62219],[89.84952,24.61806],[89.85081,24.61966],[89.84426,24.62827],[89.84261,24.63213],[89.84763,24.63472],[89.84743,24.63685],[89.84485,24.63888],[89.84345,24.64291],[89.84526,24.64496],[89.85168,24.6456],[89.86162,24.64395],[89.86643,24.64592],[89.86901,24.64854],[89.86712,24.65533],[89.86685,24.65964],[89.86806,24.66468],[89.87758,24.6759],[89.87982,24.67709],[89.88579,24.67313],[89.89239,24.67358],[89.89635,24.67619],[89.8993,24.6808],[89.89999,24.68551]]]}},{"type":"Feature","properties":{"name":"Kalihati","district_id":"tangail","pcode":"309347","sql_upazila_id":"tangail-kalihati","sql_name_bn":"কালিহাতী"},"geometry":{"type":"Polygon","coordinates":[[[89.88432,24.42294],[89.88983,24.4137],[89.89658,24.41513],[89.90021,24.41251],[89.90969,24.40897],[89.91244,24.40867],[89.91307,24.4113],[89.91449,24.41301],[89.92049,24.41237],[89.92068,24.40801],[89.92218,24.40536],[89.92147,24.39773],[89.92474,24.39615],[89.92925,24.3961],[89.93406,24.39996],[89.93875,24.39997],[89.94218,24.4016],[89.9481,24.39827],[89.95062,24.3944],[89.95018,24.38723],[89.95101,24.38561],[89.95418,24.3845],[89.9575,24.38687],[89.9604,24.38769],[89.96401,24.38704],[89.96818,24.38355],[89.9716,24.383],[89.97387,24.38378],[89.98023,24.38274],[89.98225,24.3833],[89.9836,24.38908],[89.98539,24.39044],[89.9908,24.38906],[89.99717,24.39302],[89.99912,24.39322],[90.00252,24.3917],[90.00602,24.39144],[90.00761,24.39717],[90.00985,24.39852],[90.0132,24.39717],[90.01402,24.39067],[90.01521,24.38843],[90.01656,24.38771],[90.02788,24.39391],[90.03419,24.39327],[90.03561,24.39487],[90.03222,24.39909],[90.03434,24.40355],[90.03642,24.4041],[90.03892,24.40373],[90.04345,24.40001],[90.05202,24.39963],[90.05695,24.397],[90.06102,24.39235],[90.06367,24.39302],[90.06566,24.39254],[90.06895,24.38946],[90.07211,24.39052],[90.07527,24.39611],[90.07918,24.39894],[90.07725,24.40895],[90.07735,24.41228],[90.08471,24.41329],[90.08688,24.40816],[90.09373,24.40636],[90.09438,24.40532],[90.08577,24.3929],[90.08977,24.39039],[90.08736,24.3872],[90.08411,24.38465],[90.08226,24.38174],[90.08083,24.37745],[90.08127,24.37521],[90.0867,24.37044],[90.09474,24.36691],[90.09775,24.3647],[90.09905,24.35986],[90.09809,24.35682],[90.09576,24.35393],[90.0863,24.35185],[90.07655,24.35212],[90.07533,24.35093],[90.07461,24.34531],[90.07324,24.34355],[90.06984,24.34266],[90.06184,24.34298],[90.06072,24.33897],[90.06318,24.33728],[90.05773,24.33516],[90.05908,24.33192],[90.05868,24.33067],[90.06564,24.32675],[90.06955,24.32125],[90.07471,24.31994],[90.07523,24.31855],[90.07512,24.31436],[90.0709,24.30666],[90.06591,24.30487],[90.06603,24.30039],[90.06496,24.29794],[90.05791,24.2944],[90.05636,24.29694],[90.05734,24.30083],[90.05424,24.30373],[90.05217,24.3037],[90.04942,24.29936],[90.04517,24.29929],[90.04074,24.28849],[90.03943,24.28638],[90.0374,24.28531],[90.03426,24.28523],[90.02629,24.29128],[90.00667,24.29626],[90.00501,24.29529],[90.00457,24.28834],[89.99759,24.28221],[89.99448,24.27835],[89.99165,24.27745],[89.98945,24.27765],[89.98777,24.28243],[89.98051,24.28715],[89.97833,24.28712],[89.97329,24.28355],[89.97016,24.28347],[89.96786,24.28848],[89.96323,24.29105],[89.9593,24.29138],[89.9568,24.2914],[89.95599,24.28906],[89.95632,24.28297],[89.95558,24.28114],[89.95274,24.28031],[89.95009,24.28148],[89.94312,24.28069],[89.9421,24.28219],[89.94344,24.28545],[89.94287,24.28769],[89.93972,24.28922],[89.93629,24.28954],[89.93389,24.29105],[89.93088,24.29533],[89.9254,24.2963],[89.92458,24.30079],[89.91848,24.30199],[89.9164,24.30351],[89.91555,24.31173],[89.91302,24.31519],[89.90556,24.31945],[89.89495,24.31864],[89.89058,24.31908],[89.88896,24.32145],[89.89378,24.33346],[89.89372,24.34041],[89.89278,24.34242],[89.88959,24.34274],[89.88575,24.34192],[89.8839,24.34027],[89.88236,24.33213],[89.87972,24.33175],[89.87469,24.33301],[89.87173,24.33257],[89.86832,24.33381],[89.86694,24.33365],[89.86272,24.33002],[89.85854,24.33051],[89.85159,24.33282],[89.84932,24.33456],[89.84663,24.33464],[89.83422,24.33136],[89.83283,24.33344],[89.83287,24.33723],[89.82784,24.34313],[89.82014,24.34383],[89.81842,24.345],[89.8148,24.35037],[89.81194,24.35298],[89.80438,24.35385],[89.80174,24.35576],[89.79733,24.35213],[89.7967,24.34978],[89.8,24.34435],[89.80067,24.34102],[89.79819,24.3345],[89.79697,24.33313],[89.79051,24.33301],[89.78716,24.33166],[89.76073,24.33332],[89.75375,24.33654],[89.74739,24.34262],[89.74606,24.34918],[89.74976,24.3573],[89.76013,24.36806],[89.76337,24.37313],[89.76073,24.38752],[89.78101,24.38976],[89.78991,24.39244],[89.79195,24.39133],[89.79188,24.38375],[89.79472,24.38235],[89.79865,24.38174],[89.80273,24.38239],[89.80625,24.38518],[89.81162,24.38702],[89.81752,24.38519],[89.82024,24.38626],[89.82142,24.39113],[89.8254,24.39459],[89.8236,24.39524],[89.82056,24.39825],[89.82111,24.40043],[89.82431,24.40069],[89.82753,24.39934],[89.83394,24.40083],[89.83649,24.39995],[89.84011,24.39446],[89.84593,24.39429],[89.84708,24.39273],[89.85172,24.39505],[89.85565,24.3949],[89.85569,24.39139],[89.85773,24.39086],[89.86431,24.39327],[89.86426,24.39832],[89.8662,24.39859],[89.86946,24.39603],[89.87517,24.39661],[89.87668,24.39447],[89.87765,24.39091],[89.88007,24.39037],[89.88312,24.39172],[89.88328,24.39539],[89.87691,24.40544],[89.88148,24.41039],[89.88213,24.41354],[89.87976,24.42114],[89.88088,24.42314],[89.88432,24.42294]]]}},{"type":"Feature","properties":{"name":"Madhupur","district_id":"tangail","pcode":"309357","sql_upazila_id":"tangail-madhupur","sql_name_bn":"মধুপুর"},"geometry":{"type":"Polygon","coordinates":[[[90.08804,24.79122],[90.08679,24.78916],[90.08797,24.7866],[90.09679,24.77711],[90.10215,24.76594],[90.10371,24.75947],[90.10364,24.7566],[90.09825,24.75269],[90.09801,24.74368],[90.10098,24.73878],[90.10352,24.73813],[90.11041,24.73805],[90.11808,24.73903],[90.13459,24.73826],[90.13804,24.73482],[90.13924,24.73084],[90.13657,24.72639],[90.1348,24.71582],[90.14151,24.70008],[90.14003,24.69363],[90.14069,24.69069],[90.14354,24.6855],[90.14667,24.68191],[90.14898,24.67559],[90.15044,24.66309],[90.14927,24.65642],[90.15051,24.65385],[90.15453,24.64915],[90.15567,24.62691],[90.15502,24.62555],[90.15041,24.62333],[90.14696,24.61919],[90.14361,24.61722],[90.13908,24.61724],[90.13789,24.61228],[90.13756,24.60231],[90.13411,24.59649],[90.13526,24.59308],[90.14883,24.57616],[90.15084,24.57501],[90.15706,24.57489],[90.15919,24.57391],[90.15958,24.5724],[90.15582,24.56873],[90.15537,24.5657],[90.15741,24.55865],[90.15804,24.54649],[90.1441,24.53918],[90.14143,24.53525],[90.12058,24.52538],[90.11003,24.51527],[90.10709,24.51617],[90.10703,24.51823],[90.10914,24.5224],[90.10856,24.52804],[90.10955,24.5321],[90.1086,24.53601],[90.10622,24.54058],[90.10302,24.54279],[90.09778,24.54819],[90.09512,24.54931],[90.08739,24.54876],[90.08385,24.54759],[90.08154,24.54578],[90.08034,24.5432],[90.07526,24.54338],[90.07253,24.54214],[90.07178,24.53773],[90.06849,24.53662],[90.05745,24.54144],[90.05337,24.54114],[90.05102,24.53944],[90.04539,24.54237],[90.04288,24.54194],[90.03973,24.53944],[90.03386,24.54037],[90.02166,24.53435],[90.00864,24.54177],[90.01443,24.55166],[90.01306,24.55436],[90.00969,24.55531],[89.99973,24.553],[89.99706,24.55395],[89.99545,24.55672],[89.99268,24.55882],[89.98841,24.55857],[89.98704,24.56128],[89.98716,24.56576],[89.99147,24.57433],[89.9912,24.57806],[89.9855,24.57612],[89.98328,24.57756],[89.9837,24.58578],[89.96654,24.58921],[89.96407,24.59274],[89.96144,24.59306],[89.95588,24.58909],[89.9524,24.58798],[89.94941,24.58904],[89.94481,24.60441],[89.94559,24.60774],[89.94788,24.61122],[89.94817,24.61512],[89.94686,24.61749],[89.94111,24.62093],[89.94622,24.62857],[89.94395,24.63055],[89.94065,24.63156],[89.92846,24.63093],[89.92638,24.63273],[89.92468,24.63963],[89.91542,24.65005],[89.91174,24.65755],[89.90893,24.66556],[89.90891,24.67389],[89.90818,24.67728],[89.90429,24.67962],[89.90388,24.68341],[89.89999,24.68551],[89.89774,24.69328],[89.89537,24.69819],[89.89272,24.70022],[89.88615,24.70315],[89.88,24.71291],[89.87957,24.71797],[89.88061,24.72175],[89.87835,24.72946],[89.87862,24.73475],[89.88062,24.73886],[89.88538,24.74289],[89.88777,24.74333],[89.89233,24.74013],[89.89946,24.73662],[89.9026,24.73647],[89.9011,24.74166],[89.90232,24.74245],[89.90412,24.74191],[89.90624,24.73891],[89.90871,24.73705],[89.91136,24.73789],[89.91241,24.74178],[89.91501,24.74491],[89.91775,24.74655],[89.92456,24.74769],[89.925,24.75004],[89.92133,24.75587],[89.92229,24.7565],[89.92429,24.75625],[89.92713,24.7545],[89.93365,24.75639],[89.93808,24.75543],[89.94154,24.75086],[89.94254,24.74608],[89.9453,24.74381],[89.95367,24.74402],[89.95829,24.74334],[89.95976,24.74137],[89.96069,24.73437],[89.96381,24.72664],[89.96696,24.72282],[89.97203,24.72202],[89.98922,24.7261],[89.9928,24.72876],[89.99705,24.739],[90.01448,24.7495],[90.01781,24.75423],[90.02611,24.75897],[90.0274,24.76941],[90.02971,24.77329],[90.03366,24.77555],[90.04882,24.77631],[90.06988,24.78125],[90.07855,24.78811],[90.08804,24.79122]]]}},{"type":"Feature","properties":{"name":"Mirzapur","district_id":"tangail","pcode":"309366","sql_upazila_id":"tangail-mirzapur","sql_name_bn":"মির্জাপুর"},"geometry":{"type":"Polygon","coordinates":[[[90.11834,24.1791],[90.12513,24.18701],[90.12694,24.19146],[90.12943,24.19293],[90.13675,24.1933],[90.14548,24.19734],[90.15025,24.19528],[90.15442,24.19495],[90.15834,24.19645],[90.16495,24.20223],[90.17245,24.2045],[90.17706,24.20376],[90.18413,24.20414],[90.18793,24.20559],[90.20348,24.20748],[90.20595,24.20848],[90.2064,24.21089],[90.20478,24.21567],[90.206,24.21676],[90.20901,24.21712],[90.21421,24.2151],[90.2182,24.21729],[90.22592,24.21382],[90.22701,24.21226],[90.22586,24.20963],[90.22435,24.20919],[90.22126,24.21025],[90.2204,24.20843],[90.22063,24.2059],[90.22161,24.20526],[90.21938,24.20138],[90.22958,24.19764],[90.23145,24.19573],[90.23387,24.19495],[90.23884,24.19794],[90.24086,24.19654],[90.24033,24.19327],[90.24079,24.18568],[90.24171,24.18303],[90.24009,24.18094],[90.2403,24.17966],[90.24207,24.17928],[90.23668,24.17178],[90.23135,24.1663],[90.22784,24.15203],[90.22639,24.14897],[90.22292,24.14499],[90.22318,24.13653],[90.22012,24.12938],[90.22091,24.12657],[90.23293,24.1176],[90.23205,24.11464],[90.23259,24.11172],[90.23173,24.10773],[90.22956,24.10584],[90.22916,24.10242],[90.2197,24.09858],[90.21689,24.1011],[90.20795,24.0973],[90.20523,24.10257],[90.19878,24.10364],[90.19692,24.0994],[90.1928,24.09914],[90.1877,24.10149],[90.18926,24.10631],[90.18685,24.10911],[90.18408,24.11049],[90.17902,24.10992],[90.1784,24.09844],[90.17873,24.09678],[90.18213,24.09378],[90.18367,24.09077],[90.184,24.08659],[90.18309,24.08324],[90.17673,24.07405],[90.16965,24.06776],[90.16479,24.06524],[90.16399,24.0632],[90.16465,24.0557],[90.15849,24.05368],[90.15571,24.0519],[90.1551,24.05004],[90.1564,24.04754],[90.1531,24.04292],[90.15297,24.03806],[90.15154,24.03575],[90.14004,24.03413],[90.13306,24.034],[90.12771,24.02709],[90.11562,24.02667],[90.11703,24.02144],[90.11613,24.01815],[90.11404,24.01676],[90.10977,24.01766],[90.10275,24.02525],[90.09958,24.02749],[90.09838,24.02883],[90.09743,24.03366],[90.09512,24.03554],[90.08742,24.03611],[90.08786,24.03879],[90.08665,24.04025],[90.08356,24.04106],[90.08069,24.04078],[90.07957,24.03834],[90.07982,24.03617],[90.07845,24.03408],[90.07613,24.03322],[90.07384,24.03361],[90.07287,24.03466],[90.07274,24.03689],[90.07089,24.03762],[90.06899,24.03646],[90.06879,24.03121],[90.0661,24.02835],[90.04966,24.02814],[90.04628,24.02736],[90.03147,24.02053],[90.0274,24.02446],[90.02652,24.02653],[90.02796,24.02925],[90.03226,24.03161],[90.03192,24.03316],[90.02491,24.0364],[90.02388,24.03757],[90.02319,24.04187],[90.02023,24.04308],[90.01876,24.04185],[90.01578,24.03483],[90.01622,24.03265],[90.01891,24.03087],[90.02108,24.02791],[90.02206,24.02509],[90.02216,24.01925],[90.01962,24.01742],[90.01487,24.01708],[90.01368,24.02298],[90.00841,24.02872],[90.00425,24.02973],[90.0042,24.03479],[89.99869,24.04759],[89.99551,24.04997],[89.99369,24.04999],[89.99233,24.04805],[89.99133,24.0437],[89.98932,24.0428],[89.98364,24.04544],[89.98144,24.04529],[89.97942,24.0464],[89.97699,24.05102],[89.97648,24.05528],[89.97715,24.06633],[89.97776,24.06812],[89.98325,24.06996],[89.98322,24.07351],[89.98233,24.07507],[89.98003,24.07573],[89.97662,24.07438],[89.97441,24.07578],[89.97715,24.08936],[89.97513,24.09082],[89.96846,24.09129],[89.96669,24.09268],[89.96657,24.09515],[89.97479,24.10379],[89.97668,24.10865],[89.97301,24.1115],[89.97449,24.11321],[89.98591,24.11499],[89.98787,24.11606],[89.9937,24.11652],[89.99529,24.11725],[89.99775,24.1213],[90.00355,24.12279],[90.00724,24.13223],[90.00389,24.1399],[90.00781,24.14393],[90.00688,24.14871],[90.00804,24.15007],[90.01457,24.14909],[90.01729,24.14991],[90.02259,24.14981],[90.02487,24.15082],[90.02905,24.15732],[90.03099,24.16195],[90.02695,24.1674],[90.02753,24.17025],[90.02968,24.17356],[90.032,24.17359],[90.03469,24.16926],[90.0365,24.16918],[90.03792,24.1706],[90.04337,24.17324],[90.04475,24.1757],[90.04565,24.18167],[90.04733,24.18549],[90.05036,24.18666],[90.05377,24.18582],[90.05774,24.17792],[90.0579,24.16557],[90.06188,24.16507],[90.06466,24.17279],[90.06701,24.17408],[90.07116,24.17479],[90.08128,24.17474],[90.08436,24.17293],[90.08311,24.1684],[90.08881,24.16214],[90.09242,24.15969],[90.09975,24.16053],[90.10065,24.16804],[90.10237,24.16917],[90.10487,24.16913],[90.10983,24.16565],[90.11282,24.16527],[90.11591,24.16598],[90.11753,24.16814],[90.11813,24.17146],[90.1176,24.17486],[90.11834,24.1791]]]}},{"type":"Feature","properties":{"name":"Nagarpur","district_id":"tangail","pcode":"309376","sql_upazila_id":"tangail-nagarpur","sql_name_bn":"নাগরপুর"},"geometry":{"type":"Polygon","coordinates":[[[89.79918,24.15601],[89.79906,24.166],[89.80011,24.16806],[89.80289,24.16895],[89.80494,24.16882],[89.81264,24.16434],[89.81712,24.16607],[89.8196,24.16542],[89.82228,24.16022],[89.82475,24.15882],[89.83148,24.15813],[89.84342,24.15366],[89.85133,24.1552],[89.85423,24.15139],[89.8598,24.15392],[89.85809,24.14365],[89.85367,24.13687],[89.85233,24.13315],[89.85347,24.12918],[89.85598,24.12508],[89.85789,24.12397],[89.86189,24.12376],[89.86251,24.11904],[89.86657,24.1166],[89.87077,24.11484],[89.88056,24.11417],[89.88448,24.11299],[89.88759,24.11066],[89.88987,24.10674],[89.89288,24.09781],[89.89446,24.09647],[89.89806,24.09547],[89.90431,24.09587],[89.90737,24.09343],[89.9087,24.09152],[89.90936,24.08842],[89.90883,24.08717],[89.89757,24.08216],[89.89609,24.07775],[89.89616,24.07344],[89.89719,24.06953],[89.89937,24.06716],[89.90257,24.06764],[89.90528,24.06653],[89.90703,24.05675],[89.91102,24.05424],[89.91358,24.04969],[89.91566,24.04794],[89.91883,24.04786],[89.92971,24.05068],[89.93768,24.0587],[89.95596,24.06558],[89.96141,24.06621],[89.96739,24.06581],[89.97717,24.06244],[89.97648,24.05528],[89.97699,24.05102],[89.97942,24.0464],[89.98144,24.04529],[89.98364,24.04544],[89.98932,24.0428],[89.99133,24.0437],[89.99233,24.04805],[89.99369,24.04999],[89.99551,24.04997],[89.99869,24.04759],[90.0042,24.03479],[90.00425,24.02973],[90.00841,24.02872],[90.01368,24.02298],[90.015,24.01642],[90.01318,24.01105],[90.00648,24.01083],[90.00433,24.00969],[90.00378,24.00793],[90.00767,24.00398],[90.00706,24.00244],[90.005,24.00223],[90.00605,23.99723],[90.00574,23.99529],[90.00051,23.99321],[89.99865,23.99374],[89.99663,23.99508],[89.99395,23.9954],[89.98862,24.00113],[89.98466,24.00249],[89.97972,24.00226],[89.9763,24.00482],[89.97543,24.00741],[89.97705,24.00963],[89.98393,24.0095],[89.98409,24.01157],[89.98002,24.01781],[89.97973,24.02085],[89.98109,24.0252],[89.98071,24.02727],[89.97846,24.02931],[89.97547,24.0298],[89.97439,24.02872],[89.97269,24.02391],[89.96822,24.02217],[89.96675,24.01375],[89.96753,24.01053],[89.96569,24.00716],[89.9638,24.00661],[89.96095,24.00727],[89.95825,24.0089],[89.9556,24.01248],[89.95153,24.01447],[89.94988,24.0204],[89.94728,24.02129],[89.94433,24.01828],[89.94501,24.01322],[89.94437,24.01059],[89.94222,24.00946],[89.93919,24.00576],[89.93957,24.00346],[89.9458,24.00093],[89.94646,23.99989],[89.94524,23.99841],[89.94279,23.9978],[89.93565,23.99948],[89.92808,23.99869],[89.91998,23.99558],[89.91437,23.99228],[89.9107,23.98806],[89.90754,23.9889],[89.90385,23.99134],[89.90204,23.9909],[89.89994,23.98237],[89.89,23.98],[89.89014,23.97758],[89.88802,23.97553],[89.88539,23.97505],[89.88454,23.97339],[89.88584,23.97073],[89.89112,23.96741],[89.8918,23.96477],[89.8778,23.96622],[89.87539,23.96928],[89.8743,23.97319],[89.8765,23.97834],[89.87246,23.98153],[89.8746,23.98444],[89.87534,23.98696],[89.87471,23.98898],[89.87249,23.98986],[89.87086,23.98953],[89.86844,23.98754],[89.86145,23.98514],[89.86082,23.98279],[89.86264,23.98065],[89.86523,23.97942],[89.86568,23.97741],[89.86211,23.97222],[89.86439,23.96835],[89.86391,23.96491],[89.86232,23.9636],[89.84983,23.96085],[89.84784,23.96104],[89.84644,23.96249],[89.84631,23.96691],[89.84428,23.9679],[89.84215,23.96758],[89.83825,23.96411],[89.83533,23.96678],[89.83083,23.97365],[89.82468,23.97514],[89.81643,23.97923],[89.81306,23.97696],[89.81163,23.97457],[89.80863,23.97442],[89.80808,23.97001],[89.80637,23.9691],[89.80233,23.96954],[89.80088,23.97133],[89.79992,23.97507],[89.79783,23.97698],[89.79177,23.97618],[89.78973,23.977],[89.78842,23.97965],[89.7882,23.98326],[89.78625,23.985],[89.78329,23.984],[89.7815,23.98223],[89.77497,23.97328],[89.76981,23.97137],[89.76254,23.97528],[89.76254,23.97769],[89.76447,23.97951],[89.77273,23.98317],[89.77384,23.98534],[89.77359,23.99005],[89.77593,23.99382],[89.78296,24.01999],[89.78289,24.02705],[89.77856,24.03122],[89.7796,24.03512],[89.78985,24.04037],[89.79393,24.0436],[89.79875,24.04907],[89.80959,24.0577],[89.81619,24.06671],[89.81862,24.07387],[89.81978,24.08499],[89.81882,24.08902],[89.81535,24.09467],[89.81239,24.10825],[89.81197,24.1261],[89.81573,24.13653],[89.81446,24.13808],[89.80581,24.1416],[89.8036,24.1434],[89.80196,24.14772],[89.79918,24.15601]]]}},{"type":"Feature","properties":{"name":"Sakhipur","district_id":"tangail","pcode":"309385","sql_upazila_id":"tangail-sakhipur","sql_name_bn":"সখিপুর"},"geometry":{"type":"Polygon","coordinates":[[[90.23624,24.41469],[90.2436,24.41196],[90.24924,24.41208],[90.25299,24.411],[90.24481,24.38226],[90.23783,24.36526],[90.23467,24.34923],[90.23607,24.33961],[90.24091,24.33332],[90.24949,24.33009],[90.26167,24.3028],[90.26232,24.29998],[90.2615,24.29673],[90.26216,24.29167],[90.26434,24.28758],[90.26724,24.28537],[90.27124,24.28422],[90.27964,24.28368],[90.28468,24.28238],[90.29639,24.27549],[90.29949,24.2725],[90.30054,24.27001],[90.29916,24.26541],[90.30102,24.26039],[90.30118,24.25724],[90.29959,24.25396],[90.2943,24.24803],[90.29205,24.24333],[90.29137,24.22768],[90.28967,24.22519],[90.28624,24.22294],[90.28149,24.22048],[90.27226,24.21818],[90.26984,24.21624],[90.2692,24.21139],[90.26436,24.20973],[90.26202,24.20412],[90.2606,24.2025],[90.25462,24.2],[90.25242,24.19777],[90.25307,24.18935],[90.25169,24.18738],[90.24641,24.18562],[90.24207,24.17928],[90.2403,24.17966],[90.24009,24.18094],[90.24171,24.18303],[90.24079,24.18568],[90.24033,24.19327],[90.24086,24.19654],[90.23884,24.19794],[90.23387,24.19495],[90.23145,24.19573],[90.22958,24.19764],[90.21938,24.20138],[90.22161,24.20526],[90.22063,24.2059],[90.2204,24.20843],[90.22126,24.21025],[90.22435,24.20919],[90.22586,24.20963],[90.22701,24.21226],[90.22592,24.21382],[90.2182,24.21729],[90.21421,24.2151],[90.20901,24.21712],[90.206,24.21676],[90.20478,24.21567],[90.2064,24.21089],[90.20595,24.20848],[90.20348,24.20748],[90.18793,24.20559],[90.18413,24.20414],[90.17706,24.20376],[90.17245,24.2045],[90.16495,24.20223],[90.15834,24.19645],[90.15442,24.19495],[90.15025,24.19528],[90.14548,24.19734],[90.13675,24.1933],[90.12943,24.19293],[90.12694,24.19146],[90.12513,24.18701],[90.11834,24.1791],[90.11741,24.18376],[90.11517,24.18826],[90.11266,24.19059],[90.10976,24.19165],[90.10705,24.19088],[90.10597,24.19255],[90.10677,24.19438],[90.11214,24.19645],[90.11331,24.19781],[90.1122,24.19869],[90.10753,24.19908],[90.10644,24.20237],[90.10393,24.2044],[90.10367,24.2083],[90.10193,24.20896],[90.10078,24.21052],[90.10078,24.21236],[90.09857,24.21387],[90.09592,24.21321],[90.0941,24.21065],[90.09123,24.20907],[90.0906,24.21052],[90.09283,24.21641],[90.09253,24.21922],[90.09892,24.21967],[90.09919,24.22041],[90.0978,24.22404],[90.095,24.22477],[90.09717,24.22853],[90.09624,24.23095],[90.09781,24.23128],[90.10377,24.22731],[90.10521,24.23028],[90.10415,24.23218],[90.10066,24.23486],[90.10317,24.23742],[90.10168,24.2379],[90.10013,24.24032],[90.10133,24.24289],[90.10342,24.24385],[90.10388,24.24499],[90.10052,24.25427],[90.09445,24.25181],[90.09081,24.25179],[90.0882,24.25434],[90.08336,24.25354],[90.07845,24.25468],[90.07658,24.25711],[90.07647,24.2597],[90.07776,24.26134],[90.08002,24.26149],[90.0827,24.25894],[90.08863,24.26071],[90.08976,24.263],[90.089,24.2649],[90.08486,24.26477],[90.08468,24.26546],[90.08963,24.27442],[90.08824,24.27582],[90.08624,24.27584],[90.08292,24.28247],[90.0786,24.28229],[90.07255,24.27839],[90.07074,24.27876],[90.07082,24.2861],[90.06857,24.28824],[90.06689,24.28844],[90.06546,24.28444],[90.0629,24.28263],[90.06125,24.28345],[90.06096,24.28432],[90.06408,24.29094],[90.05791,24.2944],[90.06496,24.29794],[90.06603,24.30039],[90.06591,24.30487],[90.0709,24.30666],[90.07512,24.31436],[90.07471,24.31994],[90.06955,24.32125],[90.06564,24.32675],[90.05868,24.33067],[90.05908,24.33192],[90.05773,24.33516],[90.06318,24.33728],[90.06072,24.33897],[90.06184,24.34298],[90.06984,24.34266],[90.07324,24.34355],[90.07461,24.34531],[90.07533,24.35093],[90.07655,24.35212],[90.0863,24.35185],[90.09576,24.35393],[90.09809,24.35682],[90.09905,24.35986],[90.09775,24.3647],[90.09474,24.36691],[90.0867,24.37044],[90.08127,24.37521],[90.08083,24.37745],[90.08226,24.38174],[90.08411,24.38465],[90.08736,24.3872],[90.08977,24.39039],[90.08577,24.3929],[90.09438,24.40532],[90.09373,24.40636],[90.08688,24.40816],[90.08471,24.41329],[90.09395,24.41215],[90.0978,24.41287],[90.10222,24.4146],[90.10867,24.41878],[90.11124,24.41914],[90.11802,24.41741],[90.11925,24.41648],[90.1212,24.41238],[90.12414,24.41045],[90.12585,24.41095],[90.12598,24.41526],[90.12847,24.41707],[90.13641,24.41899],[90.14564,24.41963],[90.1504,24.41946],[90.16083,24.41625],[90.16447,24.41437],[90.1666,24.4144],[90.1692,24.41598],[90.17381,24.42138],[90.17781,24.42329],[90.18274,24.42461],[90.19609,24.42503],[90.20493,24.42757],[90.20953,24.42195],[90.21896,24.4188],[90.22511,24.41488],[90.22868,24.41508],[90.23624,24.41469]]]}},{"type":"Feature","properties":{"name":"Tangail S.","district_id":"tangail","pcode":"309395","sql_upazila_id":null,"sql_name_bn":null},"geometry":{"type":"Polygon","coordinates":[[[89.97016,24.28347],[89.9695,24.28014],[89.97128,24.27857],[89.9757,24.27784],[89.97601,24.27548],[89.97403,24.27172],[89.98036,24.26293],[89.98052,24.25265],[89.98177,24.25057],[89.98646,24.24788],[89.98333,24.23402],[89.98445,24.22695],[89.98342,24.21674],[89.98048,24.21194],[89.97501,24.20867],[89.97357,24.20622],[89.97601,24.19465],[89.97018,24.1989],[89.94954,24.19377],[89.94541,24.19364],[89.94434,24.19548],[89.94743,24.20355],[89.9481,24.20986],[89.94431,24.21793],[89.94225,24.22019],[89.93888,24.22045],[89.93504,24.21968],[89.93175,24.21799],[89.91894,24.20893],[89.91384,24.20749],[89.90446,24.20959],[89.90123,24.20824],[89.89618,24.20387],[89.89433,24.19796],[89.89469,24.19487],[89.89375,24.19281],[89.88981,24.18998],[89.88814,24.1858],[89.88974,24.17788],[89.89492,24.16358],[89.89488,24.16197],[89.8938,24.16095],[89.88917,24.16094],[89.88583,24.15993],[89.88365,24.16036],[89.87878,24.16499],[89.87691,24.1657],[89.8631,24.16537],[89.85809,24.16266],[89.85779,24.16054],[89.85957,24.15731],[89.8598,24.15392],[89.85423,24.15139],[89.85133,24.1552],[89.84342,24.15366],[89.83148,24.15813],[89.82475,24.15882],[89.82228,24.16022],[89.8196,24.16542],[89.81712,24.16607],[89.81264,24.16434],[89.80494,24.16882],[89.80289,24.16895],[89.80011,24.16806],[89.79906,24.166],[89.79918,24.15601],[89.798,24.15642],[89.78631,24.15365],[89.78231,24.15374],[89.77912,24.15601],[89.77657,24.15936],[89.7748,24.16282],[89.77625,24.16602],[89.7784,24.16721],[89.79103,24.16986],[89.79257,24.17139],[89.79305,24.17782],[89.77991,24.2211],[89.77733,24.23542],[89.77683,24.243],[89.78127,24.25513],[89.78315,24.26763],[89.78277,24.28216],[89.78117,24.28791],[89.77374,24.29825],[89.76888,24.30662],[89.76851,24.32379],[89.76637,24.32845],[89.76073,24.33332],[89.78716,24.33166],[89.79051,24.33301],[89.79697,24.33313],[89.79819,24.3345],[89.80067,24.34102],[89.8,24.34435],[89.7967,24.34978],[89.79733,24.35213],[89.80174,24.35576],[89.80438,24.35385],[89.81194,24.35298],[89.8148,24.35037],[89.81842,24.345],[89.82014,24.34383],[89.82784,24.34313],[89.83287,24.33723],[89.83283,24.33344],[89.83422,24.33136],[89.84663,24.33464],[89.84932,24.33456],[89.85159,24.33282],[89.85854,24.33051],[89.86272,24.33002],[89.86694,24.33365],[89.86832,24.33381],[89.87173,24.33257],[89.87469,24.33301],[89.87972,24.33175],[89.88236,24.33213],[89.8839,24.34027],[89.88575,24.34192],[89.88959,24.34274],[89.89278,24.34242],[89.89372,24.34041],[89.89378,24.33346],[89.88896,24.32145],[89.89058,24.31908],[89.89495,24.31864],[89.90556,24.31945],[89.91302,24.31519],[89.91555,24.31173],[89.9164,24.30351],[89.91848,24.30199],[89.92458,24.30079],[89.9254,24.2963],[89.93088,24.29533],[89.93389,24.29105],[89.93629,24.28954],[89.93972,24.28922],[89.94287,24.28769],[89.94344,24.28545],[89.9421,24.28219],[89.94312,24.28069],[89.95009,24.28148],[89.95274,24.28031],[89.95558,24.28114],[89.95632,24.28297],[89.95599,24.28906],[89.9568,24.2914],[89.96323,24.29105],[89.96786,24.28848],[89.97016,24.28347]]]}}]}