{"type":"FeatureCollection","features":[{"type":"Feature","properties":{"name":"Baliadangi","district_id":"thakurgaon","pcode":"559408","sql_upazila_id":"thakurgaon-baliadangi","sql_name_bn":"বালিয়াডাঙ্গী"},"geometry":{"type":"Polygon","coordinates":[[[88.34858,26.19088],[88.34823,26.18624],[88.35162,26.18564],[88.35132,26.18342],[88.35836,26.18151],[88.3598,26.18038],[88.35987,26.17906],[88.3575,26.17643],[88.35518,26.17556],[88.35418,26.17425],[88.36172,26.17365],[88.36359,26.17252],[88.35956,26.1648],[88.35818,26.16337],[88.35493,26.1621],[88.35368,26.16015],[88.34959,26.14833],[88.3456,26.14432],[88.34073,26.13534],[88.34212,26.13426],[88.35098,26.13356],[88.35532,26.13187],[88.35583,26.12805],[88.35291,26.12245],[88.35212,26.1176],[88.35387,26.11686],[88.36617,26.11686],[88.36806,26.1163],[88.36844,26.1151],[88.36639,26.10968],[88.36226,26.10743],[88.35866,26.10103],[88.35622,26.09908],[88.3549,26.09924],[88.354,26.1046],[88.34823,26.10303],[88.34417,26.09896],[88.34188,26.09251],[88.34193,26.08241],[88.33839,26.07624],[88.33582,26.07474],[88.33274,26.07649],[88.33149,26.07569],[88.32628,26.06374],[88.32116,26.05881],[88.31956,26.05088],[88.31578,26.04276],[88.31397,26.04065],[88.30746,26.03907],[88.30555,26.03187],[88.30609,26.01362],[88.30748,26.00912],[88.31157,26.00617],[88.31177,26.00435],[88.3106,26.00218],[88.3067,26.00187],[88.31232,25.99409],[88.31196,25.99032],[88.30953,25.98734],[88.30602,25.98778],[88.30411,25.99342],[88.29783,25.99721],[88.29256,25.9969],[88.27955,25.99245],[88.2729,25.99389],[88.27001,25.9957],[88.26711,25.99859],[88.26685,26.00122],[88.27244,26.01071],[88.27857,26.0258],[88.27917,26.03026],[88.2787,26.03408],[88.27625,26.03743],[88.2728,26.0389],[88.2706,26.03843],[88.26636,26.0351],[88.26373,26.03406],[88.25828,26.03391],[88.25475,26.03583],[88.24756,26.04458],[88.24607,26.05359],[88.24066,26.05572],[88.23785,26.05503],[88.23058,26.05527],[88.22699,26.05639],[88.22544,26.05301],[88.22356,26.05312],[88.21916,26.05579],[88.2179,26.0556],[88.21622,26.05432],[88.2143,26.04953],[88.21249,26.04798],[88.21004,26.04808],[88.20778,26.05018],[88.20633,26.04977],[88.20361,26.04576],[88.20182,26.03965],[88.20007,26.03805],[88.19239,26.03424],[88.1865,26.03398],[88.18407,26.03242],[88.18382,26.0298],[88.17599,26.03026],[88.17335,26.03156],[88.17309,26.03276],[88.17808,26.03746],[88.17825,26.03883],[88.17315,26.0436],[88.17282,26.0456],[88.17506,26.04771],[88.17947,26.04609],[88.18134,26.04662],[88.18201,26.04884],[88.17871,26.05681],[88.17983,26.05772],[88.18366,26.05729],[88.18684,26.06033],[88.18802,26.0629],[88.18624,26.0654],[88.18616,26.06871],[88.18527,26.07053],[88.1749,26.07629],[88.17184,26.08289],[88.17072,26.08294],[88.16978,26.08184],[88.16563,26.07418],[88.16362,26.07372],[88.16224,26.07439],[88.16096,26.07798],[88.16189,26.07964],[88.1677,26.08355],[88.16125,26.09247],[88.16241,26.0964],[88.16622,26.09974],[88.1655,26.10339],[88.16682,26.10522],[88.17207,26.10674],[88.17564,26.10892],[88.17622,26.11737],[88.18039,26.12179],[88.18095,26.1235],[88.17622,26.12598],[88.18056,26.13388],[88.18087,26.13593],[88.17884,26.14003],[88.18044,26.14569],[88.18269,26.14684],[88.1858,26.15125],[88.18987,26.15236],[88.19741,26.15086],[88.19827,26.15319],[88.1947,26.15393],[88.19581,26.15695],[88.19867,26.16085],[88.20383,26.15797],[88.20804,26.1581],[88.2168,26.16084],[88.2198,26.16467],[88.22363,26.16498],[88.22649,26.16716],[88.22945,26.16729],[88.22957,26.16855],[88.22762,26.17014],[88.22754,26.17122],[88.22867,26.17168],[88.23351,26.17097],[88.23606,26.174],[88.23801,26.17401],[88.23882,26.1751],[88.23749,26.17743],[88.23478,26.17884],[88.23545,26.18244],[88.23759,26.18114],[88.23878,26.1816],[88.24227,26.18556],[88.24477,26.18648],[88.24748,26.18611],[88.24797,26.1885],[88.25073,26.18908],[88.25182,26.18629],[88.25421,26.18408],[88.25558,26.18466],[88.2562,26.18689],[88.25852,26.18736],[88.26022,26.18611],[88.26273,26.18652],[88.26455,26.18778],[88.26889,26.18587],[88.27227,26.18697],[88.27617,26.18659],[88.28119,26.18838],[88.28078,26.19265],[88.28159,26.19358],[88.28304,26.19387],[88.28455,26.19171],[88.28593,26.19114],[88.28687,26.19189],[88.28547,26.19707],[88.28785,26.19806],[88.28917,26.1967],[88.29367,26.20094],[88.29486,26.20077],[88.29369,26.19747],[88.29826,26.19822],[88.29927,26.19783],[88.29941,26.19612],[88.30054,26.19584],[88.30148,26.19624],[88.3029,26.19962],[88.30391,26.20031],[88.30675,26.19735],[88.30781,26.19827],[88.30861,26.20175],[88.30992,26.20255],[88.31168,26.20297],[88.31608,26.20111],[88.31664,26.20271],[88.31789,26.20345],[88.32029,26.20124],[88.32191,26.20205],[88.32426,26.19584],[88.32429,26.19384],[88.32542,26.19225],[88.33395,26.19053],[88.34136,26.19153],[88.3457,26.19109],[88.34858,26.19088]]]}},{"type":"Feature","properties":{"name":"Haripur","district_id":"thakurgaon","pcode":"559451","sql_upazila_id":"thakurgaon-haripur","sql_name_bn":"হরিপুর"},"geometry":{"type":"Polygon","coordinates":[[[88.10789,25.82961],[88.11022,25.83119],[88.11151,25.83428],[88.11112,25.83811],[88.10886,25.83922],[88.10322,25.8401],[88.10289,25.84141],[88.1045,25.84387],[88.10663,25.84383],[88.11399,25.84793],[88.1153,25.84976],[88.11534,25.85244],[88.11356,25.85591],[88.11118,25.85698],[88.10979,25.86906],[88.10582,25.87676],[88.10704,25.8772],[88.10715,25.87994],[88.10329,25.88437],[88.1039,25.88694],[88.10847,25.88856],[88.10835,25.88959],[88.10738,25.89107],[88.10594,25.89163],[88.10207,25.88938],[88.09974,25.89222],[88.09259,25.89365],[88.09246,25.89462],[88.09352,25.89548],[88.09938,25.89803],[88.09103,25.90209],[88.09119,25.90771],[88.08676,25.9125],[88.08913,25.91594],[88.08835,25.91924],[88.09373,25.9296],[88.09827,25.93288],[88.10265,25.93467],[88.10912,25.93192],[88.11187,25.93313],[88.11348,25.93577],[88.11494,25.94178],[88.11692,25.94594],[88.12035,25.94888],[88.12077,25.9503],[88.11888,25.95263],[88.12062,25.95532],[88.12034,25.9563],[88.11834,25.95862],[88.11952,25.96039],[88.12595,25.96397],[88.12875,25.96689],[88.12886,25.96941],[88.12476,25.97383],[88.12456,25.97582],[88.12561,25.978],[88.13136,25.98009],[88.13008,25.98424],[88.13032,25.98664],[88.13131,25.98773],[88.13918,25.99291],[88.14265,25.98917],[88.1451,25.98776],[88.14781,25.98732],[88.16048,25.99179],[88.16319,25.98963],[88.16479,25.98576],[88.16436,25.98422],[88.16512,25.98263],[88.17447,25.98017],[88.17793,25.97734],[88.1774,25.97232],[88.17813,25.96566],[88.1804,25.96412],[88.18245,25.96408],[88.18783,25.96839],[88.18921,25.96668],[88.19017,25.96189],[88.1897,25.95847],[88.18613,25.94864],[88.19337,25.94041],[88.19601,25.93883],[88.19772,25.93621],[88.19711,25.93467],[88.18725,25.92851],[88.18384,25.92216],[88.18524,25.91777],[88.18966,25.91295],[88.19204,25.91165],[88.19894,25.91106],[88.20101,25.90948],[88.20165,25.9068],[88.20098,25.904],[88.19601,25.89793],[88.19352,25.89249],[88.19427,25.88508],[88.1949,25.88339],[88.20362,25.88074],[88.20657,25.87842],[88.20677,25.87591],[88.20478,25.86444],[88.20073,25.86145],[88.19073,25.85842],[88.18906,25.85482],[88.18847,25.8494],[88.18931,25.84433],[88.19165,25.83989],[88.19518,25.83632],[88.19976,25.83332],[88.21368,25.82957],[88.22634,25.82502],[88.23191,25.82499],[88.23848,25.82623],[88.242,25.82191],[88.24208,25.8198],[88.23916,25.81574],[88.24062,25.81312],[88.24075,25.81021],[88.24304,25.80623],[88.24021,25.80696],[88.23815,25.80586],[88.23573,25.80231],[88.23383,25.79478],[88.23196,25.79436],[88.22901,25.79543],[88.22626,25.79411],[88.22043,25.79807],[88.21893,25.79755],[88.21457,25.79399],[88.21484,25.78897],[88.20855,25.78545],[88.20667,25.7855],[88.2041,25.78691],[88.20246,25.7885],[88.20094,25.79294],[88.19698,25.79503],[88.19477,25.79867],[88.19189,25.79973],[88.19045,25.79876],[88.18458,25.79821],[88.18342,25.79261],[88.18243,25.79164],[88.1788,25.79099],[88.17743,25.78972],[88.17477,25.78446],[88.17033,25.78523],[88.16788,25.787],[88.16469,25.78663],[88.16252,25.78439],[88.15955,25.77764],[88.15794,25.77586],[88.1517,25.77377],[88.14975,25.77467],[88.14929,25.77735],[88.14573,25.77779],[88.1441,25.7788],[88.1447,25.78137],[88.1465,25.78389],[88.14648,25.78846],[88.14156,25.79385],[88.13473,25.79603],[88.12723,25.79387],[88.12316,25.79402],[88.11898,25.79491],[88.11714,25.79666],[88.11668,25.79923],[88.12095,25.80764],[88.12025,25.8102],[88.11779,25.81195],[88.11291,25.81238],[88.11108,25.81328],[88.11164,25.81545],[88.11118,25.81853],[88.10462,25.82579],[88.10574,25.82802],[88.10789,25.82961]]]}},{"type":"Feature","properties":{"name":"Pirganj","district_id":"thakurgaon","pcode":"559482","sql_upazila_id":"thakurgaon-pirganj","sql_name_bn":"পীরগঞ্জ"},"geometry":{"type":"Polygon","coordinates":[[[88.54089,25.96302],[88.54097,25.95817],[88.53867,25.95241],[88.53661,25.95154],[88.52664,25.95196],[88.52421,25.95001],[88.5211,25.94447],[88.51866,25.94178],[88.51522,25.93977],[88.51291,25.93714],[88.51093,25.93205],[88.51094,25.92612],[88.49979,25.92745],[88.49803,25.92693],[88.49673,25.9255],[88.49905,25.92358],[88.50444,25.92325],[88.50532,25.922],[88.50446,25.91429],[88.50584,25.91378],[88.51054,25.9158],[88.51123,25.91409],[88.50948,25.91164],[88.50143,25.90436],[88.4859,25.90265],[88.48335,25.90133],[88.48203,25.89927],[88.48153,25.89533],[88.48426,25.88849],[88.48435,25.88068],[88.48594,25.87469],[88.48566,25.8658],[88.47684,25.86091],[88.47034,25.86089],[88.46908,25.86237],[88.46925,25.86813],[88.46844,25.8695],[88.46579,25.87068],[88.46349,25.87039],[88.4626,25.86794],[88.46349,25.86576],[88.46201,25.86086],[88.46107,25.85949],[88.45644,25.85906],[88.44893,25.86126],[88.44704,25.86251],[88.44559,25.86456],[88.44527,25.86946],[88.44351,25.86957],[88.43564,25.86555],[88.43319,25.86525],[88.42987,25.8674],[88.428,25.86546],[88.42287,25.86435],[88.42244,25.8631],[88.42684,25.85861],[88.4256,25.85598],[88.42378,25.8554],[88.41695,25.85966],[88.41431,25.86032],[88.41324,25.86152],[88.41261,25.86505],[88.40295,25.86752],[88.40076,25.86654],[88.40015,25.86443],[88.4018,25.85822],[88.40538,25.8543],[88.40435,25.84676],[88.40298,25.84368],[88.3981,25.84429],[88.39411,25.84182],[88.38647,25.84104],[88.38572,25.83893],[88.38952,25.83484],[88.39071,25.83216],[88.39055,25.82588],[88.38955,25.82491],[88.38493,25.82352],[88.3857,25.81668],[88.38703,25.81326],[88.39067,25.81208],[88.39418,25.81198],[88.39449,25.81033],[88.39406,25.80793],[88.39089,25.80296],[88.39159,25.80119],[88.38746,25.80037],[88.38379,25.79545],[88.38232,25.79031],[88.38626,25.78833],[88.38903,25.78441],[88.39487,25.78067],[88.39543,25.77936],[88.39475,25.77856],[88.38988,25.7774],[88.38702,25.77155],[88.38928,25.76889],[88.397,25.76419],[88.39625,25.76254],[88.3925,25.76206],[88.39157,25.76063],[88.3922,25.75915],[88.39497,25.75723],[88.39478,25.75637],[88.38714,25.75827],[88.38551,25.75804],[88.38377,25.75541],[88.3841,25.7517],[88.38731,25.74698],[88.39458,25.74388],[88.39911,25.73756],[88.40071,25.72764],[88.40485,25.72367],[88.40643,25.72293],[88.40935,25.72591],[88.41324,25.73369],[88.41512,25.735],[88.4165,25.73455],[88.41835,25.72675],[88.42017,25.72425],[88.42342,25.72443],[88.43235,25.72743],[88.43367,25.7263],[88.43231,25.72116],[88.43338,25.71945],[88.43545,25.7186],[88.4349,25.71638],[88.43327,25.71489],[88.4264,25.71378],[88.42416,25.71166],[88.42386,25.70881],[88.4248,25.7071],[88.42787,25.70682],[88.43835,25.70816],[88.43949,25.70761],[88.44082,25.70488],[88.43576,25.70138],[88.43523,25.69459],[88.43629,25.69294],[88.44093,25.69239],[88.44243,25.69085],[88.44395,25.68732],[88.4429,25.68298],[88.44115,25.68258],[88.43901,25.68548],[88.43513,25.6882],[88.432,25.6891],[88.42963,25.68675],[88.42915,25.68395],[88.42971,25.68207],[88.43266,25.68083],[88.43417,25.67901],[88.43262,25.6749],[88.43569,25.67086],[88.43408,25.66988],[88.4312,25.67073],[88.42951,25.66969],[88.42878,25.6649],[88.42715,25.66615],[88.40714,25.66932],[88.40544,25.67091],[88.40506,25.67319],[88.40804,25.67816],[88.40646,25.68249],[88.40446,25.68311],[88.3969,25.68136],[88.39478,25.68181],[88.39352,25.68329],[88.39337,25.68962],[88.39223,25.69116],[88.38322,25.6942],[88.37497,25.6949],[88.37395,25.69678],[88.3745,25.70306],[88.37858,25.71255],[88.37639,25.71408],[88.37051,25.71422],[88.36699,25.71757],[88.36137,25.71789],[88.36134,25.72405],[88.36002,25.7257],[88.35734,25.72517],[88.34744,25.72809],[88.33978,25.73433],[88.33227,25.73629],[88.32608,25.73512],[88.32464,25.7362],[88.32243,25.74212],[88.31941,25.74416],[88.32008,25.74867],[88.31925,25.75072],[88.30389,25.75829],[88.29881,25.76379],[88.29328,25.76645],[88.29377,25.76993],[88.29251,25.77158],[88.28968,25.77328],[88.28111,25.77323],[88.27176,25.77992],[88.27449,25.78501],[88.27602,25.79026],[88.27561,25.79682],[88.27357,25.80371],[88.26993,25.80814],[88.27142,25.81049],[88.27226,25.81574],[88.27059,25.82355],[88.26908,25.82673],[88.26823,25.83534],[88.2692,25.83911],[88.27094,25.8418],[88.27362,25.84393],[88.28586,25.8489],[88.29297,25.85418],[88.29101,25.85765],[88.2915,25.85919],[88.29789,25.85877],[88.30316,25.85623],[88.31017,25.85638],[88.31155,25.85718],[88.31459,25.86193],[88.32543,25.88503],[88.3308,25.88733],[88.33223,25.89082],[88.33709,25.89415],[88.33801,25.89963],[88.33728,25.90836],[88.3328,25.91598],[88.32468,25.92512],[88.32375,25.9343],[88.32568,25.93979],[88.32761,25.94282],[88.33259,25.94866],[88.33694,25.95228],[88.33914,25.95582],[88.34127,25.96701],[88.34282,25.97118],[88.34794,25.97435],[88.34912,25.97629],[88.35047,25.98257],[88.35443,25.98151],[88.35701,25.97792],[88.35909,25.97679],[88.36139,25.97931],[88.36602,25.98059],[88.38132,25.96229],[88.38072,25.95675],[88.38218,25.95476],[88.38632,25.95398],[88.39445,25.9535],[88.40846,25.96001],[88.41866,25.96279],[88.4268,25.96385],[88.43307,25.96291],[88.43999,25.95558],[88.44313,25.95439],[88.44644,25.95532],[88.44813,25.95869],[88.44848,25.96183],[88.44955,25.9624],[88.45232,25.96064],[88.4537,25.95802],[88.4566,25.9557],[88.46286,25.95447],[88.47401,25.95434],[88.47934,25.95533],[88.48396,25.96014],[88.48659,25.96083],[88.4938,25.95795],[88.49912,25.95956],[88.50288,25.95929],[88.50481,25.9609],[88.5077,25.95988],[88.50984,25.95715],[88.51273,25.95647],[88.52004,25.96032],[88.52856,25.95932],[88.53407,25.96071],[88.53732,25.96266],[88.54089,25.96302]]]}},{"type":"Feature","properties":{"name":"Ranisankail","district_id":"thakurgaon","pcode":"559486","sql_upazila_id":"thakurgaon-ranisankail","sql_name_bn":"রাণীশংকৈল"},"geometry":{"type":"Polygon","coordinates":[[[88.13918,25.99291],[88.14677,26.00072],[88.14637,26.00516],[88.14302,26.00902],[88.144,26.01182],[88.15375,26.01781],[88.15757,26.0192],[88.17059,26.02014],[88.17681,26.01858],[88.18169,26.02066],[88.18711,26.02406],[88.18609,26.02827],[88.18382,26.0298],[88.18407,26.03242],[88.1865,26.03398],[88.19239,26.03424],[88.20007,26.03805],[88.20182,26.03965],[88.20361,26.04576],[88.20633,26.04977],[88.20778,26.05018],[88.21004,26.04808],[88.21249,26.04798],[88.2143,26.04953],[88.21622,26.05432],[88.2179,26.0556],[88.21916,26.05579],[88.22356,26.05312],[88.22544,26.05301],[88.22699,26.05639],[88.23058,26.05527],[88.23785,26.05503],[88.24066,26.05572],[88.24607,26.05359],[88.24756,26.04458],[88.25475,26.03583],[88.25828,26.03391],[88.26373,26.03406],[88.26636,26.0351],[88.2706,26.03843],[88.2728,26.0389],[88.27625,26.03743],[88.2787,26.03408],[88.27917,26.03026],[88.27857,26.0258],[88.27244,26.01071],[88.26685,26.00122],[88.26711,25.99859],[88.2729,25.99389],[88.27955,25.99245],[88.29256,25.9969],[88.29783,25.99721],[88.30411,25.99342],[88.30602,25.98778],[88.30953,25.98734],[88.31337,25.98501],[88.31544,25.98486],[88.31812,25.98596],[88.32162,25.98962],[88.32372,25.99528],[88.33111,25.99714],[88.33354,25.99898],[88.34395,25.99703],[88.34116,25.99142],[88.34431,25.98848],[88.34393,25.98688],[88.34514,25.9846],[88.34902,25.98399],[88.35047,25.98257],[88.34912,25.97629],[88.34794,25.97435],[88.34282,25.97118],[88.34127,25.96701],[88.33914,25.95582],[88.33694,25.95228],[88.33259,25.94866],[88.32761,25.94282],[88.32568,25.93979],[88.32375,25.9343],[88.32468,25.92512],[88.3328,25.91598],[88.33728,25.90836],[88.33801,25.89963],[88.33709,25.89415],[88.33223,25.89082],[88.3308,25.88733],[88.32543,25.88503],[88.31459,25.86193],[88.31155,25.85718],[88.31017,25.85638],[88.30316,25.85623],[88.29789,25.85877],[88.2915,25.85919],[88.29101,25.85765],[88.29297,25.85418],[88.28586,25.8489],[88.27362,25.84393],[88.27094,25.8418],[88.2692,25.83911],[88.26823,25.83534],[88.26908,25.82673],[88.27059,25.82355],[88.27226,25.81574],[88.27142,25.81049],[88.26993,25.80814],[88.26427,25.81182],[88.26302,25.81193],[88.26059,25.80935],[88.25941,25.80906],[88.25438,25.81108],[88.25258,25.81101],[88.25089,25.80993],[88.24899,25.80404],[88.2463,25.80357],[88.24304,25.80623],[88.24075,25.81021],[88.24062,25.81312],[88.23916,25.81574],[88.24208,25.8198],[88.242,25.82191],[88.23848,25.82623],[88.23191,25.82499],[88.22634,25.82502],[88.2217,25.82637],[88.21368,25.82957],[88.19976,25.83332],[88.19518,25.83632],[88.19165,25.83989],[88.18931,25.84433],[88.18847,25.8494],[88.18906,25.85482],[88.19073,25.85842],[88.20073,25.86145],[88.20478,25.86444],[88.20677,25.87591],[88.20657,25.87842],[88.20362,25.88074],[88.1949,25.88339],[88.19427,25.88508],[88.19352,25.89249],[88.19601,25.89793],[88.20098,25.904],[88.20165,25.9068],[88.20101,25.90948],[88.19894,25.91106],[88.19204,25.91165],[88.18966,25.91295],[88.18524,25.91777],[88.18384,25.92216],[88.18725,25.92851],[88.19711,25.93467],[88.19772,25.93621],[88.19601,25.93883],[88.19337,25.94041],[88.18613,25.94864],[88.1897,25.95847],[88.19017,25.96189],[88.18921,25.96668],[88.18783,25.96839],[88.18245,25.96408],[88.1804,25.96412],[88.17813,25.96566],[88.1774,25.97232],[88.17793,25.97734],[88.17447,25.98017],[88.16512,25.98263],[88.16436,25.98422],[88.16479,25.98576],[88.16225,25.99094],[88.16048,25.99179],[88.14781,25.98732],[88.1451,25.98776],[88.14265,25.98917],[88.13958,25.99248],[88.13918,25.99291]]]}},{"type":"Feature","properties":{"name":"Thakurgaon S.","district_id":"thakurgaon","pcode":"559494","sql_upazila_id":null,"sql_name_bn":null},"geometry":{"type":"Polygon","coordinates":[[[88.55589,26.17948],[88.55853,26.17481],[88.56344,26.17385],[88.56413,26.17266],[88.56194,26.16814],[88.56226,26.16592],[88.5668,26.16109],[88.56642,26.15772],[88.56938,26.15613],[88.57436,26.14981],[88.57836,26.14966],[88.58315,26.14642],[88.58604,26.14284],[88.58925,26.14244],[88.59396,26.14326],[88.59802,26.14224],[88.60538,26.13873],[88.61185,26.13504],[88.62091,26.12736],[88.62481,26.12292],[88.62645,26.11831],[88.62859,26.1162],[88.63174,26.11057],[88.63487,26.10812],[88.6367,26.10373],[88.64041,26.09861],[88.64193,26.09245],[88.64131,26.0887],[88.63744,26.07932],[88.62908,26.06259],[88.62564,26.0584],[88.6215,26.05966],[88.61937,26.05708],[88.61336,26.05456],[88.61167,26.05256],[88.6103,26.04742],[88.61125,26.04366],[88.6112,26.03898],[88.60852,26.0331],[88.60157,26.03017],[88.597,26.02616],[88.5947,26.02193],[88.59219,26.02073],[88.57934,26.02075],[88.57513,26.02182],[88.56879,26.02557],[88.55844,26.0281],[88.55782,26.02696],[88.55909,26.02303],[88.55816,26.01954],[88.55477,26.01731],[88.55083,26.01752],[88.54864,26.0166],[88.54446,26.007],[88.54447,26.00512],[88.54623,26.00422],[88.5463,26.00194],[88.5423,25.99896],[88.54306,25.99508],[88.53698,25.99323],[88.53535,25.99203],[88.5338,25.99003],[88.53212,25.98512],[88.53226,25.97753],[88.53335,25.97383],[88.54089,25.96302],[88.53732,25.96266],[88.53407,25.96071],[88.52856,25.95932],[88.52004,25.96032],[88.51273,25.95647],[88.50984,25.95715],[88.5077,25.95988],[88.50481,25.9609],[88.50288,25.95929],[88.49912,25.95956],[88.4938,25.95795],[88.48659,25.96083],[88.48396,25.96014],[88.47934,25.95533],[88.47401,25.95434],[88.46286,25.95447],[88.4566,25.9557],[88.4537,25.95802],[88.45232,25.96064],[88.44955,25.9624],[88.44848,25.96183],[88.44813,25.95869],[88.44644,25.95532],[88.44313,25.95439],[88.43999,25.95558],[88.43307,25.96291],[88.4268,25.96385],[88.41866,25.96279],[88.40846,25.96001],[88.39445,25.9535],[88.38632,25.95398],[88.38218,25.95476],[88.38072,25.95675],[88.38132,25.96229],[88.36602,25.98059],[88.36139,25.97931],[88.35909,25.97679],[88.35701,25.97792],[88.35443,25.98151],[88.35047,25.98257],[88.34902,25.98399],[88.34514,25.9846],[88.34393,25.98688],[88.34431,25.98848],[88.34116,25.99142],[88.34395,25.99703],[88.33354,25.99898],[88.33111,25.99714],[88.32372,25.99528],[88.32162,25.98962],[88.31812,25.98596],[88.31544,25.98486],[88.31337,25.98501],[88.30953,25.98734],[88.31196,25.99032],[88.31232,25.99409],[88.3067,26.00187],[88.3106,26.00218],[88.31177,26.00435],[88.31157,26.00617],[88.30748,26.00912],[88.30609,26.01362],[88.30555,26.03187],[88.30746,26.03907],[88.31397,26.04065],[88.31578,26.04276],[88.31956,26.05088],[88.32116,26.05881],[88.32628,26.06374],[88.33149,26.07569],[88.33274,26.07649],[88.33582,26.07474],[88.33839,26.07624],[88.34193,26.08241],[88.34188,26.09251],[88.34417,26.09896],[88.34823,26.10303],[88.354,26.1046],[88.3549,26.09924],[88.35622,26.09908],[88.35866,26.10103],[88.36226,26.10743],[88.36639,26.10968],[88.36844,26.1151],[88.36806,26.1163],[88.36617,26.11686],[88.35387,26.11686],[88.35212,26.1176],[88.35291,26.12245],[88.35583,26.12805],[88.35532,26.13187],[88.35098,26.13356],[88.34212,26.13426],[88.34073,26.13534],[88.3456,26.14432],[88.34959,26.14833],[88.35368,26.16015],[88.35493,26.1621],[88.35818,26.16337],[88.35956,26.1648],[88.36359,26.17252],[88.36172,26.17365],[88.35418,26.17425],[88.35518,26.17556],[88.3575,26.17643],[88.35987,26.17906],[88.3598,26.18038],[88.35836,26.18151],[88.35132,26.18342],[88.35162,26.18564],[88.34823,26.18624],[88.34858,26.19088],[88.35147,26.19043],[88.35566,26.19456],[88.35905,26.19492],[88.36081,26.19373],[88.3614,26.18922],[88.36861,26.18897],[88.37403,26.19926],[88.37572,26.20001],[88.38237,26.19941],[88.38614,26.20143],[88.38859,26.20047],[88.39619,26.20004],[88.39771,26.19833],[88.39886,26.19208],[88.40163,26.19157],[88.4079,26.19245],[88.40989,26.1936],[88.40964,26.19645],[88.41082,26.19851],[88.41817,26.1974],[88.42494,26.19919],[88.43743,26.19942],[88.43864,26.19839],[88.43933,26.19577],[88.44167,26.19424],[88.44749,26.19529],[88.45033,26.1949],[88.4585,26.19157],[88.46464,26.19061],[88.46722,26.19098],[88.46973,26.19218],[88.46827,26.1964],[88.46883,26.1972],[88.47172,26.19641],[88.4731,26.19704],[88.47221,26.20046],[88.47334,26.20166],[88.47647,26.20145],[88.48225,26.20328],[88.48752,26.20234],[88.49072,26.20355],[88.49285,26.20476],[88.49766,26.21242],[88.49992,26.2142],[88.50834,26.2128],[88.52574,26.2067],[88.52349,26.20321],[88.52337,26.20082],[88.5251,26.1905],[88.5247,26.1792],[88.52721,26.1759],[88.5296,26.1758],[88.53399,26.17712],[88.54583,26.18646],[88.54897,26.18693],[88.55128,26.18595],[88.55212,26.18294],[88.55137,26.17963],[88.55344,26.17958],[88.55589,26.17948]]]}}]}