{"type":"FeatureCollection","metadata":{"source":"Natural Earth 1:50m rivers and lake centerlines, clipped to the user-provided Bangladesh 2020 district polygons","upstream":"https://www.naturalearthdata.com/downloads/50m-physical-vectors/50m-rivers-lake-centerlines/","license":"Public domain; source credited voluntarily","reference_date":"Natural Earth rivers v5.0.0; district mask reference 2020-11-13","note":"Approximate geographic context only; never used to locate incidents or define administrative boundaries."},"features":[{"type":"Feature","properties":{"source_name":"Brahmaputra","representation":"generalized reference; river labels omitted because local names can differ"},"geometry":{"type":"MultiLineString","coordinates":[[[89.73926,24.3302],[89.71383,24.13514],[89.70991,24.02014],[89.70938,24.00446],[89.70794,23.96241],[89.74442,23.85867],[89.7668,23.83352],[89.77219,23.82745],[89.86752,23.72026],[89.9579,23.64931],[89.99392,23.62104],[90.05483,23.58499],[90.07438,23.57342],[90.0891,23.56471],[90.15695,23.52454],[90.15987,23.5228],[90.26698,23.4594]],[[89.73926,24.3302],[89.78481,24.22632],[89.80871,24.17181],[89.92292,24.0821],[90.02741,24.02195],[90.11567,23.97115],[90.21411,23.86909],[90.21543,23.83868],[90.21814,23.77594],[90.22588,23.76355],[90.24393,23.73465],[90.29137,23.74527],[90.35545,23.70868],[90.44155,23.61909],[90.47627,23.58298],[90.49778,23.57141],[90.56164,23.53709]],[[89.82968,25.79814],[89.76184,25.68236],[89.69895,25.49012],[89.69927,25.4687],[89.69969,25.44079],[89.70009,25.41375],[89.70143,25.32455],[89.68454,25.2007],[89.68014,25.16841],[89.64541,25.08465],[89.62789,25.04241],[89.62123,25.02633],[89.61265,24.94837],[89.61957,24.89486],[89.6749,24.77084],[89.72913,24.6493],[89.74439,24.47457],[89.74606,24.45539],[89.74787,24.43465],[89.74868,24.4254],[89.7499,24.41143],[89.73926,24.3302]]]}},{"type":"Feature","properties":{"source_name":"Ganges","representation":"generalized reference; river labels omitted because local names can differ"},"geometry":{"type":"MultiLineString","coordinates":[[[89.47714,22.29839],[89.42527,22.49553],[89.37215,22.58118],[89.2997,22.61885]],[[89.2997,22.61885],[89.26079,22.57356],[89.25752,22.49482],[89.25583,22.45416],[89.25546,22.44535],[89.28647,22.30758],[89.29609,22.28653],[89.30434,22.26846],[89.33031,22.21161]],[[89.33276,22.20625],[89.35375,22.1603],[89.36765,22.10301]],[[89.36935,22.096],[89.37458,22.07445]],[[89.37735,22.06306],[89.37856,22.05809],[89.35869,21.99344]],[[89.35146,21.93335],[89.35074,21.89588]],[[89.34883,21.87433],[89.34096,21.82232]],[[88.93871,22.58911],[88.95403,22.55252]],[[88.97383,22.50375],[88.9764,22.49602]],[[88.99265,22.4471],[88.99641,22.43578]],[[88.99924,22.42728],[89.04995,22.27464],[89.05408,22.21255]],[[89.05186,22.10191],[89.05144,22.09317]],[[90.07438,23.57342],[90.07522,23.56432],[90.09288,23.37424],[90.09569,23.34394],[90.09603,23.34031],[90.09913,23.33153],[90.12724,23.25194],[90.18088,23.20592],[90.22843,23.17848],[90.24362,23.13825],[90.26522,23.11559],[90.29876,23.08807],[90.30212,23.05451],[90.31524,23.0156],[90.32743,23.00127],[90.36165,22.96105],[90.36134,22.87587],[90.39431,22.77484],[90.43503,22.75192]],[[89.10937,23.99192],[89.12782,23.96094],[89.21857,23.80847],[89.2979,23.73603],[89.30176,23.73251],[89.31195,23.72755],[89.38124,23.6938],[89.39906,23.67931],[89.43694,23.64851],[89.44718,23.64019],[89.44893,23.6379],[89.47439,23.60461],[89.48319,23.59309],[89.49779,23.57401],[89.49958,23.57166],[89.50652,23.55577],[89.51857,23.52814],[89.52005,23.52477],[89.51247,23.5079],[89.50868,23.49944],[89.52687,23.48337],[89.57472,23.47655],[89.59834,23.44309],[89.59782,23.38304],[89.60674,23.35915],[89.61503,23.33697],[89.63249,23.30108],[89.63375,23.28902],[89.63669,23.26077],[89.63756,23.25248],[89.64979,23.23618],[89.65973,23.22292],[89.68603,23.20675],[89.70949,23.19233],[89.71197,23.17637],[89.71864,23.13339],[89.72351,23.12157],[89.76535,23.02007],[89.78297,23.00037],[89.79443,22.98756],[89.8894,22.8814],[89.92627,22.84018],[89.93567,22.82227],[90.00756,22.68523],[90.01356,22.56348],[89.98513,22.46638]],[[89.10937,23.99192],[89.17075,23.95167],[89.19976,23.93265],[89.25165,23.93146],[89.28089,23.93079],[89.36431,23.90581],[89.37995,23.90113],[89.40206,23.89026],[89.49705,23.84356],[89.60402,23.82309],[89.72513,23.8439],[89.74928,23.84805]],[[88.39696,24.38926],[88.40764,24.3772]],[[88.73701,23.95156],[88.80526,23.92792],[88.86443,23.85591],[88.86451,23.85342],[88.86517,23.8331],[88.86784,23.75173],[88.83719,23.66579],[88.77239,23.5981],[88.76371,23.53066],[88.78445,23.50121]],[[88.79582,23.48508],[88.81105,23.46348],[88.8528,23.44071],[88.88468,23.42345],[88.89379,23.4088],[88.90551,23.38994],[88.92597,23.36348],[88.97568,23.33924],[88.98892,23.33279],[89.00173,23.26336],[89.02752,23.18608],[89.08875,23.1126],[89.11294,23.04048],[89.09981,22.96968],[89.10639,22.9325],[89.1133,22.89343],[89.11346,22.89256],[89.11943,22.88021],[89.1268,22.86501],[89.145,22.82744],[89.15331,22.81027],[89.15387,22.80913],[89.16099,22.80125],[89.20844,22.74874],[89.26843,22.7075],[89.27551,22.70267],[89.27487,22.69937],[89.27086,22.67895],[89.27978,22.66037],[89.28941,22.64029],[89.2997,22.61885]],[[88.39696,24.38926],[88.41833,24.38029]],[[88.50467,24.34575],[88.5191,24.34367]],[[88.52827,24.34236],[88.64232,24.32596],[88.66045,24.31456]],[[88.735,24.22483],[88.74221,24.19341],[88.76324,24.15591],[88.76976,24.14429],[88.77976,24.13968],[88.80624,24.12749],[88.85828,24.13109],[88.88785,24.14156],[88.92597,24.15506],[88.9854,24.12212],[89.00964,24.10868],[89.02668,24.08873],[89.10937,23.99192]],[[88.18975,24.47178],[88.22503,24.46063],[88.28715,24.47975],[88.31365,24.46613],[88.33753,24.45386],[88.39696,24.38926]]]}}]}